<?xml version="1.0" encoding="UTF-8" standalone="yes"?>
<!-- Generated by Christian Peschs RouteConverter. See https://www.routeconverter.com -->

<gpx xmlns:gpxtpx1="http://www.garmin.com/xmlschemas/TrackPointExtension/v1" xmlns="http://www.topografix.com/GPX/1/1" xmlns:trp="http://www.garmin.com/xmlschemas/TripExtensions/v1" xmlns:gpxx="http://www.garmin.com/xmlschemas/GpxExtensions/v3" xmlns:gpxtpx="http://www.garmin.com/xmlschemas/TrackPointExtension/v2" version="1.1" creator="RouteConverter 2.26">
    <trk>
        <name>IT Färöer – Wanderung 1/Wanderung 1</name>
        <trkseg>
            <trkpt lat="62.0001693" lon="-6.8070173">
                <ele>0.0</ele>
                <name>Position 1</name>
            </trkpt>
            <trkpt lat="61.9953437" lon="-6.8140984">
                <ele>0.0</ele>
                <name>Position 2</name>
            </trkpt>
            <trkpt lat="61.994054" lon="-6.8175316">
                <ele>0.0</ele>
                <name>Position 3</name>
            </trkpt>
            <trkpt lat="61.9922806" lon="-6.8199348">
                <ele>0.0</ele>
                <name>Position 4</name>
            </trkpt>
            <trkpt lat="61.9913939" lon="-6.8216515">
                <ele>0.0</ele>
                <name>Position 5</name>
            </trkpt>
            <trkpt lat="61.9903459" lon="-6.8245697">
                <ele>0.0</ele>
                <name>Position 6</name>
            </trkpt>
            <trkpt lat="61.9887335" lon="-6.824913">
                <ele>0.0</ele>
                <name>Position 7</name>
            </trkpt>
            <trkpt lat="61.9864761" lon="-6.8235397">
                <ele>0.0</ele>
                <name>Position 8</name>
            </trkpt>
            <trkpt lat="61.9837347" lon="-6.8216515">
                <ele>0.0</ele>
                <name>Position 9</name>
            </trkpt>
            <trkpt lat="61.9814769" lon="-6.8195915">
                <ele>0.0</ele>
                <name>Position 10</name>
            </trkpt>
            <trkpt lat="61.9784124" lon="-6.8195915">
                <ele>0.0</ele>
                <name>Position 11</name>
            </trkpt>
            <trkpt lat="61.9764768" lon="-6.8206215">
                <ele>0.0</ele>
                <name>Position 12</name>
            </trkpt>
            <trkpt lat="61.9737345" lon="-6.8185616">
                <ele>0.0</ele>
                <name>Position 13</name>
            </trkpt>
            <trkpt lat="61.9693786" lon="-6.814785">
                <ele>0.0</ele>
                <name>Position 14</name>
            </trkpt>
            <trkpt lat="61.9672004" lon="-6.8122101">
                <ele>0.0</ele>
                <name>Position 15</name>
            </trkpt>
            <trkpt lat="61.964538" lon="-6.8094635">
                <ele>0.0</ele>
                <name>Position 16</name>
            </trkpt>
            <trkpt lat="61.9607456" lon="-6.805172">
                <ele>0.0</ele>
                <name>Position 17</name>
            </trkpt>
            <trkpt lat="61.9577598" lon="-6.8001938">
                <ele>0.0</ele>
                <name>Position 18</name>
            </trkpt>
            <trkpt lat="61.9571948" lon="-6.8024254">
                <ele>0.0</ele>
                <name>Position 19</name>
            </trkpt>
            <trkpt lat="61.9544508" lon="-6.7977905">
                <ele>0.0</ele>
                <name>Position 20</name>
            </trkpt>
            <trkpt lat="61.9539615" lon="-6.7966104">
                <ele>0.0</ele>
                <name>Position 21</name>
            </trkpt>
            <trkpt lat="61.9534671" lon="-6.7951941">
                <ele>0.0</ele>
                <name>Position 22</name>
            </trkpt>
            <trkpt lat="61.9529929" lon="-6.7939389">
                <ele>0.0</ele>
                <name>Position 23</name>
            </trkpt>
            <trkpt lat="61.9526953" lon="-6.7931664">
                <ele>0.0</ele>
                <name>Position 24</name>
            </trkpt>
            <trkpt lat="61.9523522" lon="-6.7926407">
                <ele>0.0</ele>
                <name>Position 25</name>
            </trkpt>
            <trkpt lat="61.9518982" lon="-6.7925441">
                <ele>0.0</ele>
                <name>Position 26</name>
            </trkpt>
        </trkseg>
    </trk>
</gpx>
