<?xml version="1.0" encoding="UTF-8" standalone="yes"?>
<!-- Generated by Christian Peschs RouteConverter. See https://www.routeconverter.com -->

<gpx xmlns:gpxtpx1="http://www.garmin.com/xmlschemas/TrackPointExtension/v1" xmlns="http://www.topografix.com/GPX/1/1" xmlns:trp="http://www.garmin.com/xmlschemas/TripExtensions/v1" xmlns:gpxx="http://www.garmin.com/xmlschemas/GpxExtensions/v3" xmlns:gpxtpx="http://www.garmin.com/xmlschemas/TrackPointExtension/v2" version="1.1" creator="RouteConverter 2.26">
    <trk>
        <name>IT Färöer – Stadtspaziergang 1 Tórshavn/Stadtspaziergang 1</name>
        <trkseg>
            <trkpt lat="62.0092494" lon="-6.7691982">
                <ele>0.0</ele>
                <name>Position 1</name>
            </trkpt>
            <trkpt lat="62.0093149" lon="-6.7694771">
                <ele>0.0</ele>
                <name>Position 2</name>
            </trkpt>
            <trkpt lat="62.0094357" lon="-6.7697239">
                <ele>0.0</ele>
                <name>Position 3</name>
            </trkpt>
            <trkpt lat="62.0095868" lon="-6.7698526">
                <ele>0.0</ele>
                <name>Position 4</name>
            </trkpt>
            <trkpt lat="62.0097379" lon="-6.7701316">
                <ele>0.0</ele>
                <name>Position 5</name>
            </trkpt>
            <trkpt lat="62.0098738" lon="-6.770432">
                <ele>0.0</ele>
                <name>Position 6</name>
            </trkpt>
            <trkpt lat="62.01004" lon="-6.7708182">
                <ele>0.0</ele>
                <name>Position 7</name>
            </trkpt>
            <trkpt lat="62.0102061" lon="-6.7715907">
                <ele>0.0</ele>
                <name>Position 8</name>
            </trkpt>
            <trkpt lat="62.0102716" lon="-6.7720842">
                <ele>0.0</ele>
                <name>Position 9</name>
            </trkpt>
            <trkpt lat="62.0104931" lon="-6.772449">
                <ele>0.0</ele>
                <name>Position 10</name>
            </trkpt>
            <trkpt lat="62.0107046" lon="-6.7728567">
                <ele>0.0</ele>
                <name>Position 11</name>
            </trkpt>
            <trkpt lat="62.0109262" lon="-6.7731571">
                <ele>0.0</ele>
                <name>Position 12</name>
            </trkpt>
            <trkpt lat="62.0111376" lon="-6.7735434">
                <ele>0.0</ele>
                <name>Position 13</name>
            </trkpt>
            <trkpt lat="62.0113894" lon="-6.7740154">
                <ele>0.0</ele>
                <name>Position 14</name>
            </trkpt>
            <trkpt lat="62.011621" lon="-6.7743373">
                <ele>0.0</ele>
                <name>Position 15</name>
            </trkpt>
            <trkpt lat="62.0118526" lon="-6.774509">
                <ele>0.0</ele>
                <name>Position 16</name>
            </trkpt>
            <trkpt lat="62.0120439" lon="-6.7746592">
                <ele>0.0</ele>
                <name>Position 17</name>
            </trkpt>
            <trkpt lat="62.0123259" lon="-6.7751741">
                <ele>0.0</ele>
                <name>Position 18</name>
            </trkpt>
            <trkpt lat="62.0124769" lon="-6.7756033">
                <ele>0.0</ele>
                <name>Position 19</name>
            </trkpt>
            <trkpt lat="62.0125676" lon="-6.776011">
                <ele>0.0</ele>
                <name>Position 20</name>
            </trkpt>
            <trkpt lat="62.0127689" lon="-6.7763329">
                <ele>0.0</ele>
                <name>Position 21</name>
            </trkpt>
            <trkpt lat="62.0132523" lon="-6.7766333">
                <ele>0.0</ele>
                <name>Position 22</name>
            </trkpt>
            <trkpt lat="62.0134134" lon="-6.7765045">
                <ele>0.0</ele>
                <name>Position 23</name>
            </trkpt>
            <trkpt lat="62.0135846" lon="-6.7767406">
                <ele>0.0</ele>
                <name>Position 24</name>
            </trkpt>
            <trkpt lat="62.0137557" lon="-6.7768264">
                <ele>0.0</ele>
                <name>Position 25</name>
            </trkpt>
            <trkpt lat="62.0140075" lon="-6.7769551">
                <ele>0.0</ele>
                <name>Position 26</name>
            </trkpt>
            <trkpt lat="62.0141988" lon="-6.7769551">
                <ele>0.0</ele>
                <name>Position 27</name>
            </trkpt>
            <trkpt lat="62.0143498" lon="-6.777041">
                <ele>0.0</ele>
                <name>Position 28</name>
            </trkpt>
            <trkpt lat="62.0145109" lon="-6.7775345">
                <ele>0.0</ele>
                <name>Position 29</name>
            </trkpt>
            <trkpt lat="62.0147224" lon="-6.7778134">
                <ele>0.0</ele>
                <name>Position 30</name>
            </trkpt>
            <trkpt lat="62.0149238" lon="-6.7780709">
                <ele>0.0</ele>
                <name>Position 31</name>
            </trkpt>
            <trkpt lat="62.0148331" lon="-6.7781675">
                <ele>0.0</ele>
                <name>Position 32</name>
            </trkpt>
            <trkpt lat="62.0147173" lon="-6.7781889">
                <ele>0.0</ele>
                <name>Position 33</name>
            </trkpt>
            <trkpt lat="62.0146167" lon="-6.7781246">
                <ele>0.0</ele>
                <name>Position 34</name>
            </trkpt>
            <trkpt lat="62.014526" lon="-6.7779636">
                <ele>0.0</ele>
                <name>Position 35</name>
            </trkpt>
            <trkpt lat="62.0144153" lon="-6.777792">
                <ele>0.0</ele>
                <name>Position 36</name>
            </trkpt>
        </trkseg>
    </trk>
</gpx>
