<?xml version="1.0" encoding="UTF-8" standalone="yes"?>
<!-- Generated by Christian Peschs RouteConverter. See https://www.routeconverter.com -->

<gpx xmlns:gpxtpx1="http://www.garmin.com/xmlschemas/TrackPointExtension/v1" xmlns="http://www.topografix.com/GPX/1/1" xmlns:trp="http://www.garmin.com/xmlschemas/TripExtensions/v1" xmlns:gpxx="http://www.garmin.com/xmlschemas/GpxExtensions/v3" xmlns:gpxtpx="http://www.garmin.com/xmlschemas/TrackPointExtension/v2" version="1.1" creator="RouteConverter 2.26">
    <metadata>
        <name>IT-Faeroeer-2023-Sehenswuerdigkeiten</name>
    </metadata>
    <wpt lat="62.007856" lon="-6.763144">
        <ele>0.0</ele>
        <name>{1} Festung Skansin</name>
    </wpt>
    <wpt lat="62.006277" lon="-6.762835">
        <ele>0.0</ele>
        <name>{2} Tinganes</name>
    </wpt>
    <wpt lat="62.009265" lon="-6.772513">
        <ele>0.0</ele>
        <name>{3} Westhafen (Vestaravág)</name>
    </wpt>
    <wpt lat="62.012084" lon="-6.769343">
        <ele>0.0</ele>
        <name>{4} Kongaminnið (Andenken an den König)</name>
    </wpt>
    <wpt lat="62.016487" lon="-6.780213">
        <ele>0.0</ele>
        <name>{5} Stadtpark Viðarlundin</name>
    </wpt>
    <wpt lat="62.017796" lon="-6.780522">
        <ele>0.0</ele>
        <name>{6} Listasavn Føroya (Nationalgalerie der Färöer)</name>
    </wpt>
    <wpt lat="62.02206" lon="-6.784673">
        <ele>0.0</ele>
        <name>{7} Norðurlandahúsið (Nordisches Haus)</name>
    </wpt>
    <wpt lat="62.032098" lon="-6.765077">
        <ele>0.0</ele>
        <name>{8} Tjóðsavn (Nationalmuseum der Färöer)</name>
    </wpt>
    <wpt lat="62.029525" lon="-6.75753">
        <ele>0.0</ele>
        <name>{9} Freilichtmuseum Hoyvíksgarður</name>
    </wpt>
    <wpt lat="61.999357" lon="-6.776707">
        <ele>0.0</ele>
        <name>{10} Føroya Sjósavn (Meeresmuseum)</name>
    </wpt>
    <wpt lat="62.009556" lon="-6.777172">
        <ele>0.0</ele>
        <name>{11} Alter Friedhof (Gamli Kirkjugarður)</name>
    </wpt>
    <wpt lat="61.979531" lon="-6.648299">
        <ele>0.0</ele>
        <name>{12} Insel Nólsoy</name>
    </wpt>
    <wpt lat="62.15254" lon="-7.075428">
        <ele>0.0</ele>
        <name>{13} Insel Streymoy</name>
    </wpt>
    <wpt lat="61.953812" lon="-6.798303">
        <ele>0.0</ele>
        <name>{14} Kirkjubøur</name>
    </wpt>
    <wpt lat="62.116221" lon="-6.905731">
        <ele>0.0</ele>
        <name>{15} Kollafjørður</name>
    </wpt>
    <wpt lat="62.116835" lon="-7.039231">
        <ele>0.0</ele>
        <name>{16} Leynar und Kvívík</name>
    </wpt>
    <wpt lat="62.153369" lon="-7.15033">
        <ele>0.0</ele>
        <name>{17} Vestmanna</name>
    </wpt>
    <wpt lat="62.172801" lon="-6.973944">
        <ele>0.0</ele>
        <name>{18} Við Áir und Hvalvík</name>
    </wpt>
    <wpt lat="62.246498" lon="-7.17684">
        <ele>0.0</ele>
        <name>{19} Saksun</name>
    </wpt>
    <wpt lat="62.246841" lon="-7.176242">
        <ele>0.0</ele>
        <name>{20} Freilichtmuseum Dúvugarðar</name>
    </wpt>
    <wpt lat="62.27579" lon="-7.093168">
        <ele>0.0</ele>
        <name>{21} Haldarsvík und Tjørnuvík</name>
    </wpt>
    <wpt lat="62.221239" lon="-6.881893">
        <ele>0.0</ele>
        <name>{22} Insel Eysturoy</name>
    </wpt>
    <wpt lat="62.300218" lon="-7.098014">
        <ele>0.0</ele>
        <name>{23} Eiði</name>
    </wpt>
    <wpt lat="62.324909" lon="-6.945313">
        <ele>0.0</ele>
        <name>{24} Gjógv</name>
    </wpt>
    <wpt lat="62.281812" lon="-6.913562">
        <ele>0.0</ele>
        <name>{25} Elduvík</name>
    </wpt>
    <wpt lat="62.276329" lon="-6.855419">
        <ele>0.0</ele>
        <name>{26} Oyndarfjørður</name>
    </wpt>
    <wpt lat="62.243795" lon="-6.813109">
        <ele>0.0</ele>
        <name>{27} Fuglafjørður</name>
    </wpt>
    <wpt lat="62.210709" lon="-6.706501">
        <ele>0.0</ele>
        <name>{28} Leirvík</name>
    </wpt>
    <wpt lat="62.193387" lon="-6.74626">
        <ele>0.0</ele>
        <name>{29} Gøta</name>
    </wpt>
    <wpt lat="62.10697" lon="-6.72048">
        <ele>0.0</ele>
        <name>{30} Runavík, Toftir und Æðuvík</name>
    </wpt>
    <wpt lat="62.098201" lon="-7.2145">
        <ele>0.0</ele>
        <name>{31} Insel Vágar</name>
    </wpt>
    <wpt lat="62.059027" lon="-7.146743">
        <ele>0.0</ele>
        <name>{32} Sandavágur und Miðvágur</name>
    </wpt>
    <wpt lat="62.024503" lon="-7.238957">
        <ele>0.0</ele>
        <name>{33} See Sørvágsvatn und Wasserfall Bøsdalafossur</name>
    </wpt>
    <wpt lat="62.071293" lon="-7.305866">
        <ele>0.0</ele>
        <name>{34} Sørvágur</name>
    </wpt>
    <wpt lat="62.086015" lon="-7.36822">
        <ele>0.0</ele>
        <name>{35} Bøur und Gásadalur</name>
    </wpt>
    <wpt lat="62.107083" lon="-7.597474">
        <ele>0.0</ele>
        <name>{36} Vogelinsel Mykines</name>
    </wpt>
    <wpt lat="62.284466" lon="-6.550277">
        <ele>0.0</ele>
        <name>{37} Inseln Borðoy und Kunoy</name>
    </wpt>
    <wpt lat="62.227192" lon="-6.577906">
        <ele>0.0</ele>
        <name>{38} Klaksvík</name>
    </wpt>
    <wpt lat="62.315487" lon="-6.763268">
        <ele>0.0</ele>
        <name>{39} Insel Kalsoy</name>
    </wpt>
    <wpt lat="62.334497" lon="-6.766313">
        <ele>0.0</ele>
        <name>{40} Mikladalur</name>
    </wpt>
    <wpt lat="62.360621" lon="-6.789722">
        <ele>0.0</ele>
        <name>{41} Trøllanes</name>
    </wpt>
    <wpt lat="62.328336" lon="-6.494508">
        <ele>0.0</ele>
        <name>{42} Insel Viðoy</name>
    </wpt>
    <wpt lat="62.360322" lon="-6.534988">
        <ele>0.0</ele>
        <name>{43} Viðareiði</name>
    </wpt>
    <wpt lat="62.270109" lon="-6.352577">
        <ele>0.0</ele>
        <name>{44} Inseln Svínoy und Fugloy</name>
    </wpt>
    <wpt lat="61.849861" lon="-6.774524">
        <ele>0.0</ele>
        <name>{45} Insel Sandoy</name>
    </wpt>
    <wpt lat="61.904461" lon="-6.888534">
        <ele>0.0</ele>
        <name>{46} Skopun</name>
    </wpt>
    <wpt lat="61.833166" lon="-6.815042">
        <ele>0.0</ele>
        <name>{47} Sandur</name>
    </wpt>
    <wpt lat="61.794924" lon="-6.748719">
        <ele>0.0</ele>
        <name>{48} Skarvanes</name>
    </wpt>
    <wpt lat="61.82996" lon="-6.670898">
        <ele>0.0</ele>
        <name>{49} Skálavík, Húsavík und Dalur</name>
    </wpt>
    <wpt lat="61.771242" lon="-6.818929">
        <ele>0.0</ele>
        <name>{50} Insel Skúvoy</name>
    </wpt>
    <wpt lat="61.518067" lon="-6.83194">
        <ele>0.0</ele>
        <name>{51} Insel Suðuroy</name>
    </wpt>
    <wpt lat="61.555749" lon="-6.811948">
        <ele>0.0</ele>
        <name>{52} Tvøroyri</name>
    </wpt>
    <wpt lat="61.598319" lon="-6.957014">
        <ele>0.0</ele>
        <name>{53} Hvalba</name>
    </wpt>
    <wpt lat="61.523066" lon="-6.878312">
        <ele>0.0</ele>
        <name>{54} Fámjin</name>
    </wpt>
    <wpt lat="61.476171" lon="-6.848307">
        <ele>0.0</ele>
        <name>{55} Vágur</name>
    </wpt>
    <wpt lat="61.443172" lon="-6.775244">
        <ele>0.0</ele>
        <name>{56} Lopra</name>
    </wpt>
    <wpt lat="61.405225" lon="-6.7128">
        <ele>0.0</ele>
        <name>{57} Sumba</name>
    </wpt>
</gpx>
