<?xml version="1.0" encoding="UTF-8" standalone="yes"?>
<!-- Generated by Christian Peschs RouteConverter. See https://www.routeconverter.com -->

<gpx xmlns:gpxtpx1="http://www.garmin.com/xmlschemas/TrackPointExtension/v1" xmlns="http://www.topografix.com/GPX/1/1" xmlns:trp="http://www.garmin.com/xmlschemas/TripExtensions/v1" xmlns:gpxx="http://www.garmin.com/xmlschemas/GpxExtensions/v3" xmlns:gpxtpx="http://www.garmin.com/xmlschemas/TrackPointExtension/v2" version="1.1" creator="RouteConverter 2.26">
    <trk>
        <name>IT Färöer – Wanderung 2/Wanderung 2</name>
        <trkseg>
            <trkpt lat="62.2419903" lon="-7.1788788">
                <ele>0.0</ele>
                <name>Position 1</name>
            </trkpt>
            <trkpt lat="62.2453479" lon="-7.1843719">
                <ele>0.0</ele>
                <name>Position 2</name>
            </trkpt>
            <trkpt lat="62.2481457" lon="-7.1855736">
                <ele>0.0</ele>
                <name>Position 3</name>
            </trkpt>
            <trkpt lat="62.2515027" lon="-7.1871185">
                <ele>0.0</ele>
                <name>Position 4</name>
            </trkpt>
            <trkpt lat="62.2554986" lon="-7.1883202">
                <ele>0.0</ele>
                <name>Position 5</name>
            </trkpt>
            <trkpt lat="62.2598936" lon="-7.1891785">
                <ele>0.0</ele>
                <name>Position 6</name>
            </trkpt>
            <trkpt lat="62.2637286" lon="-7.1895218">
                <ele>0.0</ele>
                <name>Position 7</name>
            </trkpt>
            <trkpt lat="62.2680424" lon="-7.1886635">
                <ele>0.0</ele>
                <name>Position 8</name>
            </trkpt>
            <trkpt lat="62.2704388" lon="-7.1866035">
                <ele>0.0</ele>
                <name>Position 9</name>
            </trkpt>
            <trkpt lat="62.2721959" lon="-7.1836853">
                <ele>0.0</ele>
                <name>Position 10</name>
            </trkpt>
            <trkpt lat="62.2745121" lon="-7.1783638">
                <ele>0.0</ele>
                <name>Position 11</name>
            </trkpt>
            <trkpt lat="62.2758697" lon="-7.1757889">
                <ele>0.0</ele>
                <name>Position 12</name>
            </trkpt>
            <trkpt lat="62.2775467" lon="-7.172184">
                <ele>0.0</ele>
                <name>Position 13</name>
            </trkpt>
            <trkpt lat="62.2793035" lon="-7.1668625">
                <ele>0.0</ele>
                <name>Position 14</name>
            </trkpt>
            <trkpt lat="62.2809004" lon="-7.1623993">
                <ele>0.0</ele>
                <name>Position 15</name>
            </trkpt>
            <trkpt lat="62.2827368" lon="-7.1567345">
                <ele>0.0</ele>
                <name>Position 16</name>
            </trkpt>
            <trkpt lat="62.2848925" lon="-7.1517563">
                <ele>0.0</ele>
                <name>Position 17</name>
            </trkpt>
            <trkpt lat="62.2859303" lon="-7.1462631">
                <ele>0.0</ele>
                <name>Position 18</name>
            </trkpt>
            <trkpt lat="62.2872076" lon="-7.1431732">
                <ele>0.0</ele>
                <name>Position 19</name>
            </trkpt>
            <trkpt lat="62.2891234" lon="-7.1399117">
                <ele>0.0</ele>
                <name>Position 20</name>
            </trkpt>
            <trkpt lat="62.2907199" lon="-7.1371651">
                <ele>0.0</ele>
                <name>Position 21</name>
            </trkpt>
            <trkpt lat="62.2915181" lon="-7.1325302">
                <ele>0.0</ele>
                <name>Position 22</name>
            </trkpt>
            <trkpt lat="62.2904006" lon="-7.1289253">
                <ele>0.0</ele>
                <name>Position 23</name>
            </trkpt>
            <trkpt lat="62.2893629" lon="-7.1248055">
                <ele>0.0</ele>
                <name>Position 24</name>
            </trkpt>
            <trkpt lat="62.288884" lon="-7.1182823">
                <ele>0.0</ele>
                <name>Position 25</name>
            </trkpt>
            <trkpt lat="62.2874471" lon="-7.1138191">
                <ele>0.0</ele>
                <name>Position 26</name>
            </trkpt>
            <trkpt lat="62.2860101" lon="-7.1107292">
                <ele>0.0</ele>
                <name>Position 27</name>
            </trkpt>
            <trkpt lat="62.2840143" lon="-7.107296">
                <ele>0.0</ele>
                <name>Position 28</name>
            </trkpt>
            <trkpt lat="62.2819384" lon="-7.106266">
                <ele>0.0</ele>
                <name>Position 29</name>
            </trkpt>
            <trkpt lat="62.2800221" lon="-7.1042061">
                <ele>0.0</ele>
                <name>Position 30</name>
            </trkpt>
            <trkpt lat="62.2786646" lon="-7.1004295">
                <ele>0.0</ele>
                <name>Position 31</name>
            </trkpt>
            <trkpt lat="62.2777064" lon="-7.0975113">
                <ele>0.0</ele>
                <name>Position 32</name>
            </trkpt>
            <trkpt lat="62.2765086" lon="-7.0939064">
                <ele>0.0</ele>
                <name>Position 33</name>
            </trkpt>
            <trkpt lat="62.2744322" lon="-7.0937347">
                <ele>0.0</ele>
                <name>Position 34</name>
            </trkpt>
            <trkpt lat="62.2721959" lon="-7.0957947">
                <ele>0.0</ele>
                <name>Position 35</name>
            </trkpt>
            <trkpt lat="62.2723557" lon="-7.1009445">
                <ele>0.0</ele>
                <name>Position 36</name>
            </trkpt>
            <trkpt lat="62.2726751" lon="-7.106781">
                <ele>0.0</ele>
                <name>Position 37</name>
            </trkpt>
            <trkpt lat="62.2725953" lon="-7.1136475">
                <ele>0.0</ele>
                <name>Position 38</name>
            </trkpt>
            <trkpt lat="62.2713972" lon="-7.1199989">
                <ele>0.0</ele>
                <name>Position 39</name>
            </trkpt>
            <trkpt lat="62.2694803" lon="-7.1266937">
                <ele>0.0</ele>
                <name>Position 40</name>
            </trkpt>
            <trkpt lat="62.2672436" lon="-7.1325302">
                <ele>0.0</ele>
                <name>Position 41</name>
            </trkpt>
            <trkpt lat="62.2652465" lon="-7.1375084">
                <ele>0.0</ele>
                <name>Position 42</name>
            </trkpt>
            <trkpt lat="62.2630895" lon="-7.1428299">
                <ele>0.0</ele>
                <name>Position 43</name>
            </trkpt>
            <trkpt lat="62.2608524" lon="-7.1474648">
                <ele>0.0</ele>
                <name>Position 44</name>
            </trkpt>
            <trkpt lat="62.2590146" lon="-7.1520996">
                <ele>0.0</ele>
                <name>Position 45</name>
            </trkpt>
            <trkpt lat="62.257856" lon="-7.1565628">
                <ele>0.0</ele>
                <name>Position 46</name>
            </trkpt>
            <trkpt lat="62.2557384" lon="-7.1581078">
                <ele>0.0</ele>
                <name>Position 47</name>
            </trkpt>
            <trkpt lat="62.253261" lon="-7.1622276">
                <ele>0.0</ele>
                <name>Position 48</name>
            </trkpt>
            <trkpt lat="62.2506235" lon="-7.1685791">
                <ele>0.0</ele>
                <name>Position 49</name>
            </trkpt>
            <trkpt lat="62.2481457" lon="-7.1737289">
                <ele>0.0</ele>
                <name>Position 50</name>
            </trkpt>
            <trkpt lat="62.2483056" lon="-7.1788788">
                <ele>0.0</ele>
                <name>Position 51</name>
            </trkpt>
            <trkpt lat="62.2499042" lon="-7.1862602">
                <ele>0.0</ele>
                <name>Position 52</name>
            </trkpt>
            <trkpt lat="62.2475862" lon="-7.1854019">
                <ele>0.0</ele>
                <name>Position 53</name>
            </trkpt>
            <trkpt lat="62.2451881" lon="-7.1840286">
                <ele>0.0</ele>
                <name>Position 54</name>
            </trkpt>
            <trkpt lat="62.2437491" lon="-7.1816254">
                <ele>0.0</ele>
                <name>Position 55</name>
            </trkpt>
            <trkpt lat="62.2419903" lon="-7.1788788">
                <ele>0.0</ele>
                <name>Position 56</name>
            </trkpt>
        </trkseg>
    </trk>
</gpx>
