<?xml version="1.0" encoding="UTF-8" standalone="yes"?>
<!-- Generated by Christian Peschs RouteConverter. See https://www.routeconverter.com -->

<gpx xmlns:gpxtpx1="http://www.garmin.com/xmlschemas/TrackPointExtension/v1" xmlns="http://www.topografix.com/GPX/1/1" xmlns:trp="http://www.garmin.com/xmlschemas/TripExtensions/v1" xmlns:gpxx="http://www.garmin.com/xmlschemas/GpxExtensions/v3" xmlns:gpxtpx="http://www.garmin.com/xmlschemas/TrackPointExtension/v2" version="1.1" creator="RouteConverter 2.26">
    <metadata>
        <name>IT-Faeroeer-2023-Praktische ReiseTipps</name>
    </metadata>
    <wpt lat="62.009645" lon="-6.771655">
        <ele>0.0</ele>
        <name>#«1» Havnar kirkja</name>
    </wpt>
    <wpt lat="62.009078" lon="-6.774666">
        <ele>0.0</ele>
        <name>#«2» Smiðjan í Lítluvík</name>
    </wpt>
    <wpt lat="62.015714" lon="-6.78306">
        <ele>0.0</ele>
        <name>#«3» Williamshús</name>
    </wpt>
    <wpt lat="62.011153" lon="-6.773951">
        <ele>0.0</ele>
        <name>#«4» Touristeninformation Visit Tórshavn</name>
    </wpt>
    <wpt lat="62.010337" lon="-6.776156">
        <ele>0.0</ele>
        <name>#«5» 62°N Gästehaus City Center</name>
    </wpt>
    <wpt lat="62.0073" lon="-6.800036">
        <ele>0.0</ele>
        <name>#«6» 62°N Gästehaus Marknagil</name>
    </wpt>
    <wpt lat="62.010017" lon="-6.776093">
        <ele>0.0</ele>
        <name>#«7» 62°N Hotel City Center</name>
    </wpt>
    <wpt lat="62.01021" lon="-6.75891">
        <ele>0.0</ele>
        <name>#«8» Havgrím Sesaside Hotel</name>
    </wpt>
    <wpt lat="62.021871" lon="-6.769085">
        <ele>0.0</ele>
        <name>#«9» Hilton Garden Inn</name>
    </wpt>
    <wpt lat="62.018201" lon="-6.774654">
        <ele>0.0</ele>
        <name>#«10» Hotel Brandan</name>
    </wpt>
    <wpt lat="62.009444" lon="-6.760556">
        <ele>0.0</ele>
        <name>#«11» Hotel Djurhuus</name>
    </wpt>
    <wpt lat="62.012883" lon="-6.799198">
        <ele>0.0</ele>
        <name>#«12» Hotel Føroyar</name>
    </wpt>
    <wpt lat="62.009876" lon="-6.770394">
        <ele>0.0</ele>
        <name>#«13» Hotel Hafnia</name>
    </wpt>
    <wpt lat="62.009948" lon="-6.772916">
        <ele>0.0</ele>
        <name>#«14» Hotel Tórshavn</name>
    </wpt>
    <wpt lat="62.018138" lon="-6.755819">
        <ele>0.0</ele>
        <name>#«15» Camping Tórshavn</name>
    </wpt>
    <wpt lat="62.009315" lon="-6.769756">
        <ele>0.0</ele>
        <name>#«16» Áarstova</name>
    </wpt>
    <wpt lat="62.00925" lon="-6.769927">
        <ele>0.0</ele>
        <name>#«17» Barbara Fish House</name>
    </wpt>
    <wpt lat="62.009425" lon="-6.77052">
        <ele>0.0</ele>
        <name>#«18» Restaurant Katrina Christiansen</name>
    </wpt>
    <wpt lat="62.009219" lon="-6.7697">
        <ele>0.0</ele>
        <name>#«19» ROKS</name>
    </wpt>
    <wpt lat="62.0093" lon="-6.769949">
        <ele>0.0</ele>
        <name>#«20» Ræst fermented</name>
    </wpt>
    <wpt lat="62.01132" lon="-6.77365">
        <ele>0.0</ele>
        <name>#«21» Bitin</name>
    </wpt>
    <wpt lat="62.010118" lon="-6.771199">
        <ele>0.0</ele>
        <name>#«22» Etika (1)</name>
    </wpt>
    <wpt lat="62.022497" lon="-6.780845">
        <ele>0.0</ele>
        <name>#«23» Etika (2)</name>
    </wpt>
    <wpt lat="62.009164" lon="-6.771822">
        <ele>0.0</ele>
        <name>#«24» Kaffihúsið</name>
    </wpt>
    <wpt lat="62.009024" lon="-6.771648">
        <ele>0.0</ele>
        <name>#«25» Kafé Umami</name>
    </wpt>
    <wpt lat="62.00892" lon="-6.764238">
        <ele>0.0</ele>
        <name>#«26» Matstovan Seven</name>
    </wpt>
    <wpt lat="62.010886" lon="-6.770942">
        <ele>0.0</ele>
        <name>#«27» Restaurant Toscana</name>
    </wpt>
    <wpt lat="62.010686" lon="-6.773478">
        <ele>0.0</ele>
        <name>#«28» Sentrum Pizzeria</name>
    </wpt>
    <wpt lat="62.02248" lon="-6.764923">
        <ele>0.0</ele>
        <name>#«29» Bónus Tórshavn (1)</name>
    </wpt>
    <wpt lat="62.005458" lon="-6.801643">
        <ele>0.0</ele>
        <name>#«30» Bónus Tórshavn (2)</name>
    </wpt>
    <wpt lat="62.010169" lon="-6.771652">
        <ele>0.0</ele>
        <name>#«31» Buchhandlung H. N. Jacobsens</name>
    </wpt>
    <wpt lat="62.010818" lon="-6.772921">
        <ele>0.0</ele>
        <name>#«32» Føroya Heimavirkisfelag</name>
    </wpt>
    <wpt lat="62.010997" lon="-6.773469">
        <ele>0.0</ele>
        <name>#«33» Guðrun &amp; Guðrun</name>
    </wpt>
    <wpt lat="62.011513" lon="-6.774045">
        <ele>0.0</ele>
        <name>#«34» Marjun Heimá</name>
    </wpt>
    <wpt lat="62.007889" lon="-6.776015">
        <ele>0.0</ele>
        <name>#«35» Öström</name>
    </wpt>
    <wpt lat="62.014447" lon="-6.774238">
        <ele>0.0</ele>
        <name>#«36» SMS-Einkaufszentrum</name>
    </wpt>
    <wpt lat="62.01179" lon="-6.774302">
        <ele>0.0</ele>
        <name>#«37» Snældan</name>
    </wpt>
    <wpt lat="62.010851" lon="-6.77323">
        <ele>0.0</ele>
        <name>#«38» TUTL Musikshop</name>
    </wpt>
    <wpt lat="61.998517" lon="-6.804516">
        <ele>0.0</ele>
        <name>#«39» Föroya Bjór</name>
    </wpt>
    <wpt lat="62.019966" lon="-6.774336">
        <ele>0.0</ele>
        <name>#«40» Okkara (1)</name>
    </wpt>
    <wpt lat="62.031461" lon="-6.773666">
        <ele>0.0</ele>
        <name>#«41» Okkara (2)</name>
    </wpt>
    <wpt lat="62.020296" lon="-6.770921">
        <ele>0.0</ele>
        <name>#«42» OY Brewery</name>
    </wpt>
    <wpt lat="62.0225" lon="-6.765455">
        <ele>0.0</ele>
        <name>#«43» Rúsdrekkasøla</name>
    </wpt>
    <wpt lat="62.009439" lon="-6.769538">
        <ele>0.0</ele>
        <name>#«44» Essabarr Tórshavn</name>
    </wpt>
    <wpt lat="62.009078" lon="-6.774289">
        <ele>0.0</ele>
        <name>#«45» Irish Pub</name>
    </wpt>
    <wpt lat="62.0094" lon="-6.769967">
        <ele>0.0</ele>
        <name>#«46» Mikkeller</name>
    </wpt>
    <wpt lat="62.009581" lon="-6.773283">
        <ele>0.0</ele>
        <name>#«47» Sirkus Føroyar</name>
    </wpt>
    <wpt lat="62.010323" lon="-6.773919">
        <ele>0.0</ele>
        <name>#«48» Basecamp</name>
    </wpt>
    <wpt lat="62.010323" lon="-6.773919">
        <ele>0.0</ele>
        <name>#«49» Bassalt</name>
    </wpt>
    <wpt lat="62.010537" lon="-6.77456">
        <ele>0.0</ele>
        <name>#«50» Loca</name>
    </wpt>
    <wpt lat="62.010725" lon="-6.774085">
        <ele>0.0</ele>
        <name>#«51» Taboo</name>
    </wpt>
    <wpt lat="62.008937" lon="-6.674574">
        <ele>0.0</ele>
        <name>#«52» Húsini við brunn (Haus am Brunnen)</name>
    </wpt>
    <wpt lat="62.008906" lon="-6.673966">
        <ele>0.0</ele>
        <name>#«53» Touristeninformation Visit Nólsoy</name>
    </wpt>
    <wpt lat="62.009028" lon="-6.67216">
        <ele>0.0</ele>
        <name>#«54» Campingplatz Nólsoy</name>
    </wpt>
    <wpt lat="62.009422" lon="-6.671218">
        <ele>0.0</ele>
        <name>#«55» Hjá Maud</name>
    </wpt>
    <wpt lat="62.0102" lon="-6.671444">
        <ele>0.0</ele>
        <name>#«56» Maggies Café</name>
    </wpt>
    <wpt lat="61.951952" lon="-6.792652">
        <ele>0.0</ele>
        <name>#«57» Königsbauernhof (Kirkjubøargarður)</name>
    </wpt>
    <wpt lat="61.951866" lon="-6.792165">
        <ele>0.0</ele>
        <name>#«58» Magnusdom (Múrurin)</name>
    </wpt>
    <wpt lat="61.951678" lon="-6.79314">
        <ele>0.0</ele>
        <name>#«59» St.-Olavs-Kirche (Ólavskirkjan)</name>
    </wpt>
    <wpt lat="62.153369" lon="-7.15033">
        <ele>0.0</ele>
        <name>#«60» Vestmanna Tourist Centre mit Saga-Museum</name>
    </wpt>
    <wpt lat="62.153018" lon="-7.147583">
        <ele>0.0</ele>
        <name>#«61» Vestmanna Camping</name>
    </wpt>
    <wpt lat="62.153691" lon="-7.170993">
        <ele>0.0</ele>
        <name>#«62» Krambúðin</name>
    </wpt>
    <wpt lat="62.299373" lon="-7.09343">
        <ele>0.0</ele>
        <name>#«63» Heimatmuseum Á Látrinum</name>
    </wpt>
    <wpt lat="62.306297" lon="-7.08365">
        <ele>0.0</ele>
        <name>#«64» Eiði Camping</name>
    </wpt>
    <wpt lat="62.323927" lon="-6.941868">
        <ele>0.0</ele>
        <name>#«65» Flatnagarður Camping</name>
    </wpt>
    <wpt lat="62.325272" lon="-6.949593">
        <ele>0.0</ele>
        <name>#«66» Gjáargarður</name>
    </wpt>
    <wpt lat="62.325601" lon="-6.943531">
        <ele>0.0</ele>
        <name>#«67» Gjáarkaffi</name>
    </wpt>
    <wpt lat="62.242184" lon="-6.81579">
        <ele>0.0</ele>
        <name>#«68» Kulturhaus Mentanarhúsið</name>
    </wpt>
    <wpt lat="62.242821" lon="-6.812508">
        <ele>0.0</ele>
        <name>#«69» Touristeninformation Visit Eysturoy in Fuglafjørður</name>
    </wpt>
    <wpt lat="62.24278" lon="-6.813519">
        <ele>0.0</ele>
        <name>#«70» Ribarhús &amp; Piddasahandil</name>
    </wpt>
    <wpt lat="62.243404" lon="-6.812189">
        <ele>0.0</ele>
        <name>#«71» Muntra</name>
    </wpt>
    <wpt lat="62.211454" lon="-6.708859">
        <ele>0.0</ele>
        <name>#«72» Báta- og Listasafnið</name>
    </wpt>
    <wpt lat="62.197741" lon="-6.739722">
        <ele>0.0</ele>
        <name>#«73» Freilichtmuseum (Gøtu Fornminnissavn)</name>
    </wpt>
    <wpt lat="62.124312" lon="-6.72286">
        <ele>0.0</ele>
        <name>#«74» Heimatmuseum (Bygdasvnið Forni)</name>
    </wpt>
    <wpt lat="62.110884" lon="-6.722979">
        <ele>0.0</ele>
        <name>#«75» Touristeninformation Visit Runavík</name>
    </wpt>
    <wpt lat="62.109462" lon="-6.722269">
        <ele>0.0</ele>
        <name>#«76» Hotel Runavík</name>
    </wpt>
    <wpt lat="62.116301" lon="-6.72317">
        <ele>0.0</ele>
        <name>#«77» Café Cibo</name>
    </wpt>
    <wpt lat="62.112308" lon="-6.722528">
        <ele>0.0</ele>
        <name>#«78» Bónus Saltangará</name>
    </wpt>
    <wpt lat="62.111658" lon="-6.722412">
        <ele>0.0</ele>
        <name>#«79» Heimavirkni</name>
    </wpt>
    <wpt lat="62.09586" lon="-6.73932">
        <ele>0.0</ele>
        <name>#«80» Navia</name>
    </wpt>
    <wpt lat="62.112907" lon="-6.722912">
        <ele>0.0</ele>
        <name>#«81» Rúsdrekkasøla Saltangará</name>
    </wpt>
    <wpt lat="62.050908" lon="-7.18883">
        <ele>0.0</ele>
        <name>#«82» Kálvalið</name>
    </wpt>
    <wpt lat="62.047074" lon="-7.163734">
        <ele>0.0</ele>
        <name>#«83» Á Giljanes Hostel &amp; Campsite</name>
    </wpt>
    <wpt lat="62.048431" lon="-7.183491">
        <ele>0.0</ele>
        <name>#«84» Gästehaus Magenta</name>
    </wpt>
    <wpt lat="62.049538" lon="-7.150378">
        <ele>0.0</ele>
        <name>#«85» Fiskastykkið</name>
    </wpt>
    <wpt lat="62.070724" lon="-7.310822">
        <ele>0.0</ele>
        <name>#«86» Heimatmuseum (Sørvágs Bygdarsavn)</name>
    </wpt>
    <wpt lat="62.069888" lon="-7.319034">
        <ele>0.0</ele>
        <name>#«87» Cottages by the Sea</name>
    </wpt>
    <wpt lat="62.069281" lon="-7.318128">
        <ele>0.0</ele>
        <name>#«88» Gästehaus Ró</name>
    </wpt>
    <wpt lat="62.070763" lon="-7.310197">
        <ele>0.0</ele>
        <name>#«89» Café Zorva</name>
    </wpt>
    <wpt lat="62.071269" lon="-7.307584">
        <ele>0.0</ele>
        <name>#«90» Restaurant Café Pollastofa</name>
    </wpt>
    <wpt lat="62.069924" lon="-7.278758">
        <ele>0.0</ele>
        <name>#«91» Kriegsmuseum (Krígssavnið)</name>
    </wpt>
    <wpt lat="62.110425" lon="-7.438816">
        <ele>0.0</ele>
        <name>#«92» Gästehaus Gásadalsgarður</name>
    </wpt>
    <wpt lat="62.103513" lon="-7.64511">
        <ele>0.0</ele>
        <name>#«93» Mykines Stova</name>
    </wpt>
    <wpt lat="62.226592" lon="-6.588584">
        <ele>0.0</ele>
        <name>#«94» Brauerei Föroya Bjór</name>
    </wpt>
    <wpt lat="62.230473" lon="-6.5966">
        <ele>0.0</ele>
        <name>#«95» Heimatmuseum Klaksvík (Norðoya Fornminnisavn)</name>
    </wpt>
    <wpt lat="62.226855" lon="-6.585827">
        <ele>0.0</ele>
        <name>#«96» Touristeninformation Visit Norðoy in Klaksvík</name>
    </wpt>
    <wpt lat="62.22828" lon="-6.594719">
        <ele>0.0</ele>
        <name>#«97» Hotel Klaksvík</name>
    </wpt>
    <wpt lat="62.225853" lon="-6.585632">
        <ele>0.0</ele>
        <name>#«98» Angus Steakhouse</name>
    </wpt>
    <wpt lat="62.227302" lon="-6.585894">
        <ele>0.0</ele>
        <name>#«99» Café Fríða</name>
    </wpt>
    <wpt lat="62.229151" lon="-6.586532">
        <ele>0.0</ele>
        <name>#«100» Fisk &amp; Chips</name>
    </wpt>
    <wpt lat="62.228931" lon="-6.585385">
        <ele>0.0</ele>
        <name>#«101» Kjøthandilin</name>
    </wpt>
    <wpt lat="62.227813" lon="-6.591244">
        <ele>0.0</ele>
        <name>#«102» Roykstovan</name>
    </wpt>
    <wpt lat="62.228908" lon="-6.593128">
        <ele>0.0</ele>
        <name>#«103» Alkoholladen (Rúsdrekkasøla Landsins) in Klaksvík</name>
    </wpt>
    <wpt lat="62.222696" lon="-6.574628">
        <ele>0.0</ele>
        <name>#«104» Bónus Klaksvík</name>
    </wpt>
    <wpt lat="62.229824" lon="-6.587507">
        <ele>0.0</ele>
        <name>#«105» fk-Supermarkt (Føroya Keypsamtøka)</name>
    </wpt>
    <wpt lat="62.227386" lon="-6.5907">
        <ele>0.0</ele>
        <name>#«106» Gamla Seglhúsið</name>
    </wpt>
    <wpt lat="62.22767" lon="-6.584186">
        <ele>0.0</ele>
        <name>#«107» Norðoya Heimavirki</name>
    </wpt>
    <wpt lat="62.335141" lon="-6.764068">
        <ele>0.0</ele>
        <name>#«108» Café Edge</name>
    </wpt>
    <wpt lat="62.333732" lon="-6.771446">
        <ele>0.0</ele>
        <name>#«109» Mikladalur Camping</name>
    </wpt>
    <wpt lat="62.360411" lon="-6.529995">
        <ele>0.0</ele>
        <name>#«110» Hotel Norð</name>
    </wpt>
    <wpt lat="62.316832" lon="-6.315048">
        <ele>0.0</ele>
        <name>#«111» Katalon á Kirkju</name>
    </wpt>
    <wpt lat="62.283216" lon="-6.326681">
        <ele>0.0</ele>
        <name>#«112» Campingplatz Svínoy</name>
    </wpt>
    <wpt lat="61.834201" lon="-6.816804">
        <ele>0.0</ele>
        <name>#«113» Touristeninformation Visit Sandoy in Skopun</name>
    </wpt>
    <wpt lat="61.831952" lon="-6.812423">
        <ele>0.0</ele>
        <name>#«114» Listasavnið á Sandi</name>
    </wpt>
    <wpt lat="61.834985" lon="-6.820478">
        <ele>0.0</ele>
        <name>#«115» Sands Bygdasavn</name>
    </wpt>
    <wpt lat="61.834201" lon="-6.816804">
        <ele>0.0</ele>
        <name>#«116» Touristeninformation Visit Sandoy in Sandur</name>
    </wpt>
    <wpt lat="61.784576" lon="-6.67513">
        <ele>0.0</ele>
        <name>#«117» Dalur Camping</name>
    </wpt>
    <wpt lat="61.832054" lon="-6.661839">
        <ele>0.0</ele>
        <name>#«118» Gästehaus und Café Mølin</name>
    </wpt>
    <wpt lat="61.554735" lon="-6.809085">
        <ele>0.0</ele>
        <name>#«119» Doktorhaus in Tvøroyri (Tvøroyrar Bygdar- og Sjósavn)</name>
    </wpt>
    <wpt lat="61.551771" lon="-6.828917">
        <ele>0.0</ele>
        <name>#«120» SALT – Sound, Art &amp; Live Theatre</name>
    </wpt>
    <wpt lat="61.554678" lon="-6.80705">
        <ele>0.0</ele>
        <name>#«121» Touristeninformation Visit Suðuroy in Tvøroyri</name>
    </wpt>
    <wpt lat="61.55563" lon="-6.804485">
        <ele>0.0</ele>
        <name>#«122» Bed &amp; Breakfast Suðuroy</name>
    </wpt>
    <wpt lat="61.555139" lon="-6.808113">
        <ele>0.0</ele>
        <name>#«123» Hotel Tvøroyri</name>
    </wpt>
    <wpt lat="61.555162" lon="-6.809085">
        <ele>0.0</ele>
        <name>#«124» Café Glasstovan</name>
    </wpt>
    <wpt lat="61.552396" lon="-6.800982">
        <ele>0.0</ele>
        <name>#«125» Café MorMor</name>
    </wpt>
    <wpt lat="61.550184" lon="-6.82693">
        <ele>0.0</ele>
        <name>#«126» Alkoholladen (Rúsdrekkasøla Landsins) in Drelnes</name>
    </wpt>
    <wpt lat="61.554883" lon="-6.810481">
        <ele>0.0</ele>
        <name>#«127» Bónus Tvøroyri</name>
    </wpt>
    <wpt lat="61.55971" lon="-6.823744">
        <ele>0.0</ele>
        <name>#«128» Gallarí Oyggin</name>
    </wpt>
    <wpt lat="61.472479" lon="-6.821916">
        <ele>0.0</ele>
        <name>#«129» Ruth Smith Savn</name>
    </wpt>
    <wpt lat="61.473509" lon="-6.812561">
        <ele>0.0</ele>
        <name>#«130» Touristeninformation Visit Suðuroy in Vágur</name>
    </wpt>
    <wpt lat="61.466904" lon="-6.836578">
        <ele>0.0</ele>
        <name>#«131» Campingplatz Vágseiðið</name>
    </wpt>
    <wpt lat="61.473328" lon="-6.816184">
        <ele>0.0</ele>
        <name>#«132» Gästehaus Brim</name>
    </wpt>
    <wpt lat="61.473299" lon="-6.815426">
        <ele>0.0</ele>
        <name>#«133» Hotel Bakkin</name>
    </wpt>
    <wpt lat="61.473559" lon="-6.813895">
        <ele>0.0</ele>
        <name>#«134» Torgið</name>
    </wpt>
    <wpt lat="62.003866" lon="-6.774638">
        <ele>0.0</ele>
        <name>#«135» Havnar Kajakforening</name>
    </wpt>
    <wpt lat="62.224615" lon="-6.585119">
        <ele>0.0</ele>
        <name>#«136» Faroe Dive</name>
    </wpt>
    <wpt lat="62.011038" lon="-6.775359">
        <ele>0.0</ele>
        <name>#«137» GreenGate</name>
    </wpt>
    <wpt lat="62.070813" lon="-7.321484">
        <ele>0.0</ele>
        <name>#«138» Seatravel in Sørvágur</name>
    </wpt>
    <wpt lat="62.010547" lon="-6.774882">
        <ele>0.0</ele>
        <name>#«139» Rent a Bike</name>
    </wpt>
    <wpt lat="62.012691" lon="-6.806032">
        <ele>0.0</ele>
        <name>#«140» Berg Hestar</name>
    </wpt>
    <wpt lat="62.047167" lon="-7.198877">
        <ele>0.0</ele>
        <name>#«141» Davidsen Hestar</name>
    </wpt>
    <wpt lat="62.008615" lon="-6.763375">
        <ele>0.0</ele>
        <name>#«142» Büro Smyril Line auf den Färöern</name>
    </wpt>
    <wpt lat="55.706833" lon="12.59738">
        <ele>0.0</ele>
        <name>#«143» Botschaft der Bundesrepublik Deutschland in Kopenhagen</name>
    </wpt>
    <wpt lat="62.008886" lon="-6.771527">
        <ele>0.0</ele>
        <name>#«144» Honorarkonsulat der Bundesrepublik Deutschland auf den Färöern</name>
    </wpt>
    <wpt lat="62.002664" lon="-6.776635">
        <ele>0.0</ele>
        <name>#«145» Krankenhaus Tórshavn</name>
    </wpt>
    <wpt lat="62.228966" lon="-6.595416">
        <ele>0.0</ele>
        <name>#«146» Krankenhaus Klaksvík auf Borðoy</name>
    </wpt>
    <wpt lat="61.556307" lon="-6.811811">
        <ele>0.0</ele>
        <name>#«147» Krankenhaus Tvøroyri auf Suðuroy</name>
    </wpt>
    <wpt lat="62.011648" lon="-6.775248">
        <ele>0.0</ele>
        <name>#«148» Spielplatz Grasagarður</name>
    </wpt>
    <wpt lat="62.015405" lon="-6.774683">
        <ele>0.0</ele>
        <name>#«149» Polizeiwache Tórshavn (Politistøðin)</name>
    </wpt>
    <wpt lat="62.021368" lon="-6.763195">
        <ele>0.0</ele>
        <name>#«150» Hauptpost in Tórshavn</name>
    </wpt>
    <wpt lat="62.007554" lon="-6.766086">
        <ele>0.0</ele>
        <name>#«151» Fähranleger Tórshavn</name>
    </wpt>
    <wpt lat="62.007733" lon="-6.764835">
        <ele>0.0</ele>
        <name>#«152» Busbahnhof Überlandbusse Tórshavn</name>
    </wpt>
    <wpt lat="62.021567" lon="-6.757651">
        <ele>0.0</ele>
        <name>#«153» Heliport Tórshavn</name>
    </wpt>
    <wpt lat="62.011374" lon="-6.774257">
        <ele>0.0</ele>
        <name>#«154» Busbahnhof Stadtbusse Tórshavn</name>
    </wpt>
</gpx>
