<?xml version="1.0" encoding="UTF-8" standalone="yes"?>
<!-- Generated by Christian Peschs RouteConverter. See https://www.routeconverter.com -->

<gpx xmlns:gpxtpx1="http://www.garmin.com/xmlschemas/TrackPointExtension/v1" xmlns="http://www.topografix.com/GPX/1/1" xmlns:trp="http://www.garmin.com/xmlschemas/TripExtensions/v1" xmlns:gpxx="http://www.garmin.com/xmlschemas/GpxExtensions/v3" xmlns:gpxtpx="http://www.garmin.com/xmlschemas/TrackPointExtension/v2" version="1.1" creator="RouteConverter 2.26">
    <trk>
        <name>IT Färöer – Wanderung 3/Wanderung 3</name>
        <trkseg>
            <trkpt lat="62.2855311" lon="-7.0066166">
                <ele>0.0</ele>
                <name>Position 1</name>
            </trkpt>
            <trkpt lat="62.2862097" lon="-7.0066595">
                <ele>0.0</ele>
                <name>Position 2</name>
            </trkpt>
            <trkpt lat="62.2867286" lon="-7.0063162">
                <ele>0.0</ele>
                <name>Position 3</name>
            </trkpt>
            <trkpt lat="62.2872076" lon="-7.0063591">
                <ele>0.0</ele>
                <name>Position 4</name>
            </trkpt>
            <trkpt lat="62.2874471" lon="-7.0067024">
                <ele>0.0</ele>
                <name>Position 5</name>
            </trkpt>
            <trkpt lat="62.2883451" lon="-7.0073032">
                <ele>0.0</ele>
                <name>Position 6</name>
            </trkpt>
            <trkpt lat="62.2889239" lon="-7.0077324">
                <ele>0.0</ele>
                <name>Position 7</name>
            </trkpt>
            <trkpt lat="62.2898019" lon="-7.0066595">
                <ele>0.0</ele>
                <name>Position 8</name>
            </trkpt>
            <trkpt lat="62.2903208" lon="-7.0061874">
                <ele>0.0</ele>
                <name>Position 9</name>
            </trkpt>
            <trkpt lat="62.2907797" lon="-7.0061445">
                <ele>0.0</ele>
                <name>Position 10</name>
            </trkpt>
            <trkpt lat="62.2911589" lon="-7.0058012">
                <ele>0.0</ele>
                <name>Position 11</name>
            </trkpt>
            <trkpt lat="62.291119" lon="-7.0050287">
                <ele>0.0</ele>
                <name>Position 12</name>
            </trkpt>
            <trkpt lat="62.2914582" lon="-7.0041275">
                <ele>0.0</ele>
                <name>Position 13</name>
            </trkpt>
            <trkpt lat="62.2918373" lon="-7.0050716">
                <ele>0.0</ele>
                <name>Position 14</name>
            </trkpt>
            <trkpt lat="62.2923162" lon="-7.0062733">
                <ele>0.0</ele>
                <name>Position 15</name>
            </trkpt>
            <trkpt lat="62.2927951" lon="-7.0075178">
                <ele>0.0</ele>
                <name>Position 16</name>
            </trkpt>
            <trkpt lat="62.2932142" lon="-7.0087624">
                <ele>0.0</ele>
                <name>Position 17</name>
            </trkpt>
            <trkpt lat="62.2938127" lon="-7.0098782">
                <ele>0.0</ele>
                <name>Position 18</name>
            </trkpt>
            <trkpt lat="62.2944113" lon="-7.0116377">
                <ele>0.0</ele>
                <name>Position 19</name>
            </trkpt>
            <trkpt lat="62.2951097" lon="-7.0129251">
                <ele>0.0</ele>
                <name>Position 20</name>
            </trkpt>
            <trkpt lat="62.2955287" lon="-7.0142555">
                <ele>0.0</ele>
                <name>Position 21</name>
            </trkpt>
            <trkpt lat="62.2961272" lon="-7.0149422">
                <ele>0.0</ele>
                <name>Position 22</name>
            </trkpt>
            <trkpt lat="62.2965063" lon="-7.0149422">
                <ele>0.0</ele>
                <name>Position 23</name>
            </trkpt>
            <trkpt lat="62.2966858" lon="-7.0142555">
                <ele>0.0</ele>
                <name>Position 24</name>
            </trkpt>
            <trkpt lat="62.2967058" lon="-7.0133972">
                <ele>0.0</ele>
                <name>Position 25</name>
            </trkpt>
        </trkseg>
    </trk>
</gpx>
