<?xml version="1.0" encoding="UTF-8" standalone="yes"?>
<!-- Generated by Christian Peschs RouteConverter. See https://www.routeconverter.com -->

<gpx xmlns:gpxtpx1="http://www.garmin.com/xmlschemas/TrackPointExtension/v1" xmlns="http://www.topografix.com/GPX/1/1" xmlns:trp="http://www.garmin.com/xmlschemas/TripExtensions/v1" xmlns:gpxx="http://www.garmin.com/xmlschemas/GpxExtensions/v3" xmlns:gpxtpx="http://www.garmin.com/xmlschemas/TrackPointExtension/v2" version="1.1" creator="RouteConverter 2.26">
    <trk>
        <name>IT Färöer – Wanderung 5/Wanderung 5</name>
        <trkseg>
            <trkpt lat="62.0482937" lon="-7.1956587">
                <ele>0.0</ele>
                <name>Position 1</name>
            </trkpt>
            <trkpt lat="62.0476538" lon="-7.1956721">
                <ele>0.0</ele>
                <name>Position 2</name>
            </trkpt>
            <trkpt lat="62.0474042" lon="-7.1957244">
                <ele>0.0</ele>
                <name>Position 3</name>
            </trkpt>
            <trkpt lat="62.0466957" lon="-7.1960986">
                <ele>0.0</ele>
                <name>Position 4</name>
            </trkpt>
            <trkpt lat="62.0465436" lon="-7.1959162">
                <ele>0.0</ele>
                <name>Position 5</name>
            </trkpt>
            <trkpt lat="62.0463223" lon="-7.1978903">
                <ele>0.0</ele>
                <name>Position 6</name>
            </trkpt>
            <trkpt lat="62.0461413" lon="-7.200036">
                <ele>0.0</ele>
                <name>Position 7</name>
            </trkpt>
            <trkpt lat="62.0458797" lon="-7.2015381">
                <ele>0.0</ele>
                <name>Position 8</name>
            </trkpt>
            <trkpt lat="62.0453164" lon="-7.203083">
                <ele>0.0</ele>
                <name>Position 9</name>
            </trkpt>
            <trkpt lat="62.0449342" lon="-7.2025895">
                <ele>0.0</ele>
                <name>Position 10</name>
            </trkpt>
            <trkpt lat="62.0446123" lon="-7.2020853">
                <ele>0.0</ele>
                <name>Position 11</name>
            </trkpt>
            <trkpt lat="62.0443407" lon="-7.2017097">
                <ele>0.0</ele>
                <name>Position 12</name>
            </trkpt>
            <trkpt lat="62.0438679" lon="-7.2012377">
                <ele>0.0</ele>
                <name>Position 13</name>
            </trkpt>
            <trkpt lat="62.0434455" lon="-7.2007227">
                <ele>0.0</ele>
                <name>Position 14</name>
            </trkpt>
            <trkpt lat="62.0428016" lon="-7.2002721">
                <ele>0.0</ele>
                <name>Position 15</name>
            </trkpt>
            <trkpt lat="62.0423993" lon="-7.1999824">
                <ele>0.0</ele>
                <name>Position 16</name>
            </trkpt>
            <trkpt lat="62.042017" lon="-7.1994299">
                <ele>0.0</ele>
                <name>Position 17</name>
            </trkpt>
            <trkpt lat="62.0418057" lon="-7.1996257">
                <ele>0.0</ele>
                <name>Position 18</name>
            </trkpt>
            <trkpt lat="62.0414838" lon="-7.2007012">
                <ele>0.0</ele>
                <name>Position 19</name>
            </trkpt>
            <trkpt lat="62.0411216" lon="-7.2012162">
                <ele>0.0</ele>
                <name>Position 20</name>
            </trkpt>
            <trkpt lat="62.0406237" lon="-7.2024071">
                <ele>0.0</ele>
                <name>Position 21</name>
            </trkpt>
            <trkpt lat="62.0402338" lon="-7.2032815">
                <ele>0.0</ele>
                <name>Position 22</name>
            </trkpt>
            <trkpt lat="62.0398943" lon="-7.2042632">
                <ele>0.0</ele>
                <name>Position 23</name>
            </trkpt>
            <trkpt lat="62.0394717" lon="-7.2050571">
                <ele>0.0</ele>
                <name>Position 24</name>
            </trkpt>
            <trkpt lat="62.0387574" lon="-7.2060442">
                <ele>0.0</ele>
                <name>Position 25</name>
            </trkpt>
            <trkpt lat="62.0384153" lon="-7.2063017">
                <ele>0.0</ele>
                <name>Position 26</name>
            </trkpt>
            <trkpt lat="62.038194" lon="-7.2067738">
                <ele>0.0</ele>
                <name>Position 27</name>
            </trkpt>
            <trkpt lat="62.0373992" lon="-7.2073746">
                <ele>0.0</ele>
                <name>Position 28</name>
            </trkpt>
            <trkpt lat="62.0372231" lon="-7.2076106">
                <ele>0.0</ele>
                <name>Position 29</name>
            </trkpt>
            <trkpt lat="62.0370747" lon="-7.2074926">
                <ele>0.0</ele>
                <name>Position 30</name>
            </trkpt>
            <trkpt lat="62.0365741" lon="-7.2079727">
                <ele>0.0</ele>
                <name>Position 31</name>
            </trkpt>
            <trkpt lat="62.0362062" lon="-7.2082476">
                <ele>0.0</ele>
                <name>Position 32</name>
            </trkpt>
            <trkpt lat="62.0358534" lon="-7.2084528">
                <ele>0.0</ele>
                <name>Position 33</name>
            </trkpt>
            <trkpt lat="62.0353299" lon="-7.2088813">
                <ele>0.0</ele>
                <name>Position 34</name>
            </trkpt>
            <trkpt lat="62.0348806" lon="-7.2095297">
                <ele>0.0</ele>
                <name>Position 35</name>
            </trkpt>
            <trkpt lat="62.0347793" lon="-7.2096893">
                <ele>0.0</ele>
                <name>Position 36</name>
            </trkpt>
            <trkpt lat="62.0344535" lon="-7.2099924">
                <ele>0.0</ele>
                <name>Position 37</name>
            </trkpt>
            <trkpt lat="62.0343856" lon="-7.210034">
                <ele>0.0</ele>
                <name>Position 38</name>
            </trkpt>
            <trkpt lat="62.0339278" lon="-7.2108427">
                <ele>0.0</ele>
                <name>Position 39</name>
            </trkpt>
            <trkpt lat="62.033475" lon="-7.2111471">
                <ele>0.0</ele>
                <name>Position 40</name>
            </trkpt>
            <trkpt lat="62.0329316" lon="-7.2116876">
                <ele>0.0</ele>
                <name>Position 41</name>
            </trkpt>
            <trkpt lat="62.0324536" lon="-7.2121596">
                <ele>0.0</ele>
                <name>Position 42</name>
            </trkpt>
            <trkpt lat="62.0323102" lon="-7.2121704">
                <ele>0.0</ele>
                <name>Position 43</name>
            </trkpt>
            <trkpt lat="62.0322687" lon="-7.2125083">
                <ele>0.0</ele>
                <name>Position 44</name>
            </trkpt>
            <trkpt lat="62.0319907" lon="-7.2129536">
                <ele>0.0</ele>
                <name>Position 45</name>
            </trkpt>
            <trkpt lat="62.0316812" lon="-7.2132111">
                <ele>0.0</ele>
                <name>Position 46</name>
            </trkpt>
            <trkpt lat="62.0313202" lon="-7.2136724">
                <ele>0.0</ele>
                <name>Position 47</name>
            </trkpt>
            <trkpt lat="62.0310692" lon="-7.2139889">
                <ele>0.0</ele>
                <name>Position 48</name>
            </trkpt>
            <trkpt lat="62.030823" lon="-7.2141257">
                <ele>0.0</ele>
                <name>Position 49</name>
            </trkpt>
            <trkpt lat="62.0300898" lon="-7.2145072">
                <ele>0.0</ele>
                <name>Position 50</name>
            </trkpt>
            <trkpt lat="62.0295534" lon="-7.2148891">
                <ele>0.0</ele>
                <name>Position 51</name>
            </trkpt>
            <trkpt lat="62.0290637" lon="-7.2154019">
                <ele>0.0</ele>
                <name>Position 52</name>
            </trkpt>
            <trkpt lat="62.0287049" lon="-7.2161293">
                <ele>0.0</ele>
                <name>Position 53</name>
            </trkpt>
            <trkpt lat="62.0285287" lon="-7.2166872">
                <ele>0.0</ele>
                <name>Position 54</name>
            </trkpt>
            <trkpt lat="62.0281891" lon="-7.2169662">
                <ele>0.0</ele>
                <name>Position 55</name>
            </trkpt>
            <trkpt lat="62.027828" lon="-7.2178137">
                <ele>0.0</ele>
                <name>Position 56</name>
            </trkpt>
            <trkpt lat="62.0273864" lon="-7.2186828">
                <ele>0.0</ele>
                <name>Position 57</name>
            </trkpt>
            <trkpt lat="62.0270845" lon="-7.2195947">
                <ele>0.0</ele>
                <name>Position 58</name>
            </trkpt>
            <trkpt lat="62.0268329" lon="-7.2199649">
                <ele>0.0</ele>
                <name>Position 59</name>
            </trkpt>
            <trkpt lat="62.0261786" lon="-7.2217298">
                <ele>0.0</ele>
                <name>Position 60</name>
            </trkpt>
            <trkpt lat="62.0256049" lon="-7.2230065">
                <ele>0.0</ele>
                <name>Position 61</name>
            </trkpt>
            <trkpt lat="62.025152" lon="-7.2244978">
                <ele>0.0</ele>
                <name>Position 62</name>
            </trkpt>
            <trkpt lat="62.0242058" lon="-7.227416">
                <ele>0.0</ele>
                <name>Position 63</name>
            </trkpt>
            <trkpt lat="62.0238938" lon="-7.2278452">
                <ele>0.0</ele>
                <name>Position 64</name>
            </trkpt>
            <trkpt lat="62.0236572" lon="-7.2286391">
                <ele>0.0</ele>
                <name>Position 65</name>
            </trkpt>
            <trkpt lat="62.0237428" lon="-7.228961">
                <ele>0.0</ele>
                <name>Position 66</name>
            </trkpt>
            <trkpt lat="62.0232948" lon="-7.230463">
                <ele>0.0</ele>
                <name>Position 67</name>
            </trkpt>
            <trkpt lat="62.0226254" lon="-7.2320294">
                <ele>0.0</ele>
                <name>Position 68</name>
            </trkpt>
            <trkpt lat="62.0215584" lon="-7.2316539">
                <ele>0.0</ele>
                <name>Position 69</name>
            </trkpt>
            <trkpt lat="62.0209242" lon="-7.2301197">
                <ele>0.0</ele>
                <name>Position 70</name>
            </trkpt>
            <trkpt lat="62.0206826" lon="-7.2330379">
                <ele>0.0</ele>
                <name>Position 71</name>
            </trkpt>
            <trkpt lat="62.0211255" lon="-7.235527">
                <ele>0.0</ele>
                <name>Position 72</name>
            </trkpt>
            <trkpt lat="62.023627" lon="-7.2373724">
                <ele>0.0</ele>
                <name>Position 73</name>
            </trkpt>
            <trkpt lat="62.0240146" lon="-7.2392178">
                <ele>0.0</ele>
                <name>Position 74</name>
            </trkpt>
            <trkpt lat="62.0245078" lon="-7.2398186">
                <ele>0.0</ele>
                <name>Position 75</name>
            </trkpt>
            <trkpt lat="62.0249507" lon="-7.2411919">
                <ele>0.0</ele>
                <name>Position 76</name>
            </trkpt>
            <trkpt lat="62.0259169" lon="-7.2445393">
                <ele>0.0</ele>
                <name>Position 77</name>
            </trkpt>
            <trkpt lat="62.0259852" lon="-7.2443767">
                <ele>0.0</ele>
                <name>Position 78</name>
            </trkpt>
            <trkpt lat="62.0245229" lon="-7.239604">
                <ele>0.0</ele>
                <name>Position 79</name>
            </trkpt>
            <trkpt lat="62.0240196" lon="-7.2390568">
                <ele>0.0</ele>
                <name>Position 80</name>
            </trkpt>
            <trkpt lat="62.0236269" lon="-7.2371644">
                <ele>0.0</ele>
                <name>Position 81</name>
            </trkpt>
            <trkpt lat="62.0212095" lon="-7.2354865">
                <ele>0.0</ele>
                <name>Position 82</name>
            </trkpt>
            <trkpt lat="62.0207738" lon="-7.2330735">
                <ele>0.0</ele>
                <name>Position 83</name>
            </trkpt>
            <trkpt lat="62.0209846" lon="-7.2304738">
                <ele>0.0</ele>
                <name>Position 84</name>
            </trkpt>
            <trkpt lat="62.0215424" lon="-7.2318128">
                <ele>0.0</ele>
                <name>Position 85</name>
            </trkpt>
            <trkpt lat="62.0226609" lon="-7.2321732">
                <ele>0.0</ele>
                <name>Position 86</name>
            </trkpt>
            <trkpt lat="62.0233603" lon="-7.2304577">
                <ele>0.0</ele>
                <name>Position 87</name>
            </trkpt>
            <trkpt lat="62.0237856" lon="-7.2289503">
                <ele>0.0</ele>
                <name>Position 88</name>
            </trkpt>
            <trkpt lat="62.0240158" lon="-7.2278184">
                <ele>0.0</ele>
                <name>Position 89</name>
            </trkpt>
            <trkpt lat="62.0241467" lon="-7.2275314">
                <ele>0.0</ele>
                <name>Position 90</name>
            </trkpt>
            <trkpt lat="62.0242385" lon="-7.2274107">
                <ele>0.0</ele>
                <name>Position 91</name>
            </trkpt>
            <trkpt lat="62.0247569" lon="-7.2258121">
                <ele>0.0</ele>
                <name>Position 92</name>
            </trkpt>
            <trkpt lat="62.0252853" lon="-7.2241357">
                <ele>0.0</ele>
                <name>Position 93</name>
            </trkpt>
            <trkpt lat="62.0256099" lon="-7.2230494">
                <ele>0.0</ele>
                <name>Position 94</name>
            </trkpt>
            <trkpt lat="62.0262164" lon="-7.2216976">
                <ele>0.0</ele>
                <name>Position 95</name>
            </trkpt>
            <trkpt lat="62.0263988" lon="-7.2212014">
                <ele>0.0</ele>
                <name>Position 96</name>
            </trkpt>
            <trkpt lat="62.0268517" lon="-7.219989">
                <ele>0.0</ele>
                <name>Position 97</name>
            </trkpt>
            <trkpt lat="62.0271116" lon="-7.2195956">
                <ele>0.0</ele>
                <name>Position 98</name>
            </trkpt>
            <trkpt lat="62.0274139" lon="-7.2186754">
                <ele>0.0</ele>
                <name>Position 99</name>
            </trkpt>
            <trkpt lat="62.0278557" lon="-7.2178111">
                <ele>0.0</ele>
                <name>Position 100</name>
            </trkpt>
            <trkpt lat="62.0282067" lon="-7.2169742">
                <ele>0.0</ele>
                <name>Position 101</name>
            </trkpt>
            <trkpt lat="62.0285552" lon="-7.2166926">
                <ele>0.0</ele>
                <name>Position 102</name>
            </trkpt>
            <trkpt lat="62.0287259" lon="-7.2161437">
                <ele>0.0</ele>
                <name>Position 103</name>
            </trkpt>
            <trkpt lat="62.0290756" lon="-7.2154407">
                <ele>0.0</ele>
                <name>Position 104</name>
            </trkpt>
            <trkpt lat="62.0295679" lon="-7.2149196">
                <ele>0.0</ele>
                <name>Position 105</name>
            </trkpt>
            <trkpt lat="62.0301327" lon="-7.2145173">
                <ele>0.0</ele>
                <name>Position 106</name>
            </trkpt>
            <trkpt lat="62.0310887" lon="-7.2140157">
                <ele>0.0</ele>
                <name>Position 107</name>
            </trkpt>
            <trkpt lat="62.0317177" lon="-7.2132164">
                <ele>0.0</ele>
                <name>Position 108</name>
            </trkpt>
            <trkpt lat="62.0320261" lon="-7.2129625">
                <ele>0.0</ele>
                <name>Position 109</name>
            </trkpt>
            <trkpt lat="62.0322942" lon="-7.2125098">
                <ele>0.0</ele>
                <name>Position 110</name>
            </trkpt>
            <trkpt lat="62.0323265" lon="-7.2122052">
                <ele>0.0</ele>
                <name>Position 111</name>
            </trkpt>
            <trkpt lat="62.0324927" lon="-7.2121759">
                <ele>0.0</ele>
                <name>Position 112</name>
            </trkpt>
            <trkpt lat="62.0330633" lon="-7.2116074">
                <ele>0.0</ele>
                <name>Position 113</name>
            </trkpt>
            <trkpt lat="62.0335077" lon="-7.2111619">
                <ele>0.0</ele>
                <name>Position 114</name>
            </trkpt>
            <trkpt lat="62.0339542" lon="-7.2108614">
                <ele>0.0</ele>
                <name>Position 115</name>
            </trkpt>
            <trkpt lat="62.0343968" lon="-7.2100517">
                <ele>0.0</ele>
                <name>Position 116</name>
            </trkpt>
            <trkpt lat="62.0344729" lon="-7.2100142">
                <ele>0.0</ele>
                <name>Position 117</name>
            </trkpt>
            <trkpt lat="62.0347899" lon="-7.2097061">
                <ele>0.0</ele>
                <name>Position 118</name>
            </trkpt>
            <trkpt lat="62.0353434" lon="-7.2089124">
                <ele>0.0</ele>
                <name>Position 119</name>
            </trkpt>
            <trkpt lat="62.0358356" lon="-7.208515">
                <ele>0.0</ele>
                <name>Position 120</name>
            </trkpt>
            <trkpt lat="62.0362471" lon="-7.2082758">
                <ele>0.0</ele>
                <name>Position 121</name>
            </trkpt>
            <trkpt lat="62.0366018" lon="-7.2080076">
                <ele>0.0</ele>
                <name>Position 122</name>
            </trkpt>
            <trkpt lat="62.0370696" lon="-7.2075677">
                <ele>0.0</ele>
                <name>Position 123</name>
            </trkpt>
            <trkpt lat="62.0372382" lon="-7.2076857">
                <ele>0.0</ele>
                <name>Position 124</name>
            </trkpt>
            <trkpt lat="62.03742" lon="-7.207436">
                <ele>0.0</ele>
                <name>Position 125</name>
            </trkpt>
            <trkpt lat="62.0382191" lon="-7.2068113">
                <ele>0.0</ele>
                <name>Position 126</name>
            </trkpt>
            <trkpt lat="62.038443" lon="-7.2063285">
                <ele>0.0</ele>
                <name>Position 127</name>
            </trkpt>
            <trkpt lat="62.0388002" lon="-7.2060817">
                <ele>0.0</ele>
                <name>Position 128</name>
            </trkpt>
            <trkpt lat="62.0395316" lon="-7.2050365">
                <ele>0.0</ele>
                <name>Position 129</name>
            </trkpt>
            <trkpt lat="62.0399496" lon="-7.2042364">
                <ele>0.0</ele>
                <name>Position 130</name>
            </trkpt>
            <trkpt lat="62.0402917" lon="-7.203244">
                <ele>0.0</ele>
                <name>Position 131</name>
            </trkpt>
            <trkpt lat="62.0407309" lon="-7.2022589">
                <ele>0.0</ele>
                <name>Position 132</name>
            </trkpt>
            <trkpt lat="62.0412359" lon="-7.2011228">
                <ele>0.0</ele>
                <name>Position 133</name>
            </trkpt>
            <trkpt lat="62.041524" lon="-7.2007173">
                <ele>0.0</ele>
                <name>Position 134</name>
            </trkpt>
            <trkpt lat="62.0418331" lon="-7.1996507">
                <ele>0.0</ele>
                <name>Position 135</name>
            </trkpt>
            <trkpt lat="62.0420233" lon="-7.1994942">
                <ele>0.0</ele>
                <name>Position 136</name>
            </trkpt>
            <trkpt lat="62.0423987" lon="-7.2000326">
                <ele>0.0</ele>
                <name>Position 137</name>
            </trkpt>
            <trkpt lat="62.0428016" lon="-7.2003284">
                <ele>0.0</ele>
                <name>Position 138</name>
            </trkpt>
            <trkpt lat="62.0434556" lon="-7.2007728">
                <ele>0.0</ele>
                <name>Position 139</name>
            </trkpt>
            <trkpt lat="62.043971" lon="-7.2013771">
                <ele>0.0</ele>
                <name>Position 140</name>
            </trkpt>
            <trkpt lat="62.044342" lon="-7.2017527">
                <ele>0.0</ele>
                <name>Position 141</name>
            </trkpt>
            <trkpt lat="62.044706" lon="-7.2022667">
                <ele>0.0</ele>
                <name>Position 142</name>
            </trkpt>
            <trkpt lat="62.0449487" lon="-7.2026502">
                <ele>0.0</ele>
                <name>Position 143</name>
            </trkpt>
            <trkpt lat="62.0453259" lon="-7.2031225">
                <ele>0.0</ele>
                <name>Position 144</name>
            </trkpt>
            <trkpt lat="62.0458986" lon="-7.20153">
                <ele>0.0</ele>
                <name>Position 145</name>
            </trkpt>
            <trkpt lat="62.0461614" lon="-7.2000012">
                <ele>0.0</ele>
                <name>Position 146</name>
            </trkpt>
            <trkpt lat="62.04635" lon="-7.1977642">
                <ele>0.0</ele>
                <name>Position 147</name>
            </trkpt>
            <trkpt lat="62.0465524" lon="-7.1959568">
                <ele>0.0</ele>
                <name>Position 148</name>
            </trkpt>
            <trkpt lat="62.0466831" lon="-7.1961361">
                <ele>0.0</ele>
                <name>Position 149</name>
            </trkpt>
            <trkpt lat="62.047407" lon="-7.1957661">
                <ele>0.0</ele>
                <name>Position 150</name>
            </trkpt>
            <trkpt lat="62.0476745" lon="-7.1957072">
                <ele>0.0</ele>
                <name>Position 151</name>
            </trkpt>
            <trkpt lat="62.0482991" lon="-7.1957098">
                <ele>0.0</ele>
                <name>Position 152</name>
            </trkpt>
        </trkseg>
    </trk>
</gpx>
