<?xml version="1.0" encoding="UTF-8" standalone="yes"?>
<!-- Generated by Christian Peschs RouteConverter. See https://www.routeconverter.com -->

<gpx xmlns:gpxtpx1="http://www.garmin.com/xmlschemas/TrackPointExtension/v1" xmlns="http://www.topografix.com/GPX/1/1" xmlns:trp="http://www.garmin.com/xmlschemas/TripExtensions/v1" xmlns:gpxx="http://www.garmin.com/xmlschemas/GpxExtensions/v3" xmlns:gpxtpx="http://www.garmin.com/xmlschemas/TrackPointExtension/v2" version="1.1" creator="RouteConverter 2.26">
    <trk>
        <name>IT Färöer – Wanderung 4/Wanderung 4</name>
        <trkseg>
            <trkpt lat="61.5551673" lon="-6.8109226">
                <ele>0.0</ele>
                <name>Position 1</name>
            </trkpt>
            <trkpt lat="61.5554484" lon="-6.8107724">
                <ele>0.0</ele>
                <name>Position 2</name>
            </trkpt>
            <trkpt lat="61.556128" lon="-6.8103862">
                <ele>0.0</ele>
                <name>Position 3</name>
            </trkpt>
            <trkpt lat="61.5564653" lon="-6.8102252">
                <ele>0.0</ele>
                <name>Position 4</name>
            </trkpt>
            <trkpt lat="61.5568076" lon="-6.8098176">
                <ele>0.0</ele>
                <name>Position 5</name>
            </trkpt>
            <trkpt lat="61.5570427" lon="-6.8102574">
                <ele>0.0</ele>
                <name>Position 6</name>
            </trkpt>
            <trkpt lat="61.5572624" lon="-6.8103647">
                <ele>0.0</ele>
                <name>Position 7</name>
            </trkpt>
            <trkpt lat="61.5574822" lon="-6.8108475">
                <ele>0.0</ele>
                <name>Position 8</name>
            </trkpt>
            <trkpt lat="61.5579165" lon="-6.8106759">
                <ele>0.0</ele>
                <name>Position 9</name>
            </trkpt>
            <trkpt lat="61.5578501" lon="-6.8111587">
                <ele>0.0</ele>
                <name>Position 10</name>
            </trkpt>
            <trkpt lat="61.5577479" lon="-6.8120384">
                <ele>0.0</ele>
                <name>Position 11</name>
            </trkpt>
            <trkpt lat="61.5577479" lon="-6.8128109">
                <ele>0.0</ele>
                <name>Position 12</name>
            </trkpt>
            <trkpt lat="61.557942" lon="-6.8142486">
                <ele>0.0</ele>
                <name>Position 13</name>
            </trkpt>
            <trkpt lat="61.5581771" lon="-6.8151498">
                <ele>0.0</ele>
                <name>Position 14</name>
            </trkpt>
            <trkpt lat="61.5584121" lon="-6.8158364">
                <ele>0.0</ele>
                <name>Position 15</name>
            </trkpt>
            <trkpt lat="61.5586983" lon="-6.8167806">
                <ele>0.0</ele>
                <name>Position 16</name>
            </trkpt>
            <trkpt lat="61.5590457" lon="-6.8174887">
                <ele>0.0</ele>
                <name>Position 17</name>
            </trkpt>
            <trkpt lat="61.5594545" lon="-6.8181968">
                <ele>0.0</ele>
                <name>Position 18</name>
            </trkpt>
            <trkpt lat="61.5598633" lon="-6.8187761">
                <ele>0.0</ele>
                <name>Position 19</name>
            </trkpt>
            <trkpt lat="61.5604458" lon="-6.8196344">
                <ele>0.0</ele>
                <name>Position 20</name>
            </trkpt>
            <trkpt lat="61.5609056" lon="-6.8199134">
                <ele>0.0</ele>
                <name>Position 21</name>
            </trkpt>
            <trkpt lat="61.5613143" lon="-6.8206215">
                <ele>0.0</ele>
                <name>Position 22</name>
            </trkpt>
            <trkpt lat="61.5616924" lon="-6.8210936">
                <ele>0.0</ele>
                <name>Position 23</name>
            </trkpt>
            <trkpt lat="61.5624486" lon="-6.8216944">
                <ele>0.0</ele>
                <name>Position 24</name>
            </trkpt>
            <trkpt lat="61.5629493" lon="-6.8221664">
                <ele>0.0</ele>
                <name>Position 25</name>
            </trkpt>
            <trkpt lat="61.5634499" lon="-6.8228102">
                <ele>0.0</ele>
                <name>Position 26</name>
            </trkpt>
            <trkpt lat="61.5639915" lon="-6.8233252">
                <ele>0.0</ele>
                <name>Position 27</name>
            </trkpt>
            <trkpt lat="61.5643184" lon="-6.823926">
                <ele>0.0</ele>
                <name>Position 28</name>
            </trkpt>
            <trkpt lat="61.5646965" lon="-6.8247199">
                <ele>0.0</ele>
                <name>Position 29</name>
            </trkpt>
            <trkpt lat="61.5650541" lon="-6.8256211">
                <ele>0.0</ele>
                <name>Position 30</name>
            </trkpt>
            <trkpt lat="61.5653504" lon="-6.8265224">
                <ele>0.0</ele>
                <name>Position 31</name>
            </trkpt>
            <trkpt lat="61.5656569" lon="-6.8273377">
                <ele>0.0</ele>
                <name>Position 32</name>
            </trkpt>
            <trkpt lat="61.5659328" lon="-6.828196">
                <ele>0.0</ele>
                <name>Position 33</name>
            </trkpt>
            <trkpt lat="61.5667195" lon="-6.8289471">
                <ele>0.0</ele>
                <name>Position 34</name>
            </trkpt>
            <trkpt lat="61.5676798" lon="-6.8285608">
                <ele>0.0</ele>
                <name>Position 35</name>
            </trkpt>
            <trkpt lat="61.5688445" lon="-6.8273163">
                <ele>0.0</ele>
                <name>Position 36</name>
            </trkpt>
            <trkpt lat="61.5700091" lon="-6.8262863">
                <ele>0.0</ele>
                <name>Position 37</name>
            </trkpt>
            <trkpt lat="61.5737069" lon="-6.8242264">
                <ele>0.0</ele>
                <name>Position 38</name>
            </trkpt>
            <trkpt lat="61.5750552" lon="-6.8234539">
                <ele>0.0</ele>
                <name>Position 39</name>
            </trkpt>
            <trkpt lat="61.5759745" lon="-6.8239689">
                <ele>0.0</ele>
                <name>Position 40</name>
            </trkpt>
            <trkpt lat="61.5770163" lon="-6.8255138">
                <ele>0.0</ele>
                <name>Position 41</name>
            </trkpt>
            <trkpt lat="61.5786299" lon="-6.829505">
                <ele>0.0</ele>
                <name>Position 42</name>
            </trkpt>
            <trkpt lat="61.5788955" lon="-6.833539">
                <ele>0.0</ele>
                <name>Position 43</name>
            </trkpt>
            <trkpt lat="61.5784052" lon="-6.8359423">
                <ele>0.0</ele>
                <name>Position 44</name>
            </trkpt>
            <trkpt lat="61.5789772" lon="-6.8374443">
                <ele>0.0</ele>
                <name>Position 45</name>
            </trkpt>
            <trkpt lat="61.579304" lon="-6.8409634">
                <ele>0.0</ele>
                <name>Position 46</name>
            </trkpt>
            <trkpt lat="61.5795695" lon="-6.8418217">
                <ele>0.0</ele>
                <name>Position 47</name>
            </trkpt>
            <trkpt lat="61.5799576" lon="-6.843195">
                <ele>0.0</ele>
                <name>Position 48</name>
            </trkpt>
            <trkpt lat="61.5795899" lon="-6.8452978">
                <ele>0.0</ele>
                <name>Position 49</name>
            </trkpt>
            <trkpt lat="61.5792427" lon="-6.8460703">
                <ele>0.0</ele>
                <name>Position 50</name>
            </trkpt>
            <trkpt lat="61.5785278" lon="-6.8452978">
                <ele>0.0</ele>
                <name>Position 51</name>
            </trkpt>
            <trkpt lat="61.577629" lon="-6.8443966">
                <ele>0.0</ele>
                <name>Position 52</name>
            </trkpt>
            <trkpt lat="61.5766894" lon="-6.8433237">
                <ele>0.0</ele>
                <name>Position 53</name>
            </trkpt>
            <trkpt lat="61.5756272" lon="-6.8423796">
                <ele>0.0</ele>
                <name>Position 54</name>
            </trkpt>
            <trkpt lat="61.5746671" lon="-6.8408775">
                <ele>0.0</ele>
                <name>Position 55</name>
            </trkpt>
            <trkpt lat="61.5734005" lon="-6.8383026">
                <ele>0.0</ele>
                <name>Position 56</name>
            </trkpt>
            <trkpt lat="61.5726855" lon="-6.8370581">
                <ele>0.0</ele>
                <name>Position 57</name>
            </trkpt>
            <trkpt lat="61.5716027" lon="-6.8360281">
                <ele>0.0</ele>
                <name>Position 58</name>
            </trkpt>
            <trkpt lat="61.5705199" lon="-6.8343973">
                <ele>0.0</ele>
                <name>Position 59</name>
            </trkpt>
            <trkpt lat="61.5689671" lon="-6.8322515">
                <ele>0.0</ele>
                <name>Position 60</name>
            </trkpt>
            <trkpt lat="61.5678637" lon="-6.8306637">
                <ele>0.0</ele>
                <name>Position 61</name>
            </trkpt>
            <trkpt lat="61.567169" lon="-6.8299341">
                <ele>0.0</ele>
                <name>Position 62</name>
            </trkpt>
            <trkpt lat="61.5666786" lon="-6.8288183">
                <ele>0.0</ele>
                <name>Position 63</name>
            </trkpt>
        </trkseg>
    </trk>
</gpx>
