<?xml version="1.0"?>
<gpx xmlns="http://www.topografix.com/GPX/1/1" xmlns:xsi="http://www.w3.org/2001/XMLSchema-instance" version="1.1" creator="AllTrails.com" xsi:schemaLocation="http://www.topografix.com/GPX/1/1 http://www.topografix.com/GPX/1/1/gpx.xsd">
  <metadata>
    <name><![CDATA[Tjørnuvík - Mýlingur]]></name>
    <desc><![CDATA[]]></desc>
    <link href="http://www.alltrails.com">
      <text>AllTrails, LLC</text>
    </link>
    <bounds minlat="62.27295" minlon="-7.2251" maxlat="62.28941" maxlon="-7.14669"/>
  </metadata>
  <trk>
    <name><![CDATA[Tjørnuvík - Mýlingur]]></name>
    <src>AllTrails</src>
    <trkseg>
      <trkpt lat="62.28888" lon="-7.14677">
        <ele>7.4</ele>
      </trkpt>
      <trkpt lat="62.28888" lon="-7.14669">
        <ele>7.12</ele>
      </trkpt>
      <trkpt lat="62.28889" lon="-7.14676">
        <ele>7.33</ele>
      </trkpt>
      <trkpt lat="62.2889" lon="-7.14686">
        <ele>7.63</ele>
      </trkpt>
      <trkpt lat="62.28892" lon="-7.14696">
        <ele>7.79</ele>
      </trkpt>
      <trkpt lat="62.28892" lon="-7.147">
        <ele>7.82</ele>
      </trkpt>
      <trkpt lat="62.28893" lon="-7.14708">
        <ele>7.85</ele>
      </trkpt>
      <trkpt lat="62.28896" lon="-7.14728">
        <ele>8.0</ele>
      </trkpt>
      <trkpt lat="62.28897" lon="-7.14732">
        <ele>8.0</ele>
      </trkpt>
      <trkpt lat="62.28897" lon="-7.14734">
        <ele>8.0</ele>
      </trkpt>
      <trkpt lat="62.28899" lon="-7.1475">
        <ele>8.0</ele>
      </trkpt>
      <trkpt lat="62.289" lon="-7.14754">
        <ele>8.0</ele>
      </trkpt>
      <trkpt lat="62.28903" lon="-7.14771">
        <ele>8.0</ele>
      </trkpt>
      <trkpt lat="62.28904" lon="-7.14778">
        <ele>8.0</ele>
      </trkpt>
      <trkpt lat="62.28905" lon="-7.14783">
        <ele>8.0</ele>
      </trkpt>
      <trkpt lat="62.28907" lon="-7.14791">
        <ele>8.0</ele>
      </trkpt>
      <trkpt lat="62.28909" lon="-7.14798">
        <ele>8.0</ele>
      </trkpt>
      <trkpt lat="62.28911" lon="-7.14804">
        <ele>8.0</ele>
      </trkpt>
      <trkpt lat="62.28914" lon="-7.14813">
        <ele>7.73</ele>
      </trkpt>
      <trkpt lat="62.28916" lon="-7.14817">
        <ele>7.59</ele>
      </trkpt>
      <trkpt lat="62.28917" lon="-7.14821">
        <ele>7.45</ele>
      </trkpt>
      <trkpt lat="62.2892" lon="-7.14834">
        <ele>7.12</ele>
      </trkpt>
      <trkpt lat="62.28925" lon="-7.14853">
        <ele>7.51</ele>
      </trkpt>
      <trkpt lat="62.28928" lon="-7.14865">
        <ele>7.98</ele>
      </trkpt>
      <trkpt lat="62.28932" lon="-7.14878">
        <ele>8.65</ele>
      </trkpt>
      <trkpt lat="62.28934" lon="-7.14883">
        <ele>8.84</ele>
      </trkpt>
      <trkpt lat="62.28935" lon="-7.14886">
        <ele>8.93</ele>
      </trkpt>
      <trkpt lat="62.28936" lon="-7.1489">
        <ele>9.01</ele>
      </trkpt>
      <trkpt lat="62.28937" lon="-7.14894">
        <ele>9.05</ele>
      </trkpt>
      <trkpt lat="62.28938" lon="-7.14899">
        <ele>9.08</ele>
      </trkpt>
      <trkpt lat="62.28938" lon="-7.14901">
        <ele>9.1</ele>
      </trkpt>
      <trkpt lat="62.28938" lon="-7.14906">
        <ele>9.14</ele>
      </trkpt>
      <trkpt lat="62.28938" lon="-7.14911">
        <ele>9.18</ele>
      </trkpt>
      <trkpt lat="62.28938" lon="-7.14917">
        <ele>9.24</ele>
      </trkpt>
      <trkpt lat="62.28938" lon="-7.14921">
        <ele>9.32</ele>
      </trkpt>
      <trkpt lat="62.28937" lon="-7.14924">
        <ele>9.39</ele>
      </trkpt>
      <trkpt lat="62.28937" lon="-7.14925">
        <ele>9.41</ele>
      </trkpt>
      <trkpt lat="62.28937" lon="-7.14928">
        <ele>9.46</ele>
      </trkpt>
      <trkpt lat="62.28937" lon="-7.14931">
        <ele>9.51</ele>
      </trkpt>
      <trkpt lat="62.28937" lon="-7.14935">
        <ele>9.57</ele>
      </trkpt>
      <trkpt lat="62.28938" lon="-7.14942">
        <ele>9.72</ele>
      </trkpt>
      <trkpt lat="62.2894" lon="-7.14954">
        <ele>10.18</ele>
      </trkpt>
      <trkpt lat="62.2894" lon="-7.1496">
        <ele>10.4</ele>
      </trkpt>
      <trkpt lat="62.28941" lon="-7.14967">
        <ele>10.69</ele>
      </trkpt>
      <trkpt lat="62.28941" lon="-7.14971">
        <ele>10.83</ele>
      </trkpt>
      <trkpt lat="62.28941" lon="-7.14975">
        <ele>10.71</ele>
      </trkpt>
      <trkpt lat="62.28937" lon="-7.14983">
        <ele>10.27</ele>
      </trkpt>
      <trkpt lat="62.28932" lon="-7.14991">
        <ele>10.11</ele>
      </trkpt>
      <trkpt lat="62.28928" lon="-7.14999">
        <ele>10.19</ele>
      </trkpt>
      <trkpt lat="62.28925" lon="-7.15004">
        <ele>10.6</ele>
      </trkpt>
      <trkpt lat="62.28924" lon="-7.15007">
        <ele>10.84</ele>
      </trkpt>
      <trkpt lat="62.28922" lon="-7.15012">
        <ele>11.31</ele>
      </trkpt>
      <trkpt lat="62.28917" lon="-7.15022">
        <ele>12.54</ele>
      </trkpt>
      <trkpt lat="62.28915" lon="-7.1503">
        <ele>13.02</ele>
      </trkpt>
      <trkpt lat="62.28912" lon="-7.15039">
        <ele>13.3</ele>
      </trkpt>
      <trkpt lat="62.28907" lon="-7.15053">
        <ele>13.88</ele>
      </trkpt>
      <trkpt lat="62.28904" lon="-7.1506">
        <ele>14.32</ele>
      </trkpt>
      <trkpt lat="62.28899" lon="-7.15069">
        <ele>14.97</ele>
      </trkpt>
      <trkpt lat="62.28894" lon="-7.15082">
        <ele>15.9</ele>
      </trkpt>
      <trkpt lat="62.28892" lon="-7.15088">
        <ele>16.34</ele>
      </trkpt>
      <trkpt lat="62.28891" lon="-7.15092">
        <ele>16.62</ele>
      </trkpt>
      <trkpt lat="62.28888" lon="-7.15097">
        <ele>16.79</ele>
      </trkpt>
      <trkpt lat="62.28885" lon="-7.15103">
        <ele>16.58</ele>
      </trkpt>
      <trkpt lat="62.28884" lon="-7.15108">
        <ele>16.72</ele>
      </trkpt>
      <trkpt lat="62.28882" lon="-7.15115">
        <ele>16.83</ele>
      </trkpt>
      <trkpt lat="62.28879" lon="-7.15123">
        <ele>16.87</ele>
      </trkpt>
      <trkpt lat="62.28877" lon="-7.1513">
        <ele>17.08</ele>
      </trkpt>
      <trkpt lat="62.28874" lon="-7.15136">
        <ele>17.06</ele>
      </trkpt>
      <trkpt lat="62.28874" lon="-7.15136">
        <ele>17.06</ele>
      </trkpt>
      <trkpt lat="62.28871" lon="-7.15143">
        <ele>17.42</ele>
      </trkpt>
      <trkpt lat="62.28869" lon="-7.15147">
        <ele>17.67</ele>
      </trkpt>
      <trkpt lat="62.28866" lon="-7.15151">
        <ele>17.7</ele>
      </trkpt>
      <trkpt lat="62.28864" lon="-7.15157">
        <ele>18.2</ele>
      </trkpt>
      <trkpt lat="62.2886" lon="-7.15168">
        <ele>19.12</ele>
      </trkpt>
      <trkpt lat="62.2886" lon="-7.1517">
        <ele>19.48</ele>
      </trkpt>
      <trkpt lat="62.2886" lon="-7.15175">
        <ele>20.37</ele>
      </trkpt>
      <trkpt lat="62.2886" lon="-7.15181">
        <ele>21.44</ele>
      </trkpt>
      <trkpt lat="62.28857" lon="-7.15189">
        <ele>22.46</ele>
      </trkpt>
      <trkpt lat="62.28854" lon="-7.15194">
        <ele>22.9</ele>
      </trkpt>
      <trkpt lat="62.28852" lon="-7.15203">
        <ele>25.25</ele>
      </trkpt>
      <trkpt lat="62.28851" lon="-7.15204">
        <ele>25.42</ele>
      </trkpt>
      <trkpt lat="62.2885" lon="-7.15204">
        <ele>25.29</ele>
      </trkpt>
      <trkpt lat="62.28849" lon="-7.15201">
        <ele>24.25</ele>
      </trkpt>
      <trkpt lat="62.28847" lon="-7.152">
        <ele>23.67</ele>
      </trkpt>
      <trkpt lat="62.28845" lon="-7.15201">
        <ele>23.7</ele>
      </trkpt>
      <trkpt lat="62.28837" lon="-7.1521">
        <ele>25.49</ele>
      </trkpt>
      <trkpt lat="62.2883" lon="-7.15214">
        <ele>26.05</ele>
      </trkpt>
      <trkpt lat="62.28817" lon="-7.15219">
        <ele>26.33</ele>
      </trkpt>
      <trkpt lat="62.28799" lon="-7.15222">
        <ele>26.19</ele>
      </trkpt>
      <trkpt lat="62.28789" lon="-7.15222">
        <ele>26.57</ele>
      </trkpt>
      <trkpt lat="62.28754" lon="-7.15238">
        <ele>32.52</ele>
      </trkpt>
      <trkpt lat="62.28747" lon="-7.15231">
        <ele>34.64</ele>
      </trkpt>
      <trkpt lat="62.28699" lon="-7.15181">
        <ele>45.63</ele>
      </trkpt>
      <trkpt lat="62.2869" lon="-7.15192">
        <ele>52.25</ele>
      </trkpt>
      <trkpt lat="62.28672" lon="-7.15225">
        <ele>64.52</ele>
      </trkpt>
      <trkpt lat="62.28647" lon="-7.15288">
        <ele>75.03</ele>
      </trkpt>
      <trkpt lat="62.28629" lon="-7.15321">
        <ele>84.91</ele>
      </trkpt>
      <trkpt lat="62.28625" lon="-7.15327">
        <ele>86.97</ele>
      </trkpt>
      <trkpt lat="62.28621" lon="-7.15333">
        <ele>89.1</ele>
      </trkpt>
      <trkpt lat="62.28618" lon="-7.1534">
        <ele>90.98</ele>
      </trkpt>
      <trkpt lat="62.28617" lon="-7.15349">
        <ele>92.56</ele>
      </trkpt>
      <trkpt lat="62.28616" lon="-7.15359">
        <ele>94.29</ele>
      </trkpt>
      <trkpt lat="62.28616" lon="-7.15369">
        <ele>96.71</ele>
      </trkpt>
      <trkpt lat="62.28616" lon="-7.1538">
        <ele>99.67</ele>
      </trkpt>
      <trkpt lat="62.28616" lon="-7.1539">
        <ele>102.26</ele>
      </trkpt>
      <trkpt lat="62.28615" lon="-7.154">
        <ele>103.9</ele>
      </trkpt>
      <trkpt lat="62.2861" lon="-7.15404">
        <ele>103.76</ele>
      </trkpt>
      <trkpt lat="62.28606" lon="-7.15406">
        <ele>104.31</ele>
      </trkpt>
      <trkpt lat="62.28601" lon="-7.15407">
        <ele>104.73</ele>
      </trkpt>
      <trkpt lat="62.28596" lon="-7.15406">
        <ele>104.75</ele>
      </trkpt>
      <trkpt lat="62.28594" lon="-7.15406">
        <ele>104.84</ele>
      </trkpt>
      <trkpt lat="62.28591" lon="-7.15409">
        <ele>105.67</ele>
      </trkpt>
      <trkpt lat="62.28586" lon="-7.15411">
        <ele>106.42</ele>
      </trkpt>
      <trkpt lat="62.28582" lon="-7.15414">
        <ele>107.33</ele>
      </trkpt>
      <trkpt lat="62.28578" lon="-7.15417">
        <ele>108.06</ele>
      </trkpt>
      <trkpt lat="62.28573" lon="-7.15421">
        <ele>108.78</ele>
      </trkpt>
      <trkpt lat="62.28569" lon="-7.15425">
        <ele>109.5</ele>
      </trkpt>
      <trkpt lat="62.28565" lon="-7.15431">
        <ele>110.58</ele>
      </trkpt>
      <trkpt lat="62.28562" lon="-7.15438">
        <ele>111.84</ele>
      </trkpt>
      <trkpt lat="62.28559" lon="-7.15447">
        <ele>113.51</ele>
      </trkpt>
      <trkpt lat="62.28558" lon="-7.15456">
        <ele>115.23</ele>
      </trkpt>
      <trkpt lat="62.28559" lon="-7.15466">
        <ele>117.26</ele>
      </trkpt>
      <trkpt lat="62.28561" lon="-7.15475">
        <ele>119.5</ele>
      </trkpt>
      <trkpt lat="62.28564" lon="-7.15482">
        <ele>121.79</ele>
      </trkpt>
      <trkpt lat="62.28569" lon="-7.15486">
        <ele>123.65</ele>
      </trkpt>
      <trkpt lat="62.28573" lon="-7.15486">
        <ele>124.3</ele>
      </trkpt>
      <trkpt lat="62.28578" lon="-7.15485">
        <ele>124.82</ele>
      </trkpt>
      <trkpt lat="62.28583" lon="-7.15484">
        <ele>125.34</ele>
      </trkpt>
      <trkpt lat="62.28588" lon="-7.15484">
        <ele>125.25</ele>
      </trkpt>
      <trkpt lat="62.28593" lon="-7.15485">
        <ele>125.36</ele>
      </trkpt>
      <trkpt lat="62.28595" lon="-7.15489">
        <ele>126.32</ele>
      </trkpt>
      <trkpt lat="62.28596" lon="-7.15504">
        <ele>129.74</ele>
      </trkpt>
      <trkpt lat="62.28594" lon="-7.15513">
        <ele>131.39</ele>
      </trkpt>
      <trkpt lat="62.28592" lon="-7.15522">
        <ele>133.09</ele>
      </trkpt>
      <trkpt lat="62.28589" lon="-7.15531">
        <ele>134.74</ele>
      </trkpt>
      <trkpt lat="62.28588" lon="-7.15541">
        <ele>135.92</ele>
      </trkpt>
      <trkpt lat="62.28587" lon="-7.15547">
        <ele>136.68</ele>
      </trkpt>
      <trkpt lat="62.28587" lon="-7.15571">
        <ele>139.27</ele>
      </trkpt>
      <trkpt lat="62.28587" lon="-7.15581">
        <ele>140.35</ele>
      </trkpt>
      <trkpt lat="62.28586" lon="-7.15591">
        <ele>141.01</ele>
      </trkpt>
      <trkpt lat="62.28585" lon="-7.156">
        <ele>141.46</ele>
      </trkpt>
      <trkpt lat="62.28583" lon="-7.15608">
        <ele>141.92</ele>
      </trkpt>
      <trkpt lat="62.28572" lon="-7.1565">
        <ele>145.73</ele>
      </trkpt>
      <trkpt lat="62.28569" lon="-7.15658">
        <ele>146.92</ele>
      </trkpt>
      <trkpt lat="62.28566" lon="-7.15666">
        <ele>147.92</ele>
      </trkpt>
      <trkpt lat="62.28562" lon="-7.15672">
        <ele>148.62</ele>
      </trkpt>
      <trkpt lat="62.28559" lon="-7.1568">
        <ele>150.17</ele>
      </trkpt>
      <trkpt lat="62.28558" lon="-7.1569">
        <ele>152.15</ele>
      </trkpt>
      <trkpt lat="62.28558" lon="-7.157">
        <ele>151.23</ele>
      </trkpt>
      <trkpt lat="62.2856" lon="-7.15708">
        <ele>148.45</ele>
      </trkpt>
      <trkpt lat="62.28564" lon="-7.15716">
        <ele>146.37</ele>
      </trkpt>
      <trkpt lat="62.28566" lon="-7.15725">
        <ele>146.58</ele>
      </trkpt>
      <trkpt lat="62.28569" lon="-7.15733">
        <ele>149.85</ele>
      </trkpt>
      <trkpt lat="62.28569" lon="-7.15735">
        <ele>150.58</ele>
      </trkpt>
      <trkpt lat="62.2858" lon="-7.15761">
        <ele>156.03</ele>
      </trkpt>
      <trkpt lat="62.28583" lon="-7.15769">
        <ele>156.39</ele>
      </trkpt>
      <trkpt lat="62.28585" lon="-7.15778">
        <ele>157.76</ele>
      </trkpt>
      <trkpt lat="62.28584" lon="-7.15785">
        <ele>164.4</ele>
      </trkpt>
      <trkpt lat="62.28565" lon="-7.1584">
        <ele>191.14</ele>
      </trkpt>
      <trkpt lat="62.28561" lon="-7.15846">
        <ele>191.19</ele>
      </trkpt>
      <trkpt lat="62.28558" lon="-7.15852">
        <ele>190.3</ele>
      </trkpt>
      <trkpt lat="62.28553" lon="-7.15858">
        <ele>189.83</ele>
      </trkpt>
      <trkpt lat="62.2855" lon="-7.15864">
        <ele>191.85</ele>
      </trkpt>
      <trkpt lat="62.28546" lon="-7.15871">
        <ele>196.23</ele>
      </trkpt>
      <trkpt lat="62.28543" lon="-7.15877">
        <ele>199.3</ele>
      </trkpt>
      <trkpt lat="62.28538" lon="-7.15882">
        <ele>201.99</ele>
      </trkpt>
      <trkpt lat="62.28534" lon="-7.15886">
        <ele>203.68</ele>
      </trkpt>
      <trkpt lat="62.2853" lon="-7.1589">
        <ele>205.01</ele>
      </trkpt>
      <trkpt lat="62.28526" lon="-7.15894">
        <ele>206.35</ele>
      </trkpt>
      <trkpt lat="62.28521" lon="-7.15899">
        <ele>208.07</ele>
      </trkpt>
      <trkpt lat="62.28517" lon="-7.15904">
        <ele>209.6</ele>
      </trkpt>
      <trkpt lat="62.28515" lon="-7.15905">
        <ele>210.05</ele>
      </trkpt>
      <trkpt lat="62.28487" lon="-7.15966">
        <ele>227.49</ele>
      </trkpt>
      <trkpt lat="62.28487" lon="-7.15966">
        <ele>227.49</ele>
      </trkpt>
      <trkpt lat="62.28477" lon="-7.15986">
        <ele>237.65</ele>
      </trkpt>
      <trkpt lat="62.28472" lon="-7.15991">
        <ele>241.02</ele>
      </trkpt>
      <trkpt lat="62.28468" lon="-7.15996">
        <ele>241.03</ele>
      </trkpt>
      <trkpt lat="62.28465" lon="-7.16003">
        <ele>241.39</ele>
      </trkpt>
      <trkpt lat="62.28462" lon="-7.16012">
        <ele>242.55</ele>
      </trkpt>
      <trkpt lat="62.28461" lon="-7.16022">
        <ele>244.59</ele>
      </trkpt>
      <trkpt lat="62.28461" lon="-7.16033">
        <ele>245.74</ele>
      </trkpt>
      <trkpt lat="62.28462" lon="-7.16043">
        <ele>245.45</ele>
      </trkpt>
      <trkpt lat="62.28462" lon="-7.16053">
        <ele>244.88</ele>
      </trkpt>
      <trkpt lat="62.28463" lon="-7.16063">
        <ele>246.72</ele>
      </trkpt>
      <trkpt lat="62.28464" lon="-7.16073">
        <ele>249.43</ele>
      </trkpt>
      <trkpt lat="62.28465" lon="-7.16079">
        <ele>251.05</ele>
      </trkpt>
      <trkpt lat="62.28454" lon="-7.16108">
        <ele>257.65</ele>
      </trkpt>
      <trkpt lat="62.2845" lon="-7.16114">
        <ele>259.62</ele>
      </trkpt>
      <trkpt lat="62.28447" lon="-7.1612">
        <ele>260.94</ele>
      </trkpt>
      <trkpt lat="62.28443" lon="-7.16126">
        <ele>261.17</ele>
      </trkpt>
      <trkpt lat="62.28439" lon="-7.16132">
        <ele>260.74</ele>
      </trkpt>
      <trkpt lat="62.28436" lon="-7.16139">
        <ele>260.91</ele>
      </trkpt>
      <trkpt lat="62.28433" lon="-7.16147">
        <ele>263.04</ele>
      </trkpt>
      <trkpt lat="62.28431" lon="-7.16155">
        <ele>265.41</ele>
      </trkpt>
      <trkpt lat="62.28428" lon="-7.16164">
        <ele>267.9</ele>
      </trkpt>
      <trkpt lat="62.28425" lon="-7.16171">
        <ele>270.81</ele>
      </trkpt>
      <trkpt lat="62.28421" lon="-7.16177">
        <ele>273.67</ele>
      </trkpt>
      <trkpt lat="62.28416" lon="-7.1618">
        <ele>274.63</ele>
      </trkpt>
      <trkpt lat="62.28412" lon="-7.16181">
        <ele>275.18</ele>
      </trkpt>
      <trkpt lat="62.28409" lon="-7.16182">
        <ele>275.67</ele>
      </trkpt>
      <trkpt lat="62.2839" lon="-7.16207">
        <ele>282.45</ele>
      </trkpt>
      <trkpt lat="62.28387" lon="-7.16214">
        <ele>283.73</ele>
      </trkpt>
      <trkpt lat="62.28383" lon="-7.1622">
        <ele>284.97</ele>
      </trkpt>
      <trkpt lat="62.28379" lon="-7.16226">
        <ele>286.74</ele>
      </trkpt>
      <trkpt lat="62.28375" lon="-7.16231">
        <ele>288.48</ele>
      </trkpt>
      <trkpt lat="62.28371" lon="-7.16235">
        <ele>289.9</ele>
      </trkpt>
      <trkpt lat="62.28367" lon="-7.16239">
        <ele>291.42</ele>
      </trkpt>
      <trkpt lat="62.28362" lon="-7.16244">
        <ele>293.42</ele>
      </trkpt>
      <trkpt lat="62.28359" lon="-7.16249">
        <ele>294.82</ele>
      </trkpt>
      <trkpt lat="62.28354" lon="-7.16254">
        <ele>293.91</ele>
      </trkpt>
      <trkpt lat="62.2835" lon="-7.16258">
        <ele>293.15</ele>
      </trkpt>
      <trkpt lat="62.28349" lon="-7.1626">
        <ele>293.14</ele>
      </trkpt>
      <trkpt lat="62.28324" lon="-7.16292">
        <ele>298.42</ele>
      </trkpt>
      <trkpt lat="62.28324" lon="-7.16292">
        <ele>298.42</ele>
      </trkpt>
      <trkpt lat="62.28309" lon="-7.16329">
        <ele>306.35</ele>
      </trkpt>
      <trkpt lat="62.28309" lon="-7.16329">
        <ele>306.35</ele>
      </trkpt>
      <trkpt lat="62.28286" lon="-7.16386">
        <ele>313.35</ele>
      </trkpt>
      <trkpt lat="62.28286" lon="-7.16386">
        <ele>313.35</ele>
      </trkpt>
      <trkpt lat="62.2827" lon="-7.1641">
        <ele>314.59</ele>
      </trkpt>
      <trkpt lat="62.28265" lon="-7.16414">
        <ele>313.52</ele>
      </trkpt>
      <trkpt lat="62.2826" lon="-7.16418">
        <ele>312.49</ele>
      </trkpt>
      <trkpt lat="62.28256" lon="-7.16422">
        <ele>312.01</ele>
      </trkpt>
      <trkpt lat="62.28251" lon="-7.16425">
        <ele>311.1</ele>
      </trkpt>
      <trkpt lat="62.28247" lon="-7.1643">
        <ele>312.75</ele>
      </trkpt>
      <trkpt lat="62.28243" lon="-7.16435">
        <ele>314.9</ele>
      </trkpt>
      <trkpt lat="62.28239" lon="-7.16441">
        <ele>317.13</ele>
      </trkpt>
      <trkpt lat="62.28237" lon="-7.1645">
        <ele>320.09</ele>
      </trkpt>
      <trkpt lat="62.28234" lon="-7.16458">
        <ele>323.35</ele>
      </trkpt>
      <trkpt lat="62.28233" lon="-7.16462">
        <ele>324.83</ele>
      </trkpt>
      <trkpt lat="62.28201" lon="-7.16553">
        <ele>331.15</ele>
      </trkpt>
      <trkpt lat="62.28181" lon="-7.1661">
        <ele>334.35</ele>
      </trkpt>
      <trkpt lat="62.28181" lon="-7.1661">
        <ele>334.35</ele>
      </trkpt>
      <trkpt lat="62.28156" lon="-7.16655">
        <ele>339.41</ele>
      </trkpt>
      <trkpt lat="62.28156" lon="-7.16655">
        <ele>339.41</ele>
      </trkpt>
      <trkpt lat="62.28134" lon="-7.16707">
        <ele>343.23</ele>
      </trkpt>
      <trkpt lat="62.28134" lon="-7.16707">
        <ele>343.23</ele>
      </trkpt>
      <trkpt lat="62.28116" lon="-7.16744">
        <ele>348.54</ele>
      </trkpt>
      <trkpt lat="62.28116" lon="-7.16744">
        <ele>348.54</ele>
      </trkpt>
      <trkpt lat="62.28105" lon="-7.16769">
        <ele>348.36</ele>
      </trkpt>
      <trkpt lat="62.28105" lon="-7.16769">
        <ele>348.36</ele>
      </trkpt>
      <trkpt lat="62.28092" lon="-7.16828">
        <ele>348.71</ele>
      </trkpt>
      <trkpt lat="62.28092" lon="-7.16828">
        <ele>348.71</ele>
      </trkpt>
      <trkpt lat="62.28077" lon="-7.16885">
        <ele>359.58</ele>
      </trkpt>
      <trkpt lat="62.28077" lon="-7.16885">
        <ele>359.58</ele>
      </trkpt>
      <trkpt lat="62.28065" lon="-7.16904">
        <ele>364.23</ele>
      </trkpt>
      <trkpt lat="62.28065" lon="-7.16904">
        <ele>364.23</ele>
      </trkpt>
      <trkpt lat="62.28057" lon="-7.16937">
        <ele>367.51</ele>
      </trkpt>
      <trkpt lat="62.28057" lon="-7.16937">
        <ele>367.51</ele>
      </trkpt>
      <trkpt lat="62.28046" lon="-7.16962">
        <ele>369.16</ele>
      </trkpt>
      <trkpt lat="62.28046" lon="-7.16962">
        <ele>369.16</ele>
      </trkpt>
      <trkpt lat="62.28037" lon="-7.16972">
        <ele>370.01</ele>
      </trkpt>
      <trkpt lat="62.28036" lon="-7.16972">
        <ele>370.12</ele>
      </trkpt>
      <trkpt lat="62.28021" lon="-7.16987">
        <ele>371.66</ele>
      </trkpt>
      <trkpt lat="62.28021" lon="-7.16987">
        <ele>371.66</ele>
      </trkpt>
      <trkpt lat="62.28" lon="-7.17044">
        <ele>376.0</ele>
      </trkpt>
      <trkpt lat="62.28" lon="-7.17044">
        <ele>376.0</ele>
      </trkpt>
      <trkpt lat="62.27988" lon="-7.17063">
        <ele>377.68</ele>
      </trkpt>
      <trkpt lat="62.27988" lon="-7.17063">
        <ele>377.68</ele>
      </trkpt>
      <trkpt lat="62.27976" lon="-7.1709">
        <ele>380.66</ele>
      </trkpt>
      <trkpt lat="62.27976" lon="-7.17091">
        <ele>380.69</ele>
      </trkpt>
      <trkpt lat="62.27967" lon="-7.17123">
        <ele>381.95</ele>
      </trkpt>
      <trkpt lat="62.27967" lon="-7.17123">
        <ele>381.95</ele>
      </trkpt>
      <trkpt lat="62.27963" lon="-7.17171">
        <ele>381.91</ele>
      </trkpt>
      <trkpt lat="62.27963" lon="-7.17171">
        <ele>381.91</ele>
      </trkpt>
      <trkpt lat="62.27955" lon="-7.172">
        <ele>384.06</ele>
      </trkpt>
      <trkpt lat="62.27955" lon="-7.172">
        <ele>384.06</ele>
      </trkpt>
      <trkpt lat="62.27942" lon="-7.1723">
        <ele>384.73</ele>
      </trkpt>
      <trkpt lat="62.27942" lon="-7.1723">
        <ele>384.73</ele>
      </trkpt>
      <trkpt lat="62.27934" lon="-7.17273">
        <ele>393.27</ele>
      </trkpt>
      <trkpt lat="62.27934" lon="-7.17273">
        <ele>393.27</ele>
      </trkpt>
      <trkpt lat="62.2792" lon="-7.17294">
        <ele>395.2</ele>
      </trkpt>
      <trkpt lat="62.2792" lon="-7.17294">
        <ele>395.2</ele>
      </trkpt>
      <trkpt lat="62.27909" lon="-7.17315">
        <ele>394.34</ele>
      </trkpt>
      <trkpt lat="62.27906" lon="-7.17324">
        <ele>392.89</ele>
      </trkpt>
      <trkpt lat="62.27902" lon="-7.17331">
        <ele>391.42</ele>
      </trkpt>
      <trkpt lat="62.27898" lon="-7.17338">
        <ele>391.5</ele>
      </trkpt>
      <trkpt lat="62.27895" lon="-7.17345">
        <ele>392.83</ele>
      </trkpt>
      <trkpt lat="62.27892" lon="-7.17353">
        <ele>394.7</ele>
      </trkpt>
      <trkpt lat="62.27889" lon="-7.17361">
        <ele>396.96</ele>
      </trkpt>
      <trkpt lat="62.27886" lon="-7.17368">
        <ele>396.53</ele>
      </trkpt>
      <trkpt lat="62.27883" lon="-7.17375">
        <ele>396.11</ele>
      </trkpt>
      <trkpt lat="62.2788" lon="-7.17383">
        <ele>395.68</ele>
      </trkpt>
      <trkpt lat="62.27877" lon="-7.17389">
        <ele>395.45</ele>
      </trkpt>
      <trkpt lat="62.27867" lon="-7.17407">
        <ele>397.82</ele>
      </trkpt>
      <trkpt lat="62.27863" lon="-7.17416">
        <ele>397.57</ele>
      </trkpt>
      <trkpt lat="62.2786" lon="-7.17425">
        <ele>397.54</ele>
      </trkpt>
      <trkpt lat="62.27858" lon="-7.17434">
        <ele>398.16</ele>
      </trkpt>
      <trkpt lat="62.27857" lon="-7.17443">
        <ele>398.88</ele>
      </trkpt>
      <trkpt lat="62.27857" lon="-7.17453">
        <ele>399.97</ele>
      </trkpt>
      <trkpt lat="62.27856" lon="-7.17463">
        <ele>401.13</ele>
      </trkpt>
      <trkpt lat="62.27854" lon="-7.17472">
        <ele>402.23</ele>
      </trkpt>
      <trkpt lat="62.27853" lon="-7.17474">
        <ele>402.6</ele>
      </trkpt>
      <trkpt lat="62.27845" lon="-7.17515">
        <ele>410.83</ele>
      </trkpt>
      <trkpt lat="62.27844" lon="-7.17525">
        <ele>413.34</ele>
      </trkpt>
      <trkpt lat="62.27842" lon="-7.17535">
        <ele>414.76</ele>
      </trkpt>
      <trkpt lat="62.27839" lon="-7.17543">
        <ele>415.41</ele>
      </trkpt>
      <trkpt lat="62.27836" lon="-7.1755">
        <ele>416.2</ele>
      </trkpt>
      <trkpt lat="62.27832" lon="-7.17556">
        <ele>416.63</ele>
      </trkpt>
      <trkpt lat="62.27832" lon="-7.17557">
        <ele>416.88</ele>
      </trkpt>
      <trkpt lat="62.27804" lon="-7.1764">
        <ele>410.61</ele>
      </trkpt>
      <trkpt lat="62.27804" lon="-7.1764">
        <ele>410.61</ele>
      </trkpt>
      <trkpt lat="62.27792" lon="-7.17657">
        <ele>408.25</ele>
      </trkpt>
      <trkpt lat="62.27788" lon="-7.17664">
        <ele>407.45</ele>
      </trkpt>
      <trkpt lat="62.27787" lon="-7.17673">
        <ele>408.77</ele>
      </trkpt>
      <trkpt lat="62.27785" lon="-7.17683">
        <ele>410.54</ele>
      </trkpt>
      <trkpt lat="62.27784" lon="-7.17692">
        <ele>412.51</ele>
      </trkpt>
      <trkpt lat="62.27782" lon="-7.177">
        <ele>414.5</ele>
      </trkpt>
      <trkpt lat="62.27751" lon="-7.17764">
        <ele>426.23</ele>
      </trkpt>
      <trkpt lat="62.27751" lon="-7.17764">
        <ele>426.23</ele>
      </trkpt>
      <trkpt lat="62.27715" lon="-7.17834">
        <ele>431.01</ele>
      </trkpt>
      <trkpt lat="62.27715" lon="-7.17834">
        <ele>431.01</ele>
      </trkpt>
      <trkpt lat="62.27677" lon="-7.17894">
        <ele>432.76</ele>
      </trkpt>
      <trkpt lat="62.27677" lon="-7.17894">
        <ele>432.76</ele>
      </trkpt>
      <trkpt lat="62.27657" lon="-7.17925">
        <ele>433.43</ele>
      </trkpt>
      <trkpt lat="62.27657" lon="-7.17925">
        <ele>433.43</ele>
      </trkpt>
      <trkpt lat="62.27641" lon="-7.17956">
        <ele>437.49</ele>
      </trkpt>
      <trkpt lat="62.27641" lon="-7.17957">
        <ele>437.62</ele>
      </trkpt>
      <trkpt lat="62.2762" lon="-7.17993">
        <ele>437.85</ele>
      </trkpt>
      <trkpt lat="62.2762" lon="-7.17993">
        <ele>437.85</ele>
      </trkpt>
      <trkpt lat="62.27599" lon="-7.18051">
        <ele>447.19</ele>
      </trkpt>
      <trkpt lat="62.27599" lon="-7.18052">
        <ele>447.51</ele>
      </trkpt>
      <trkpt lat="62.27556" lon="-7.1816">
        <ele>451.85</ele>
      </trkpt>
      <trkpt lat="62.27553" lon="-7.1817">
        <ele>452.5</ele>
      </trkpt>
      <trkpt lat="62.27549" lon="-7.18178">
        <ele>452.19</ele>
      </trkpt>
      <trkpt lat="62.27546" lon="-7.18185">
        <ele>452.03</ele>
      </trkpt>
      <trkpt lat="62.27542" lon="-7.18193">
        <ele>451.42</ele>
      </trkpt>
      <trkpt lat="62.27539" lon="-7.18201">
        <ele>452.62</ele>
      </trkpt>
      <trkpt lat="62.27538" lon="-7.18204">
        <ele>453.1</ele>
      </trkpt>
      <trkpt lat="62.27523" lon="-7.18214">
        <ele>446.78</ele>
      </trkpt>
      <trkpt lat="62.27519" lon="-7.18221">
        <ele>446.92</ele>
      </trkpt>
      <trkpt lat="62.27515" lon="-7.18227">
        <ele>447.68</ele>
      </trkpt>
      <trkpt lat="62.27511" lon="-7.18233">
        <ele>447.88</ele>
      </trkpt>
      <trkpt lat="62.27507" lon="-7.18238">
        <ele>446.98</ele>
      </trkpt>
      <trkpt lat="62.27503" lon="-7.18242">
        <ele>445.18</ele>
      </trkpt>
      <trkpt lat="62.27499" lon="-7.18246">
        <ele>443.49</ele>
      </trkpt>
      <trkpt lat="62.27494" lon="-7.18251">
        <ele>444.04</ele>
      </trkpt>
      <trkpt lat="62.2749" lon="-7.18256">
        <ele>445.82</ele>
      </trkpt>
      <trkpt lat="62.27486" lon="-7.18261">
        <ele>447.14</ele>
      </trkpt>
      <trkpt lat="62.27482" lon="-7.18266">
        <ele>447.98</ele>
      </trkpt>
      <trkpt lat="62.27478" lon="-7.18272">
        <ele>448.65</ele>
      </trkpt>
      <trkpt lat="62.27474" lon="-7.18278">
        <ele>448.81</ele>
      </trkpt>
      <trkpt lat="62.2747" lon="-7.18286">
        <ele>452.51</ele>
      </trkpt>
      <trkpt lat="62.27466" lon="-7.18292">
        <ele>455.94</ele>
      </trkpt>
      <trkpt lat="62.27464" lon="-7.183">
        <ele>459.79</ele>
      </trkpt>
      <trkpt lat="62.27462" lon="-7.1831">
        <ele>461.89</ele>
      </trkpt>
      <trkpt lat="62.27462" lon="-7.18314">
        <ele>461.46</ele>
      </trkpt>
      <trkpt lat="62.27453" lon="-7.18352">
        <ele>462.79</ele>
      </trkpt>
      <trkpt lat="62.27449" lon="-7.18358">
        <ele>463.68</ele>
      </trkpt>
      <trkpt lat="62.27446" lon="-7.18364">
        <ele>464.59</ele>
      </trkpt>
      <trkpt lat="62.27442" lon="-7.18371">
        <ele>465.84</ele>
      </trkpt>
      <trkpt lat="62.27439" lon="-7.1838">
        <ele>467.46</ele>
      </trkpt>
      <trkpt lat="62.27437" lon="-7.18382">
        <ele>467.83</ele>
      </trkpt>
      <trkpt lat="62.27419" lon="-7.18428">
        <ele>474.9</ele>
      </trkpt>
      <trkpt lat="62.27415" lon="-7.18433">
        <ele>475.13</ele>
      </trkpt>
      <trkpt lat="62.2741" lon="-7.18437">
        <ele>474.92</ele>
      </trkpt>
      <trkpt lat="62.27405" lon="-7.18441">
        <ele>474.56</ele>
      </trkpt>
      <trkpt lat="62.27401" lon="-7.18444">
        <ele>474.14</ele>
      </trkpt>
      <trkpt lat="62.27397" lon="-7.18449">
        <ele>473.54</ele>
      </trkpt>
      <trkpt lat="62.27392" lon="-7.18453">
        <ele>472.42</ele>
      </trkpt>
      <trkpt lat="62.27389" lon="-7.1846">
        <ele>471.47</ele>
      </trkpt>
      <trkpt lat="62.27386" lon="-7.18467">
        <ele>471.34</ele>
      </trkpt>
      <trkpt lat="62.27382" lon="-7.18475">
        <ele>472.65</ele>
      </trkpt>
      <trkpt lat="62.2738" lon="-7.18484">
        <ele>476.58</ele>
      </trkpt>
      <trkpt lat="62.27376" lon="-7.18491">
        <ele>479.99</ele>
      </trkpt>
      <trkpt lat="62.27372" lon="-7.18494">
        <ele>481.79</ele>
      </trkpt>
      <trkpt lat="62.27371" lon="-7.18495">
        <ele>482.36</ele>
      </trkpt>
      <trkpt lat="62.27361" lon="-7.18506">
        <ele>486.65</ele>
      </trkpt>
      <trkpt lat="62.27358" lon="-7.18513">
        <ele>487.52</ele>
      </trkpt>
      <trkpt lat="62.27355" lon="-7.18521">
        <ele>488.38</ele>
      </trkpt>
      <trkpt lat="62.27351" lon="-7.18527">
        <ele>488.94</ele>
      </trkpt>
      <trkpt lat="62.27347" lon="-7.18534">
        <ele>489.45</ele>
      </trkpt>
      <trkpt lat="62.27343" lon="-7.18539">
        <ele>489.81</ele>
      </trkpt>
      <trkpt lat="62.27338" lon="-7.18544">
        <ele>490.17</ele>
      </trkpt>
      <trkpt lat="62.27335" lon="-7.18552">
        <ele>490.74</ele>
      </trkpt>
      <trkpt lat="62.27334" lon="-7.18555">
        <ele>490.96</ele>
      </trkpt>
      <trkpt lat="62.27326" lon="-7.18565">
        <ele>491.14</ele>
      </trkpt>
      <trkpt lat="62.27322" lon="-7.18566">
        <ele>490.75</ele>
      </trkpt>
      <trkpt lat="62.27317" lon="-7.1857">
        <ele>490.49</ele>
      </trkpt>
      <trkpt lat="62.27313" lon="-7.18574">
        <ele>490.31</ele>
      </trkpt>
      <trkpt lat="62.27308" lon="-7.18578">
        <ele>489.95</ele>
      </trkpt>
      <trkpt lat="62.27304" lon="-7.18584">
        <ele>490.05</ele>
      </trkpt>
      <trkpt lat="62.273" lon="-7.18591">
        <ele>490.66</ele>
      </trkpt>
      <trkpt lat="62.27297" lon="-7.18598">
        <ele>491.38</ele>
      </trkpt>
      <trkpt lat="62.27295" lon="-7.18607">
        <ele>492.35</ele>
      </trkpt>
      <trkpt lat="62.27295" lon="-7.18617">
        <ele>494.35</ele>
      </trkpt>
      <trkpt lat="62.27298" lon="-7.18626">
        <ele>496.78</ele>
      </trkpt>
      <trkpt lat="62.273" lon="-7.18634">
        <ele>499.16</ele>
      </trkpt>
      <trkpt lat="62.273" lon="-7.18634">
        <ele>499.16</ele>
      </trkpt>
      <trkpt lat="62.27366" lon="-7.18708">
        <ele>510.5</ele>
      </trkpt>
      <trkpt lat="62.27366" lon="-7.18708">
        <ele>510.5</ele>
      </trkpt>
      <trkpt lat="62.27433" lon="-7.1884">
        <ele>530.36</ele>
      </trkpt>
      <trkpt lat="62.27433" lon="-7.1884">
        <ele>530.36</ele>
      </trkpt>
      <trkpt lat="62.27466" lon="-7.1893">
        <ele>533.55</ele>
      </trkpt>
      <trkpt lat="62.27498" lon="-7.19019">
        <ele>534.78</ele>
      </trkpt>
      <trkpt lat="62.27531" lon="-7.19109">
        <ele>532.75</ele>
      </trkpt>
      <trkpt lat="62.27563" lon="-7.19199">
        <ele>550.42</ele>
      </trkpt>
      <trkpt lat="62.27563" lon="-7.19199">
        <ele>550.42</ele>
      </trkpt>
      <trkpt lat="62.276" lon="-7.19274">
        <ele>555.04</ele>
      </trkpt>
      <trkpt lat="62.27636" lon="-7.19348">
        <ele>562.16</ele>
      </trkpt>
      <trkpt lat="62.27673" lon="-7.19423">
        <ele>562.63</ele>
      </trkpt>
      <trkpt lat="62.27673" lon="-7.19423">
        <ele>562.63</ele>
      </trkpt>
      <trkpt lat="62.27711" lon="-7.19532">
        <ele>572.34</ele>
      </trkpt>
      <trkpt lat="62.27748" lon="-7.19641">
        <ele>596.24</ele>
      </trkpt>
      <trkpt lat="62.27748" lon="-7.19641">
        <ele>596.24</ele>
      </trkpt>
      <trkpt lat="62.2778" lon="-7.19728">
        <ele>582.27</ele>
      </trkpt>
      <trkpt lat="62.27812" lon="-7.19815">
        <ele>590.63</ele>
      </trkpt>
      <trkpt lat="62.27844" lon="-7.19902">
        <ele>604.54</ele>
      </trkpt>
      <trkpt lat="62.27844" lon="-7.19904">
        <ele>604.62</ele>
      </trkpt>
      <trkpt lat="62.27888" lon="-7.19962">
        <ele>618.5</ele>
      </trkpt>
      <trkpt lat="62.27931" lon="-7.20019">
        <ele>626.92</ele>
      </trkpt>
      <trkpt lat="62.27931" lon="-7.20021">
        <ele>627.14</ele>
      </trkpt>
      <trkpt lat="62.27977" lon="-7.20147">
        <ele>637.5</ele>
      </trkpt>
      <trkpt lat="62.2798" lon="-7.20154">
        <ele>638.02</ele>
      </trkpt>
      <trkpt lat="62.27984" lon="-7.20162">
        <ele>638.33</ele>
      </trkpt>
      <trkpt lat="62.27987" lon="-7.20169">
        <ele>637.2</ele>
      </trkpt>
      <trkpt lat="62.2799" lon="-7.2018">
        <ele>630.92</ele>
      </trkpt>
      <trkpt lat="62.27993" lon="-7.20189">
        <ele>624.92</ele>
      </trkpt>
      <trkpt lat="62.27995" lon="-7.20198">
        <ele>619.55</ele>
      </trkpt>
      <trkpt lat="62.27995" lon="-7.20209">
        <ele>615.45</ele>
      </trkpt>
      <trkpt lat="62.27992" lon="-7.20218">
        <ele>613.64</ele>
      </trkpt>
      <trkpt lat="62.27988" lon="-7.20226">
        <ele>613.37</ele>
      </trkpt>
      <trkpt lat="62.27984" lon="-7.20231">
        <ele>614.48</ele>
      </trkpt>
      <trkpt lat="62.27979" lon="-7.20236">
        <ele>616.1</ele>
      </trkpt>
      <trkpt lat="62.27974" lon="-7.20242">
        <ele>617.54</ele>
      </trkpt>
      <trkpt lat="62.2797" lon="-7.20246">
        <ele>618.6</ele>
      </trkpt>
      <trkpt lat="62.27966" lon="-7.20249">
        <ele>619.64</ele>
      </trkpt>
      <trkpt lat="62.27962" lon="-7.20253">
        <ele>620.64</ele>
      </trkpt>
      <trkpt lat="62.27957" lon="-7.2026">
        <ele>621.55</ele>
      </trkpt>
      <trkpt lat="62.27953" lon="-7.20268">
        <ele>621.77</ele>
      </trkpt>
      <trkpt lat="62.27948" lon="-7.20275">
        <ele>622.32</ele>
      </trkpt>
      <trkpt lat="62.27945" lon="-7.20282">
        <ele>622.21</ele>
      </trkpt>
      <trkpt lat="62.2794" lon="-7.20288">
        <ele>621.43</ele>
      </trkpt>
      <trkpt lat="62.27937" lon="-7.20297">
        <ele>620.15</ele>
      </trkpt>
      <trkpt lat="62.27933" lon="-7.20306">
        <ele>619.04</ele>
      </trkpt>
      <trkpt lat="62.27931" lon="-7.20315">
        <ele>620.14</ele>
      </trkpt>
      <trkpt lat="62.27928" lon="-7.20324">
        <ele>621.87</ele>
      </trkpt>
      <trkpt lat="62.27925" lon="-7.20333">
        <ele>624.24</ele>
      </trkpt>
      <trkpt lat="62.27922" lon="-7.20343">
        <ele>624.58</ele>
      </trkpt>
      <trkpt lat="62.27918" lon="-7.20352">
        <ele>625.22</ele>
      </trkpt>
      <trkpt lat="62.27915" lon="-7.20361">
        <ele>625.67</ele>
      </trkpt>
      <trkpt lat="62.27911" lon="-7.20368">
        <ele>626.8</ele>
      </trkpt>
      <trkpt lat="62.27908" lon="-7.20375">
        <ele>627.59</ele>
      </trkpt>
      <trkpt lat="62.27905" lon="-7.20383">
        <ele>628.37</ele>
      </trkpt>
      <trkpt lat="62.27901" lon="-7.2039">
        <ele>629.71</ele>
      </trkpt>
      <trkpt lat="62.27899" lon="-7.20399">
        <ele>630.14</ele>
      </trkpt>
      <trkpt lat="62.27895" lon="-7.20407">
        <ele>631.56</ele>
      </trkpt>
      <trkpt lat="62.27893" lon="-7.20412">
        <ele>632.27</ele>
      </trkpt>
      <trkpt lat="62.2787" lon="-7.20571">
        <ele>628.5</ele>
      </trkpt>
      <trkpt lat="62.2787" lon="-7.20571">
        <ele>628.5</ele>
      </trkpt>
      <trkpt lat="62.27879" lon="-7.20745">
        <ele>605.4</ele>
      </trkpt>
      <trkpt lat="62.27879" lon="-7.20745">
        <ele>605.4</ele>
      </trkpt>
      <trkpt lat="62.27896" lon="-7.20855">
        <ele>619.54</ele>
      </trkpt>
      <trkpt lat="62.27913" lon="-7.20964">
        <ele>623.53</ele>
      </trkpt>
      <trkpt lat="62.2793" lon="-7.21074">
        <ele>600.57</ele>
      </trkpt>
      <trkpt lat="62.2793" lon="-7.21074">
        <ele>600.57</ele>
      </trkpt>
      <trkpt lat="62.27947" lon="-7.21198">
        <ele>592.58</ele>
      </trkpt>
      <trkpt lat="62.27964" lon="-7.21322">
        <ele>617.56</ele>
      </trkpt>
      <trkpt lat="62.27964" lon="-7.21322">
        <ele>617.56</ele>
      </trkpt>
      <trkpt lat="62.27983" lon="-7.21449">
        <ele>621.76</ele>
      </trkpt>
      <trkpt lat="62.28002" lon="-7.21576">
        <ele>588.32</ele>
      </trkpt>
      <trkpt lat="62.28002" lon="-7.21576">
        <ele>588.32</ele>
      </trkpt>
      <trkpt lat="62.2802" lon="-7.21693">
        <ele>575.73</ele>
      </trkpt>
      <trkpt lat="62.28037" lon="-7.2181">
        <ele>577.07</ele>
      </trkpt>
      <trkpt lat="62.28037" lon="-7.2181">
        <ele>577.07</ele>
      </trkpt>
      <trkpt lat="62.28047" lon="-7.21921">
        <ele>572.42</ele>
      </trkpt>
      <trkpt lat="62.28056" lon="-7.22033">
        <ele>570.82</ele>
      </trkpt>
      <trkpt lat="62.28066" lon="-7.22144">
        <ele>569.48</ele>
      </trkpt>
      <trkpt lat="62.28066" lon="-7.22144">
        <ele>569.48</ele>
      </trkpt>
      <trkpt lat="62.28077" lon="-7.22258">
        <ele>569.66</ele>
      </trkpt>
      <trkpt lat="62.28088" lon="-7.22371">
        <ele>547.87</ele>
      </trkpt>
      <trkpt lat="62.28088" lon="-7.22371">
        <ele>547.87</ele>
      </trkpt>
      <trkpt lat="62.28103" lon="-7.2251">
        <ele>271.83</ele>
      </trkpt>
      <trkpt lat="62.28103" lon="-7.2251">
        <ele>271.83</ele>
      </trkpt>
      <trkpt lat="62.28103" lon="-7.2251">
        <ele>271.83</ele>
      </trkpt>
      <trkpt lat="62.28088" lon="-7.22371">
        <ele>547.87</ele>
      </trkpt>
      <trkpt lat="62.28088" lon="-7.22371">
        <ele>547.87</ele>
      </trkpt>
      <trkpt lat="62.28077" lon="-7.22258">
        <ele>569.66</ele>
      </trkpt>
      <trkpt lat="62.28066" lon="-7.22144">
        <ele>569.48</ele>
      </trkpt>
      <trkpt lat="62.28066" lon="-7.22144">
        <ele>569.48</ele>
      </trkpt>
      <trkpt lat="62.28056" lon="-7.22033">
        <ele>570.82</ele>
      </trkpt>
      <trkpt lat="62.28047" lon="-7.21921">
        <ele>572.42</ele>
      </trkpt>
      <trkpt lat="62.28037" lon="-7.2181">
        <ele>577.07</ele>
      </trkpt>
      <trkpt lat="62.28037" lon="-7.2181">
        <ele>577.07</ele>
      </trkpt>
      <trkpt lat="62.2802" lon="-7.21693">
        <ele>575.73</ele>
      </trkpt>
      <trkpt lat="62.28002" lon="-7.21576">
        <ele>588.32</ele>
      </trkpt>
      <trkpt lat="62.28002" lon="-7.21576">
        <ele>588.32</ele>
      </trkpt>
      <trkpt lat="62.27983" lon="-7.21449">
        <ele>621.76</ele>
      </trkpt>
      <trkpt lat="62.27964" lon="-7.21322">
        <ele>617.56</ele>
      </trkpt>
      <trkpt lat="62.27964" lon="-7.21322">
        <ele>617.56</ele>
      </trkpt>
      <trkpt lat="62.27947" lon="-7.21198">
        <ele>592.58</ele>
      </trkpt>
      <trkpt lat="62.2793" lon="-7.21074">
        <ele>600.57</ele>
      </trkpt>
      <trkpt lat="62.2793" lon="-7.21074">
        <ele>600.57</ele>
      </trkpt>
      <trkpt lat="62.27913" lon="-7.20964">
        <ele>623.53</ele>
      </trkpt>
      <trkpt lat="62.27896" lon="-7.20855">
        <ele>619.54</ele>
      </trkpt>
      <trkpt lat="62.27879" lon="-7.20745">
        <ele>605.4</ele>
      </trkpt>
      <trkpt lat="62.27879" lon="-7.20745">
        <ele>605.4</ele>
      </trkpt>
      <trkpt lat="62.2787" lon="-7.20571">
        <ele>628.5</ele>
      </trkpt>
      <trkpt lat="62.2787" lon="-7.20571">
        <ele>628.5</ele>
      </trkpt>
      <trkpt lat="62.27893" lon="-7.20412">
        <ele>632.27</ele>
      </trkpt>
      <trkpt lat="62.27895" lon="-7.20407">
        <ele>631.56</ele>
      </trkpt>
      <trkpt lat="62.27899" lon="-7.20399">
        <ele>630.14</ele>
      </trkpt>
      <trkpt lat="62.27901" lon="-7.2039">
        <ele>629.71</ele>
      </trkpt>
      <trkpt lat="62.27905" lon="-7.20383">
        <ele>628.37</ele>
      </trkpt>
      <trkpt lat="62.27908" lon="-7.20375">
        <ele>627.59</ele>
      </trkpt>
      <trkpt lat="62.27911" lon="-7.20368">
        <ele>626.8</ele>
      </trkpt>
      <trkpt lat="62.27915" lon="-7.20361">
        <ele>625.67</ele>
      </trkpt>
      <trkpt lat="62.27918" lon="-7.20352">
        <ele>625.22</ele>
      </trkpt>
      <trkpt lat="62.27922" lon="-7.20343">
        <ele>624.58</ele>
      </trkpt>
      <trkpt lat="62.27925" lon="-7.20333">
        <ele>624.24</ele>
      </trkpt>
      <trkpt lat="62.27928" lon="-7.20324">
        <ele>621.87</ele>
      </trkpt>
      <trkpt lat="62.27931" lon="-7.20315">
        <ele>620.14</ele>
      </trkpt>
      <trkpt lat="62.27933" lon="-7.20306">
        <ele>619.04</ele>
      </trkpt>
      <trkpt lat="62.27937" lon="-7.20297">
        <ele>620.15</ele>
      </trkpt>
      <trkpt lat="62.2794" lon="-7.20288">
        <ele>621.43</ele>
      </trkpt>
      <trkpt lat="62.27945" lon="-7.20282">
        <ele>622.21</ele>
      </trkpt>
      <trkpt lat="62.27948" lon="-7.20275">
        <ele>622.32</ele>
      </trkpt>
      <trkpt lat="62.27953" lon="-7.20268">
        <ele>621.77</ele>
      </trkpt>
      <trkpt lat="62.27957" lon="-7.2026">
        <ele>621.55</ele>
      </trkpt>
      <trkpt lat="62.27962" lon="-7.20253">
        <ele>620.64</ele>
      </trkpt>
      <trkpt lat="62.27966" lon="-7.20249">
        <ele>619.64</ele>
      </trkpt>
      <trkpt lat="62.2797" lon="-7.20246">
        <ele>618.6</ele>
      </trkpt>
      <trkpt lat="62.27974" lon="-7.20242">
        <ele>617.54</ele>
      </trkpt>
      <trkpt lat="62.27979" lon="-7.20236">
        <ele>616.1</ele>
      </trkpt>
      <trkpt lat="62.27984" lon="-7.20231">
        <ele>614.48</ele>
      </trkpt>
      <trkpt lat="62.27988" lon="-7.20226">
        <ele>613.37</ele>
      </trkpt>
      <trkpt lat="62.27992" lon="-7.20218">
        <ele>613.64</ele>
      </trkpt>
      <trkpt lat="62.27995" lon="-7.20209">
        <ele>615.45</ele>
      </trkpt>
      <trkpt lat="62.27995" lon="-7.20198">
        <ele>619.55</ele>
      </trkpt>
      <trkpt lat="62.27993" lon="-7.20189">
        <ele>624.92</ele>
      </trkpt>
      <trkpt lat="62.2799" lon="-7.2018">
        <ele>630.92</ele>
      </trkpt>
      <trkpt lat="62.27987" lon="-7.20169">
        <ele>637.2</ele>
      </trkpt>
      <trkpt lat="62.27984" lon="-7.20162">
        <ele>638.33</ele>
      </trkpt>
      <trkpt lat="62.2798" lon="-7.20154">
        <ele>638.02</ele>
      </trkpt>
      <trkpt lat="62.27977" lon="-7.20147">
        <ele>637.5</ele>
      </trkpt>
      <trkpt lat="62.27931" lon="-7.20021">
        <ele>627.14</ele>
      </trkpt>
      <trkpt lat="62.27931" lon="-7.20019">
        <ele>626.92</ele>
      </trkpt>
      <trkpt lat="62.27888" lon="-7.19962">
        <ele>618.5</ele>
      </trkpt>
      <trkpt lat="62.27844" lon="-7.19904">
        <ele>604.62</ele>
      </trkpt>
      <trkpt lat="62.27844" lon="-7.19902">
        <ele>604.54</ele>
      </trkpt>
      <trkpt lat="62.27812" lon="-7.19815">
        <ele>590.63</ele>
      </trkpt>
      <trkpt lat="62.2778" lon="-7.19728">
        <ele>582.27</ele>
      </trkpt>
      <trkpt lat="62.27748" lon="-7.19641">
        <ele>596.24</ele>
      </trkpt>
      <trkpt lat="62.27748" lon="-7.19641">
        <ele>596.24</ele>
      </trkpt>
      <trkpt lat="62.27711" lon="-7.19532">
        <ele>572.34</ele>
      </trkpt>
      <trkpt lat="62.27673" lon="-7.19423">
        <ele>562.63</ele>
      </trkpt>
      <trkpt lat="62.27673" lon="-7.19423">
        <ele>562.63</ele>
      </trkpt>
      <trkpt lat="62.27636" lon="-7.19348">
        <ele>562.16</ele>
      </trkpt>
      <trkpt lat="62.276" lon="-7.19274">
        <ele>555.04</ele>
      </trkpt>
      <trkpt lat="62.27563" lon="-7.19199">
        <ele>550.42</ele>
      </trkpt>
      <trkpt lat="62.27563" lon="-7.19199">
        <ele>550.42</ele>
      </trkpt>
      <trkpt lat="62.27531" lon="-7.19109">
        <ele>532.75</ele>
      </trkpt>
      <trkpt lat="62.27498" lon="-7.19019">
        <ele>534.78</ele>
      </trkpt>
      <trkpt lat="62.27466" lon="-7.1893">
        <ele>533.55</ele>
      </trkpt>
      <trkpt lat="62.27433" lon="-7.1884">
        <ele>530.36</ele>
      </trkpt>
      <trkpt lat="62.27433" lon="-7.1884">
        <ele>530.36</ele>
      </trkpt>
      <trkpt lat="62.27366" lon="-7.18708">
        <ele>510.5</ele>
      </trkpt>
      <trkpt lat="62.27366" lon="-7.18708">
        <ele>510.5</ele>
      </trkpt>
      <trkpt lat="62.273" lon="-7.18634">
        <ele>499.16</ele>
      </trkpt>
      <trkpt lat="62.273" lon="-7.18634">
        <ele>499.16</ele>
      </trkpt>
      <trkpt lat="62.27298" lon="-7.18626">
        <ele>496.78</ele>
      </trkpt>
      <trkpt lat="62.27295" lon="-7.18617">
        <ele>494.35</ele>
      </trkpt>
      <trkpt lat="62.27295" lon="-7.18607">
        <ele>492.35</ele>
      </trkpt>
      <trkpt lat="62.27297" lon="-7.18598">
        <ele>491.38</ele>
      </trkpt>
      <trkpt lat="62.273" lon="-7.18591">
        <ele>490.66</ele>
      </trkpt>
      <trkpt lat="62.27304" lon="-7.18584">
        <ele>490.05</ele>
      </trkpt>
      <trkpt lat="62.27308" lon="-7.18578">
        <ele>489.95</ele>
      </trkpt>
      <trkpt lat="62.27313" lon="-7.18574">
        <ele>490.31</ele>
      </trkpt>
      <trkpt lat="62.27317" lon="-7.1857">
        <ele>490.49</ele>
      </trkpt>
      <trkpt lat="62.27322" lon="-7.18566">
        <ele>490.75</ele>
      </trkpt>
      <trkpt lat="62.27326" lon="-7.18565">
        <ele>491.14</ele>
      </trkpt>
      <trkpt lat="62.27334" lon="-7.18555">
        <ele>490.96</ele>
      </trkpt>
      <trkpt lat="62.27335" lon="-7.18552">
        <ele>490.74</ele>
      </trkpt>
      <trkpt lat="62.27338" lon="-7.18544">
        <ele>490.17</ele>
      </trkpt>
      <trkpt lat="62.27343" lon="-7.18539">
        <ele>489.81</ele>
      </trkpt>
      <trkpt lat="62.27347" lon="-7.18534">
        <ele>489.45</ele>
      </trkpt>
      <trkpt lat="62.27351" lon="-7.18527">
        <ele>488.94</ele>
      </trkpt>
      <trkpt lat="62.27355" lon="-7.18521">
        <ele>488.38</ele>
      </trkpt>
      <trkpt lat="62.27358" lon="-7.18513">
        <ele>487.52</ele>
      </trkpt>
      <trkpt lat="62.27361" lon="-7.18506">
        <ele>486.65</ele>
      </trkpt>
      <trkpt lat="62.27371" lon="-7.18495">
        <ele>482.36</ele>
      </trkpt>
      <trkpt lat="62.27372" lon="-7.18494">
        <ele>481.79</ele>
      </trkpt>
      <trkpt lat="62.27376" lon="-7.18491">
        <ele>479.99</ele>
      </trkpt>
      <trkpt lat="62.2738" lon="-7.18484">
        <ele>476.58</ele>
      </trkpt>
      <trkpt lat="62.27382" lon="-7.18475">
        <ele>472.65</ele>
      </trkpt>
      <trkpt lat="62.27386" lon="-7.18467">
        <ele>471.34</ele>
      </trkpt>
      <trkpt lat="62.27389" lon="-7.1846">
        <ele>471.47</ele>
      </trkpt>
      <trkpt lat="62.27392" lon="-7.18453">
        <ele>472.42</ele>
      </trkpt>
      <trkpt lat="62.27397" lon="-7.18449">
        <ele>473.54</ele>
      </trkpt>
      <trkpt lat="62.27401" lon="-7.18444">
        <ele>474.14</ele>
      </trkpt>
      <trkpt lat="62.27405" lon="-7.18441">
        <ele>474.56</ele>
      </trkpt>
      <trkpt lat="62.2741" lon="-7.18437">
        <ele>474.92</ele>
      </trkpt>
      <trkpt lat="62.27415" lon="-7.18433">
        <ele>475.13</ele>
      </trkpt>
      <trkpt lat="62.27419" lon="-7.18428">
        <ele>474.9</ele>
      </trkpt>
      <trkpt lat="62.27437" lon="-7.18382">
        <ele>467.83</ele>
      </trkpt>
      <trkpt lat="62.27439" lon="-7.1838">
        <ele>467.46</ele>
      </trkpt>
      <trkpt lat="62.27442" lon="-7.18371">
        <ele>465.84</ele>
      </trkpt>
      <trkpt lat="62.27446" lon="-7.18364">
        <ele>464.59</ele>
      </trkpt>
      <trkpt lat="62.27449" lon="-7.18358">
        <ele>463.68</ele>
      </trkpt>
      <trkpt lat="62.27453" lon="-7.18352">
        <ele>462.79</ele>
      </trkpt>
      <trkpt lat="62.27462" lon="-7.18314">
        <ele>461.46</ele>
      </trkpt>
      <trkpt lat="62.27462" lon="-7.1831">
        <ele>461.89</ele>
      </trkpt>
      <trkpt lat="62.27464" lon="-7.183">
        <ele>459.79</ele>
      </trkpt>
      <trkpt lat="62.27466" lon="-7.18292">
        <ele>455.94</ele>
      </trkpt>
      <trkpt lat="62.2747" lon="-7.18286">
        <ele>452.51</ele>
      </trkpt>
      <trkpt lat="62.27474" lon="-7.18278">
        <ele>448.81</ele>
      </trkpt>
      <trkpt lat="62.27478" lon="-7.18272">
        <ele>448.65</ele>
      </trkpt>
      <trkpt lat="62.27482" lon="-7.18266">
        <ele>447.98</ele>
      </trkpt>
      <trkpt lat="62.27486" lon="-7.18261">
        <ele>447.14</ele>
      </trkpt>
      <trkpt lat="62.2749" lon="-7.18256">
        <ele>445.82</ele>
      </trkpt>
      <trkpt lat="62.27494" lon="-7.18251">
        <ele>444.04</ele>
      </trkpt>
      <trkpt lat="62.27499" lon="-7.18246">
        <ele>443.49</ele>
      </trkpt>
      <trkpt lat="62.27503" lon="-7.18242">
        <ele>445.18</ele>
      </trkpt>
      <trkpt lat="62.27507" lon="-7.18238">
        <ele>446.98</ele>
      </trkpt>
      <trkpt lat="62.27511" lon="-7.18233">
        <ele>447.88</ele>
      </trkpt>
      <trkpt lat="62.27515" lon="-7.18227">
        <ele>447.68</ele>
      </trkpt>
      <trkpt lat="62.27519" lon="-7.18221">
        <ele>446.92</ele>
      </trkpt>
      <trkpt lat="62.27523" lon="-7.18214">
        <ele>446.78</ele>
      </trkpt>
      <trkpt lat="62.27538" lon="-7.18204">
        <ele>453.1</ele>
      </trkpt>
      <trkpt lat="62.27539" lon="-7.18201">
        <ele>452.62</ele>
      </trkpt>
      <trkpt lat="62.27542" lon="-7.18193">
        <ele>451.42</ele>
      </trkpt>
      <trkpt lat="62.27546" lon="-7.18185">
        <ele>452.03</ele>
      </trkpt>
      <trkpt lat="62.27549" lon="-7.18178">
        <ele>452.19</ele>
      </trkpt>
      <trkpt lat="62.27553" lon="-7.1817">
        <ele>452.5</ele>
      </trkpt>
      <trkpt lat="62.27556" lon="-7.1816">
        <ele>451.85</ele>
      </trkpt>
      <trkpt lat="62.27599" lon="-7.18052">
        <ele>447.51</ele>
      </trkpt>
      <trkpt lat="62.27599" lon="-7.18051">
        <ele>447.19</ele>
      </trkpt>
      <trkpt lat="62.2762" lon="-7.17993">
        <ele>437.85</ele>
      </trkpt>
      <trkpt lat="62.2762" lon="-7.17993">
        <ele>437.85</ele>
      </trkpt>
      <trkpt lat="62.27641" lon="-7.17957">
        <ele>437.62</ele>
      </trkpt>
      <trkpt lat="62.27641" lon="-7.17956">
        <ele>437.49</ele>
      </trkpt>
      <trkpt lat="62.27657" lon="-7.17925">
        <ele>433.43</ele>
      </trkpt>
      <trkpt lat="62.27657" lon="-7.17925">
        <ele>433.43</ele>
      </trkpt>
      <trkpt lat="62.27677" lon="-7.17894">
        <ele>432.76</ele>
      </trkpt>
      <trkpt lat="62.27677" lon="-7.17894">
        <ele>432.76</ele>
      </trkpt>
      <trkpt lat="62.27715" lon="-7.17834">
        <ele>431.01</ele>
      </trkpt>
      <trkpt lat="62.27715" lon="-7.17834">
        <ele>431.01</ele>
      </trkpt>
      <trkpt lat="62.27751" lon="-7.17764">
        <ele>426.23</ele>
      </trkpt>
      <trkpt lat="62.27751" lon="-7.17764">
        <ele>426.23</ele>
      </trkpt>
      <trkpt lat="62.27782" lon="-7.177">
        <ele>414.5</ele>
      </trkpt>
      <trkpt lat="62.27784" lon="-7.17692">
        <ele>412.51</ele>
      </trkpt>
      <trkpt lat="62.27785" lon="-7.17683">
        <ele>410.54</ele>
      </trkpt>
      <trkpt lat="62.27787" lon="-7.17673">
        <ele>408.77</ele>
      </trkpt>
      <trkpt lat="62.27788" lon="-7.17664">
        <ele>407.45</ele>
      </trkpt>
      <trkpt lat="62.27792" lon="-7.17657">
        <ele>408.25</ele>
      </trkpt>
      <trkpt lat="62.27804" lon="-7.1764">
        <ele>410.61</ele>
      </trkpt>
      <trkpt lat="62.27804" lon="-7.1764">
        <ele>410.61</ele>
      </trkpt>
      <trkpt lat="62.27832" lon="-7.17557">
        <ele>416.88</ele>
      </trkpt>
      <trkpt lat="62.27832" lon="-7.17556">
        <ele>416.63</ele>
      </trkpt>
      <trkpt lat="62.27836" lon="-7.1755">
        <ele>416.2</ele>
      </trkpt>
      <trkpt lat="62.27839" lon="-7.17543">
        <ele>415.41</ele>
      </trkpt>
      <trkpt lat="62.27842" lon="-7.17535">
        <ele>414.76</ele>
      </trkpt>
      <trkpt lat="62.27844" lon="-7.17525">
        <ele>413.34</ele>
      </trkpt>
      <trkpt lat="62.27845" lon="-7.17515">
        <ele>410.83</ele>
      </trkpt>
      <trkpt lat="62.27853" lon="-7.17474">
        <ele>402.6</ele>
      </trkpt>
      <trkpt lat="62.27854" lon="-7.17472">
        <ele>402.23</ele>
      </trkpt>
      <trkpt lat="62.27856" lon="-7.17463">
        <ele>401.13</ele>
      </trkpt>
      <trkpt lat="62.27857" lon="-7.17453">
        <ele>399.97</ele>
      </trkpt>
      <trkpt lat="62.27857" lon="-7.17443">
        <ele>398.88</ele>
      </trkpt>
      <trkpt lat="62.27858" lon="-7.17434">
        <ele>398.16</ele>
      </trkpt>
      <trkpt lat="62.2786" lon="-7.17425">
        <ele>397.54</ele>
      </trkpt>
      <trkpt lat="62.27863" lon="-7.17416">
        <ele>397.57</ele>
      </trkpt>
      <trkpt lat="62.27867" lon="-7.17407">
        <ele>397.82</ele>
      </trkpt>
      <trkpt lat="62.27877" lon="-7.17389">
        <ele>395.45</ele>
      </trkpt>
      <trkpt lat="62.2788" lon="-7.17383">
        <ele>395.68</ele>
      </trkpt>
      <trkpt lat="62.27883" lon="-7.17375">
        <ele>396.11</ele>
      </trkpt>
      <trkpt lat="62.27886" lon="-7.17368">
        <ele>396.53</ele>
      </trkpt>
      <trkpt lat="62.27889" lon="-7.17361">
        <ele>396.96</ele>
      </trkpt>
      <trkpt lat="62.27892" lon="-7.17353">
        <ele>394.7</ele>
      </trkpt>
      <trkpt lat="62.27895" lon="-7.17345">
        <ele>392.83</ele>
      </trkpt>
      <trkpt lat="62.27898" lon="-7.17338">
        <ele>391.5</ele>
      </trkpt>
      <trkpt lat="62.27902" lon="-7.17331">
        <ele>391.42</ele>
      </trkpt>
      <trkpt lat="62.27906" lon="-7.17324">
        <ele>392.89</ele>
      </trkpt>
      <trkpt lat="62.27909" lon="-7.17315">
        <ele>394.34</ele>
      </trkpt>
      <trkpt lat="62.2792" lon="-7.17294">
        <ele>395.2</ele>
      </trkpt>
      <trkpt lat="62.2792" lon="-7.17294">
        <ele>395.2</ele>
      </trkpt>
      <trkpt lat="62.27934" lon="-7.17273">
        <ele>393.27</ele>
      </trkpt>
      <trkpt lat="62.27934" lon="-7.17273">
        <ele>393.27</ele>
      </trkpt>
      <trkpt lat="62.27942" lon="-7.1723">
        <ele>384.73</ele>
      </trkpt>
      <trkpt lat="62.27942" lon="-7.1723">
        <ele>384.73</ele>
      </trkpt>
      <trkpt lat="62.27955" lon="-7.172">
        <ele>384.06</ele>
      </trkpt>
      <trkpt lat="62.27955" lon="-7.172">
        <ele>384.06</ele>
      </trkpt>
      <trkpt lat="62.27963" lon="-7.17171">
        <ele>381.91</ele>
      </trkpt>
      <trkpt lat="62.27963" lon="-7.17171">
        <ele>381.91</ele>
      </trkpt>
      <trkpt lat="62.27967" lon="-7.17123">
        <ele>381.95</ele>
      </trkpt>
      <trkpt lat="62.27967" lon="-7.17123">
        <ele>381.95</ele>
      </trkpt>
      <trkpt lat="62.27976" lon="-7.17091">
        <ele>380.69</ele>
      </trkpt>
      <trkpt lat="62.27976" lon="-7.1709">
        <ele>380.66</ele>
      </trkpt>
      <trkpt lat="62.27988" lon="-7.17063">
        <ele>377.68</ele>
      </trkpt>
      <trkpt lat="62.27988" lon="-7.17063">
        <ele>377.68</ele>
      </trkpt>
      <trkpt lat="62.28" lon="-7.17044">
        <ele>376.0</ele>
      </trkpt>
      <trkpt lat="62.28" lon="-7.17044">
        <ele>376.0</ele>
      </trkpt>
      <trkpt lat="62.28021" lon="-7.16987">
        <ele>371.66</ele>
      </trkpt>
      <trkpt lat="62.28021" lon="-7.16987">
        <ele>371.66</ele>
      </trkpt>
      <trkpt lat="62.28036" lon="-7.16972">
        <ele>370.12</ele>
      </trkpt>
      <trkpt lat="62.28037" lon="-7.16972">
        <ele>370.01</ele>
      </trkpt>
      <trkpt lat="62.28046" lon="-7.16962">
        <ele>369.16</ele>
      </trkpt>
      <trkpt lat="62.28046" lon="-7.16962">
        <ele>369.16</ele>
      </trkpt>
      <trkpt lat="62.28057" lon="-7.16937">
        <ele>367.51</ele>
      </trkpt>
      <trkpt lat="62.28057" lon="-7.16937">
        <ele>367.51</ele>
      </trkpt>
      <trkpt lat="62.28065" lon="-7.16904">
        <ele>364.23</ele>
      </trkpt>
      <trkpt lat="62.28065" lon="-7.16904">
        <ele>364.23</ele>
      </trkpt>
      <trkpt lat="62.28077" lon="-7.16885">
        <ele>359.58</ele>
      </trkpt>
      <trkpt lat="62.28077" lon="-7.16885">
        <ele>359.58</ele>
      </trkpt>
      <trkpt lat="62.28092" lon="-7.16828">
        <ele>348.71</ele>
      </trkpt>
      <trkpt lat="62.28092" lon="-7.16828">
        <ele>348.71</ele>
      </trkpt>
      <trkpt lat="62.28105" lon="-7.16769">
        <ele>348.36</ele>
      </trkpt>
      <trkpt lat="62.28105" lon="-7.16769">
        <ele>348.36</ele>
      </trkpt>
      <trkpt lat="62.28116" lon="-7.16744">
        <ele>348.54</ele>
      </trkpt>
      <trkpt lat="62.28116" lon="-7.16744">
        <ele>348.54</ele>
      </trkpt>
      <trkpt lat="62.28134" lon="-7.16707">
        <ele>343.23</ele>
      </trkpt>
      <trkpt lat="62.28134" lon="-7.16707">
        <ele>343.23</ele>
      </trkpt>
      <trkpt lat="62.28156" lon="-7.16655">
        <ele>339.41</ele>
      </trkpt>
      <trkpt lat="62.28156" lon="-7.16655">
        <ele>339.41</ele>
      </trkpt>
      <trkpt lat="62.28181" lon="-7.1661">
        <ele>334.35</ele>
      </trkpt>
      <trkpt lat="62.28181" lon="-7.1661">
        <ele>334.35</ele>
      </trkpt>
      <trkpt lat="62.28201" lon="-7.16553">
        <ele>331.15</ele>
      </trkpt>
      <trkpt lat="62.28233" lon="-7.16462">
        <ele>324.83</ele>
      </trkpt>
      <trkpt lat="62.28234" lon="-7.16458">
        <ele>323.35</ele>
      </trkpt>
      <trkpt lat="62.28237" lon="-7.1645">
        <ele>320.09</ele>
      </trkpt>
      <trkpt lat="62.28239" lon="-7.16441">
        <ele>317.13</ele>
      </trkpt>
      <trkpt lat="62.28243" lon="-7.16435">
        <ele>314.9</ele>
      </trkpt>
      <trkpt lat="62.28247" lon="-7.1643">
        <ele>312.75</ele>
      </trkpt>
      <trkpt lat="62.28251" lon="-7.16425">
        <ele>311.1</ele>
      </trkpt>
      <trkpt lat="62.28256" lon="-7.16422">
        <ele>312.01</ele>
      </trkpt>
      <trkpt lat="62.2826" lon="-7.16418">
        <ele>312.49</ele>
      </trkpt>
      <trkpt lat="62.28265" lon="-7.16414">
        <ele>313.52</ele>
      </trkpt>
      <trkpt lat="62.2827" lon="-7.1641">
        <ele>314.59</ele>
      </trkpt>
      <trkpt lat="62.28286" lon="-7.16386">
        <ele>313.35</ele>
      </trkpt>
      <trkpt lat="62.28286" lon="-7.16386">
        <ele>313.35</ele>
      </trkpt>
      <trkpt lat="62.28309" lon="-7.16329">
        <ele>306.35</ele>
      </trkpt>
      <trkpt lat="62.28309" lon="-7.16329">
        <ele>306.35</ele>
      </trkpt>
      <trkpt lat="62.28324" lon="-7.16292">
        <ele>298.42</ele>
      </trkpt>
      <trkpt lat="62.28324" lon="-7.16292">
        <ele>298.42</ele>
      </trkpt>
      <trkpt lat="62.28349" lon="-7.1626">
        <ele>293.14</ele>
      </trkpt>
      <trkpt lat="62.2835" lon="-7.16258">
        <ele>293.15</ele>
      </trkpt>
      <trkpt lat="62.28354" lon="-7.16254">
        <ele>293.91</ele>
      </trkpt>
      <trkpt lat="62.28359" lon="-7.16249">
        <ele>294.82</ele>
      </trkpt>
      <trkpt lat="62.28362" lon="-7.16244">
        <ele>293.42</ele>
      </trkpt>
      <trkpt lat="62.28367" lon="-7.16239">
        <ele>291.42</ele>
      </trkpt>
      <trkpt lat="62.28371" lon="-7.16235">
        <ele>289.9</ele>
      </trkpt>
      <trkpt lat="62.28375" lon="-7.16231">
        <ele>288.48</ele>
      </trkpt>
      <trkpt lat="62.28379" lon="-7.16226">
        <ele>286.74</ele>
      </trkpt>
      <trkpt lat="62.28383" lon="-7.1622">
        <ele>284.97</ele>
      </trkpt>
      <trkpt lat="62.28387" lon="-7.16214">
        <ele>283.73</ele>
      </trkpt>
      <trkpt lat="62.2839" lon="-7.16207">
        <ele>282.45</ele>
      </trkpt>
      <trkpt lat="62.28409" lon="-7.16182">
        <ele>275.67</ele>
      </trkpt>
      <trkpt lat="62.28412" lon="-7.16181">
        <ele>275.18</ele>
      </trkpt>
      <trkpt lat="62.28416" lon="-7.1618">
        <ele>274.63</ele>
      </trkpt>
      <trkpt lat="62.28421" lon="-7.16177">
        <ele>273.67</ele>
      </trkpt>
      <trkpt lat="62.28425" lon="-7.16171">
        <ele>270.81</ele>
      </trkpt>
      <trkpt lat="62.28428" lon="-7.16164">
        <ele>267.9</ele>
      </trkpt>
      <trkpt lat="62.28431" lon="-7.16155">
        <ele>265.41</ele>
      </trkpt>
      <trkpt lat="62.28433" lon="-7.16147">
        <ele>263.04</ele>
      </trkpt>
      <trkpt lat="62.28436" lon="-7.16139">
        <ele>260.91</ele>
      </trkpt>
      <trkpt lat="62.28439" lon="-7.16132">
        <ele>260.74</ele>
      </trkpt>
      <trkpt lat="62.28443" lon="-7.16126">
        <ele>261.17</ele>
      </trkpt>
      <trkpt lat="62.28447" lon="-7.1612">
        <ele>260.94</ele>
      </trkpt>
      <trkpt lat="62.2845" lon="-7.16114">
        <ele>259.62</ele>
      </trkpt>
      <trkpt lat="62.28454" lon="-7.16108">
        <ele>257.65</ele>
      </trkpt>
      <trkpt lat="62.28465" lon="-7.16079">
        <ele>251.05</ele>
      </trkpt>
      <trkpt lat="62.28464" lon="-7.16073">
        <ele>249.43</ele>
      </trkpt>
      <trkpt lat="62.28463" lon="-7.16063">
        <ele>246.72</ele>
      </trkpt>
      <trkpt lat="62.28462" lon="-7.16053">
        <ele>244.88</ele>
      </trkpt>
      <trkpt lat="62.28462" lon="-7.16043">
        <ele>245.45</ele>
      </trkpt>
      <trkpt lat="62.28461" lon="-7.16033">
        <ele>245.74</ele>
      </trkpt>
      <trkpt lat="62.28461" lon="-7.16022">
        <ele>244.59</ele>
      </trkpt>
      <trkpt lat="62.28462" lon="-7.16012">
        <ele>242.55</ele>
      </trkpt>
      <trkpt lat="62.28465" lon="-7.16003">
        <ele>241.39</ele>
      </trkpt>
      <trkpt lat="62.28468" lon="-7.15996">
        <ele>241.03</ele>
      </trkpt>
      <trkpt lat="62.28472" lon="-7.15991">
        <ele>241.02</ele>
      </trkpt>
      <trkpt lat="62.28477" lon="-7.15986">
        <ele>237.65</ele>
      </trkpt>
      <trkpt lat="62.28487" lon="-7.15966">
        <ele>227.49</ele>
      </trkpt>
      <trkpt lat="62.28487" lon="-7.15966">
        <ele>227.49</ele>
      </trkpt>
      <trkpt lat="62.28515" lon="-7.15905">
        <ele>210.05</ele>
      </trkpt>
      <trkpt lat="62.28517" lon="-7.15904">
        <ele>209.6</ele>
      </trkpt>
      <trkpt lat="62.28521" lon="-7.15899">
        <ele>208.07</ele>
      </trkpt>
      <trkpt lat="62.28526" lon="-7.15894">
        <ele>206.35</ele>
      </trkpt>
      <trkpt lat="62.2853" lon="-7.1589">
        <ele>205.01</ele>
      </trkpt>
      <trkpt lat="62.28534" lon="-7.15886">
        <ele>203.68</ele>
      </trkpt>
      <trkpt lat="62.28538" lon="-7.15882">
        <ele>201.99</ele>
      </trkpt>
      <trkpt lat="62.28543" lon="-7.15877">
        <ele>199.3</ele>
      </trkpt>
      <trkpt lat="62.28546" lon="-7.15871">
        <ele>196.23</ele>
      </trkpt>
      <trkpt lat="62.2855" lon="-7.15864">
        <ele>191.85</ele>
      </trkpt>
      <trkpt lat="62.28553" lon="-7.15858">
        <ele>189.83</ele>
      </trkpt>
      <trkpt lat="62.28558" lon="-7.15852">
        <ele>190.3</ele>
      </trkpt>
      <trkpt lat="62.28561" lon="-7.15846">
        <ele>191.19</ele>
      </trkpt>
      <trkpt lat="62.28565" lon="-7.1584">
        <ele>191.14</ele>
      </trkpt>
      <trkpt lat="62.28584" lon="-7.15785">
        <ele>164.4</ele>
      </trkpt>
      <trkpt lat="62.28585" lon="-7.15778">
        <ele>157.76</ele>
      </trkpt>
      <trkpt lat="62.28583" lon="-7.15769">
        <ele>156.39</ele>
      </trkpt>
      <trkpt lat="62.2858" lon="-7.15761">
        <ele>156.03</ele>
      </trkpt>
      <trkpt lat="62.28569" lon="-7.15735">
        <ele>150.58</ele>
      </trkpt>
      <trkpt lat="62.28569" lon="-7.15733">
        <ele>149.85</ele>
      </trkpt>
      <trkpt lat="62.28566" lon="-7.15725">
        <ele>146.58</ele>
      </trkpt>
      <trkpt lat="62.28564" lon="-7.15716">
        <ele>146.37</ele>
      </trkpt>
      <trkpt lat="62.2856" lon="-7.15708">
        <ele>148.45</ele>
      </trkpt>
      <trkpt lat="62.28558" lon="-7.157">
        <ele>151.23</ele>
      </trkpt>
      <trkpt lat="62.28558" lon="-7.1569">
        <ele>152.15</ele>
      </trkpt>
      <trkpt lat="62.28559" lon="-7.1568">
        <ele>150.17</ele>
      </trkpt>
      <trkpt lat="62.28562" lon="-7.15672">
        <ele>148.62</ele>
      </trkpt>
      <trkpt lat="62.28566" lon="-7.15666">
        <ele>147.92</ele>
      </trkpt>
      <trkpt lat="62.28569" lon="-7.15658">
        <ele>146.92</ele>
      </trkpt>
      <trkpt lat="62.28572" lon="-7.1565">
        <ele>145.73</ele>
      </trkpt>
      <trkpt lat="62.28583" lon="-7.15608">
        <ele>141.92</ele>
      </trkpt>
      <trkpt lat="62.28585" lon="-7.156">
        <ele>141.46</ele>
      </trkpt>
      <trkpt lat="62.28586" lon="-7.15591">
        <ele>141.01</ele>
      </trkpt>
      <trkpt lat="62.28587" lon="-7.15581">
        <ele>140.35</ele>
      </trkpt>
      <trkpt lat="62.28587" lon="-7.15571">
        <ele>139.27</ele>
      </trkpt>
      <trkpt lat="62.28587" lon="-7.15547">
        <ele>136.68</ele>
      </trkpt>
      <trkpt lat="62.28588" lon="-7.15541">
        <ele>135.92</ele>
      </trkpt>
      <trkpt lat="62.28589" lon="-7.15531">
        <ele>134.74</ele>
      </trkpt>
      <trkpt lat="62.28592" lon="-7.15522">
        <ele>133.09</ele>
      </trkpt>
      <trkpt lat="62.28594" lon="-7.15513">
        <ele>131.39</ele>
      </trkpt>
      <trkpt lat="62.28596" lon="-7.15504">
        <ele>129.74</ele>
      </trkpt>
      <trkpt lat="62.28595" lon="-7.15489">
        <ele>126.32</ele>
      </trkpt>
      <trkpt lat="62.28593" lon="-7.15485">
        <ele>125.36</ele>
      </trkpt>
      <trkpt lat="62.28588" lon="-7.15484">
        <ele>125.25</ele>
      </trkpt>
      <trkpt lat="62.28583" lon="-7.15484">
        <ele>125.34</ele>
      </trkpt>
      <trkpt lat="62.28578" lon="-7.15485">
        <ele>124.82</ele>
      </trkpt>
      <trkpt lat="62.28573" lon="-7.15486">
        <ele>124.3</ele>
      </trkpt>
      <trkpt lat="62.28569" lon="-7.15486">
        <ele>123.65</ele>
      </trkpt>
      <trkpt lat="62.28564" lon="-7.15482">
        <ele>121.79</ele>
      </trkpt>
      <trkpt lat="62.28561" lon="-7.15475">
        <ele>119.5</ele>
      </trkpt>
      <trkpt lat="62.28559" lon="-7.15466">
        <ele>117.26</ele>
      </trkpt>
      <trkpt lat="62.28558" lon="-7.15456">
        <ele>115.23</ele>
      </trkpt>
      <trkpt lat="62.28559" lon="-7.15447">
        <ele>113.51</ele>
      </trkpt>
      <trkpt lat="62.28562" lon="-7.15438">
        <ele>111.84</ele>
      </trkpt>
      <trkpt lat="62.28565" lon="-7.15431">
        <ele>110.58</ele>
      </trkpt>
      <trkpt lat="62.28569" lon="-7.15425">
        <ele>109.5</ele>
      </trkpt>
      <trkpt lat="62.28573" lon="-7.15421">
        <ele>108.78</ele>
      </trkpt>
      <trkpt lat="62.28578" lon="-7.15417">
        <ele>108.06</ele>
      </trkpt>
      <trkpt lat="62.28582" lon="-7.15414">
        <ele>107.33</ele>
      </trkpt>
      <trkpt lat="62.28586" lon="-7.15411">
        <ele>106.42</ele>
      </trkpt>
      <trkpt lat="62.28591" lon="-7.15409">
        <ele>105.67</ele>
      </trkpt>
      <trkpt lat="62.28594" lon="-7.15406">
        <ele>104.84</ele>
      </trkpt>
      <trkpt lat="62.28596" lon="-7.15406">
        <ele>104.75</ele>
      </trkpt>
      <trkpt lat="62.28601" lon="-7.15407">
        <ele>104.73</ele>
      </trkpt>
      <trkpt lat="62.28606" lon="-7.15406">
        <ele>104.31</ele>
      </trkpt>
      <trkpt lat="62.2861" lon="-7.15404">
        <ele>103.76</ele>
      </trkpt>
      <trkpt lat="62.28615" lon="-7.154">
        <ele>103.9</ele>
      </trkpt>
      <trkpt lat="62.28616" lon="-7.1539">
        <ele>102.26</ele>
      </trkpt>
      <trkpt lat="62.28616" lon="-7.1538">
        <ele>99.67</ele>
      </trkpt>
      <trkpt lat="62.28616" lon="-7.15369">
        <ele>96.71</ele>
      </trkpt>
      <trkpt lat="62.28616" lon="-7.15359">
        <ele>94.29</ele>
      </trkpt>
      <trkpt lat="62.28617" lon="-7.15349">
        <ele>92.56</ele>
      </trkpt>
      <trkpt lat="62.28618" lon="-7.1534">
        <ele>90.98</ele>
      </trkpt>
      <trkpt lat="62.28621" lon="-7.15333">
        <ele>89.1</ele>
      </trkpt>
      <trkpt lat="62.28625" lon="-7.15327">
        <ele>86.97</ele>
      </trkpt>
      <trkpt lat="62.28629" lon="-7.15321">
        <ele>84.91</ele>
      </trkpt>
      <trkpt lat="62.28647" lon="-7.15288">
        <ele>75.03</ele>
      </trkpt>
      <trkpt lat="62.28672" lon="-7.15225">
        <ele>64.52</ele>
      </trkpt>
      <trkpt lat="62.2869" lon="-7.15192">
        <ele>52.25</ele>
      </trkpt>
      <trkpt lat="62.28699" lon="-7.15181">
        <ele>45.63</ele>
      </trkpt>
      <trkpt lat="62.28747" lon="-7.15231">
        <ele>34.64</ele>
      </trkpt>
      <trkpt lat="62.28754" lon="-7.15238">
        <ele>32.52</ele>
      </trkpt>
      <trkpt lat="62.28789" lon="-7.15222">
        <ele>26.57</ele>
      </trkpt>
      <trkpt lat="62.28799" lon="-7.15222">
        <ele>26.19</ele>
      </trkpt>
      <trkpt lat="62.28817" lon="-7.15219">
        <ele>26.33</ele>
      </trkpt>
      <trkpt lat="62.2883" lon="-7.15214">
        <ele>26.05</ele>
      </trkpt>
      <trkpt lat="62.28837" lon="-7.1521">
        <ele>25.49</ele>
      </trkpt>
      <trkpt lat="62.28845" lon="-7.15201">
        <ele>23.7</ele>
      </trkpt>
      <trkpt lat="62.28847" lon="-7.152">
        <ele>23.67</ele>
      </trkpt>
      <trkpt lat="62.28849" lon="-7.15201">
        <ele>24.25</ele>
      </trkpt>
      <trkpt lat="62.2885" lon="-7.15204">
        <ele>25.29</ele>
      </trkpt>
      <trkpt lat="62.28851" lon="-7.15204">
        <ele>25.42</ele>
      </trkpt>
      <trkpt lat="62.28852" lon="-7.15203">
        <ele>25.25</ele>
      </trkpt>
      <trkpt lat="62.28854" lon="-7.15194">
        <ele>22.9</ele>
      </trkpt>
      <trkpt lat="62.28857" lon="-7.15189">
        <ele>22.46</ele>
      </trkpt>
      <trkpt lat="62.2886" lon="-7.15181">
        <ele>21.44</ele>
      </trkpt>
      <trkpt lat="62.2886" lon="-7.15175">
        <ele>20.37</ele>
      </trkpt>
      <trkpt lat="62.2886" lon="-7.1517">
        <ele>19.48</ele>
      </trkpt>
      <trkpt lat="62.2886" lon="-7.15168">
        <ele>19.12</ele>
      </trkpt>
      <trkpt lat="62.28864" lon="-7.15157">
        <ele>18.2</ele>
      </trkpt>
      <trkpt lat="62.28866" lon="-7.15151">
        <ele>17.7</ele>
      </trkpt>
      <trkpt lat="62.28869" lon="-7.15147">
        <ele>17.67</ele>
      </trkpt>
      <trkpt lat="62.28871" lon="-7.15143">
        <ele>17.42</ele>
      </trkpt>
      <trkpt lat="62.28874" lon="-7.15136">
        <ele>17.06</ele>
      </trkpt>
      <trkpt lat="62.28874" lon="-7.15136">
        <ele>17.06</ele>
      </trkpt>
      <trkpt lat="62.28877" lon="-7.1513">
        <ele>17.08</ele>
      </trkpt>
      <trkpt lat="62.28879" lon="-7.15123">
        <ele>16.87</ele>
      </trkpt>
      <trkpt lat="62.28882" lon="-7.15115">
        <ele>16.83</ele>
      </trkpt>
      <trkpt lat="62.28884" lon="-7.15108">
        <ele>16.72</ele>
      </trkpt>
      <trkpt lat="62.28885" lon="-7.15103">
        <ele>16.58</ele>
      </trkpt>
      <trkpt lat="62.28888" lon="-7.15097">
        <ele>16.79</ele>
      </trkpt>
      <trkpt lat="62.28891" lon="-7.15092">
        <ele>16.62</ele>
      </trkpt>
      <trkpt lat="62.28892" lon="-7.15088">
        <ele>16.34</ele>
      </trkpt>
      <trkpt lat="62.28894" lon="-7.15082">
        <ele>15.9</ele>
      </trkpt>
      <trkpt lat="62.28899" lon="-7.15069">
        <ele>14.97</ele>
      </trkpt>
      <trkpt lat="62.28904" lon="-7.1506">
        <ele>14.32</ele>
      </trkpt>
      <trkpt lat="62.28907" lon="-7.15053">
        <ele>13.88</ele>
      </trkpt>
      <trkpt lat="62.28912" lon="-7.15039">
        <ele>13.3</ele>
      </trkpt>
      <trkpt lat="62.28915" lon="-7.1503">
        <ele>13.02</ele>
      </trkpt>
      <trkpt lat="62.28917" lon="-7.15022">
        <ele>12.54</ele>
      </trkpt>
      <trkpt lat="62.28922" lon="-7.15012">
        <ele>11.31</ele>
      </trkpt>
      <trkpt lat="62.28924" lon="-7.15007">
        <ele>10.84</ele>
      </trkpt>
      <trkpt lat="62.28925" lon="-7.15004">
        <ele>10.6</ele>
      </trkpt>
      <trkpt lat="62.28928" lon="-7.14999">
        <ele>10.19</ele>
      </trkpt>
      <trkpt lat="62.28932" lon="-7.14991">
        <ele>10.11</ele>
      </trkpt>
      <trkpt lat="62.28937" lon="-7.14983">
        <ele>10.27</ele>
      </trkpt>
      <trkpt lat="62.28941" lon="-7.14975">
        <ele>10.71</ele>
      </trkpt>
      <trkpt lat="62.28941" lon="-7.14971">
        <ele>10.83</ele>
      </trkpt>
      <trkpt lat="62.28941" lon="-7.14967">
        <ele>10.69</ele>
      </trkpt>
      <trkpt lat="62.2894" lon="-7.1496">
        <ele>10.4</ele>
      </trkpt>
      <trkpt lat="62.2894" lon="-7.14954">
        <ele>10.18</ele>
      </trkpt>
      <trkpt lat="62.28938" lon="-7.14942">
        <ele>9.72</ele>
      </trkpt>
      <trkpt lat="62.28937" lon="-7.14935">
        <ele>9.57</ele>
      </trkpt>
      <trkpt lat="62.28937" lon="-7.14931">
        <ele>9.51</ele>
      </trkpt>
      <trkpt lat="62.28937" lon="-7.14928">
        <ele>9.46</ele>
      </trkpt>
      <trkpt lat="62.28937" lon="-7.14925">
        <ele>9.41</ele>
      </trkpt>
      <trkpt lat="62.28937" lon="-7.14924">
        <ele>9.39</ele>
      </trkpt>
      <trkpt lat="62.28938" lon="-7.14921">
        <ele>9.32</ele>
      </trkpt>
      <trkpt lat="62.28938" lon="-7.14917">
        <ele>9.24</ele>
      </trkpt>
      <trkpt lat="62.28938" lon="-7.14911">
        <ele>9.18</ele>
      </trkpt>
      <trkpt lat="62.28938" lon="-7.14906">
        <ele>9.14</ele>
      </trkpt>
      <trkpt lat="62.28938" lon="-7.14901">
        <ele>9.1</ele>
      </trkpt>
      <trkpt lat="62.28938" lon="-7.14899">
        <ele>9.08</ele>
      </trkpt>
      <trkpt lat="62.28937" lon="-7.14894">
        <ele>9.05</ele>
      </trkpt>
      <trkpt lat="62.28936" lon="-7.1489">
        <ele>9.01</ele>
      </trkpt>
      <trkpt lat="62.28935" lon="-7.14886">
        <ele>8.93</ele>
      </trkpt>
      <trkpt lat="62.28934" lon="-7.14883">
        <ele>8.84</ele>
      </trkpt>
      <trkpt lat="62.28932" lon="-7.14878">
        <ele>8.65</ele>
      </trkpt>
      <trkpt lat="62.28928" lon="-7.14865">
        <ele>7.98</ele>
      </trkpt>
      <trkpt lat="62.28925" lon="-7.14853">
        <ele>7.51</ele>
      </trkpt>
      <trkpt lat="62.2892" lon="-7.14834">
        <ele>7.12</ele>
      </trkpt>
      <trkpt lat="62.28917" lon="-7.14821">
        <ele>7.45</ele>
      </trkpt>
      <trkpt lat="62.28916" lon="-7.14817">
        <ele>7.59</ele>
      </trkpt>
      <trkpt lat="62.28914" lon="-7.14813">
        <ele>7.73</ele>
      </trkpt>
      <trkpt lat="62.28911" lon="-7.14804">
        <ele>8.0</ele>
      </trkpt>
      <trkpt lat="62.28909" lon="-7.14798">
        <ele>8.0</ele>
      </trkpt>
      <trkpt lat="62.28907" lon="-7.14791">
        <ele>8.0</ele>
      </trkpt>
      <trkpt lat="62.28905" lon="-7.14783">
        <ele>8.0</ele>
      </trkpt>
      <trkpt lat="62.28904" lon="-7.14778">
        <ele>8.0</ele>
      </trkpt>
      <trkpt lat="62.28903" lon="-7.14771">
        <ele>8.0</ele>
      </trkpt>
      <trkpt lat="62.289" lon="-7.14754">
        <ele>8.0</ele>
      </trkpt>
      <trkpt lat="62.28899" lon="-7.1475">
        <ele>8.0</ele>
      </trkpt>
      <trkpt lat="62.28897" lon="-7.14734">
        <ele>8.0</ele>
      </trkpt>
      <trkpt lat="62.28897" lon="-7.14732">
        <ele>8.0</ele>
      </trkpt>
      <trkpt lat="62.28896" lon="-7.14728">
        <ele>8.0</ele>
      </trkpt>
      <trkpt lat="62.28893" lon="-7.14708">
        <ele>7.85</ele>
      </trkpt>
      <trkpt lat="62.28892" lon="-7.147">
        <ele>7.82</ele>
      </trkpt>
      <trkpt lat="62.28892" lon="-7.14696">
        <ele>7.79</ele>
      </trkpt>
      <trkpt lat="62.2889" lon="-7.14686">
        <ele>7.63</ele>
      </trkpt>
      <trkpt lat="62.28889" lon="-7.14676">
        <ele>7.33</ele>
      </trkpt>
      <trkpt lat="62.28888" lon="-7.14669">
        <ele>7.12</ele>
      </trkpt>
      <trkpt lat="62.28888" lon="-7.14677">
        <ele>7.4</ele>
      </trkpt>
    </trkseg>
  </trk>
</gpx>
