{"type":"FeatureCollection","features":[{"type":"Feature","properties":{"_gpxType":"trk","name":"01 Wanderung Haraldssund Skarð","time":"2020-07-14T11:22:41Z","gpxx_TrackExtension":"Blue","gpxx_DisplayColor":"Blue","coordinateProperties":{"times":["2020-07-14T11:22:41Z","2020-07-14T11:23:07Z","2020-07-14T11:23:14Z","2020-07-14T11:23:21Z","2020-07-14T11:23:28Z","2020-07-14T11:23:34Z","2020-07-14T11:23:41Z","2020-07-14T11:23:48Z","2020-07-14T11:23:54Z","2020-07-14T11:24:00Z","2020-07-14T11:24:06Z","2020-07-14T11:24:13Z","2020-07-14T11:24:20Z","2020-07-14T11:24:27Z","2020-07-14T11:24:34Z","2020-07-14T11:24:40Z","2020-07-14T11:24:46Z","2020-07-14T11:24:52Z","2020-07-14T11:24:58Z","2020-07-14T11:25:04Z","2020-07-14T11:25:10Z","2020-07-14T11:25:16Z","2020-07-14T11:25:21Z","2020-07-14T11:25:27Z","2020-07-14T11:25:34Z","2020-07-14T11:25:41Z","2020-07-14T11:25:48Z","2020-07-14T11:25:58Z","2020-07-14T11:26:18Z","2020-07-14T11:26:25Z","2020-07-14T11:26:31Z","2020-07-14T11:26:38Z","2020-07-14T11:26:45Z","2020-07-14T11:26:52Z","2020-07-14T11:26:59Z","2020-07-14T11:27:06Z","2020-07-14T11:27:14Z","2020-07-14T11:27:21Z","2020-07-14T11:27:27Z","2020-07-14T11:27:33Z","2020-07-14T11:27:39Z","2020-07-14T11:27:46Z","2020-07-14T11:27:53Z","2020-07-14T11:28:00Z","2020-07-14T11:28:07Z","2020-07-14T11:28:14Z","2020-07-14T11:28:21Z","2020-07-14T11:28:28Z","2020-07-14T11:28:35Z","2020-07-14T11:28:41Z","2020-07-14T11:28:47Z","2020-07-14T11:28:54Z","2020-07-14T11:29:01Z","2020-07-14T11:29:08Z","2020-07-14T11:29:14Z","2020-07-14T11:29:21Z","2020-07-14T11:29:30Z","2020-07-14T11:29:40Z","2020-07-14T11:29:49Z","2020-07-14T11:29:58Z","2020-07-14T11:30:07Z","2020-07-14T11:30:40Z","2020-07-14T11:30:52Z","2020-07-14T11:31:03Z","2020-07-14T11:31:17Z","2020-07-14T11:31:29Z","2020-07-14T11:31:40Z","2020-07-14T11:31:50Z","2020-07-14T11:32:02Z","2020-07-14T11:32:13Z","2020-07-14T11:32:21Z","2020-07-14T11:32:29Z","2020-07-14T11:32:37Z","2020-07-14T11:32:46Z","2020-07-14T11:32:56Z","2020-07-14T11:33:07Z","2020-07-14T11:33:17Z","2020-07-14T11:33:25Z","2020-07-14T11:33:32Z","2020-07-14T11:33:39Z","2020-07-14T11:33:47Z","2020-07-14T11:33:55Z","2020-07-14T11:34:03Z","2020-07-14T11:34:13Z","2020-07-14T11:34:21Z","2020-07-14T11:34:31Z","2020-07-14T11:34:40Z","2020-07-14T11:34:49Z","2020-07-14T11:34:59Z","2020-07-14T11:35:10Z","2020-07-14T11:35:21Z","2020-07-14T11:35:32Z","2020-07-14T11:35:41Z","2020-07-14T11:35:50Z","2020-07-14T11:36:00Z","2020-07-14T11:36:11Z","2020-07-14T11:36:23Z","2020-07-14T11:36:35Z","2020-07-14T11:36:47Z","2020-07-14T11:36:57Z","2020-07-14T11:37:10Z","2020-07-14T11:37:19Z","2020-07-14T11:37:27Z","2020-07-14T11:37:36Z","2020-07-14T11:37:53Z","2020-07-14T11:38:01Z","2020-07-14T11:38:08Z","2020-07-14T11:38:17Z","2020-07-14T11:38:25Z","2020-07-14T11:38:34Z","2020-07-14T11:39:02Z","2020-07-14T11:39:14Z","2020-07-14T11:39:22Z","2020-07-14T11:39:29Z","2020-07-14T11:39:40Z","2020-07-14T11:39:49Z","2020-07-14T11:40:01Z","2020-07-14T11:40:10Z","2020-07-14T11:40:19Z","2020-07-14T11:40:30Z","2020-07-14T11:40:39Z","2020-07-14T11:40:48Z","2020-07-14T11:40:56Z","2020-07-14T11:41:04Z","2020-07-14T11:41:12Z","2020-07-14T11:41:26Z","2020-07-14T11:41:34Z","2020-07-14T11:41:43Z","2020-07-14T11:41:51Z","2020-07-14T11:41:59Z","2020-07-14T11:42:08Z","2020-07-14T11:42:16Z","2020-07-14T11:42:24Z","2020-07-14T11:42:33Z","2020-07-14T11:42:42Z","2020-07-14T11:42:51Z","2020-07-14T11:43:00Z","2020-07-14T11:43:07Z","2020-07-14T11:43:14Z","2020-07-14T11:43:24Z","2020-07-14T11:43:34Z","2020-07-14T11:43:41Z","2020-07-14T11:43:48Z","2020-07-14T11:43:55Z","2020-07-14T11:44:03Z","2020-07-14T11:44:14Z","2020-07-14T11:44:22Z","2020-07-14T11:44:35Z","2020-07-14T11:44:44Z","2020-07-14T11:44:57Z","2020-07-14T11:45:11Z","2020-07-14T11:45:25Z","2020-07-14T11:45:35Z","2020-07-14T11:45:45Z","2020-07-14T11:45:55Z","2020-07-14T11:46:07Z","2020-07-14T11:46:55Z","2020-07-14T11:47:03Z","2020-07-14T11:47:15Z","2020-07-14T11:47:24Z","2020-07-14T11:47:34Z","2020-07-14T11:47:44Z","2020-07-14T11:47:53Z","2020-07-14T11:48:02Z","2020-07-14T11:48:49Z","2020-07-14T11:51:40Z","2020-07-14T11:51:50Z","2020-07-14T11:52:01Z","2020-07-14T11:52:15Z","2020-07-14T11:52:23Z","2020-07-14T11:52:32Z","2020-07-14T11:52:42Z","2020-07-14T11:52:54Z","2020-07-14T11:53:06Z","2020-07-14T11:53:14Z","2020-07-14T11:53:25Z","2020-07-14T11:53:35Z","2020-07-14T11:53:46Z","2020-07-14T11:54:08Z","2020-07-14T11:54:23Z","2020-07-14T11:54:46Z","2020-07-14T11:54:58Z","2020-07-14T11:55:12Z","2020-07-14T11:55:32Z","2020-07-14T11:55:47Z","2020-07-14T11:55:59Z","2020-07-14T11:56:11Z","2020-07-14T11:56:27Z","2020-07-14T11:56:38Z","2020-07-14T11:56:48Z","2020-07-14T11:56:58Z","2020-07-14T11:57:08Z","2020-07-14T11:57:18Z","2020-07-14T11:57:29Z","2020-07-14T11:57:39Z","2020-07-14T11:57:48Z","2020-07-14T11:57:58Z","2020-07-14T11:58:09Z","2020-07-14T11:58:18Z","2020-07-14T11:58:27Z","2020-07-14T11:58:36Z","2020-07-14T11:58:44Z","2020-07-14T11:58:52Z","2020-07-14T11:59:00Z","2020-07-14T11:59:10Z","2020-07-14T11:59:19Z","2020-07-14T11:59:29Z","2020-07-14T11:59:37Z","2020-07-14T11:59:48Z","2020-07-14T11:59:56Z","2020-07-14T12:00:04Z","2020-07-14T12:00:13Z","2020-07-14T12:00:23Z","2020-07-14T12:00:30Z","2020-07-14T12:00:38Z","2020-07-14T12:00:48Z","2020-07-14T12:01:07Z","2020-07-14T12:01:16Z","2020-07-14T12:01:26Z","2020-07-14T12:01:35Z","2020-07-14T12:01:42Z","2020-07-14T12:01:52Z","2020-07-14T12:02:01Z","2020-07-14T12:02:11Z","2020-07-14T12:02:20Z","2020-07-14T12:02:32Z","2020-07-14T12:02:40Z","2020-07-14T12:02:49Z","2020-07-14T12:02:57Z","2020-07-14T12:03:06Z","2020-07-14T12:03:16Z","2020-07-14T12:03:24Z","2020-07-14T12:03:32Z","2020-07-14T12:03:43Z","2020-07-14T12:03:52Z","2020-07-14T12:04:00Z","2020-07-14T12:04:10Z","2020-07-14T12:05:05Z","2020-07-14T12:05:13Z","2020-07-14T12:07:46Z","2020-07-14T12:07:57Z","2020-07-14T12:08:07Z","2020-07-14T12:08:14Z","2020-07-14T12:08:23Z","2020-07-14T12:08:31Z","2020-07-14T12:08:39Z","2020-07-14T12:08:49Z","2020-07-14T12:08:56Z","2020-07-14T12:09:03Z","2020-07-14T12:09:11Z","2020-07-14T12:09:21Z","2020-07-14T12:09:29Z","2020-07-14T12:09:36Z","2020-07-14T12:09:45Z","2020-07-14T12:09:59Z","2020-07-14T12:10:09Z","2020-07-14T12:10:16Z","2020-07-14T12:10:25Z","2020-07-14T12:10:35Z","2020-07-14T12:10:46Z","2020-07-14T12:10:58Z","2020-07-14T12:11:07Z","2020-07-14T12:11:17Z","2020-07-14T12:11:27Z","2020-07-14T12:11:36Z","2020-07-14T12:11:46Z","2020-07-14T12:11:54Z","2020-07-14T12:12:08Z","2020-07-14T12:12:30Z","2020-07-14T12:13:07Z","2020-07-14T12:13:16Z","2020-07-14T12:13:25Z","2020-07-14T12:13:34Z","2020-07-14T12:13:43Z","2020-07-14T12:13:52Z","2020-07-14T12:14:03Z","2020-07-14T12:14:20Z","2020-07-14T12:14:30Z","2020-07-14T12:14:38Z","2020-07-14T12:14:48Z","2020-07-14T12:14:59Z","2020-07-14T12:15:09Z","2020-07-14T12:15:17Z","2020-07-14T12:15:25Z","2020-07-14T12:15:38Z","2020-07-14T12:15:53Z","2020-07-14T12:16:15Z","2020-07-14T12:16:52Z","2020-07-14T12:18:02Z","2020-07-14T12:18:12Z","2020-07-14T12:18:22Z","2020-07-14T12:18:42Z","2020-07-14T12:18:54Z","2020-07-14T12:19:21Z","2020-07-14T12:19:29Z","2020-07-14T12:19:37Z","2020-07-14T12:19:45Z","2020-07-14T12:19:55Z","2020-07-14T12:20:09Z","2020-07-14T12:20:19Z","2020-07-14T12:20:28Z","2020-07-14T12:20:46Z","2020-07-14T12:20:56Z","2020-07-14T12:21:10Z","2020-07-14T12:21:23Z","2020-07-14T12:21:42Z","2020-07-14T12:22:02Z","2020-07-14T12:22:15Z","2020-07-14T12:22:27Z","2020-07-14T12:22:40Z","2020-07-14T12:22:50Z","2020-07-14T12:22:59Z","2020-07-14T12:23:06Z","2020-07-14T12:23:15Z","2020-07-14T12:23:23Z","2020-07-14T12:23:31Z","2020-07-14T12:23:42Z","2020-07-14T12:23:50Z","2020-07-14T12:23:58Z","2020-07-14T12:24:09Z","2020-07-14T12:24:22Z","2020-07-14T12:24:37Z","2020-07-14T12:24:50Z","2020-07-14T12:24:59Z","2020-07-14T12:25:14Z","2020-07-14T12:25:24Z","2020-07-14T12:25:33Z","2020-07-14T12:25:42Z","2020-07-14T12:25:50Z","2020-07-14T12:26:05Z","2020-07-14T12:26:26Z","2020-07-14T12:26:35Z","2020-07-14T12:26:43Z","2020-07-14T12:26:52Z","2020-07-14T12:27:01Z","2020-07-14T12:27:12Z","2020-07-14T12:27:23Z","2020-07-14T12:27:36Z","2020-07-14T12:27:45Z","2020-07-14T12:27:53Z","2020-07-14T12:28:03Z","2020-07-14T12:28:18Z","2020-07-14T12:28:27Z","2020-07-14T12:28:40Z","2020-07-14T12:28:53Z","2020-07-14T12:29:02Z","2020-07-14T12:29:14Z","2020-07-14T12:29:24Z","2020-07-14T12:29:38Z","2020-07-14T12:29:53Z","2020-07-14T12:30:03Z","2020-07-14T12:30:11Z","2020-07-14T12:30:20Z","2020-07-14T12:30:28Z","2020-07-14T12:30:41Z","2020-07-14T12:30:51Z","2020-07-14T12:31:02Z","2020-07-14T12:31:11Z","2020-07-14T12:31:22Z","2020-07-14T12:31:30Z","2020-07-14T12:31:40Z","2020-07-14T12:31:52Z","2020-07-14T12:32:08Z","2020-07-14T12:32:16Z","2020-07-14T12:32:25Z","2020-07-14T12:32:33Z","2020-07-14T12:32:42Z","2020-07-14T12:32:50Z","2020-07-14T12:32:57Z","2020-07-14T12:33:05Z","2020-07-14T12:33:15Z","2020-07-14T12:33:24Z","2020-07-14T12:33:35Z","2020-07-14T12:33:46Z","2020-07-14T12:33:55Z","2020-07-14T12:34:05Z","2020-07-14T12:34:14Z","2020-07-14T12:34:25Z","2020-07-14T12:34:35Z","2020-07-14T12:34:44Z","2020-07-14T12:34:52Z","2020-07-14T12:35:08Z","2020-07-14T12:35:17Z","2020-07-14T12:35:24Z","2020-07-14T12:35:32Z","2020-07-14T12:35:52Z","2020-07-14T12:36:09Z","2020-07-14T12:36:23Z","2020-07-14T12:36:31Z","2020-07-14T12:36:38Z","2020-07-14T12:36:51Z","2020-07-14T12:37:07Z","2020-07-14T12:37:16Z","2020-07-14T12:37:23Z","2020-07-14T12:37:31Z","2020-07-14T12:37:42Z","2020-07-14T12:37:57Z","2020-07-14T12:38:28Z","2020-07-14T12:39:26Z","2020-07-14T12:39:37Z","2020-07-14T12:39:45Z","2020-07-14T12:40:20Z","2020-07-14T12:40:35Z","2020-07-14T12:40:44Z","2020-07-14T12:43:37Z","2020-07-14T12:43:46Z","2020-07-14T12:43:57Z","2020-07-14T12:44:09Z","2020-07-14T12:44:24Z","2020-07-14T12:44:36Z","2020-07-14T12:44:48Z","2020-07-14T12:44:56Z","2020-07-14T12:45:06Z","2020-07-14T12:45:16Z","2020-07-14T12:45:29Z","2020-07-14T12:45:44Z","2020-07-14T12:45:54Z","2020-07-14T12:46:03Z","2020-07-14T12:46:14Z","2020-07-14T12:46:25Z","2020-07-14T12:46:34Z","2020-07-14T12:46:43Z","2020-07-14T12:47:14Z","2020-07-14T12:47:23Z","2020-07-14T12:47:32Z","2020-07-14T12:47:43Z","2020-07-14T12:47:55Z","2020-07-14T12:48:26Z","2020-07-14T12:48:51Z","2020-07-14T12:49:00Z","2020-07-14T12:49:10Z","2020-07-14T12:49:22Z","2020-07-14T12:49:31Z","2020-07-14T12:49:43Z","2020-07-14T12:50:02Z","2020-07-14T12:50:13Z","2020-07-14T12:50:22Z","2020-07-14T12:50:32Z","2020-07-14T12:50:44Z","2020-07-14T12:50:56Z","2020-07-14T12:51:06Z","2020-07-14T12:51:19Z","2020-07-14T12:51:28Z","2020-07-14T12:51:38Z","2020-07-14T12:51:46Z","2020-07-14T12:51:57Z","2020-07-14T12:52:09Z","2020-07-14T12:52:22Z","2020-07-14T12:52:31Z","2020-07-14T12:52:41Z","2020-07-14T12:52:53Z","2020-07-14T12:53:03Z","2020-07-14T12:53:14Z","2020-07-14T12:53:27Z","2020-07-14T12:53:40Z","2020-07-14T12:53:51Z","2020-07-14T12:53:59Z","2020-07-14T12:54:10Z","2020-07-14T12:54:25Z","2020-07-14T12:54:34Z","2020-07-14T12:54:55Z","2020-07-14T12:55:06Z","2020-07-14T12:55:19Z","2020-07-14T12:55:33Z","2020-07-14T12:55:53Z","2020-07-14T12:56:08Z","2020-07-14T12:56:18Z","2020-07-14T12:56:30Z","2020-07-14T12:56:41Z","2020-07-14T12:56:55Z","2020-07-14T12:57:08Z","2020-07-14T12:57:20Z","2020-07-14T12:57:30Z","2020-07-14T12:57:40Z","2020-07-14T12:57:52Z","2020-07-14T12:59:01Z","2020-07-14T12:59:34Z","2020-07-14T13:00:19Z","2020-07-14T13:00:50Z","2020-07-14T13:00:59Z","2020-07-14T13:01:10Z","2020-07-14T13:01:19Z","2020-07-14T13:01:28Z","2020-07-14T13:01:36Z","2020-07-14T13:01:49Z","2020-07-14T13:01:58Z","2020-07-14T13:02:09Z","2020-07-14T13:02:19Z","2020-07-14T13:02:28Z","2020-07-14T13:02:40Z","2020-07-14T13:02:49Z","2020-07-14T13:03:00Z","2020-07-14T13:03:10Z","2020-07-14T13:03:21Z","2020-07-14T13:03:33Z","2020-07-14T13:04:18Z","2020-07-14T13:04:26Z","2020-07-14T13:04:36Z","2020-07-14T13:04:44Z","2020-07-14T13:04:52Z","2020-07-14T13:05:02Z","2020-07-14T13:05:11Z","2020-07-14T13:05:19Z","2020-07-14T13:05:30Z","2020-07-14T13:05:38Z","2020-07-14T13:06:00Z","2020-07-14T13:06:09Z","2020-07-14T13:06:17Z","2020-07-14T13:06:29Z","2020-07-14T13:06:38Z","2020-07-14T13:06:55Z","2020-07-14T13:07:14Z","2020-07-14T13:07:25Z","2020-07-14T13:07:33Z","2020-07-14T13:07:46Z","2020-07-14T13:08:02Z","2020-07-14T13:08:15Z","2020-07-14T13:08:34Z","2020-07-14T13:08:52Z","2020-07-14T13:09:08Z","2020-07-14T13:09:20Z","2020-07-14T13:09:31Z","2020-07-14T13:09:43Z","2020-07-14T13:09:56Z","2020-07-14T13:10:15Z","2020-07-14T13:10:30Z","2020-07-14T13:10:44Z","2020-07-14T13:10:58Z","2020-07-14T13:11:09Z","2020-07-14T13:11:17Z","2020-07-14T13:11:27Z","2020-07-14T13:11:41Z","2020-07-14T13:11:55Z","2020-07-14T13:12:05Z","2020-07-14T13:12:15Z","2020-07-14T13:12:29Z","2020-07-14T13:12:42Z","2020-07-14T13:12:57Z","2020-07-14T13:13:32Z","2020-07-14T13:13:43Z","2020-07-14T13:13:54Z","2020-07-14T13:14:07Z","2020-07-14T13:14:16Z","2020-07-14T13:14:26Z","2020-07-14T13:14:37Z","2020-07-14T13:14:48Z","2020-07-14T13:15:00Z","2020-07-14T13:15:10Z","2020-07-14T13:15:19Z","2020-07-14T13:15:28Z","2020-07-14T13:15:36Z","2020-07-14T13:15:50Z","2020-07-14T13:16:05Z","2020-07-14T13:16:16Z","2020-07-14T13:16:25Z","2020-07-14T13:16:39Z","2020-07-14T13:17:27Z","2020-07-14T13:17:42Z","2020-07-14T13:17:53Z","2020-07-14T13:18:04Z","2020-07-14T13:18:15Z","2020-07-14T13:18:24Z","2020-07-14T13:18:31Z","2020-07-14T13:18:40Z","2020-07-14T13:18:49Z","2020-07-14T13:19:00Z","2020-07-14T13:19:10Z","2020-07-14T13:19:20Z","2020-07-14T13:19:31Z","2020-07-14T13:19:40Z","2020-07-14T13:19:51Z","2020-07-14T13:20:06Z","2020-07-14T13:21:15Z","2020-07-14T13:21:25Z","2020-07-14T13:21:36Z","2020-07-14T13:21:47Z","2020-07-14T13:22:20Z","2020-07-14T13:22:30Z","2020-07-14T13:22:41Z","2020-07-14T13:22:59Z","2020-07-14T13:23:11Z","2020-07-14T13:23:31Z","2020-07-14T13:23:49Z","2020-07-14T13:23:57Z","2020-07-14T13:24:08Z","2020-07-14T13:24:17Z","2020-07-14T13:24:25Z","2020-07-14T13:24:35Z","2020-07-14T13:24:46Z","2020-07-14T13:25:05Z","2020-07-14T13:25:22Z","2020-07-14T13:25:35Z","2020-07-14T13:25:49Z","2020-07-14T13:25:58Z","2020-07-14T13:26:09Z","2020-07-14T13:26:19Z","2020-07-14T13:26:29Z","2020-07-14T13:26:42Z","2020-07-14T13:26:51Z","2020-07-14T13:26:59Z","2020-07-14T13:27:13Z","2020-07-14T13:27:50Z","2020-07-14T13:28:08Z","2020-07-14T13:28:18Z","2020-07-14T13:28:26Z","2020-07-14T13:28:35Z","2020-07-14T13:28:43Z","2020-07-14T13:28:51Z","2020-07-14T13:28:59Z","2020-07-14T13:29:07Z","2020-07-14T13:29:15Z","2020-07-14T13:29:22Z","2020-07-14T13:29:29Z","2020-07-14T13:29:36Z","2020-07-14T13:29:47Z","2020-07-14T13:30:05Z","2020-07-14T13:30:14Z","2020-07-14T13:30:22Z","2020-07-14T13:30:31Z","2020-07-14T13:30:44Z","2020-07-14T13:31:05Z","2020-07-14T13:32:16Z","2020-07-14T13:32:45Z","2020-07-14T13:32:55Z","2020-07-14T13:33:06Z","2020-07-14T13:33:17Z","2020-07-14T13:33:27Z","2020-07-14T13:33:37Z","2020-07-14T13:33:47Z","2020-07-14T13:33:58Z","2020-07-14T13:34:07Z","2020-07-14T13:34:19Z","2020-07-14T13:34:30Z","2020-07-14T13:34:42Z","2020-07-14T13:34:55Z","2020-07-14T13:35:16Z","2020-07-14T13:35:32Z","2020-07-14T13:36:06Z","2020-07-14T13:36:20Z","2020-07-14T13:37:23Z","2020-07-14T13:37:42Z","2020-07-14T13:37:52Z","2020-07-14T13:38:03Z","2020-07-14T13:38:27Z","2020-07-14T13:38:52Z","2020-07-14T13:39:02Z","2020-07-14T13:46:43Z","2020-07-14T13:46:54Z","2020-07-14T13:47:25Z","2020-07-14T13:47:42Z","2020-07-14T13:47:56Z","2020-07-14T13:48:16Z","2020-07-14T13:48:27Z","2020-07-14T13:49:38Z","2020-07-14T13:56:24Z","2020-07-14T13:59:40Z","2020-07-14T14:00:16Z","2020-07-14T14:02:57Z","2020-07-14T14:05:12Z","2020-07-14T14:05:12Z","2020-07-14T14:02:57Z","2020-07-14T14:00:16Z","2020-07-14T13:59:40Z","2020-07-14T13:56:24Z","2020-07-14T13:49:38Z","2020-07-14T13:48:27Z","2020-07-14T13:48:16Z","2020-07-14T13:47:56Z","2020-07-14T13:47:42Z","2020-07-14T13:47:25Z","2020-07-14T13:46:54Z","2020-07-14T13:46:43Z","2020-07-14T13:39:02Z","2020-07-14T13:38:52Z","2020-07-14T13:38:27Z","2020-07-14T13:38:03Z","2020-07-14T13:37:52Z","2020-07-14T13:37:42Z","2020-07-14T13:37:23Z","2020-07-14T13:36:20Z","2020-07-14T13:36:06Z","2020-07-14T13:35:32Z","2020-07-14T13:35:16Z","2020-07-14T13:34:55Z","2020-07-14T13:34:42Z","2020-07-14T13:34:30Z","2020-07-14T13:34:19Z","2020-07-14T13:34:07Z","2020-07-14T13:33:58Z","2020-07-14T13:33:47Z","2020-07-14T13:33:37Z","2020-07-14T13:33:27Z","2020-07-14T13:33:17Z","2020-07-14T13:33:06Z","2020-07-14T13:32:55Z","2020-07-14T13:32:45Z","2020-07-14T13:32:16Z","2020-07-14T13:31:05Z","2020-07-14T13:30:44Z","2020-07-14T13:30:31Z","2020-07-14T13:30:22Z","2020-07-14T13:30:14Z","2020-07-14T13:30:05Z","2020-07-14T13:29:47Z","2020-07-14T13:29:36Z","2020-07-14T13:29:29Z","2020-07-14T13:29:22Z","2020-07-14T13:29:15Z","2020-07-14T13:29:07Z","2020-07-14T13:28:59Z","2020-07-14T13:28:51Z","2020-07-14T13:28:43Z","2020-07-14T13:28:35Z","2020-07-14T13:28:26Z","2020-07-14T13:28:18Z","2020-07-14T13:28:08Z","2020-07-14T13:27:50Z","2020-07-14T13:27:13Z","2020-07-14T13:26:59Z","2020-07-14T13:26:51Z","2020-07-14T13:26:42Z","2020-07-14T13:26:29Z","2020-07-14T13:26:19Z","2020-07-14T13:26:09Z","2020-07-14T13:25:58Z","2020-07-14T13:25:49Z","2020-07-14T13:25:35Z","2020-07-14T13:25:22Z","2020-07-14T13:25:05Z","2020-07-14T13:24:46Z","2020-07-14T13:24:35Z","2020-07-14T13:24:25Z","2020-07-14T13:24:17Z","2020-07-14T13:24:08Z","2020-07-14T13:23:57Z","2020-07-14T13:23:49Z","2020-07-14T13:23:31Z","2020-07-14T13:23:11Z","2020-07-14T13:22:59Z","2020-07-14T13:22:41Z","2020-07-14T13:22:30Z","2020-07-14T13:22:20Z","2020-07-14T13:21:47Z","2020-07-14T13:21:36Z","2020-07-14T13:21:25Z","2020-07-14T13:21:15Z","2020-07-14T13:20:06Z","2020-07-14T13:19:51Z","2020-07-14T13:19:40Z","2020-07-14T13:19:31Z","2020-07-14T13:19:20Z","2020-07-14T13:19:10Z","2020-07-14T13:19:00Z","2020-07-14T13:18:49Z","2020-07-14T13:18:40Z","2020-07-14T13:18:31Z","2020-07-14T13:18:24Z","2020-07-14T13:18:15Z","2020-07-14T13:18:04Z","2020-07-14T13:17:53Z","2020-07-14T13:17:42Z","2020-07-14T13:17:27Z","2020-07-14T13:16:39Z","2020-07-14T13:16:25Z","2020-07-14T13:16:16Z","2020-07-14T13:16:05Z","2020-07-14T13:15:50Z","2020-07-14T13:15:36Z","2020-07-14T13:15:28Z","2020-07-14T13:15:19Z","2020-07-14T13:15:10Z","2020-07-14T13:15:00Z","2020-07-14T13:14:48Z","2020-07-14T13:14:37Z","2020-07-14T13:14:26Z","2020-07-14T13:14:16Z","2020-07-14T13:14:07Z","2020-07-14T13:13:54Z","2020-07-14T13:13:43Z","2020-07-14T13:13:32Z","2020-07-14T13:12:57Z","2020-07-14T13:12:42Z","2020-07-14T13:12:29Z","2020-07-14T13:12:15Z","2020-07-14T13:12:05Z","2020-07-14T13:11:55Z","2020-07-14T13:11:41Z","2020-07-14T13:11:27Z","2020-07-14T13:11:17Z","2020-07-14T13:11:09Z","2020-07-14T13:10:58Z","2020-07-14T13:10:44Z","2020-07-14T13:10:30Z","2020-07-14T13:10:15Z","2020-07-14T13:09:56Z","2020-07-14T13:09:43Z","2020-07-14T13:09:31Z","2020-07-14T13:09:20Z","2020-07-14T13:09:08Z","2020-07-14T13:08:52Z","2020-07-14T13:08:34Z","2020-07-14T13:08:15Z","2020-07-14T13:08:02Z","2020-07-14T13:07:46Z","2020-07-14T13:07:33Z","2020-07-14T13:07:25Z","2020-07-14T13:07:14Z","2020-07-14T13:06:55Z","2020-07-14T13:06:38Z","2020-07-14T13:06:29Z","2020-07-14T13:06:17Z","2020-07-14T13:06:09Z","2020-07-14T13:06:00Z","2020-07-14T13:05:38Z","2020-07-14T13:05:30Z","2020-07-14T13:05:19Z","2020-07-14T13:05:11Z","2020-07-14T13:05:02Z","2020-07-14T13:04:52Z","2020-07-14T13:04:44Z","2020-07-14T13:04:36Z","2020-07-14T13:04:26Z","2020-07-14T13:04:18Z","2020-07-14T13:03:33Z","2020-07-14T13:03:21Z","2020-07-14T13:03:10Z","2020-07-14T13:03:00Z","2020-07-14T13:02:49Z","2020-07-14T13:02:40Z","2020-07-14T13:02:28Z","2020-07-14T13:02:19Z","2020-07-14T13:02:09Z","2020-07-14T13:01:58Z","2020-07-14T13:01:49Z","2020-07-14T13:01:36Z","2020-07-14T13:01:28Z","2020-07-14T13:01:19Z","2020-07-14T13:01:10Z","2020-07-14T13:00:59Z","2020-07-14T13:00:50Z","2020-07-14T13:00:19Z","2020-07-14T12:59:34Z","2020-07-14T12:59:01Z","2020-07-14T12:57:52Z","2020-07-14T12:57:40Z","2020-07-14T12:57:30Z","2020-07-14T12:57:20Z","2020-07-14T12:57:08Z","2020-07-14T12:56:55Z","2020-07-14T12:56:41Z","2020-07-14T12:56:30Z","2020-07-14T12:56:18Z","2020-07-14T12:56:08Z","2020-07-14T12:55:53Z","2020-07-14T12:55:33Z","2020-07-14T12:55:19Z","2020-07-14T12:55:06Z","2020-07-14T12:54:55Z","2020-07-14T12:54:34Z","2020-07-14T12:54:25Z","2020-07-14T12:54:10Z","2020-07-14T12:53:59Z","2020-07-14T12:53:51Z","2020-07-14T12:53:40Z","2020-07-14T12:53:27Z","2020-07-14T12:53:14Z","2020-07-14T12:53:03Z","2020-07-14T12:52:53Z","2020-07-14T12:52:41Z","2020-07-14T12:52:31Z","2020-07-14T12:52:22Z","2020-07-14T12:52:09Z","2020-07-14T12:51:57Z","2020-07-14T12:51:46Z","2020-07-14T12:51:38Z","2020-07-14T12:51:28Z","2020-07-14T12:51:19Z","2020-07-14T12:51:06Z","2020-07-14T12:50:56Z","2020-07-14T12:50:44Z","2020-07-14T12:50:32Z","2020-07-14T12:50:22Z","2020-07-14T12:50:13Z","2020-07-14T12:50:02Z","2020-07-14T12:49:43Z","2020-07-14T12:49:31Z","2020-07-14T12:49:22Z","2020-07-14T12:49:10Z","2020-07-14T12:49:00Z","2020-07-14T12:48:51Z","2020-07-14T12:48:26Z","2020-07-14T12:47:55Z","2020-07-14T12:47:43Z","2020-07-14T12:47:32Z","2020-07-14T12:47:23Z","2020-07-14T12:47:14Z","2020-07-14T12:46:43Z","2020-07-14T12:46:34Z","2020-07-14T12:46:25Z","2020-07-14T12:46:14Z","2020-07-14T12:46:03Z","2020-07-14T12:45:54Z","2020-07-14T12:45:44Z","2020-07-14T12:45:29Z","2020-07-14T12:45:16Z","2020-07-14T12:45:06Z","2020-07-14T12:44:56Z","2020-07-14T12:44:48Z","2020-07-14T12:44:36Z","2020-07-14T12:44:24Z","2020-07-14T12:44:09Z","2020-07-14T12:43:57Z","2020-07-14T12:43:46Z","2020-07-14T12:43:37Z","2020-07-14T12:40:44Z","2020-07-14T12:40:35Z","2020-07-14T12:40:20Z","2020-07-14T12:39:45Z","2020-07-14T12:39:37Z","2020-07-14T12:39:26Z","2020-07-14T12:38:28Z","2020-07-14T12:37:57Z","2020-07-14T12:37:42Z","2020-07-14T12:37:31Z","2020-07-14T12:37:23Z","2020-07-14T12:37:16Z","2020-07-14T12:37:07Z","2020-07-14T12:36:51Z","2020-07-14T12:36:38Z","2020-07-14T12:36:31Z","2020-07-14T12:36:23Z","2020-07-14T12:36:09Z","2020-07-14T12:35:52Z","2020-07-14T12:35:32Z","2020-07-14T12:35:24Z","2020-07-14T12:35:17Z","2020-07-14T12:35:08Z","2020-07-14T12:34:52Z","2020-07-14T12:34:44Z","2020-07-14T12:34:35Z","2020-07-14T12:34:25Z","2020-07-14T12:34:14Z","2020-07-14T12:34:05Z","2020-07-14T12:33:55Z","2020-07-14T12:33:46Z","2020-07-14T12:33:35Z","2020-07-14T12:33:24Z","2020-07-14T12:33:15Z","2020-07-14T12:33:05Z","2020-07-14T12:32:57Z","2020-07-14T12:32:50Z","2020-07-14T12:32:42Z","2020-07-14T12:32:33Z","2020-07-14T12:32:25Z","2020-07-14T12:32:16Z","2020-07-14T12:32:08Z","2020-07-14T12:31:52Z","2020-07-14T12:31:40Z","2020-07-14T12:31:30Z","2020-07-14T12:31:22Z","2020-07-14T12:31:11Z","2020-07-14T12:31:02Z","2020-07-14T12:30:51Z","2020-07-14T12:30:41Z","2020-07-14T12:30:28Z","2020-07-14T12:30:20Z","2020-07-14T12:30:11Z","2020-07-14T12:30:03Z","2020-07-14T12:29:53Z","2020-07-14T12:29:38Z","2020-07-14T12:29:24Z","2020-07-14T12:29:14Z","2020-07-14T12:29:02Z","2020-07-14T12:28:53Z","2020-07-14T12:28:40Z","2020-07-14T12:28:27Z","2020-07-14T12:28:18Z","2020-07-14T12:28:03Z","2020-07-14T12:27:53Z","2020-07-14T12:27:45Z","2020-07-14T12:27:36Z","2020-07-14T12:27:23Z","2020-07-14T12:27:12Z","2020-07-14T12:27:01Z","2020-07-14T12:26:52Z","2020-07-14T12:26:43Z","2020-07-14T12:26:35Z","2020-07-14T12:26:26Z","2020-07-14T12:26:05Z","2020-07-14T12:25:50Z","2020-07-14T12:25:42Z","2020-07-14T12:25:33Z","2020-07-14T12:25:24Z","2020-07-14T12:25:14Z","2020-07-14T12:24:59Z","2020-07-14T12:24:50Z","2020-07-14T12:24:37Z","2020-07-14T12:24:22Z","2020-07-14T12:24:09Z","2020-07-14T12:23:58Z","2020-07-14T12:23:50Z","2020-07-14T12:23:42Z","2020-07-14T12:23:31Z","2020-07-14T12:23:23Z","2020-07-14T12:23:15Z","2020-07-14T12:23:06Z","2020-07-14T12:22:59Z","2020-07-14T12:22:50Z","2020-07-14T12:22:40Z","2020-07-14T12:22:27Z","2020-07-14T12:22:15Z","2020-07-14T12:22:02Z","2020-07-14T12:21:42Z","2020-07-14T12:21:23Z","2020-07-14T12:21:10Z","2020-07-14T12:20:56Z","2020-07-14T12:20:46Z","2020-07-14T12:20:28Z","2020-07-14T12:20:19Z","2020-07-14T12:20:09Z","2020-07-14T12:19:55Z","2020-07-14T12:19:45Z","2020-07-14T12:19:37Z","2020-07-14T12:19:29Z","2020-07-14T12:19:21Z","2020-07-14T12:18:54Z","2020-07-14T12:18:42Z","2020-07-14T12:18:22Z","2020-07-14T12:18:12Z","2020-07-14T12:18:02Z","2020-07-14T12:16:52Z","2020-07-14T12:16:15Z","2020-07-14T12:15:53Z","2020-07-14T12:15:38Z","2020-07-14T12:15:25Z","2020-07-14T12:15:17Z","2020-07-14T12:15:09Z","2020-07-14T12:14:59Z","2020-07-14T12:14:48Z","2020-07-14T12:14:38Z","2020-07-14T12:14:30Z","2020-07-14T12:14:20Z","2020-07-14T12:14:03Z","2020-07-14T12:13:52Z","2020-07-14T12:13:43Z","2020-07-14T12:13:34Z","2020-07-14T12:13:25Z","2020-07-14T12:13:16Z","2020-07-14T12:13:07Z","2020-07-14T12:12:30Z","2020-07-14T12:12:08Z","2020-07-14T12:11:54Z","2020-07-14T12:11:46Z","2020-07-14T12:11:36Z","2020-07-14T12:11:27Z","2020-07-14T12:11:17Z","2020-07-14T12:11:07Z","2020-07-14T12:10:58Z","2020-07-14T12:10:46Z","2020-07-14T12:10:35Z","2020-07-14T12:10:25Z","2020-07-14T12:10:16Z","2020-07-14T12:10:09Z","2020-07-14T12:09:59Z","2020-07-14T12:09:45Z","2020-07-14T12:09:36Z","2020-07-14T12:09:29Z","2020-07-14T12:09:21Z","2020-07-14T12:09:11Z","2020-07-14T12:09:03Z","2020-07-14T12:08:56Z","2020-07-14T12:08:49Z","2020-07-14T12:08:39Z","2020-07-14T12:08:31Z","2020-07-14T12:08:23Z","2020-07-14T12:08:14Z","2020-07-14T12:08:07Z","2020-07-14T12:07:57Z","2020-07-14T12:07:46Z","2020-07-14T12:05:13Z","2020-07-14T12:05:05Z","2020-07-14T12:04:10Z","2020-07-14T12:04:00Z","2020-07-14T12:03:52Z","2020-07-14T12:03:43Z","2020-07-14T12:03:32Z","2020-07-14T12:03:24Z","2020-07-14T12:03:16Z","2020-07-14T12:03:06Z","2020-07-14T12:02:57Z","2020-07-14T12:02:49Z","2020-07-14T12:02:40Z","2020-07-14T12:02:32Z","2020-07-14T12:02:20Z","2020-07-14T12:02:11Z","2020-07-14T12:02:01Z","2020-07-14T12:01:52Z","2020-07-14T12:01:42Z","2020-07-14T12:01:35Z","2020-07-14T12:01:26Z","2020-07-14T12:01:16Z","2020-07-14T12:01:07Z","2020-07-14T12:00:48Z","2020-07-14T12:00:38Z","2020-07-14T12:00:30Z","2020-07-14T12:00:23Z","2020-07-14T12:00:13Z","2020-07-14T12:00:04Z","2020-07-14T11:59:56Z","2020-07-14T11:59:48Z","2020-07-14T11:59:37Z","2020-07-14T11:59:29Z","2020-07-14T11:59:19Z","2020-07-14T11:59:10Z","2020-07-14T11:59:00Z","2020-07-14T11:58:52Z","2020-07-14T11:58:44Z","2020-07-14T11:58:36Z","2020-07-14T11:58:27Z","2020-07-14T11:58:18Z","2020-07-14T11:58:09Z","2020-07-14T11:57:58Z","2020-07-14T11:57:48Z","2020-07-14T11:57:39Z","2020-07-14T11:57:29Z","2020-07-14T11:57:18Z","2020-07-14T11:57:08Z","2020-07-14T11:56:58Z","2020-07-14T11:56:48Z","2020-07-14T11:56:38Z","2020-07-14T11:56:27Z","2020-07-14T11:56:11Z","2020-07-14T11:55:59Z","2020-07-14T11:55:47Z","2020-07-14T11:55:32Z","2020-07-14T11:55:12Z","2020-07-14T11:54:58Z","2020-07-14T11:54:46Z","2020-07-14T11:54:23Z","2020-07-14T11:54:08Z","2020-07-14T11:53:46Z","2020-07-14T11:53:35Z","2020-07-14T11:53:25Z","2020-07-14T11:53:14Z","2020-07-14T11:53:06Z","2020-07-14T11:52:54Z","2020-07-14T11:52:42Z","2020-07-14T11:52:32Z","2020-07-14T11:52:23Z","2020-07-14T11:52:15Z","2020-07-14T11:52:01Z","2020-07-14T11:51:50Z","2020-07-14T11:51:40Z","2020-07-14T11:48:49Z","2020-07-14T11:48:02Z","2020-07-14T11:47:53Z","2020-07-14T11:47:44Z","2020-07-14T11:47:34Z","2020-07-14T11:47:24Z","2020-07-14T11:47:15Z","2020-07-14T11:47:03Z","2020-07-14T11:46:55Z","2020-07-14T11:46:07Z","2020-07-14T11:45:55Z","2020-07-14T11:45:45Z","2020-07-14T11:45:35Z","2020-07-14T11:45:25Z","2020-07-14T11:45:11Z","2020-07-14T11:44:57Z","2020-07-14T11:44:44Z","2020-07-14T11:44:35Z","2020-07-14T11:44:22Z","2020-07-14T11:44:14Z","2020-07-14T11:44:03Z","2020-07-14T11:43:55Z","2020-07-14T11:43:48Z","2020-07-14T11:43:41Z","2020-07-14T11:43:34Z","2020-07-14T11:43:24Z","2020-07-14T11:43:14Z","2020-07-14T11:43:07Z","2020-07-14T11:43:00Z","2020-07-14T11:42:51Z","2020-07-14T11:42:42Z","2020-07-14T11:42:33Z","2020-07-14T11:42:24Z","2020-07-14T11:42:16Z","2020-07-14T11:42:08Z","2020-07-14T11:41:59Z","2020-07-14T11:41:51Z","2020-07-14T11:41:43Z","2020-07-14T11:41:34Z","2020-07-14T11:41:26Z","2020-07-14T11:41:12Z","2020-07-14T11:41:04Z","2020-07-14T11:40:56Z","2020-07-14T11:40:48Z","2020-07-14T11:40:39Z","2020-07-14T11:40:30Z","2020-07-14T11:40:19Z","2020-07-14T11:40:10Z","2020-07-14T11:40:01Z","2020-07-14T11:39:49Z","2020-07-14T11:39:40Z","2020-07-14T11:39:29Z","2020-07-14T11:39:22Z","2020-07-14T11:39:14Z","2020-07-14T11:39:02Z","2020-07-14T11:38:34Z","2020-07-14T11:38:25Z","2020-07-14T11:38:17Z","2020-07-14T11:38:08Z","2020-07-14T11:38:01Z","2020-07-14T11:37:53Z","2020-07-14T11:37:36Z","2020-07-14T11:37:27Z","2020-07-14T11:37:19Z","2020-07-14T11:37:10Z","2020-07-14T11:36:57Z","2020-07-14T11:36:47Z","2020-07-14T11:36:35Z","2020-07-14T11:36:23Z","2020-07-14T11:36:11Z","2020-07-14T11:36:00Z","2020-07-14T11:35:50Z","2020-07-14T11:35:41Z","2020-07-14T11:35:32Z","2020-07-14T11:35:21Z","2020-07-14T11:35:10Z","2020-07-14T11:34:59Z","2020-07-14T11:34:49Z","2020-07-14T11:34:40Z","2020-07-14T11:34:31Z","2020-07-14T11:34:21Z","2020-07-14T11:34:13Z","2020-07-14T11:34:03Z","2020-07-14T11:33:55Z","2020-07-14T11:33:47Z","2020-07-14T11:33:39Z","2020-07-14T11:33:32Z","2020-07-14T11:33:25Z","2020-07-14T11:33:17Z","2020-07-14T11:33:07Z","2020-07-14T11:32:56Z","2020-07-14T11:32:46Z","2020-07-14T11:32:37Z","2020-07-14T11:32:29Z","2020-07-14T11:32:21Z","2020-07-14T11:32:13Z","2020-07-14T11:32:02Z","2020-07-14T11:31:50Z","2020-07-14T11:31:40Z","2020-07-14T11:31:29Z","2020-07-14T11:31:17Z","2020-07-14T11:31:03Z","2020-07-14T11:30:52Z","2020-07-14T11:30:40Z","2020-07-14T11:30:07Z","2020-07-14T11:29:58Z","2020-07-14T11:29:49Z","2020-07-14T11:29:40Z","2020-07-14T11:29:30Z","2020-07-14T11:29:21Z","2020-07-14T11:29:14Z","2020-07-14T11:29:08Z","2020-07-14T11:29:01Z","2020-07-14T11:28:54Z","2020-07-14T11:28:47Z","2020-07-14T11:28:41Z","2020-07-14T11:28:35Z","2020-07-14T11:28:28Z","2020-07-14T11:28:21Z","2020-07-14T11:28:14Z","2020-07-14T11:28:07Z","2020-07-14T11:28:00Z","2020-07-14T11:27:53Z","2020-07-14T11:27:46Z","2020-07-14T11:27:39Z","2020-07-14T11:27:33Z","2020-07-14T11:27:27Z","2020-07-14T11:27:21Z","2020-07-14T11:27:14Z","2020-07-14T11:27:06Z","2020-07-14T11:26:59Z","2020-07-14T11:26:52Z","2020-07-14T11:26:45Z","2020-07-14T11:26:38Z","2020-07-14T11:26:31Z","2020-07-14T11:26:25Z","2020-07-14T11:26:18Z","2020-07-14T11:25:58Z","2020-07-14T11:25:48Z","2020-07-14T11:25:41Z","2020-07-14T11:25:34Z","2020-07-14T11:25:27Z","2020-07-14T11:25:21Z","2020-07-14T11:25:16Z","2020-07-14T11:25:10Z","2020-07-14T11:25:04Z","2020-07-14T11:24:58Z","2020-07-14T11:24:52Z","2020-07-14T11:24:46Z","2020-07-14T11:24:40Z","2020-07-14T11:24:34Z","2020-07-14T11:24:27Z","2020-07-14T11:24:20Z","2020-07-14T11:24:13Z","2020-07-14T11:24:06Z","2020-07-14T11:24:00Z","2020-07-14T11:23:54Z","2020-07-14T11:23:48Z","2020-07-14T11:23:41Z","2020-07-14T11:23:34Z","2020-07-14T11:23:28Z","2020-07-14T11:23:21Z","2020-07-14T11:23:14Z","2020-07-14T11:23:07Z","2020-07-14T11:22:41Z"]}},"geometry":{"type":"LineString","coordinates":[[-6.602015839889646,62.2706338763237,11.46],[-6.602119440212846,62.2707150131464,10.8],[-6.602250281721354,62.27079573087394,10.23],[-6.602380787953734,62.27087343111634,9.84],[-6.602511629462242,62.27094702422619,9.14],[-6.602602070197463,62.271031094715,8.8],[-6.602729810401797,62.271106196567416,8.33],[-6.602871380746365,62.27119596675038,7.98],[-6.603016639128327,62.271268805488944,7.64],[-6.603166004642844,62.27134231477976,6.99],[-6.603325176984072,62.271411046385765,6.54],[-6.60348049364984,62.27147860452533,6.04],[-6.60362558439374,62.27154758758843,5.57],[-6.60376145504415,62.271624617278576,4.77],[-6.603893721476197,62.27171313017607,4.46],[-6.604035208001733,62.27180214598775,4.44],[-6.604152387008071,62.27187515236437,4.61],[-6.604237295687199,62.27197078987956,4.06],[-6.604345422238112,62.27205980569124,2.96],[-6.604425385594368,62.272148318588734,1.98],[-6.604491518810391,62.27223666384816,1.44],[-6.604562094435096,62.27231629192829,1.57],[-6.604637363925576,62.272393153980374,1.66],[-6.60472746938467,62.272466411814094,1.75],[-6.604788322001696,62.27254788391292,1.74],[-6.604865100234747,62.27263270877302,1.47],[-6.604962581768632,62.272719126194715,1.54],[-6.605087388306856,62.27271493524313,1.86],[-6.60501329228282,62.27280587889254,1.25],[-6.605040784925222,62.272918447852135,1.31],[-6.605069534853101,62.27301366627216,1.42],[-6.605091998353601,62.2731255646795,0.8],[-6.605089399963617,62.27323545143008,0.81],[-6.605101302266121,62.27334374561906,0.84],[-6.605086298659444,62.27344114333391,1.01],[-6.605081520974636,62.27354507893324,1.03],[-6.605087053030729,62.2736594080925,0.65],[-6.605121335014701,62.273761834949255,0.58],[-6.60516768693924,62.27386811748147,0.55],[-6.605219906195998,62.27396258153021,0.27],[-6.605291236191988,62.27405268698931,0.54],[-6.605349071323872,62.274153269827366,0.54],[-6.605389472097158,62.27425653487444,0.43],[-6.605428867042065,62.27435393258929,0.45],[-6.605451665818691,62.27445409633219,0.59],[-6.605444960296154,62.27455526590347,0.41],[-6.605443116277456,62.27465383708477,0.47],[-6.605436410754919,62.27477093227208,0.62],[-6.605430794879794,62.274885261431336,0.47],[-6.605452755466104,62.274985341355205,0.56],[-6.605473877862096,62.27507854811847,0.5],[-6.605497933924198,62.27518013678491,0.38],[-6.605498436838388,62.27528667077422,0.18],[-6.60551025532186,62.27539613842964,0.38],[-6.60551905632019,62.2754898481071,0.45],[-6.605523834004998,62.275573248043656,0.63],[-6.605549147352576,62.27567517198622,1.83],[-6.605590805411339,62.275769552215934,3.51],[-6.605678647756577,62.27585814893246,5.16],[-6.605702703818679,62.27595889940858,5.77],[-6.605729861184955,62.27606409229338,6.34],[-6.605728268623352,62.276170291006565,6.31],[-6.605788869783282,62.27625637315214,6.38],[-6.605788534507155,62.27634874172509,6.24],[-6.605800101533532,62.27643867954612,5.94],[-6.605819296091795,62.27653364650905,5.63],[-6.605828600004315,62.27663196623325,6.07],[-6.605877717956901,62.27673724293709,6.43],[-6.605951730161905,62.2768366523087,7.33],[-6.605963045731187,62.276943353936076,7.47],[-6.606018282473087,62.27704670280218,7.99],[-6.606058431789279,62.27715130895376,7.82],[-6.606016186997294,62.27724049240351,7.98],[-6.606038650497794,62.27733780629933,8.53],[-6.606063460931182,62.27743084542453,8.39],[-6.606093132868409,62.27752438746393,7.55],[-6.606118949130178,62.27761792950332,7.58],[-6.6061229724437,62.27772010490298,7.63],[-6.606125319376588,62.2778123896569,7.02],[-6.606107214465737,62.27790961973369,6.85],[-6.606163289397955,62.27800232358277,7.64],[-6.606182651594281,62.27808597497642,7.44],[-6.606171755120158,62.27816887199879,7.16],[-6.606159852817655,62.27825746871531,7.13],[-6.606173766776919,62.27835268713534,7.89],[-6.606166306883097,62.27843784727156,7.77],[-6.606168821454048,62.278531305491924,6.7],[-6.606191620230675,62.278620237484574,6.51],[-6.606185585260391,62.278713863343,6.62],[-6.606259010732174,62.27881679311395,6.98],[-6.606250796467066,62.27893958799541,6.8],[-6.606219112873077,62.27903916500509,6.68],[-6.606240654364228,62.279137736186385,6.55],[-6.606265213340521,62.27923144586384,6.59],[-6.606332855299115,62.279318030923605,7.01],[-6.606461182236671,62.27938869036734,9.22],[-6.606491357088089,62.27947569452226,8.85],[-6.606620606034994,62.27955590933561,9.53],[-6.606666119769216,62.27965883910656,10.05],[-6.606712723150849,62.27974927984178,9.75],[-6.606766702607274,62.27984148077667,9.94],[-6.606760919094086,62.27995002642274,9.31],[-6.606794279068708,62.28004675358534,9.1],[-6.606844654306769,62.280147252604365,9.87],[-6.606883043423295,62.280242554843426,10.58],[-6.606912715360522,62.28033768944442,10.07],[-6.606963509693742,62.28042201139033,9.61],[-6.607039198279381,62.280526366084814,9.35],[-6.607121089473367,62.280610520392656,10.08],[-6.607175068929792,62.28070758283138,10.5],[-6.607242124155164,62.28080288507044,9.87],[-6.60725218243897,62.28090036660433,9.9],[-6.607286799699068,62.28098686784506,9.35],[-6.607378330081701,62.28107387199998,9.58],[-6.607464412227273,62.2811627201736,9.68],[-6.607553763315082,62.2812420129776,10.13],[-6.607606820762157,62.28134863078594,9.63],[-6.607708744704723,62.281432785093784,9.62],[-6.607759539037943,62.28153797797859,9.42],[-6.607843022793531,62.281629759818316,9.58],[-6.607877975329757,62.2817359585315,9.81],[-6.607898008078337,62.281827572733164,10.07],[-6.607948215678334,62.28192103095353,9.72],[-6.607967996969819,62.282009460031986,9.22],[-6.608058270066977,62.28210694156587,9.38],[-6.608104202896357,62.2822074405849,8.64],[-6.60813907161355,62.28230718523264,8.81],[-6.608180897310376,62.28240190073848,8.28],[-6.608229009434581,62.282503908500075,8.18],[-6.608273014426231,62.282605497166514,8.51],[-6.608370412141085,62.28268948383629,8.22],[-6.608381476253271,62.28279249742627,8.14],[-6.608445765450597,62.282878663390875,7.86],[-6.608480717986822,62.282973965629935,8.5],[-6.608561435714364,62.2830637358129,8.44],[-6.608634777367115,62.28314235806465,8.71],[-6.60868632607162,62.283241180703044,9.39],[-6.608676100149751,62.28333916515112,8.5],[-6.60874349065125,62.283424409106374,8.59],[-6.608829321339726,62.28352130390704,8.57],[-6.608873661607504,62.28362649679184,9.3],[-6.608923031017184,62.28372121229768,9.66],[-6.608987404033542,62.28381089866161,9.81],[-6.608984554186463,62.28389957919717,8.74],[-6.609080778434873,62.28398306295276,8.53],[-6.609119167551398,62.2840724978596,9.21],[-6.609200304374099,62.28415614925325,9.38],[-6.609301054850221,62.284242985770106,10.44],[-6.60942074842751,62.28431557305157,10.77],[-6.609487971290946,62.284387992694974,10.38],[-6.609593164175749,62.28446795605123,11.72],[-6.609697435051203,62.28455680422485,12.25],[-6.609744122251868,62.28465227410197,12.86],[-6.609823331236839,62.284745229408145,12.9],[-6.609909497201443,62.284817481413484,12.49],[-6.610015193000436,62.28489543311298,13.31],[-6.61017176695168,62.28497615084052,12.08],[-6.610166151076555,62.285064244642854,11.42],[-6.610215436667204,62.28515300899744,11.2],[-6.610230691730976,62.28525124490261,11.22],[-6.610312582924962,62.28532701730728,9.84],[-6.610345020890236,62.28541972115636,9.81],[-6.610389612615109,62.28551250882447,10.45],[-6.610434707254171,62.285607643425465,10.28],[-6.610501762479544,62.28567595593631,10.18],[-6.610632017254829,62.28570269420743,9.85],[-6.610697982832789,62.28576723486185,10.89],[-6.610840475186706,62.28583948686719,11.44],[-6.610966036096215,62.28594845160842,11.91],[-6.610995456576347,62.28604978881776,11.89],[-6.611100900918245,62.2861341945827,11.36],[-6.611204752698541,62.286215499043465,11.86],[-6.611334504559636,62.28630225174129,11.37],[-6.611422263085842,62.286400236189365,11.77],[-6.611510021612048,62.286493610590696,11.63],[-6.611648993566632,62.286582542583346,11.78],[-6.611720910295844,62.2866712231189,11.67],[-6.611839346587658,62.28674531914294,12.92],[-6.61193816922605,62.286835592240095,11.14],[-6.611953005194664,62.286936677992344,10.4],[-6.611984437331557,62.28700700215995,8.22],[-6.611976642161608,62.28710548952222,10.01],[-6.612120643258095,62.28715980425477,11.92],[-6.612171772867441,62.28725451976061,11.05],[-6.61222449503839,62.28734554722905,10.23],[-6.612245785072446,62.28745702654123,9.88],[-6.612277301028371,62.28754134848714,10.9],[-6.612377297133207,62.287625251337886,8.93],[-6.612337063997984,62.28771678172052,8.96],[-6.612367238849402,62.28781853802502,8.96],[-6.612393306568265,62.287916941568255,9.5],[-6.612431779503822,62.28802188299596,9.79],[-6.612501852214336,62.28812087327242,10.65],[-6.612544851377606,62.28820745833218,10.5],[-6.612542420625687,62.288304353132844,9.85],[-6.612549377605319,62.28838926181197,10.22],[-6.612653229385614,62.28848783299327,10.23],[-6.612746017053723,62.28855924680829,10.57],[-6.612778957933188,62.288653291761875,10.17],[-6.612770827487111,62.28874574415386,9.92],[-6.612699078395963,62.288838615641,9.2],[-6.612697569653392,62.28893115185201,8.55],[-6.612671669572592,62.2890233527869,9.05],[-6.612670496106148,62.289113542065024,9.07],[-6.612710142508149,62.28920750319958,9.71],[-6.612803433090448,62.2892876341939,10.47],[-6.612760433927178,62.28938930667937,10.45],[-6.612779209390283,62.28948905132711,10.07],[-6.612843666225672,62.28958644904196,11.14],[-6.612839475274086,62.28968175128102,11.27],[-6.612809970974922,62.289784429594874,11.61],[-6.612903093919158,62.289870427921414,12.07],[-6.612882055342197,62.2899610362947,12.23],[-6.612871997058392,62.29004762135446,12.17],[-6.612885324284434,62.29013797827065,12.37],[-6.612906698137522,62.290230598300695,11.38],[-6.61289437673986,62.29032623581588,11.47],[-6.612930586561561,62.290417179465294,12.28],[-6.612951708957553,62.29050627909601,12.76],[-6.612946847453713,62.29060225188732,12.76],[-6.612960007041693,62.29069755412638,12.74],[-6.612920947372913,62.29079335927963,11.61],[-6.612900914624333,62.29088405147195,11.71],[-6.612935196608305,62.29099008254707,11.74],[-6.612966293469071,62.291093012318015,11.46],[-6.612954055890441,62.29119141586125,11.36],[-6.612900495529175,62.291283532977104,10.61],[-6.612830422818661,62.29138009250164,9.84],[-6.61278935149312,62.29146458208561,10.08],[-6.612791698426008,62.29154312051833,8.99],[-6.612700335681438,62.29162911884487,8.39],[-6.612653313204646,62.2917121835053,8.86],[-6.612655743956566,62.29180170223117,8.55],[-6.612621797248721,62.29188485071063,8.15],[-6.612603440880776,62.291992139071226,8.14],[-6.612577037885785,62.29208660311997,8.07],[-6.612658258527517,62.292170925065875,7.44],[-6.61262615583837,62.29224929586053,7.23],[-6.612553065642715,62.29233252815902,6.9],[-6.612526243552566,62.29237494058907,5.63],[-6.612520711496472,62.29247837327421,6.73],[-6.612469498068094,62.29258155450225,7.89],[-6.612526075914502,62.29267342016101,8.72],[-6.612501684576273,62.292751958593726,8.09],[-6.612493051216006,62.292848601937294,8.26],[-6.6125572565943,62.29293443262577,8.08],[-6.612546527758241,62.29303300380707,8.56],[-6.612542336806655,62.29312579147518,8.01],[-6.612559519708157,62.2932196687907,7.7],[-6.612646020948887,62.29331421665847,7.67],[-6.612633699551225,62.293401723727584,8.32],[-6.612666472792625,62.293494176119566,8.8],[-6.612687679007649,62.293593753129244,9.07],[-6.612761523574591,62.293682266026735,9.11],[-6.612835032865405,62.29377027601004,8.87],[-6.612746519967914,62.2938602976501,9.65],[-6.612730510532856,62.29395316913724,9.3],[-6.612717937678099,62.29403765872121,8.68],[-6.612766468897462,62.29413849301636,9.51],[-6.612740149721503,62.294230945408344,8.19],[-6.612740317359567,62.29432398453355,8.46],[-6.612783316522837,62.29441333562136,9],[-6.612851042300463,62.294501680880785,9.99],[-6.612834697589278,62.29459782131016,9.62],[-6.61282598040998,62.29469739831984,9.52],[-6.612853975966573,62.29477836750448,9.31],[-6.612854562699795,62.29487425647676,9.15],[-6.6128870844841,62.29496235027909,9.12],[-6.612840313464403,62.29503602720797,8.3],[-6.612891862168908,62.29512546211481,8.44],[-6.612937208265066,62.29521665722132,8.38],[-6.612947769463062,62.295321179553866,8.67],[-6.613038210198283,62.29541170410812,9.95],[-6.613085232675076,62.295498456805944,9.69],[-6.613124292343855,62.29559166356921,9.85],[-6.613221857696772,62.29567321948707,11.13],[-6.613266868516803,62.295768270269036,11.52],[-6.613264605402947,62.29587161913514,11.37],[-6.613273993134499,62.29596960358322,11.08],[-6.613244405016303,62.296052081510425,10.44],[-6.613254630938172,62.29613866657019,10.15],[-6.613276591524482,62.296242685988545,10.08],[-6.613295869901776,62.29634486138821,9.84],[-6.613323697820306,62.29644661769271,10.42],[-6.613409277051687,62.296522222459316,10.19],[-6.613451354205608,62.296620877459645,11.95],[-6.613604156300426,62.296697571873665,13.77],[-6.613671630620956,62.296771835535765,13.75],[-6.613677330315113,62.29685012251139,13.31],[-6.613751258701086,62.296935115009546,14.53],[-6.613868353888392,62.29701055213809,14.92],[-6.613938426598907,62.29710870422423,14.51],[-6.613978743553162,62.29721079580486,14.36],[-6.614093743264675,62.29729696176946,15.04],[-6.614182172343135,62.2973951138556,14.39],[-6.614293986931443,62.29747767560184,14.74],[-6.614407058805227,62.29756459593773,14.89],[-6.614442178979516,62.29765763506293,15.83],[-6.61455474793911,62.29772452265024,14.12],[-6.614543600007892,62.297839941456914,13.92],[-6.614562459290028,62.29794370941818,14.46],[-6.614612163975835,62.29801990091801,13.68],[-6.614668658003211,62.29810254648328,14.64],[-6.614839900285006,62.29814018122852,16.29],[-6.614935537800193,62.29822542518377,17.69],[-6.615077275782824,62.2982809972018,18.12],[-6.61519386805594,62.2983499802649,18.88],[-6.615274166688323,62.29843505658209,18.68],[-6.615121867507696,62.298497669398785,17.29],[-6.614987505599856,62.29855609126389,13.91],[-6.61507660523057,62.29863337241113,12.02],[-6.615037545561791,62.29871425777674,12.93],[-6.615078449249268,62.29882473126054,12.63],[-6.615215158089995,62.298890529200435,14.3],[-6.61527106538415,62.298961440101266,14.51],[-6.615350442007184,62.29904484003782,14.54],[-6.615392351523042,62.2991237975657,13.34],[-6.615403667092323,62.29920686222613,13.24],[-6.615495448932052,62.29930040426552,13.64],[-6.615559486672282,62.29938246309757,14.33],[-6.615657554939389,62.2994673717767,15.3],[-6.615746486932039,62.29955764487386,15.53],[-6.615798287093639,62.29965680278838,15.31],[-6.615846818313003,62.29974925518036,15.35],[-6.615947904065251,62.29984254576266,15.09],[-6.615991154685617,62.2999422904104,15.49],[-6.616100873798132,62.30002828873694,16.04],[-6.616121744737029,62.30012979358435,15.8],[-6.616234481334686,62.300217719748616,16.07],[-6.616357527673245,62.30027756653726,17.3],[-6.61645844578743,62.300371108576655,17.23],[-6.61647018045187,62.30046967975795,16.93],[-6.616515694186091,62.300573447719216,16.43],[-6.61661677993834,62.30067193508148,16.49],[-6.616669418290258,62.300773775205016,16.6],[-6.616743262857199,62.30086907744408,17.02],[-6.616830350831151,62.30096169747412,16.74],[-6.616918193176389,62.30106387287378,17.64],[-6.616990026086569,62.30115263722837,17.35],[-6.617062110453844,62.30124047957361,17.01],[-6.617144169285893,62.30132907629013,16.97],[-6.617234693840146,62.30141842737794,17.81],[-6.617319351062179,62.301506185904145,17.69],[-6.617401828989387,62.301597548648715,18.43],[-6.617496125400066,62.30169075541198,18.72],[-6.617574160918593,62.30178530327976,18.29],[-6.617654208093882,62.30188890360296,18],[-6.617713132873178,62.30199543759227,18.27],[-6.617807932198048,62.30207900516689,19.42],[-6.617945311591029,62.30217011645436,19.16],[-6.61804111674428,62.3022598028183,19.18],[-6.618122002109885,62.302358373999596,18.36],[-6.618187883868814,62.302458034828305,18.81],[-6.61823658272624,62.30254830792546,18.72],[-6.618325095623732,62.30263506062329,17.49],[-6.618377817794681,62.30272147804499,17.61],[-6.618481334298849,62.30282415635884,18.34],[-6.618590550497174,62.302909065037966,18.85],[-6.618621982634068,62.30300361290574,17.75],[-6.61867537535727,62.30309950187802,17.04],[-6.618804708123207,62.303170496597886,16.86],[-6.618944937363267,62.303249118849635,17.76],[-6.618991540744901,62.30335238389671,18.17],[-6.619057087227702,62.30344072915614,17.58],[-6.619128165766597,62.30353016406298,17.53],[-6.619209134951234,62.30361398309469,17.25],[-6.619301671162248,62.30370266363025,17.1],[-6.619371827691793,62.30379872024059,17.41],[-6.61946545355022,62.30388153344393,17],[-6.61952655762434,62.30396560393274,16.61],[-6.619616327807307,62.30406157672405,16.27],[-6.619747756049037,62.304147658869624,16.65],[-6.619916651397944,62.30421672575176,17.1],[-6.620009690523148,62.30430875904858,17.13],[-6.620040619745851,62.304399786517024,15.81],[-6.620107758790255,62.304499028250575,15.1],[-6.620180681347847,62.30458913370967,14.54],[-6.620250837877393,62.304669599980116,14.15],[-6.620396515354514,62.304739002138376,14.92],[-6.62056440487504,62.304812176153064,14.77],[-6.620667418465018,62.30489792302251,14.31],[-6.620741933584213,62.304971097037196,13.08],[-6.620841342955828,62.305058436468244,13.66],[-6.620908146724105,62.305148877203465,13.07],[-6.620991379022598,62.30522699654102,12.85],[-6.621157759800553,62.30525239370763,13.05],[-6.621323637664318,62.3053075466305,14.36],[-6.621430506929755,62.30539781972766,14.78],[-6.621555984020233,62.30547543615103,15.03],[-6.621669474989176,62.30555070564151,14.53],[-6.621738793328404,62.305637961253524,13.41],[-6.62174197845161,62.305707866325974,12.9],[-6.6218392085284,62.30580098927021,12.62],[-6.621915148571134,62.305882377550006,12.81],[-6.622022185474634,62.30596820823848,12.1],[-6.622096197679639,62.30605253018439,10.98],[-6.622269451618195,62.306107096374035,12.12],[-6.622444884851575,62.306160405278206,11.49],[-6.622523004189134,62.30620072223246,10.92],[-6.622413536533713,62.30628462508321,9.66],[-6.622408591210842,62.306361151859164,8.99],[-6.622568853199482,62.30643273331225,8.33],[-6.622703801840544,62.30648587457836,6.67],[-6.62273489870131,62.30657941661775,6.77],[-6.62278912961483,62.30666482821107,8.07],[-6.622847216203809,62.306752586737275,7.6],[-6.622988115996122,62.30681939050555,8.39],[-6.623183162882924,62.306874711066484,9.65],[-6.623321464285255,62.306959200650454,9.86],[-6.623400757089257,62.307063722983,11.3],[-6.623542997986078,62.30715190060437,10.92],[-6.623638551682234,62.30723211541772,11.62],[-6.623748019337654,62.307310150936246,11.16],[-6.623861258849502,62.30740327388048,11.41],[-6.623975588008761,62.3074989952147,11.53],[-6.624075919389725,62.307598823681474,12.39],[-6.62415093742311,62.307693623006344,12.56],[-6.624227967113257,62.307782135903835,13.31],[-6.624356545507908,62.307861261069775,13.72],[-6.624476071447134,62.30795538984239,14.16],[-6.62456089630723,62.30805194936693,13.73],[-6.624673632904887,62.308129062876105,13.46],[-6.624788045883179,62.30821615085006,12.97],[-6.624918384477496,62.30829250998795,13.5],[-6.625056602060795,62.30836627073586,14.36],[-6.625174703076482,62.30844799429178,14.69],[-6.625340161845088,62.308516055345535,16.47],[-6.62534904666245,62.308567352592945,13.72],[-6.625491036102176,62.30864052660763,17.06],[-6.625629169866443,62.30871085077524,17.53],[-6.625803848728538,62.30876407586038,18.02],[-6.625888254493475,62.308847391977906,17.64],[-6.625995878130198,62.30892660096288,17.4],[-6.62615186534822,62.308994913473725,18.24],[-6.626288825646043,62.309080827981234,18.59],[-6.626442214474082,62.30916330590844,18.07],[-6.626475574448705,62.30925709940493,16.36],[-6.626620749011636,62.30933379381895,15.43],[-6.626770114526153,62.309406297281384,17.09],[-6.62689114920795,62.30949950404465,17.91],[-6.626996509730816,62.309560189023614,18.3],[-6.627171942964196,62.309624310582876,18.52],[-6.627196585759521,62.30972698889673,16.78],[-6.627249727025628,62.30983377434313,16.47],[-6.62734997458756,62.3099217005074,16.71],[-6.62749950774014,62.31000116094947,16.52],[-6.627619788050652,62.310083052143455,16.9],[-6.627721460536122,62.310192855075,16.16],[-6.627769572660327,62.310295114293694,16.51],[-6.627948777750135,62.310360074043274,17.17],[-6.628062939271331,62.31044699437916,17.87],[-6.628153882920742,62.310535591095686,17.3],[-6.628307271748781,62.310609854757786,18.18],[-6.628397544845939,62.31069266796112,18.95],[-6.628475328907371,62.310775481164455,19.96],[-6.628583120182157,62.3108543548733,20.21],[-6.628656964749098,62.31093934737146,20.5],[-6.628820495679975,62.311000702902675,20.92],[-6.628913367167115,62.31109189800918,22.17],[-6.629002969712019,62.31118552386761,22.88],[-6.629132721573114,62.31126079335809,22.32],[-6.629214528948069,62.31134444475174,23.09],[-6.62932257167995,62.311432622373104,23.77],[-6.629467243328691,62.31150847859681,25.73],[-6.62962993606925,62.31156279332936,27.91],[-6.62975893355906,62.31165189296007,30.09],[-6.629883237183094,62.311721378937364,31.93],[-6.630023634061217,62.31179296039045,33.19],[-6.630152044817805,62.31188256293535,34.78],[-6.63035212084651,62.311929166316986,36.81],[-6.630435436964035,62.312012650072575,37.1],[-6.630465611815453,62.31210384517908,34.88],[-6.630568625405431,62.31218791566789,34.36],[-6.63069561123848,62.31225614435971,34.58],[-6.630831565707922,62.31233627535403,35.77],[-6.630905494093895,62.312357146292925,35.75],[-6.630981685593724,62.3123549669981,35.64],[-6.63090574555099,62.312322445213795,35.96],[-6.631015548482537,62.31240643188357,35.84],[-6.631165752187371,62.31247901916504,36.39],[-6.631324589252472,62.31254632584751,36.66],[-6.631427519023418,62.312625451013446,35.92],[-6.631533214822412,62.31271614320576,35.45],[-6.631665816530585,62.31279065832496,36.32],[-6.631802944466472,62.312869280576706,36.12],[-6.631930600851774,62.31294949539006,35.98],[-6.632116176187992,62.31298671104014,36.25],[-6.632179878652096,62.31308151036501,34.91],[-6.632342990487814,62.31315879151225,35.21],[-6.632487662136555,62.313237665221095,34.38],[-6.632614312693477,62.31331762857735,33.11],[-6.632783375680447,62.31337118893862,33.94],[-6.632894352078438,62.31345928274095,33.66],[-6.633069785311818,62.313505969941616,34.05],[-6.63321546278894,62.31357352808118,34.87],[-6.633400954306126,62.313622646033764,35.5],[-6.633493909612298,62.31370260939002,35.39],[-6.633687531575561,62.313745776191354,35.93],[-6.633768500760198,62.31383102014661,34.65],[-6.633860198780894,62.313929507508874,33.33],[-6.634052647277713,62.3139953892678,32.9],[-6.634219028055668,62.31408633291721,33.02],[-6.634400663897395,62.31413662433624,33.43],[-6.634555142372847,62.31421373784542,33.32],[-6.634716158732772,62.31428414583206,32.93],[-6.634921515360475,62.31433929875493,33.2],[-6.635051853954792,62.31442345306277,33.73],[-6.635226113721728,62.31449218466878,33.75],[-6.635411689057946,62.31456686742604,34.33],[-6.635602209717035,62.31460466980934,34.91],[-6.63575685583055,62.31460819020867,35.77],[-6.635763309895992,62.314717657864094,34.13],[-6.635858695954084,62.314809020608664,32.51],[-6.635988028720021,62.314882446080446,31.87],[-6.636147787794471,62.314947405830026,31.56],[-6.636370411142707,62.31499417684972,31.12],[-6.636538887396455,62.31506349518895,31.08],[-6.636745417490602,62.315101297572255,31.74],[-6.636909870430827,62.31517975218594,32.2],[-6.637109443545342,62.31523591093719,32.62],[-6.637256965041161,62.31531000696123,32.54],[-6.637371797114611,62.31541126035154,31.7],[-6.637564999982715,62.315480913966894,32.34],[-6.637784102931619,62.315497510135174,33.24],[-6.637951992452145,62.315553249791265,33.59],[-6.638051653280854,62.3156394995749,34.41],[-6.63825717754662,62.31569800525904,35.45],[-6.638409560546279,62.31576707214117,35.23],[-6.6385483648628,62.315846867859364,34.6],[-6.638683564960957,62.31592766940594,34.59],[-6.638851370662451,62.3159865103662,35.43],[-6.639087572693825,62.31600201688707,35.39],[-6.639212379232049,62.31609782204032,36.26],[-6.639319835230708,62.31618348509073,36.71],[-6.639508763328195,62.316232519224286,36.68],[-6.639696937054396,62.31629136018455,37.94],[-6.639918722212315,62.31630686670542,39.78],[-6.640061130747199,62.31638263911009,40.49],[-6.640268079936504,62.31645857915282,40.18],[-6.640417193993926,62.31653418391943,39.25],[-6.640536552295089,62.31662303209305,37.08],[-6.640687175095081,62.316711377352476,36.94],[-6.640839474275708,62.31677985750139,37.29],[-6.640989426523447,62.31684800237417,36.97],[-6.641148431226611,62.31692469678819,37.57],[-6.641285642981529,62.31698378920555,37.81],[-6.641416568309069,62.317059645429254,37.84],[-6.641581691801548,62.31712150387466,37.95],[-6.641740445047617,62.31719618663192,37.72],[-6.641902634873986,62.31726508587599,37.49],[-6.641996512189508,62.31734974309802,36.88],[-6.642200946807861,62.317381761968136,37.41],[-6.642378559336066,62.31741227209568,39.02],[-6.642467742785811,62.317489217966795,38.15],[-6.64260202087462,62.31755065731704,38.38],[-6.642790697515011,62.317593237385154,38.94],[-6.643000161275268,62.31765207834542,39.77],[-6.64320501498878,62.3176927305758,41.45],[-6.643334180116653,62.31776640750468,41.55],[-6.643532831221819,62.317801946774125,42.4],[-6.643671970814467,62.317875623703,42.54],[-6.643846649676561,62.31793664395809,42.95],[-6.644010515883565,62.31799355708063,43.35],[-6.64419743232429,62.31804024428129,44.12],[-6.644374625757337,62.31808592565358,43.97],[-6.644539916887879,62.31814627535641,43.45],[-6.64468752220273,62.31821559369564,43.17],[-6.644852394238114,62.31827518902719,43.15],[-6.645008213818073,62.31834945268929,42.7],[-6.645188676193357,62.318393709138036,41.79],[-6.645344411954284,62.31847551651299,41.03],[-6.645468380302191,62.318561263382435,39.64],[-6.645482713356614,62.31864751316607,37.44],[-6.645311722531915,62.318652709946036,37.41],[-6.64522547274828,62.31873937882483,35.49],[-6.645199824124575,62.31883476488292,32.85],[-6.645095134153962,62.31890064664185,31.4],[-6.644983822479844,62.318982537835836,28.62],[-6.644976027309895,62.31907323002815,27.05],[-6.645064875483513,62.31916258111596,23.28],[-6.644941745325923,62.319243466481566,21.58],[-6.644870834425092,62.31934036128223,20.72],[-6.644815597683191,62.319434909150004,20.81],[-6.64484778419137,62.319531636312604,20.34],[-6.644859183579683,62.3196214903146,20.21],[-6.644865972921252,62.319710087031126,20.41],[-6.644942751154304,62.319798432290554,19.77],[-6.645064121112227,62.319879652932286,20.18],[-6.645204937085509,62.31995022855699,21.06],[-6.64526117965579,62.32004594989121,20.04],[-6.645319350063801,62.320157177746296,20.54],[-6.645429488271475,62.32015524990857,21.03],[-6.645507607609034,62.32009833678603,21.29],[-6.645536106079817,62.32018902897835,21.2],[-6.645559156313539,62.320268573239446,21.78],[-6.645654793828726,62.32032774947584,22.02],[-6.645699720829725,62.32041374780238,21.74],[-6.645751185715199,62.320507541298866,21.57],[-6.645803572610021,62.32060242444277,21.97],[-6.645783204585314,62.32069454155862,20.87],[-6.645835256204009,62.320778695866466,21.19],[-6.645831484347582,62.32089092954993,21.02],[-6.645895019173622,62.320980532094836,20.85],[-6.645855791866779,62.32107155956328,20.34],[-6.645895102992654,62.32115923427045,20.57],[-6.645917482674122,62.32123936526477,21.23],[-6.645910106599331,62.321331314742565,20.93],[-6.645974228158593,62.32140867970884,20.94],[-6.64595209993422,62.321500796824694,20.33],[-6.64595453068614,62.321601044386625,20.31],[-6.645975820720196,62.32169911265373,20.54],[-6.64601462893188,62.321787625551224,20.47],[-6.646027285605669,62.321882005780935,20.89],[-6.646065674722195,62.32197102159262,21.03],[-6.646095849573612,62.32205945067108,21.4],[-6.646110853180289,62.32213631272316,20.83],[-6.646107500419021,62.32222960330546,21.18],[-6.646122504025698,62.322320882231,21.05],[-6.646163742989302,62.32241584919393,21.15],[-6.64621545933187,62.32249774038792,20.88],[-6.646326771005988,62.32258390635252,21.82],[-6.646418636664748,62.322683399543166,22.27],[-6.646513352170587,62.322788340970874,22.92],[-6.646617036312819,62.322881296277046,23.39],[-6.646731281653047,62.32296905480325,23.77],[-6.646828847005963,62.323056645691395,24.51],[-6.646907050162554,62.32314792461693,24.72],[-6.646942924708128,62.32325186021626,24.85],[-6.647049877792597,62.323328806087375,26.04],[-6.647196309641004,62.323405081406236,27.74],[-6.647338718175888,62.32347716577351,28.72],[-6.647499483078718,62.32355578802526,30.29],[-6.647648178040981,62.32362912967801,31.97],[-6.647796118631959,62.32369325123727,34.41],[-6.647927798330784,62.32376047410071,37.21],[-6.648054532706738,62.32384278438985,39.58],[-6.648185960948467,62.323932219296694,43.15],[-6.648333566263318,62.32401561923325,46.22],[-6.64847195148468,62.3240892123431,49.36],[-6.648576222360134,62.32414704747498,50.36],[-6.648685606196523,62.324223490431905,50.87],[-6.648846119642258,62.32429071329534,52.03],[-6.649024905636907,62.32431116513908,53.37],[-6.649119118228555,62.3243931401521,53.83],[-6.649246271699667,62.32446916401386,53.7],[-6.649366384372115,62.324548875913024,53.47],[-6.649330174550414,62.32458273880184,53.52],[-6.649270076304674,62.32449062168598,53.88],[-6.649183239787817,62.32442893087864,53.92],[-6.64906857535243,62.32434494420886,52.61],[-6.648879311978817,62.32428593561053,51.8],[-6.648750146850944,62.324211252853274,51.75],[-6.648639673367143,62.32413673773408,51],[-6.648539341986179,62.32409457676113,50.58],[-6.648562559857965,62.32407186180353,50.79],[-6.648518303409219,62.324037328362465,50.39],[-6.648612013086677,62.32410463504493,51.07],[-6.648562978953123,62.32407747767866,51],[-6.648511849343777,62.3240667488426,51.02],[-6.648511849343777,62.3240667488426,51.02],[-6.648562978953123,62.32407747767866,51],[-6.648612013086677,62.32410463504493,51.07],[-6.648518303409219,62.324037328362465,50.39],[-6.648562559857965,62.32407186180353,50.79],[-6.648539341986179,62.32409457676113,50.58],[-6.648639673367143,62.32413673773408,51],[-6.648750146850944,62.324211252853274,51.75],[-6.648879311978817,62.32428593561053,51.8],[-6.64906857535243,62.32434494420886,52.61],[-6.649183239787817,62.32442893087864,53.92],[-6.649270076304674,62.32449062168598,53.88],[-6.649330174550414,62.32458273880184,53.52],[-6.649366384372115,62.324548875913024,53.47],[-6.649246271699667,62.32446916401386,53.7],[-6.649119118228555,62.3243931401521,53.83],[-6.649024905636907,62.32431116513908,53.37],[-6.648846119642258,62.32429071329534,52.03],[-6.648685606196523,62.324223490431905,50.87],[-6.648576222360134,62.32414704747498,50.36],[-6.64847195148468,62.3240892123431,49.36],[-6.648333566263318,62.32401561923325,46.22],[-6.648185960948467,62.323932219296694,43.15],[-6.648054532706738,62.32384278438985,39.58],[-6.647927798330784,62.32376047410071,37.21],[-6.647796118631959,62.32369325123727,34.41],[-6.647648178040981,62.32362912967801,31.97],[-6.647499483078718,62.32355578802526,30.29],[-6.647338718175888,62.32347716577351,28.72],[-6.647196309641004,62.323405081406236,27.74],[-6.647049877792597,62.323328806087375,26.04],[-6.646942924708128,62.32325186021626,24.85],[-6.646907050162554,62.32314792461693,24.72],[-6.646828847005963,62.323056645691395,24.51],[-6.646731281653047,62.32296905480325,23.77],[-6.646617036312819,62.322881296277046,23.39],[-6.646513352170587,62.322788340970874,22.92],[-6.646418636664748,62.322683399543166,22.27],[-6.646326771005988,62.32258390635252,21.82],[-6.64621545933187,62.32249774038792,20.88],[-6.646163742989302,62.32241584919393,21.15],[-6.646122504025698,62.322320882231,21.05],[-6.646107500419021,62.32222960330546,21.18],[-6.646110853180289,62.32213631272316,20.83],[-6.646095849573612,62.32205945067108,21.4],[-6.646065674722195,62.32197102159262,21.03],[-6.646027285605669,62.321882005780935,20.89],[-6.64601462893188,62.321787625551224,20.47],[-6.645975820720196,62.32169911265373,20.54],[-6.64595453068614,62.321601044386625,20.31],[-6.64595209993422,62.321500796824694,20.33],[-6.645974228158593,62.32140867970884,20.94],[-6.645910106599331,62.321331314742565,20.93],[-6.645917482674122,62.32123936526477,21.23],[-6.645895102992654,62.32115923427045,20.57],[-6.645855791866779,62.32107155956328,20.34],[-6.645895019173622,62.320980532094836,20.85],[-6.645831484347582,62.32089092954993,21.02],[-6.645835256204009,62.320778695866466,21.19],[-6.645783204585314,62.32069454155862,20.87],[-6.645803572610021,62.32060242444277,21.97],[-6.645751185715199,62.320507541298866,21.57],[-6.645699720829725,62.32041374780238,21.74],[-6.645654793828726,62.32032774947584,22.02],[-6.645559156313539,62.320268573239446,21.78],[-6.645536106079817,62.32018902897835,21.2],[-6.645507607609034,62.32009833678603,21.29],[-6.645429488271475,62.32015524990857,21.03],[-6.645319350063801,62.320157177746296,20.54],[-6.64526117965579,62.32004594989121,20.04],[-6.645204937085509,62.31995022855699,21.06],[-6.645064121112227,62.319879652932286,20.18],[-6.644942751154304,62.319798432290554,19.77],[-6.644865972921252,62.319710087031126,20.41],[-6.644859183579683,62.3196214903146,20.21],[-6.64484778419137,62.319531636312604,20.34],[-6.644815597683191,62.319434909150004,20.81],[-6.644870834425092,62.31934036128223,20.72],[-6.644941745325923,62.319243466481566,21.58],[-6.645064875483513,62.31916258111596,23.28],[-6.644976027309895,62.31907323002815,27.05],[-6.644983822479844,62.318982537835836,28.62],[-6.645095134153962,62.31890064664185,31.4],[-6.645199824124575,62.31883476488292,32.85],[-6.64522547274828,62.31873937882483,35.49],[-6.645311722531915,62.318652709946036,37.41],[-6.645482713356614,62.31864751316607,37.44],[-6.645468380302191,62.318561263382435,39.64],[-6.645344411954284,62.31847551651299,41.03],[-6.645188676193357,62.318393709138036,41.79],[-6.645008213818073,62.31834945268929,42.7],[-6.644852394238114,62.31827518902719,43.15],[-6.64468752220273,62.31821559369564,43.17],[-6.644539916887879,62.31814627535641,43.45],[-6.644374625757337,62.31808592565358,43.97],[-6.64419743232429,62.31804024428129,44.12],[-6.644010515883565,62.31799355708063,43.35],[-6.643846649676561,62.31793664395809,42.95],[-6.643671970814467,62.317875623703,42.54],[-6.643532831221819,62.317801946774125,42.4],[-6.643334180116653,62.31776640750468,41.55],[-6.64320501498878,62.3176927305758,41.45],[-6.643000161275268,62.31765207834542,39.77],[-6.642790697515011,62.317593237385154,38.94],[-6.64260202087462,62.31755065731704,38.38],[-6.642467742785811,62.317489217966795,38.15],[-6.642378559336066,62.31741227209568,39.02],[-6.642200946807861,62.317381761968136,37.41],[-6.641996512189508,62.31734974309802,36.88],[-6.641902634873986,62.31726508587599,37.49],[-6.641740445047617,62.31719618663192,37.72],[-6.641581691801548,62.31712150387466,37.95],[-6.641416568309069,62.317059645429254,37.84],[-6.641285642981529,62.31698378920555,37.81],[-6.641148431226611,62.31692469678819,37.57],[-6.640989426523447,62.31684800237417,36.97],[-6.640839474275708,62.31677985750139,37.29],[-6.640687175095081,62.316711377352476,36.94],[-6.640536552295089,62.31662303209305,37.08],[-6.640417193993926,62.31653418391943,39.25],[-6.640268079936504,62.31645857915282,40.18],[-6.640061130747199,62.31638263911009,40.49],[-6.639918722212315,62.31630686670542,39.78],[-6.639696937054396,62.31629136018455,37.94],[-6.639508763328195,62.316232519224286,36.68],[-6.639319835230708,62.31618348509073,36.71],[-6.639212379232049,62.31609782204032,36.26],[-6.639087572693825,62.31600201688707,35.39],[-6.638851370662451,62.3159865103662,35.43],[-6.638683564960957,62.31592766940594,34.59],[-6.6385483648628,62.315846867859364,34.6],[-6.638409560546279,62.31576707214117,35.23],[-6.63825717754662,62.31569800525904,35.45],[-6.638051653280854,62.3156394995749,34.41],[-6.637951992452145,62.315553249791265,33.59],[-6.637784102931619,62.315497510135174,33.24],[-6.637564999982715,62.315480913966894,32.34],[-6.637371797114611,62.31541126035154,31.7],[-6.637256965041161,62.31531000696123,32.54],[-6.637109443545342,62.31523591093719,32.62],[-6.636909870430827,62.31517975218594,32.2],[-6.636745417490602,62.315101297572255,31.74],[-6.636538887396455,62.31506349518895,31.08],[-6.636370411142707,62.31499417684972,31.12],[-6.636147787794471,62.314947405830026,31.56],[-6.635988028720021,62.314882446080446,31.87],[-6.635858695954084,62.314809020608664,32.51],[-6.635763309895992,62.314717657864094,34.13],[-6.63575685583055,62.31460819020867,35.77],[-6.635602209717035,62.31460466980934,34.91],[-6.635411689057946,62.31456686742604,34.33],[-6.635226113721728,62.31449218466878,33.75],[-6.635051853954792,62.31442345306277,33.73],[-6.634921515360475,62.31433929875493,33.2],[-6.634716158732772,62.31428414583206,32.93],[-6.634555142372847,62.31421373784542,33.32],[-6.634400663897395,62.31413662433624,33.43],[-6.634219028055668,62.31408633291721,33.02],[-6.634052647277713,62.3139953892678,32.9],[-6.633860198780894,62.313929507508874,33.33],[-6.633768500760198,62.31383102014661,34.65],[-6.633687531575561,62.313745776191354,35.93],[-6.633493909612298,62.31370260939002,35.39],[-6.633400954306126,62.313622646033764,35.5],[-6.63321546278894,62.31357352808118,34.87],[-6.633069785311818,62.313505969941616,34.05],[-6.632894352078438,62.31345928274095,33.66],[-6.632783375680447,62.31337118893862,33.94],[-6.632614312693477,62.31331762857735,33.11],[-6.632487662136555,62.313237665221095,34.38],[-6.632342990487814,62.31315879151225,35.21],[-6.632179878652096,62.31308151036501,34.91],[-6.632116176187992,62.31298671104014,36.25],[-6.631930600851774,62.31294949539006,35.98],[-6.631802944466472,62.312869280576706,36.12],[-6.631665816530585,62.31279065832496,36.32],[-6.631533214822412,62.31271614320576,35.45],[-6.631427519023418,62.312625451013446,35.92],[-6.631324589252472,62.31254632584751,36.66],[-6.631165752187371,62.31247901916504,36.39],[-6.631015548482537,62.31240643188357,35.84],[-6.63090574555099,62.312322445213795,35.96],[-6.630981685593724,62.3123549669981,35.64],[-6.630905494093895,62.312357146292925,35.75],[-6.630831565707922,62.31233627535403,35.77],[-6.63069561123848,62.31225614435971,34.58],[-6.630568625405431,62.31218791566789,34.36],[-6.630465611815453,62.31210384517908,34.88],[-6.630435436964035,62.312012650072575,37.1],[-6.63035212084651,62.311929166316986,36.81],[-6.630152044817805,62.31188256293535,34.78],[-6.630023634061217,62.31179296039045,33.19],[-6.629883237183094,62.311721378937364,31.93],[-6.62975893355906,62.31165189296007,30.09],[-6.62962993606925,62.31156279332936,27.91],[-6.629467243328691,62.31150847859681,25.73],[-6.62932257167995,62.311432622373104,23.77],[-6.629214528948069,62.31134444475174,23.09],[-6.629132721573114,62.31126079335809,22.32],[-6.629002969712019,62.31118552386761,22.88],[-6.628913367167115,62.31109189800918,22.17],[-6.628820495679975,62.311000702902675,20.92],[-6.628656964749098,62.31093934737146,20.5],[-6.628583120182157,62.3108543548733,20.21],[-6.628475328907371,62.310775481164455,19.96],[-6.628397544845939,62.31069266796112,18.95],[-6.628307271748781,62.310609854757786,18.18],[-6.628153882920742,62.310535591095686,17.3],[-6.628062939271331,62.31044699437916,17.87],[-6.627948777750135,62.310360074043274,17.17],[-6.627769572660327,62.310295114293694,16.51],[-6.627721460536122,62.310192855075,16.16],[-6.627619788050652,62.310083052143455,16.9],[-6.62749950774014,62.31000116094947,16.52],[-6.62734997458756,62.3099217005074,16.71],[-6.627249727025628,62.30983377434313,16.47],[-6.627196585759521,62.30972698889673,16.78],[-6.627171942964196,62.309624310582876,18.52],[-6.626996509730816,62.309560189023614,18.3],[-6.62689114920795,62.30949950404465,17.91],[-6.626770114526153,62.309406297281384,17.09],[-6.626620749011636,62.30933379381895,15.43],[-6.626475574448705,62.30925709940493,16.36],[-6.626442214474082,62.30916330590844,18.07],[-6.626288825646043,62.309080827981234,18.59],[-6.62615186534822,62.308994913473725,18.24],[-6.625995878130198,62.30892660096288,17.4],[-6.625888254493475,62.308847391977906,17.64],[-6.625803848728538,62.30876407586038,18.02],[-6.625629169866443,62.30871085077524,17.53],[-6.625491036102176,62.30864052660763,17.06],[-6.62534904666245,62.308567352592945,13.72],[-6.625340161845088,62.308516055345535,16.47],[-6.625174703076482,62.30844799429178,14.69],[-6.625056602060795,62.30836627073586,14.36],[-6.624918384477496,62.30829250998795,13.5],[-6.624788045883179,62.30821615085006,12.97],[-6.624673632904887,62.308129062876105,13.46],[-6.62456089630723,62.30805194936693,13.73],[-6.624476071447134,62.30795538984239,14.16],[-6.624356545507908,62.307861261069775,13.72],[-6.624227967113257,62.307782135903835,13.31],[-6.62415093742311,62.307693623006344,12.56],[-6.624075919389725,62.307598823681474,12.39],[-6.623975588008761,62.3074989952147,11.53],[-6.623861258849502,62.30740327388048,11.41],[-6.623748019337654,62.307310150936246,11.16],[-6.623638551682234,62.30723211541772,11.62],[-6.623542997986078,62.30715190060437,10.92],[-6.623400757089257,62.307063722983,11.3],[-6.623321464285255,62.306959200650454,9.86],[-6.623183162882924,62.306874711066484,9.65],[-6.622988115996122,62.30681939050555,8.39],[-6.622847216203809,62.306752586737275,7.6],[-6.62278912961483,62.30666482821107,8.07],[-6.62273489870131,62.30657941661775,6.77],[-6.622703801840544,62.30648587457836,6.67],[-6.622568853199482,62.30643273331225,8.33],[-6.622408591210842,62.306361151859164,8.99],[-6.622413536533713,62.30628462508321,9.66],[-6.622523004189134,62.30620072223246,10.92],[-6.622444884851575,62.306160405278206,11.49],[-6.622269451618195,62.306107096374035,12.12],[-6.622096197679639,62.30605253018439,10.98],[-6.622022185474634,62.30596820823848,12.1],[-6.621915148571134,62.305882377550006,12.81],[-6.6218392085284,62.30580098927021,12.62],[-6.62174197845161,62.305707866325974,12.9],[-6.621738793328404,62.305637961253524,13.41],[-6.621669474989176,62.30555070564151,14.53],[-6.621555984020233,62.30547543615103,15.03],[-6.621430506929755,62.30539781972766,14.78],[-6.621323637664318,62.3053075466305,14.36],[-6.621157759800553,62.30525239370763,13.05],[-6.620991379022598,62.30522699654102,12.85],[-6.620908146724105,62.305148877203465,13.07],[-6.620841342955828,62.305058436468244,13.66],[-6.620741933584213,62.304971097037196,13.08],[-6.620667418465018,62.30489792302251,14.31],[-6.62056440487504,62.304812176153064,14.77],[-6.620396515354514,62.304739002138376,14.92],[-6.620250837877393,62.304669599980116,14.15],[-6.620180681347847,62.30458913370967,14.54],[-6.620107758790255,62.304499028250575,15.1],[-6.620040619745851,62.304399786517024,15.81],[-6.620009690523148,62.30430875904858,17.13],[-6.619916651397944,62.30421672575176,17.1],[-6.619747756049037,62.304147658869624,16.65],[-6.619616327807307,62.30406157672405,16.27],[-6.61952655762434,62.30396560393274,16.61],[-6.61946545355022,62.30388153344393,17],[-6.619371827691793,62.30379872024059,17.41],[-6.619301671162248,62.30370266363025,17.1],[-6.619209134951234,62.30361398309469,17.25],[-6.619128165766597,62.30353016406298,17.53],[-6.619057087227702,62.30344072915614,17.58],[-6.618991540744901,62.30335238389671,18.17],[-6.618944937363267,62.303249118849635,17.76],[-6.618804708123207,62.303170496597886,16.86],[-6.61867537535727,62.30309950187802,17.04],[-6.618621982634068,62.30300361290574,17.75],[-6.618590550497174,62.302909065037966,18.85],[-6.618481334298849,62.30282415635884,18.34],[-6.618377817794681,62.30272147804499,17.61],[-6.618325095623732,62.30263506062329,17.49],[-6.61823658272624,62.30254830792546,18.72],[-6.618187883868814,62.302458034828305,18.81],[-6.618122002109885,62.302358373999596,18.36],[-6.61804111674428,62.3022598028183,19.18],[-6.617945311591029,62.30217011645436,19.16],[-6.617807932198048,62.30207900516689,19.42],[-6.617713132873178,62.30199543759227,18.27],[-6.617654208093882,62.30188890360296,18],[-6.617574160918593,62.30178530327976,18.29],[-6.617496125400066,62.30169075541198,18.72],[-6.617401828989387,62.301597548648715,18.43],[-6.617319351062179,62.301506185904145,17.69],[-6.617234693840146,62.30141842737794,17.81],[-6.617144169285893,62.30132907629013,16.97],[-6.617062110453844,62.30124047957361,17.01],[-6.616990026086569,62.30115263722837,17.35],[-6.616918193176389,62.30106387287378,17.64],[-6.616830350831151,62.30096169747412,16.74],[-6.616743262857199,62.30086907744408,17.02],[-6.616669418290258,62.300773775205016,16.6],[-6.61661677993834,62.30067193508148,16.49],[-6.616515694186091,62.300573447719216,16.43],[-6.61647018045187,62.30046967975795,16.93],[-6.61645844578743,62.300371108576655,17.23],[-6.616357527673245,62.30027756653726,17.3],[-6.616234481334686,62.300217719748616,16.07],[-6.616121744737029,62.30012979358435,15.8],[-6.616100873798132,62.30002828873694,16.04],[-6.615991154685617,62.2999422904104,15.49],[-6.615947904065251,62.29984254576266,15.09],[-6.615846818313003,62.29974925518036,15.35],[-6.615798287093639,62.29965680278838,15.31],[-6.615746486932039,62.29955764487386,15.53],[-6.615657554939389,62.2994673717767,15.3],[-6.615559486672282,62.29938246309757,14.33],[-6.615495448932052,62.29930040426552,13.64],[-6.615403667092323,62.29920686222613,13.24],[-6.615392351523042,62.2991237975657,13.34],[-6.615350442007184,62.29904484003782,14.54],[-6.61527106538415,62.298961440101266,14.51],[-6.615215158089995,62.298890529200435,14.3],[-6.615078449249268,62.29882473126054,12.63],[-6.615037545561791,62.29871425777674,12.93],[-6.61507660523057,62.29863337241113,12.02],[-6.614987505599856,62.29855609126389,13.91],[-6.615121867507696,62.298497669398785,17.29],[-6.615274166688323,62.29843505658209,18.68],[-6.61519386805594,62.2983499802649,18.88],[-6.615077275782824,62.2982809972018,18.12],[-6.614935537800193,62.29822542518377,17.69],[-6.614839900285006,62.29814018122852,16.29],[-6.614668658003211,62.29810254648328,14.64],[-6.614612163975835,62.29801990091801,13.68],[-6.614562459290028,62.29794370941818,14.46],[-6.614543600007892,62.297839941456914,13.92],[-6.61455474793911,62.29772452265024,14.12],[-6.614442178979516,62.29765763506293,15.83],[-6.614407058805227,62.29756459593773,14.89],[-6.614293986931443,62.29747767560184,14.74],[-6.614182172343135,62.2973951138556,14.39],[-6.614093743264675,62.29729696176946,15.04],[-6.613978743553162,62.29721079580486,14.36],[-6.613938426598907,62.29710870422423,14.51],[-6.613868353888392,62.29701055213809,14.92],[-6.613751258701086,62.296935115009546,14.53],[-6.613677330315113,62.29685012251139,13.31],[-6.613671630620956,62.296771835535765,13.75],[-6.613604156300426,62.296697571873665,13.77],[-6.613451354205608,62.296620877459645,11.95],[-6.613409277051687,62.296522222459316,10.19],[-6.613323697820306,62.29644661769271,10.42],[-6.613295869901776,62.29634486138821,9.84],[-6.613276591524482,62.296242685988545,10.08],[-6.613254630938172,62.29613866657019,10.15],[-6.613244405016303,62.296052081510425,10.44],[-6.613273993134499,62.29596960358322,11.08],[-6.613264605402947,62.29587161913514,11.37],[-6.613266868516803,62.295768270269036,11.52],[-6.613221857696772,62.29567321948707,11.13],[-6.613124292343855,62.29559166356921,9.85],[-6.613085232675076,62.295498456805944,9.69],[-6.613038210198283,62.29541170410812,9.95],[-6.612947769463062,62.295321179553866,8.67],[-6.612937208265066,62.29521665722132,8.38],[-6.612891862168908,62.29512546211481,8.44],[-6.612840313464403,62.29503602720797,8.3],[-6.6128870844841,62.29496235027909,9.12],[-6.612854562699795,62.29487425647676,9.15],[-6.612853975966573,62.29477836750448,9.31],[-6.61282598040998,62.29469739831984,9.52],[-6.612834697589278,62.29459782131016,9.62],[-6.612851042300463,62.294501680880785,9.99],[-6.612783316522837,62.29441333562136,9],[-6.612740317359567,62.29432398453355,8.46],[-6.612740149721503,62.294230945408344,8.19],[-6.612766468897462,62.29413849301636,9.51],[-6.612717937678099,62.29403765872121,8.68],[-6.612730510532856,62.29395316913724,9.3],[-6.612746519967914,62.2938602976501,9.65],[-6.612835032865405,62.29377027601004,8.87],[-6.612761523574591,62.293682266026735,9.11],[-6.612687679007649,62.293593753129244,9.07],[-6.612666472792625,62.293494176119566,8.8],[-6.612633699551225,62.293401723727584,8.32],[-6.612646020948887,62.29331421665847,7.67],[-6.612559519708157,62.2932196687907,7.7],[-6.612542336806655,62.29312579147518,8.01],[-6.612546527758241,62.29303300380707,8.56],[-6.6125572565943,62.29293443262577,8.08],[-6.612493051216006,62.292848601937294,8.26],[-6.612501684576273,62.292751958593726,8.09],[-6.612526075914502,62.29267342016101,8.72],[-6.612469498068094,62.29258155450225,7.89],[-6.612520711496472,62.29247837327421,6.73],[-6.612526243552566,62.29237494058907,5.63],[-6.612553065642715,62.29233252815902,6.9],[-6.61262615583837,62.29224929586053,7.23],[-6.612658258527517,62.292170925065875,7.44],[-6.612577037885785,62.29208660311997,8.07],[-6.612603440880776,62.291992139071226,8.14],[-6.612621797248721,62.29188485071063,8.15],[-6.612655743956566,62.29180170223117,8.55],[-6.612653313204646,62.2917121835053,8.86],[-6.612700335681438,62.29162911884487,8.39],[-6.612791698426008,62.29154312051833,8.99],[-6.61278935149312,62.29146458208561,10.08],[-6.612830422818661,62.29138009250164,9.84],[-6.612900495529175,62.291283532977104,10.61],[-6.612954055890441,62.29119141586125,11.36],[-6.612966293469071,62.291093012318015,11.46],[-6.612935196608305,62.29099008254707,11.74],[-6.612900914624333,62.29088405147195,11.71],[-6.612920947372913,62.29079335927963,11.61],[-6.612960007041693,62.29069755412638,12.74],[-6.612946847453713,62.29060225188732,12.76],[-6.612951708957553,62.29050627909601,12.76],[-6.612930586561561,62.290417179465294,12.28],[-6.61289437673986,62.29032623581588,11.47],[-6.612906698137522,62.290230598300695,11.38],[-6.612885324284434,62.29013797827065,12.37],[-6.612871997058392,62.29004762135446,12.17],[-6.612882055342197,62.2899610362947,12.23],[-6.612903093919158,62.289870427921414,12.07],[-6.612809970974922,62.289784429594874,11.61],[-6.612839475274086,62.28968175128102,11.27],[-6.612843666225672,62.28958644904196,11.14],[-6.612779209390283,62.28948905132711,10.07],[-6.612760433927178,62.28938930667937,10.45],[-6.612803433090448,62.2892876341939,10.47],[-6.612710142508149,62.28920750319958,9.71],[-6.612670496106148,62.289113542065024,9.07],[-6.612671669572592,62.2890233527869,9.05],[-6.612697569653392,62.28893115185201,8.55],[-6.612699078395963,62.288838615641,9.2],[-6.612770827487111,62.28874574415386,9.92],[-6.612778957933188,62.288653291761875,10.17],[-6.612746017053723,62.28855924680829,10.57],[-6.612653229385614,62.28848783299327,10.23],[-6.612549377605319,62.28838926181197,10.22],[-6.612542420625687,62.288304353132844,9.85],[-6.612544851377606,62.28820745833218,10.5],[-6.612501852214336,62.28812087327242,10.65],[-6.612431779503822,62.28802188299596,9.79],[-6.612393306568265,62.287916941568255,9.5],[-6.612367238849402,62.28781853802502,8.96],[-6.612337063997984,62.28771678172052,8.96],[-6.612377297133207,62.287625251337886,8.93],[-6.612277301028371,62.28754134848714,10.9],[-6.612245785072446,62.28745702654123,9.88],[-6.61222449503839,62.28734554722905,10.23],[-6.612171772867441,62.28725451976061,11.05],[-6.612120643258095,62.28715980425477,11.92],[-6.611976642161608,62.28710548952222,10.01],[-6.611984437331557,62.28700700215995,8.22],[-6.611953005194664,62.286936677992344,10.4],[-6.61193816922605,62.286835592240095,11.14],[-6.611839346587658,62.28674531914294,12.92],[-6.611720910295844,62.2866712231189,11.67],[-6.611648993566632,62.286582542583346,11.78],[-6.611510021612048,62.286493610590696,11.63],[-6.611422263085842,62.286400236189365,11.77],[-6.611334504559636,62.28630225174129,11.37],[-6.611204752698541,62.286215499043465,11.86],[-6.611100900918245,62.2861341945827,11.36],[-6.610995456576347,62.28604978881776,11.89],[-6.610966036096215,62.28594845160842,11.91],[-6.610840475186706,62.28583948686719,11.44],[-6.610697982832789,62.28576723486185,10.89],[-6.610632017254829,62.28570269420743,9.85],[-6.610501762479544,62.28567595593631,10.18],[-6.610434707254171,62.285607643425465,10.28],[-6.610389612615109,62.28551250882447,10.45],[-6.610345020890236,62.28541972115636,9.81],[-6.610312582924962,62.28532701730728,9.84],[-6.610230691730976,62.28525124490261,11.22],[-6.610215436667204,62.28515300899744,11.2],[-6.610166151076555,62.285064244642854,11.42],[-6.61017176695168,62.28497615084052,12.08],[-6.610015193000436,62.28489543311298,13.31],[-6.609909497201443,62.284817481413484,12.49],[-6.609823331236839,62.284745229408145,12.9],[-6.609744122251868,62.28465227410197,12.86],[-6.609697435051203,62.28455680422485,12.25],[-6.609593164175749,62.28446795605123,11.72],[-6.609487971290946,62.284387992694974,10.38],[-6.60942074842751,62.28431557305157,10.77],[-6.609301054850221,62.284242985770106,10.44],[-6.609200304374099,62.28415614925325,9.38],[-6.609119167551398,62.2840724978596,9.21],[-6.609080778434873,62.28398306295276,8.53],[-6.608984554186463,62.28389957919717,8.74],[-6.608987404033542,62.28381089866161,9.81],[-6.608923031017184,62.28372121229768,9.66],[-6.608873661607504,62.28362649679184,9.3],[-6.608829321339726,62.28352130390704,8.57],[-6.60874349065125,62.283424409106374,8.59],[-6.608676100149751,62.28333916515112,8.5],[-6.60868632607162,62.283241180703044,9.39],[-6.608634777367115,62.28314235806465,8.71],[-6.608561435714364,62.2830637358129,8.44],[-6.608480717986822,62.282973965629935,8.5],[-6.608445765450597,62.282878663390875,7.86],[-6.608381476253271,62.28279249742627,8.14],[-6.608370412141085,62.28268948383629,8.22],[-6.608273014426231,62.282605497166514,8.51],[-6.608229009434581,62.282503908500075,8.18],[-6.608180897310376,62.28240190073848,8.28],[-6.60813907161355,62.28230718523264,8.81],[-6.608104202896357,62.2822074405849,8.64],[-6.608058270066977,62.28210694156587,9.38],[-6.607967996969819,62.282009460031986,9.22],[-6.607948215678334,62.28192103095353,9.72],[-6.607898008078337,62.281827572733164,10.07],[-6.607877975329757,62.2817359585315,9.81],[-6.607843022793531,62.281629759818316,9.58],[-6.607759539037943,62.28153797797859,9.42],[-6.607708744704723,62.281432785093784,9.62],[-6.607606820762157,62.28134863078594,9.63],[-6.607553763315082,62.2812420129776,10.13],[-6.607464412227273,62.2811627201736,9.68],[-6.607378330081701,62.28107387199998,9.58],[-6.607286799699068,62.28098686784506,9.35],[-6.60725218243897,62.28090036660433,9.9],[-6.607242124155164,62.28080288507044,9.87],[-6.607175068929792,62.28070758283138,10.5],[-6.607121089473367,62.280610520392656,10.08],[-6.607039198279381,62.280526366084814,9.35],[-6.606963509693742,62.28042201139033,9.61],[-6.606912715360522,62.28033768944442,10.07],[-6.606883043423295,62.280242554843426,10.58],[-6.606844654306769,62.280147252604365,9.87],[-6.606794279068708,62.28004675358534,9.1],[-6.606760919094086,62.27995002642274,9.31],[-6.606766702607274,62.27984148077667,9.94],[-6.606712723150849,62.27974927984178,9.75],[-6.606666119769216,62.27965883910656,10.05],[-6.606620606034994,62.27955590933561,9.53],[-6.606491357088089,62.27947569452226,8.85],[-6.606461182236671,62.27938869036734,9.22],[-6.606332855299115,62.279318030923605,7.01],[-6.606265213340521,62.27923144586384,6.59],[-6.606240654364228,62.279137736186385,6.55],[-6.606219112873077,62.27903916500509,6.68],[-6.606250796467066,62.27893958799541,6.8],[-6.606259010732174,62.27881679311395,6.98],[-6.606185585260391,62.278713863343,6.62],[-6.606191620230675,62.278620237484574,6.51],[-6.606168821454048,62.278531305491924,6.7],[-6.606166306883097,62.27843784727156,7.77],[-6.606173766776919,62.27835268713534,7.89],[-6.606159852817655,62.27825746871531,7.13],[-6.606171755120158,62.27816887199879,7.16],[-6.606182651594281,62.27808597497642,7.44],[-6.606163289397955,62.27800232358277,7.64],[-6.606107214465737,62.27790961973369,6.85],[-6.606125319376588,62.2778123896569,7.02],[-6.6061229724437,62.27772010490298,7.63],[-6.606118949130178,62.27761792950332,7.58],[-6.606093132868409,62.27752438746393,7.55],[-6.606063460931182,62.27743084542453,8.39],[-6.606038650497794,62.27733780629933,8.53],[-6.606016186997294,62.27724049240351,7.98],[-6.606058431789279,62.27715130895376,7.82],[-6.606018282473087,62.27704670280218,7.99],[-6.605963045731187,62.276943353936076,7.47],[-6.605951730161905,62.2768366523087,7.33],[-6.605877717956901,62.27673724293709,6.43],[-6.605828600004315,62.27663196623325,6.07],[-6.605819296091795,62.27653364650905,5.63],[-6.605800101533532,62.27643867954612,5.94],[-6.605788534507155,62.27634874172509,6.24],[-6.605788869783282,62.27625637315214,6.38],[-6.605728268623352,62.276170291006565,6.31],[-6.605729861184955,62.27606409229338,6.34],[-6.605702703818679,62.27595889940858,5.77],[-6.605678647756577,62.27585814893246,5.16],[-6.605590805411339,62.275769552215934,3.51],[-6.605549147352576,62.27567517198622,1.83],[-6.605523834004998,62.275573248043656,0.63],[-6.60551905632019,62.2754898481071,0.45],[-6.60551025532186,62.27539613842964,0.38],[-6.605498436838388,62.27528667077422,0.18],[-6.605497933924198,62.27518013678491,0.38],[-6.605473877862096,62.27507854811847,0.5],[-6.605452755466104,62.274985341355205,0.56],[-6.605430794879794,62.274885261431336,0.47],[-6.605436410754919,62.27477093227208,0.62],[-6.605443116277456,62.27465383708477,0.47],[-6.605444960296154,62.27455526590347,0.41],[-6.605451665818691,62.27445409633219,0.59],[-6.605428867042065,62.27435393258929,0.45],[-6.605389472097158,62.27425653487444,0.43],[-6.605349071323872,62.274153269827366,0.54],[-6.605291236191988,62.27405268698931,0.54],[-6.605219906195998,62.27396258153021,0.27],[-6.60516768693924,62.27386811748147,0.55],[-6.605121335014701,62.273761834949255,0.58],[-6.605087053030729,62.2736594080925,0.65],[-6.605081520974636,62.27354507893324,1.03],[-6.605086298659444,62.27344114333391,1.01],[-6.605101302266121,62.27334374561906,0.84],[-6.605089399963617,62.27323545143008,0.81],[-6.605091998353601,62.2731255646795,0.8],[-6.605069534853101,62.27301366627216,1.42],[-6.605040784925222,62.272918447852135,1.31],[-6.60501329228282,62.27280587889254,1.25],[-6.605087388306856,62.27271493524313,1.86],[-6.604962581768632,62.272719126194715,1.54],[-6.604865100234747,62.27263270877302,1.47],[-6.604788322001696,62.27254788391292,1.74],[-6.60472746938467,62.272466411814094,1.75],[-6.604637363925576,62.272393153980374,1.66],[-6.604562094435096,62.27231629192829,1.57],[-6.604491518810391,62.27223666384816,1.44],[-6.604425385594368,62.272148318588734,1.98],[-6.604345422238112,62.27205980569124,2.96],[-6.604237295687199,62.27197078987956,4.06],[-6.604152387008071,62.27187515236437,4.61],[-6.604035208001733,62.27180214598775,4.44],[-6.603893721476197,62.27171313017607,4.46],[-6.60376145504415,62.271624617278576,4.77],[-6.60362558439374,62.27154758758843,5.57],[-6.60348049364984,62.27147860452533,6.04],[-6.603325176984072,62.271411046385765,6.54],[-6.603166004642844,62.27134231477976,6.99],[-6.603016639128327,62.271268805488944,7.64],[-6.602871380746365,62.27119596675038,7.98],[-6.602729810401797,62.271106196567416,8.33],[-6.602602070197463,62.271031094715,8.8],[-6.602511629462242,62.27094702422619,9.14],[-6.602380787953734,62.27087343111634,9.84],[-6.602250281721354,62.27079573087394,10.23],[-6.602119440212846,62.2707150131464,10.8],[-6.602015839889646,62.2706338763237,11.46]]}},{"type":"Feature","properties":{"name":"WP 1 02_Skard","type":"user","time":"2020-07-14T11:48:29Z","gpxx_WaypointExtension":"SymbolAndName","gpxx_DisplayMode":"SymbolAndName","wptx1_WaypointExtension":"SymbolAndName","wptx1_DisplayMode":"SymbolAndName","ctx_CreationTimeExtension":"2020-07-14T11:48:29Z","ctx_CreationTime":"2020-07-14T11:48:29Z","sym":"Flag, Blue"},"geometry":{"type":"Point","coordinates":[-6.610488016158342,62.28564200922847,10.215059]}},{"type":"Feature","properties":{"name":"WP 2 05_Skard","type":"user","time":"2020-07-14T12:39:20Z","gpxx_WaypointExtension":"SymbolAndName","gpxx_DisplayMode":"SymbolAndName","wptx1_WaypointExtension":"SymbolAndName","wptx1_DisplayMode":"SymbolAndName","ctx_CreationTimeExtension":"2020-07-14T12:39:20Z","ctx_CreationTime":"2020-07-14T12:39:20Z","sym":"Flag, Blue"},"geometry":{"type":"Point","coordinates":[-6.622569020837545,62.30617297813296,12.116754]}},{"type":"Feature","properties":{"name":"WP 3 07_Skard","type":"user","time":"2020-07-14T13:21:06Z","gpxx_WaypointExtension":"SymbolAndName","gpxx_DisplayMode":"SymbolAndName","wptx1_WaypointExtension":"SymbolAndName","wptx1_DisplayMode":"SymbolAndName","ctx_CreationTimeExtension":"2020-07-14T13:21:06Z","ctx_CreationTime":"2020-07-14T13:21:06Z","sym":"Flag, Blue"},"geometry":{"type":"Point","coordinates":[-6.645515989512205,62.318639969453216,38.162689]}}]}