{"type":"FeatureCollection","features":[{"type":"Feature","properties":{"_gpxType":"trk","name":"02 Wanderung Klaksvik Áarskard CS 001","time":"2020-07-24T08:27:01Z","gpxx_TrackExtension":"Blue","gpxx_DisplayColor":"Blue","coordinateProperties":{"times":["2020-07-24T08:27:01Z","2020-07-24T08:27:19Z","2020-07-24T08:27:27Z","2020-07-24T08:27:36Z","2020-07-24T08:27:45Z","2020-07-24T08:27:52Z","2020-07-24T08:27:59Z","2020-07-24T08:28:06Z","2020-07-24T08:28:13Z","2020-07-24T08:28:20Z","2020-07-24T08:28:30Z","2020-07-24T08:28:37Z","2020-07-24T08:28:43Z","2020-07-24T08:28:54Z","2020-07-24T08:29:23Z","2020-07-24T08:30:07Z","2020-07-24T08:30:14Z","2020-07-24T08:30:20Z","2020-07-24T08:30:26Z","2020-07-24T08:30:33Z","2020-07-24T08:30:41Z","2020-07-24T08:30:49Z","2020-07-24T08:30:55Z","2020-07-24T08:31:03Z","2020-07-24T08:31:11Z","2020-07-24T08:31:18Z","2020-07-24T08:31:27Z","2020-07-24T08:31:40Z","2020-07-24T08:32:09Z","2020-07-24T08:32:21Z","2020-07-24T08:32:31Z","2020-07-24T08:32:41Z","2020-07-24T08:32:50Z","2020-07-24T08:32:58Z","2020-07-24T08:33:05Z","2020-07-24T08:33:12Z","2020-07-24T08:33:19Z","2020-07-24T08:33:27Z","2020-07-24T08:33:35Z","2020-07-24T08:33:43Z","2020-07-24T08:33:57Z","2020-07-24T08:34:05Z","2020-07-24T08:34:13Z","2020-07-24T08:34:21Z","2020-07-24T08:34:28Z","2020-07-24T08:34:35Z","2020-07-24T08:34:41Z","2020-07-24T08:34:47Z","2020-07-24T08:35:12Z","2020-07-24T08:35:26Z","2020-07-24T08:35:33Z","2020-07-24T08:35:40Z","2020-07-24T08:35:46Z","2020-07-24T08:35:52Z","2020-07-24T08:35:58Z","2020-07-24T08:36:04Z","2020-07-24T08:36:10Z","2020-07-24T08:36:16Z","2020-07-24T08:36:22Z","2020-07-24T08:36:29Z","2020-07-24T08:36:36Z","2020-07-24T08:36:42Z","2020-07-24T08:36:48Z","2020-07-24T08:36:54Z","2020-07-24T08:37:00Z","2020-07-24T08:37:06Z","2020-07-24T08:37:12Z","2020-07-24T08:37:19Z","2020-07-24T08:37:26Z","2020-07-24T08:37:32Z","2020-07-24T08:37:39Z","2020-07-24T08:37:45Z","2020-07-24T08:37:53Z","2020-07-24T08:38:00Z","2020-07-24T08:38:07Z","2020-07-24T08:38:14Z","2020-07-24T08:38:21Z","2020-07-24T08:38:28Z","2020-07-24T08:38:34Z","2020-07-24T08:38:41Z","2020-07-24T08:38:48Z","2020-07-24T08:38:55Z","2020-07-24T08:39:01Z","2020-07-24T08:39:10Z","2020-07-24T08:39:19Z","2020-07-24T08:39:47Z","2020-07-24T08:40:25Z","2020-07-24T08:40:32Z","2020-07-24T08:40:40Z","2020-07-24T08:40:50Z","2020-07-24T08:41:28Z","2020-07-24T08:41:35Z","2020-07-24T08:41:42Z","2020-07-24T08:41:50Z","2020-07-24T08:42:17Z","2020-07-24T08:42:29Z","2020-07-24T08:42:39Z","2020-07-24T08:42:51Z","2020-07-24T08:43:08Z","2020-07-24T08:45:17Z","2020-07-24T08:45:52Z","2020-07-24T08:46:43Z","2020-07-24T08:46:56Z","2020-07-24T08:47:46Z","2020-07-24T08:47:59Z","2020-07-24T08:48:17Z","2020-07-24T08:48:41Z","2020-07-24T08:49:00Z","2020-07-24T08:49:12Z","2020-07-24T08:49:24Z","2020-07-24T08:49:37Z","2020-07-24T08:49:55Z","2020-07-24T08:50:44Z","2020-07-24T08:51:05Z","2020-07-24T08:51:25Z","2020-07-24T08:53:01Z","2020-07-24T08:53:24Z","2020-07-24T08:53:38Z","2020-07-24T08:53:49Z","2020-07-24T08:54:02Z","2020-07-24T08:54:13Z","2020-07-24T08:54:30Z","2020-07-24T08:54:43Z","2020-07-24T08:54:54Z","2020-07-24T08:55:03Z","2020-07-24T08:55:13Z","2020-07-24T08:55:22Z","2020-07-24T08:55:32Z","2020-07-24T08:56:37Z","2020-07-24T08:56:57Z","2020-07-24T08:57:07Z","2020-07-24T08:57:18Z","2020-07-24T08:57:28Z","2020-07-24T08:57:37Z","2020-07-24T08:57:46Z","2020-07-24T08:57:54Z","2020-07-24T08:58:03Z","2020-07-24T08:58:14Z","2020-07-24T08:58:23Z","2020-07-24T08:58:31Z","2020-07-24T08:58:39Z","2020-07-24T08:58:47Z","2020-07-24T08:58:55Z","2020-07-24T08:59:04Z","2020-07-24T08:59:50Z","2020-07-24T08:59:58Z","2020-07-24T09:00:05Z","2020-07-24T09:00:12Z","2020-07-24T09:00:19Z","2020-07-24T09:00:28Z","2020-07-24T09:00:40Z","2020-07-24T09:00:56Z","2020-07-24T09:01:07Z","2020-07-24T09:01:17Z","2020-07-24T09:01:27Z","2020-07-24T09:01:37Z","2020-07-24T09:01:46Z","2020-07-24T09:01:56Z","2020-07-24T09:02:06Z","2020-07-24T09:02:46Z","2020-07-24T09:02:54Z","2020-07-24T09:03:00Z","2020-07-24T09:03:06Z","2020-07-24T09:03:13Z","2020-07-24T09:03:21Z","2020-07-24T09:03:29Z","2020-07-24T09:03:37Z","2020-07-24T09:03:46Z","2020-07-24T09:03:55Z","2020-07-24T09:04:03Z","2020-07-24T09:04:12Z","2020-07-24T09:04:19Z","2020-07-24T09:04:28Z","2020-07-24T09:04:57Z","2020-07-24T09:05:06Z","2020-07-24T09:05:14Z","2020-07-24T09:05:22Z","2020-07-24T09:05:32Z","2020-07-24T09:05:42Z","2020-07-24T09:05:51Z","2020-07-24T09:06:01Z","2020-07-24T09:06:20Z","2020-07-24T09:06:46Z","2020-07-24T09:06:58Z","2020-07-24T09:07:08Z","2020-07-24T09:07:18Z","2020-07-24T09:07:28Z","2020-07-24T09:07:39Z","2020-07-24T09:07:48Z","2020-07-24T09:07:59Z","2020-07-24T09:08:08Z","2020-07-24T09:08:17Z","2020-07-24T09:08:29Z","2020-07-24T09:08:39Z","2020-07-24T09:08:48Z","2020-07-24T09:08:59Z","2020-07-24T09:09:10Z","2020-07-24T09:09:20Z","2020-07-24T09:09:28Z","2020-07-24T09:09:38Z","2020-07-24T09:09:46Z","2020-07-24T09:09:53Z","2020-07-24T09:10:00Z","2020-07-24T09:10:09Z","2020-07-24T09:10:17Z","2020-07-24T09:10:26Z","2020-07-24T09:10:34Z","2020-07-24T09:10:43Z","2020-07-24T09:10:51Z","2020-07-24T09:10:58Z","2020-07-24T09:11:07Z","2020-07-24T09:11:17Z","2020-07-24T09:11:25Z","2020-07-24T09:11:37Z","2020-07-24T09:12:08Z","2020-07-24T09:12:18Z","2020-07-24T09:12:28Z","2020-07-24T09:12:37Z","2020-07-24T09:12:47Z","2020-07-24T09:12:56Z","2020-07-24T09:13:09Z","2020-07-24T09:13:21Z","2020-07-24T09:13:34Z","2020-07-24T09:13:52Z","2020-07-24T09:14:08Z","2020-07-24T09:14:24Z","2020-07-24T09:16:18Z","2020-07-24T09:16:30Z","2020-07-24T09:16:44Z","2020-07-24T09:16:57Z","2020-07-24T09:17:13Z","2020-07-24T09:17:26Z","2020-07-24T09:17:37Z","2020-07-24T09:17:49Z","2020-07-24T09:18:04Z","2020-07-24T09:18:17Z","2020-07-24T09:18:32Z","2020-07-24T09:18:45Z","2020-07-24T09:19:01Z","2020-07-24T09:19:23Z","2020-07-24T09:19:36Z","2020-07-24T09:19:50Z","2020-07-24T09:20:05Z","2020-07-24T09:20:15Z","2020-07-24T09:20:31Z","2020-07-24T09:20:48Z","2020-07-24T09:21:13Z","2020-07-24T09:21:23Z","2020-07-24T09:21:35Z","2020-07-24T09:21:50Z","2020-07-24T09:22:02Z","2020-07-24T09:22:19Z","2020-07-24T09:22:41Z","2020-07-24T09:22:54Z","2020-07-24T09:23:10Z","2020-07-24T09:23:23Z","2020-07-24T09:23:36Z","2020-07-24T09:23:52Z","2020-07-24T09:24:06Z","2020-07-24T09:24:20Z","2020-07-24T09:24:32Z","2020-07-24T09:24:42Z","2020-07-24T09:24:55Z","2020-07-24T09:25:08Z","2020-07-24T09:25:20Z","2020-07-24T09:25:32Z","2020-07-24T09:25:44Z","2020-07-24T09:25:54Z","2020-07-24T09:26:05Z","2020-07-24T09:26:19Z","2020-07-24T09:26:36Z","2020-07-24T09:26:53Z","2020-07-24T09:27:06Z","2020-07-24T09:27:24Z","2020-07-24T09:27:41Z","2020-07-24T09:28:01Z","2020-07-24T09:28:25Z","2020-07-24T09:28:44Z","2020-07-24T09:29:45Z","2020-07-24T09:30:26Z","2020-07-24T09:30:56Z","2020-07-24T09:31:11Z","2020-07-24T09:31:24Z","2020-07-24T09:31:37Z","2020-07-24T09:31:49Z","2020-07-24T09:32:05Z","2020-07-24T09:32:17Z","2020-07-24T09:32:27Z","2020-07-24T09:32:40Z","2020-07-24T09:32:52Z","2020-07-24T09:33:05Z","2020-07-24T09:33:18Z","2020-07-24T09:33:28Z","2020-07-24T09:33:41Z","2020-07-24T09:33:52Z","2020-07-24T09:34:06Z","2020-07-24T09:34:15Z","2020-07-24T09:34:27Z","2020-07-24T09:34:41Z","2020-07-24T09:34:59Z","2020-07-24T09:35:19Z","2020-07-24T09:35:35Z","2020-07-24T09:37:29Z","2020-07-24T09:37:45Z","2020-07-24T09:38:00Z","2020-07-24T09:38:17Z","2020-07-24T09:38:31Z","2020-07-24T09:38:42Z","2020-07-24T09:38:55Z","2020-07-24T09:39:11Z","2020-07-24T09:39:30Z","2020-07-24T09:39:49Z","2020-07-24T09:40:06Z","2020-07-24T09:40:26Z","2020-07-24T09:40:41Z","2020-07-24T09:41:01Z","2020-07-24T09:41:22Z","2020-07-24T09:41:37Z","2020-07-24T09:41:45Z","2020-07-24T09:41:56Z","2020-07-24T09:42:10Z","2020-07-24T09:42:25Z","2020-07-24T09:42:37Z","2020-07-24T09:43:00Z","2020-07-24T09:43:13Z","2020-07-24T09:43:25Z","2020-07-24T09:43:39Z","2020-07-24T09:43:54Z","2020-07-24T09:44:11Z","2020-07-24T09:44:34Z","2020-07-24T09:46:42Z","2020-07-24T09:47:02Z","2020-07-24T09:47:29Z","2020-07-24T09:47:48Z","2020-07-24T09:48:07Z","2020-07-24T09:48:23Z","2020-07-24T09:48:42Z","2020-07-24T09:48:56Z","2020-07-24T09:49:52Z","2020-07-24T09:50:10Z","2020-07-24T09:50:23Z","2020-07-24T09:50:37Z","2020-07-24T09:50:49Z","2020-07-24T09:51:00Z","2020-07-24T09:51:37Z","2020-07-24T09:52:17Z","2020-07-24T09:52:27Z","2020-07-24T09:52:36Z","2020-07-24T09:52:46Z","2020-07-24T09:52:55Z","2020-07-24T09:53:04Z","2020-07-24T09:53:13Z","2020-07-24T09:53:23Z","2020-07-24T09:53:41Z","2020-07-24T09:54:05Z","2020-07-24T09:54:22Z","2020-07-24T09:54:45Z","2020-07-24T09:55:25Z","2020-07-24T09:56:05Z","2020-07-24T09:56:15Z","2020-07-24T09:56:26Z","2020-07-24T09:56:45Z","2020-07-24T09:56:58Z","2020-07-24T09:57:12Z","2020-07-24T09:57:48Z","2020-07-24T09:58:08Z","2020-07-24T09:58:26Z","2020-07-24T09:58:46Z","2020-07-24T09:58:57Z","2020-07-24T09:59:07Z","2020-07-24T09:59:25Z","2020-07-24T09:59:35Z","2020-07-24T09:59:49Z","2020-07-24T09:59:58Z","2020-07-24T10:00:04Z","2020-07-24T10:00:12Z","2020-07-24T10:00:20Z","2020-07-24T10:00:32Z","2020-07-24T10:01:01Z","2020-07-24T10:01:15Z","2020-07-24T10:01:29Z","2020-07-24T10:01:45Z","2020-07-24T10:02:02Z","2020-07-24T10:02:16Z","2020-07-24T10:02:34Z","2020-07-24T10:02:49Z","2020-07-24T10:03:14Z","2020-07-24T10:05:13Z","2020-07-24T10:05:40Z","2020-07-24T10:06:00Z","2020-07-24T10:06:35Z","2020-07-24T10:06:54Z","2020-07-24T10:07:15Z","2020-07-24T10:07:37Z","2020-07-24T10:08:18Z","2020-07-24T10:08:34Z","2020-07-24T10:08:47Z","2020-07-24T10:10:44Z","2020-07-24T10:10:53Z","2020-07-24T10:11:05Z","2020-07-24T10:11:17Z","2020-07-24T10:11:33Z","2020-07-24T10:12:06Z","2020-07-24T10:12:33Z","2020-07-24T10:12:48Z","2020-07-24T10:12:59Z","2020-07-24T10:24:12Z","2020-07-24T10:24:33Z","2020-07-24T10:24:43Z","2020-07-24T10:24:56Z","2020-07-24T10:25:11Z","2020-07-24T10:25:31Z","2020-07-24T10:25:43Z","2020-07-24T10:25:56Z","2020-07-24T10:26:42Z","2020-07-24T10:26:51Z","2020-07-24T10:27:02Z","2020-07-24T10:28:18Z","2020-07-24T10:28:46Z","2020-07-24T10:29:48Z","2020-07-24T10:30:10Z","2020-07-24T10:30:32Z","2020-07-24T10:30:45Z","2020-07-24T10:31:47Z","2020-07-24T10:32:06Z","2020-07-24T10:32:34Z","2020-07-24T10:32:53Z","2020-07-24T10:33:32Z","2020-07-24T10:33:46Z","2020-07-24T10:33:58Z","2020-07-24T10:34:09Z","2020-07-24T10:34:24Z","2020-07-24T10:34:42Z","2020-07-24T10:34:59Z","2020-07-24T10:35:09Z","2020-07-24T10:35:17Z","2020-07-24T10:35:24Z","2020-07-24T10:35:32Z","2020-07-24T10:35:41Z","2020-07-24T10:35:50Z","2020-07-24T10:35:58Z","2020-07-24T10:36:09Z","2020-07-24T10:36:21Z","2020-07-24T10:36:29Z","2020-07-24T10:36:38Z","2020-07-24T10:36:49Z","2020-07-24T10:37:05Z","2020-07-24T10:37:30Z","2020-07-24T10:38:05Z","2020-07-24T10:38:17Z","2020-07-24T10:38:59Z","2020-07-24T10:39:13Z","2020-07-24T10:40:04Z","2020-07-24T10:40:12Z","2020-07-24T10:40:22Z","2020-07-24T10:40:49Z","2020-07-24T10:41:19Z","2020-07-24T10:41:34Z","2020-07-24T10:41:51Z","2020-07-24T10:42:01Z","2020-07-24T10:42:12Z","2020-07-24T10:42:23Z","2020-07-24T10:42:35Z","2020-07-24T10:42:44Z","2020-07-24T10:42:57Z","2020-07-24T10:43:07Z","2020-07-24T10:43:23Z","2020-07-24T10:44:12Z","2020-07-24T10:44:22Z","2020-07-24T10:44:35Z","2020-07-24T10:44:50Z","2020-07-24T10:45:05Z","2020-07-24T10:45:22Z","2020-07-24T10:45:37Z","2020-07-24T10:45:48Z","2020-07-24T10:45:57Z","2020-07-24T10:46:09Z","2020-07-24T10:46:29Z","2020-07-24T10:46:49Z","2020-07-24T10:47:12Z","2020-07-24T10:47:32Z","2020-07-24T10:47:52Z","2020-07-24T10:48:15Z","2020-07-24T10:48:33Z","2020-07-24T10:48:49Z","2020-07-24T10:49:02Z","2020-07-24T10:49:16Z","2020-07-24T10:49:31Z","2020-07-24T10:50:08Z","2020-07-24T10:50:20Z","2020-07-24T10:50:38Z","2020-07-24T10:50:48Z","2020-07-24T10:50:58Z","2020-07-24T10:51:07Z","2020-07-24T10:51:20Z","2020-07-24T10:51:40Z","2020-07-24T10:51:55Z","2020-07-24T10:52:13Z","2020-07-24T10:52:28Z","2020-07-24T10:52:45Z","2020-07-24T10:52:59Z","2020-07-24T10:53:18Z","2020-07-24T10:53:31Z","2020-07-24T10:53:42Z","2020-07-24T10:53:54Z","2020-07-24T10:54:05Z","2020-07-24T10:54:28Z","2020-07-24T10:54:46Z","2020-07-24T10:55:05Z","2020-07-24T10:55:23Z","2020-07-24T10:55:48Z","2020-07-24T10:56:03Z","2020-07-24T10:56:16Z","2020-07-24T10:56:25Z","2020-07-24T10:56:35Z","2020-07-24T10:56:44Z","2020-07-24T10:56:58Z","2020-07-24T10:57:12Z","2020-07-24T10:57:21Z","2020-07-24T10:57:31Z","2020-07-24T10:57:45Z","2020-07-24T10:57:57Z","2020-07-24T10:58:08Z","2020-07-24T10:58:25Z","2020-07-24T10:58:36Z","2020-07-24T10:58:48Z","2020-07-24T10:59:43Z","2020-07-24T10:59:55Z","2020-07-24T11:00:07Z","2020-07-24T11:00:20Z","2020-07-24T11:00:34Z","2020-07-24T11:00:49Z","2020-07-24T11:01:12Z","2020-07-24T11:01:35Z","2020-07-24T11:01:52Z","2020-07-24T11:02:08Z","2020-07-24T11:02:20Z","2020-07-24T11:02:34Z","2020-07-24T11:02:46Z","2020-07-24T11:02:58Z","2020-07-24T11:03:35Z","2020-07-24T11:03:46Z","2020-07-24T11:03:55Z","2020-07-24T11:04:04Z","2020-07-24T11:04:14Z","2020-07-24T11:04:25Z","2020-07-24T11:04:36Z","2020-07-24T11:07:04Z","2020-07-24T11:07:17Z","2020-07-24T11:07:28Z","2020-07-24T11:07:41Z","2020-07-24T11:07:51Z","2020-07-24T11:08:03Z","2020-07-24T11:08:14Z","2020-07-24T11:08:27Z","2020-07-24T11:08:45Z","2020-07-24T11:09:00Z","2020-07-24T11:09:20Z","2020-07-24T11:09:31Z","2020-07-24T11:09:42Z","2020-07-24T11:09:56Z","2020-07-24T11:10:05Z","2020-07-24T11:10:17Z","2020-07-24T11:10:31Z","2020-07-24T11:10:44Z","2020-07-24T11:10:57Z","2020-07-24T11:11:07Z","2020-07-24T11:11:21Z","2020-07-24T11:11:34Z","2020-07-24T11:11:51Z","2020-07-24T11:12:53Z","2020-07-24T11:18:13Z","2020-07-24T11:18:25Z","2020-07-24T11:18:36Z","2020-07-24T11:18:44Z","2020-07-24T11:18:53Z","2020-07-24T11:19:04Z","2020-07-24T11:19:14Z","2020-07-24T11:19:25Z","2020-07-24T11:19:37Z","2020-07-24T11:19:47Z","2020-07-24T11:19:58Z","2020-07-24T11:20:08Z","2020-07-24T11:20:18Z","2020-07-24T11:20:29Z","2020-07-24T11:20:41Z","2020-07-24T11:21:20Z","2020-07-24T11:21:35Z","2020-07-24T11:21:49Z","2020-07-24T11:22:01Z","2020-07-24T11:22:12Z","2020-07-24T11:22:23Z","2020-07-24T11:22:31Z","2020-07-24T11:22:41Z","2020-07-24T11:22:49Z","2020-07-24T11:22:58Z","2020-07-24T11:23:06Z","2020-07-24T11:23:15Z","2020-07-24T11:23:26Z","2020-07-24T11:23:34Z","2020-07-24T11:23:42Z","2020-07-24T11:23:51Z","2020-07-24T11:24:01Z","2020-07-24T11:24:12Z","2020-07-24T11:24:23Z","2020-07-24T11:24:32Z","2020-07-24T11:24:41Z","2020-07-24T11:25:49Z","2020-07-24T11:25:58Z","2020-07-24T11:26:06Z","2020-07-24T11:26:14Z","2020-07-24T11:26:24Z","2020-07-24T11:26:39Z","2020-07-24T11:27:03Z","2020-07-24T11:27:14Z","2020-07-24T11:27:26Z","2020-07-24T11:27:36Z","2020-07-24T11:27:45Z","2020-07-24T11:28:00Z","2020-07-24T11:28:09Z","2020-07-24T11:28:19Z","2020-07-24T11:28:31Z","2020-07-24T11:28:41Z","2020-07-24T11:28:52Z","2020-07-24T11:29:06Z","2020-07-24T11:29:15Z","2020-07-24T11:29:26Z","2020-07-24T11:29:36Z","2020-07-24T11:30:10Z","2020-07-24T11:30:18Z","2020-07-24T11:30:27Z","2020-07-24T11:30:36Z","2020-07-24T11:30:59Z","2020-07-24T11:31:08Z","2020-07-24T11:31:20Z","2020-07-24T11:31:27Z","2020-07-24T11:31:35Z","2020-07-24T11:31:43Z","2020-07-24T11:31:51Z","2020-07-24T11:31:59Z","2020-07-24T11:32:32Z","2020-07-24T11:32:41Z","2020-07-24T11:32:50Z","2020-07-24T11:32:59Z","2020-07-24T11:33:08Z","2020-07-24T11:33:34Z","2020-07-24T11:33:41Z","2020-07-24T11:33:49Z","2020-07-24T11:33:57Z","2020-07-24T11:34:05Z","2020-07-24T11:34:14Z","2020-07-24T11:34:35Z","2020-07-24T11:34:44Z","2020-07-24T11:35:04Z","2020-07-24T11:35:12Z","2020-07-24T11:35:22Z","2020-07-24T11:35:31Z","2020-07-24T11:35:41Z","2020-07-24T11:36:02Z","2020-07-24T11:36:16Z","2020-07-24T11:36:24Z","2020-07-24T11:36:32Z","2020-07-24T11:36:40Z","2020-07-24T11:36:47Z","2020-07-24T11:36:55Z","2020-07-24T11:37:07Z","2020-07-24T11:37:32Z","2020-07-24T11:37:42Z","2020-07-24T11:37:50Z","2020-07-24T11:37:58Z","2020-07-24T11:38:05Z","2020-07-24T11:38:12Z","2020-07-24T11:38:21Z","2020-07-24T11:38:31Z","2020-07-24T11:38:39Z","2020-07-24T11:38:48Z","2020-07-24T11:38:57Z","2020-07-24T11:39:06Z","2020-07-24T11:39:16Z","2020-07-24T11:39:26Z","2020-07-24T11:39:52Z","2020-07-24T11:40:03Z","2020-07-24T11:40:13Z","2020-07-24T11:40:23Z","2020-07-24T11:40:31Z","2020-07-24T11:40:39Z","2020-07-24T11:40:50Z","2020-07-24T11:41:07Z","2020-07-24T11:41:24Z","2020-07-24T11:41:55Z","2020-07-24T11:42:06Z","2020-07-24T11:42:23Z","2020-07-24T11:42:51Z","2020-07-24T11:43:13Z","2020-07-24T11:43:44Z","2020-07-24T11:43:59Z","2020-07-24T11:44:28Z","2020-07-24T11:44:58Z","2020-07-24T11:45:13Z","2020-07-24T11:45:27Z","2020-07-24T11:45:39Z","2020-07-24T11:45:49Z","2020-07-24T11:46:00Z","2020-07-24T11:46:42Z","2020-07-24T11:47:06Z","2020-07-24T11:47:26Z","2020-07-24T11:47:44Z","2020-07-24T11:48:01Z","2020-07-24T11:48:17Z","2020-07-24T11:48:30Z","2020-07-24T11:48:39Z","2020-07-24T11:48:57Z","2020-07-24T11:49:14Z","2020-07-24T11:49:26Z","2020-07-24T11:49:38Z","2020-07-24T11:52:06Z","2020-07-24T11:52:13Z","2020-07-24T11:52:20Z","2020-07-24T11:52:27Z","2020-07-24T11:52:34Z","2020-07-24T11:52:42Z","2020-07-24T11:52:49Z","2020-07-24T11:52:58Z","2020-07-24T11:53:09Z","2020-07-24T11:53:16Z","2020-07-24T11:53:22Z","2020-07-24T11:53:28Z","2020-07-24T11:53:35Z","2020-07-24T11:53:42Z","2020-07-24T11:53:49Z","2020-07-24T11:53:56Z","2020-07-24T11:54:33Z","2020-07-24T11:55:16Z","2020-07-24T11:55:26Z","2020-07-24T11:55:33Z","2020-07-24T11:55:40Z","2020-07-24T11:55:47Z","2020-07-24T11:55:55Z","2020-07-24T11:56:02Z","2020-07-24T11:56:09Z","2020-07-24T11:56:17Z","2020-07-24T11:56:24Z","2020-07-24T11:56:30Z","2020-07-24T11:56:37Z","2020-07-24T11:56:43Z","2020-07-24T11:56:50Z","2020-07-24T11:56:57Z","2020-07-24T11:57:04Z","2020-07-24T11:57:11Z","2020-07-24T11:57:19Z","2020-07-24T11:57:27Z","2020-07-24T11:57:35Z","2020-07-24T11:57:44Z","2020-07-24T11:57:51Z","2020-07-24T11:57:59Z","2020-07-24T11:58:07Z","2020-07-24T11:58:15Z","2020-07-24T11:58:22Z","2020-07-24T11:58:29Z","2020-07-24T11:58:35Z","2020-07-24T11:58:41Z","2020-07-24T11:58:47Z","2020-07-24T11:58:54Z","2020-07-24T11:59:07Z","2020-07-24T11:59:15Z","2020-07-24T11:59:22Z","2020-07-24T11:59:28Z","2020-07-24T11:59:34Z","2020-07-24T11:59:40Z","2020-07-24T11:59:47Z","2020-07-24T11:59:55Z","2020-07-24T12:00:03Z","2020-07-24T12:00:11Z","2020-07-24T12:00:18Z","2020-07-24T12:00:25Z","2020-07-24T12:00:33Z","2020-07-24T12:00:48Z","2020-07-24T12:00:57Z","2020-07-24T12:01:05Z","2020-07-24T12:01:12Z","2020-07-24T12:01:19Z","2020-07-24T12:01:26Z","2020-07-24T12:01:33Z","2020-07-24T12:01:40Z","2020-07-24T12:01:47Z","2020-07-24T12:01:54Z","2020-07-24T12:02:03Z","2020-07-24T12:02:14Z","2020-07-24T12:03:15Z","2020-07-24T12:05:37Z","2020-07-24T12:05:48Z","2020-07-24T12:05:55Z","2020-07-24T12:06:03Z","2020-07-24T12:06:12Z","2020-07-24T12:06:20Z","2020-07-24T12:06:28Z","2020-07-24T12:06:37Z","2020-07-24T12:10:06Z","2020-07-24T12:10:29Z","2020-07-24T12:10:36Z","2020-07-24T12:10:42Z","2020-07-24T12:10:48Z","2020-07-24T12:10:54Z","2020-07-24T12:11:03Z","2020-07-24T12:11:10Z","2020-07-24T12:11:17Z","2020-07-24T12:11:23Z","2020-07-24T12:11:28Z","2020-07-24T12:11:34Z","2020-07-24T12:11:42Z","2020-07-24T12:11:50Z","2020-07-24T12:11:57Z","2020-07-24T12:12:05Z","2020-07-24T12:12:11Z","2020-07-24T12:12:21Z"]}},"geometry":{"type":"LineString","coordinates":[[-6.584949614480138,62.22669300623238,23.99],[-6.584808547049761,62.226733239367604,23.95],[-6.58461257815361,62.226788057014346,24.24],[-6.584406970068812,62.226805659011006,24.05],[-6.584163727238774,62.22678076475859,25.07],[-6.583934314548969,62.22673592157662,24.87],[-6.583754355087876,62.22677204757929,24.82],[-6.583705320954323,62.226873049512506,24.8],[-6.583696184679866,62.22697388380766,25.03],[-6.583653688430786,62.22704336978495,25.34],[-6.583616975694895,62.22715803422034,25.71],[-6.583604151383042,62.227260461077094,26.1],[-6.583661064505577,62.22738979384303,26.2],[-6.583752008154988,62.22751158289611,26],[-6.583808250725269,62.227636724710464,25.8],[-6.583616640418768,62.227674862369895,25.43],[-6.583699118345976,62.227753568440676,25.07],[-6.583789307624102,62.22784501500428,24.66],[-6.58391185104847,62.22792631946504,24.1],[-6.584009164944291,62.228010557591915,23.39],[-6.584131205454469,62.22810250706971,23.25],[-6.584084434434772,62.228209460154176,23.59],[-6.583953173831105,62.22828598693013,24.45],[-6.583829540759325,62.22836460918188,25.81],[-6.583668692037463,62.228446919471025,26.36],[-6.583532402291894,62.22852973267436,27.73],[-6.583364931866527,62.22861128859222,28.82],[-6.583253536373377,62.228684714064,29.28],[-6.583179188892245,62.22878244705498,29.54],[-6.583000989630818,62.228892585262656,31.88],[-6.582799488678575,62.22901546396315,34.83],[-6.582672586664558,62.229092326015234,35.68],[-6.58276311121881,62.22913666628301,36.4],[-6.582861850038171,62.22923934459686,36.73],[-6.582994619384408,62.22933481447399,37.41],[-6.583092520013452,62.22943212836981,38.4],[-6.583162928000093,62.2295380756259,38.77],[-6.583262840285897,62.2296451125294,39.53],[-6.583346826955676,62.22975893877447,40.32],[-6.583439195528626,62.22985876724124,41.16],[-6.583531815558672,62.22999262623489,41.87],[-6.583634410053492,62.23009371198714,42.56],[-6.583748906850815,62.230180548503995,43.26],[-6.583872456103563,62.23026872612536,44.08],[-6.583993826061487,62.230358412489295,44.34],[-6.584138749167323,62.23044943995774,44.48],[-6.584236733615398,62.23055714741349,44.93],[-6.584338322281838,62.23065278492868,44.9],[-6.584420213475823,62.23072503693402,44.99],[-6.584550887346268,62.230817656964064,45.33],[-6.584664881229401,62.230899380519986,45.49],[-6.584807122126222,62.23098889924586,45.75],[-6.584915835410357,62.23107925616205,45.94],[-6.585044916719198,62.23117372021079,46.07],[-6.585174081847072,62.23124840296805,46.21],[-6.585296792909503,62.23132082261145,46.73],[-6.585428724065423,62.23141201771796,46.81],[-6.585578927770257,62.23148887977004,46.82],[-6.58568512648344,62.23157051950693,47.13],[-6.585821500048041,62.231656266376376,47.6],[-6.585980085656047,62.23174536600709,47.23],[-6.586087038740516,62.231826754286885,47.8],[-6.586200864985585,62.231917111203074,47.91],[-6.586299268528819,62.2320004273206,48.23],[-6.586422231048346,62.23206840455532,48.56],[-6.586548211053014,62.23213571123779,48.82],[-6.586669413372874,62.23220720887184,48.95],[-6.586798829957843,62.23227837122977,49.08],[-6.586922379210591,62.23236788995564,49.1],[-6.587060848250985,62.23244022578001,49.3],[-6.587189510464668,62.23253158852458,49.6],[-6.587304845452309,62.23261465318501,49.86],[-6.587447924539447,62.23270014859736,49.83],[-6.587501233443618,62.232799641788006,49.67],[-6.587567534297705,62.23289804533124,49.8],[-6.58766895532608,62.23299250937998,49.53],[-6.587780602276325,62.23307968117297,49.06],[-6.587761826813221,62.233177749440074,48.57],[-6.587671469897032,62.2332626581192,49.17],[-6.587581029161811,62.23335628397763,49.77],[-6.587539874017239,62.23346474580467,50.39],[-6.587543059140444,62.2335665859282,51.25],[-6.58751648850739,62.23365560173988,51.92],[-6.587534928694367,62.23377521149814,53.24],[-6.587602654471993,62.23387151956558,54.31],[-6.587537191808224,62.23389130085707,56.99],[-6.587402746081352,62.23381142131984,57.09],[-6.587233934551477,62.23376942798495,59.02],[-6.587083479389548,62.23371243104339,59.81],[-6.586998151615262,62.23362953402102,60.74],[-6.586970658972859,62.233621906489134,59.83],[-6.586796147748828,62.23363691009581,61.11],[-6.586599843576551,62.233600951731205,62.49],[-6.586401779204607,62.23358687013388,63.33],[-6.586331790313125,62.233645962551236,64.02],[-6.586257442831993,62.23373355343938,66.35],[-6.586257526651025,62.23382139578462,67.66],[-6.586237829178572,62.233914686366916,68.32],[-6.586228357627988,62.23398777656257,69.91],[-6.586221652105451,62.234113086014986,73.01],[-6.586065161973238,62.23417670466006,76.25],[-6.585890650749207,62.23418416455388,79.03],[-6.585727790370584,62.23423831164837,81.93],[-6.585645982995629,62.234273850917816,83.81],[-6.585479350760579,62.23432104103267,87.21],[-6.585378684103489,62.23437971435487,90.51],[-6.585179110988975,62.23436051979661,94.4],[-6.585012562572956,62.23436580039561,97.07],[-6.585018765181303,62.23443293944001,98.39],[-6.585035193711519,62.23451742902398,101.42],[-6.585053550079465,62.23460988141596,103.91],[-6.585037456825376,62.2346958797425,107.02],[-6.585034858435392,62.234771233052015,110.24],[-6.584877027198672,62.234820099547505,113.6],[-6.584817096590996,62.23491171374917,116.75],[-6.584673095494509,62.23496058024466,120.18],[-6.584504703059793,62.234977427870035,123.07],[-6.584336226806045,62.23499083891511,126.95],[-6.584270009770989,62.23507356829941,129.01],[-6.584115531295538,62.23513844422996,131.12],[-6.58398368395865,62.23520390689373,133.92],[-6.583929872140288,62.2352831158787,135.63],[-6.583881340920925,62.2353645041585,137.46],[-6.583859212696552,62.235460979864,139.27],[-6.5839465521276,62.23554345779121,140.27],[-6.58397488296032,62.23563934676349,141.54],[-6.583926938474178,62.23572375252843,143.32],[-6.583903804421425,62.23581184633076,144.98],[-6.583878742530942,62.23589935339987,146.44],[-6.583821829408407,62.23597730509937,146.53],[-6.58381755463779,62.23606632091105,148.8],[-6.583729209378362,62.23615089431405,151.48],[-6.58363239839673,62.23623781464994,153.11],[-6.583611695095897,62.23633320070803,153.65],[-6.58358596265316,62.23643084987998,153.93],[-6.583634410053492,62.236524391919374,154.3],[-6.583587219938636,62.23661324009299,154.84],[-6.583578335121274,62.23669898696244,155.28],[-6.583544807508588,62.23679990507662,156.45],[-6.58354489132762,62.236906019970775,157.85],[-6.583467526361346,62.23699419759214,158.92],[-6.583410361781716,62.23708958365023,160.04],[-6.58330986276269,62.23716082982719,159.94],[-6.583301313221455,62.23725604824722,160.19],[-6.583336098119617,62.23729418590665,159.93],[-6.583355711773038,62.23739351145923,159.57],[-6.583284717053175,62.237497279420495,160.03],[-6.583230318501592,62.237597024068236,160.47],[-6.583174914121628,62.23768034018576,160.86],[-6.583142643794417,62.23777052946389,160.46],[-6.583043234422803,62.23785753361881,161.01],[-6.582988332957029,62.237946297973394,160.8],[-6.582933263853192,62.23805258050561,161.68],[-6.582857491448522,62.23814645782113,161.68],[-6.582786161452532,62.23823991604149,163.26],[-6.582844583317637,62.23832876421511,161.99],[-6.582790436223149,62.23842155188322,162.52],[-6.582717010751367,62.238512160256505,162.09],[-6.582629252225161,62.23860972560942,162.39],[-6.582598574459553,62.238711984828115,162.19],[-6.582586001604796,62.23880108445883,161.92],[-6.582545433193445,62.238889932632446,161.24],[-6.582513833418489,62.23898238502443,161.46],[-6.582442335784435,62.239073663949966,161.97],[-6.582362204790115,62.23916276358068,162.27],[-6.582283414900303,62.239250019192696,162.2],[-6.582224573940039,62.23933769389987,161.63],[-6.582149639725685,62.23942645825446,160.87],[-6.582082752138376,62.23950541578233,160.7],[-6.582012847065926,62.23960004746914,160.76],[-6.581905474886298,62.23968369886279,161.66],[-6.581839257851243,62.23977170884609,161.69],[-6.581800282001495,62.239870112389326,161.91],[-6.58172526396811,62.23994957283139,161.67],[-6.581629458814859,62.24003490060568,162.27],[-6.581526696681976,62.24011712707579,163.05],[-6.581482356414199,62.240206226706505,163.04],[-6.581340618431568,62.24027789197862,164.49],[-6.581216230988503,62.24035542458296,165.48],[-6.581170633435249,62.24044980481267,165.83],[-6.58118823543191,62.24054234102368,166.02],[-6.581101231276989,62.24061945453286,167.33],[-6.580989081412554,62.24069707095623,169.12],[-6.580894785001874,62.2407799679786,168.95],[-6.58080124296248,62.24087158218026,169.63],[-6.580725470557809,62.24096152000129,169.89],[-6.580703593790531,62.24106319248676,169.78],[-6.580674676224589,62.24115346558392,169.59],[-6.580656906589866,62.24125572480261,167.79],[-6.580557329580188,62.24134122021496,168.6],[-6.580442497506738,62.2414221893996,168.95],[-6.580385081470013,62.24150248803198,169.57],[-6.580307716503739,62.241589743644,170.52],[-6.580275949090719,62.241684291511774,170.31],[-6.580229932442308,62.241787975654006,170.73],[-6.580091044306755,62.241841619834304,172.84],[-6.580099007114768,62.24192954599857,172.53],[-6.58007419668138,62.24201931618154,172.45],[-6.580059360712767,62.24211327731609,172.25],[-6.580072771757841,62.242204220965505,172.08],[-6.580128762871027,62.24230530671775,171.27],[-6.580139324069023,62.24240630865097,170.85],[-6.580146616324782,62.242490043863654,170.95],[-6.580178299918771,62.24258509464562,169.47],[-6.580193219706416,62.24268592894077,169.43],[-6.580169415101409,62.24279464222491,169.64],[-6.58021735958755,62.24289287813008,168.99],[-6.580210318788886,62.242983654141426,168.66],[-6.580215850844979,62.24306923337281,169.41],[-6.580167235806584,62.243153639137745,169.31],[-6.580116273835301,62.2432476002723,169.24],[-6.580084506422281,62.243352960795164,169.51],[-6.580018624663353,62.24343770183623,169.98],[-6.579986354336143,62.24352487362921,170.62],[-6.57997596077621,62.24362679757178,170.4],[-6.579914353787899,62.243723440915346,170.34],[-6.579835563898087,62.243816731497645,171.42],[-6.57980396412313,62.243912536650896,171.43],[-6.579773873090744,62.24401865154505,171.43],[-6.579705225303769,62.24411454051733,170.94],[-6.579661890864372,62.2442093398422,172.46],[-6.579581424593926,62.24430212751031,173.39],[-6.579522667452693,62.244395669549704,174.44],[-6.579489391297102,62.24445593543351,175.48],[-6.579444212839007,62.244548220187426,175.02],[-6.579394843429327,62.244642516598105,176.46],[-6.579286213964224,62.24473111331463,178.36],[-6.579191414639354,62.24480948410928,179.91],[-6.579091418534517,62.24489238113165,182.11],[-6.57896937802434,62.24497125484049,184.49],[-6.578817749395967,62.24503789097071,186.39],[-6.578696295619011,62.2451142501086,189.95],[-6.578620858490467,62.24519924260676,190.39],[-6.578554809093475,62.245296221226454,192.32],[-6.578460177406669,62.245377441868186,194.62],[-6.578397648409009,62.24547542631626,196.48],[-6.578375520184636,62.24557047709823,199.74],[-6.57827359624207,62.245661336928606,201.91],[-6.578204613178968,62.24575110711157,203.93],[-6.57809229567647,62.24582428112626,208.01],[-6.578002357855439,62.24591455422342,209.51],[-6.577892387285829,62.245996948331594,211.65],[-6.577818375080824,62.24608210846782,213.29],[-6.577790882438421,62.24618093110621,213.52],[-6.57768577337265,62.246273551136255,215.06],[-6.57756557688117,62.246348736807704,218.14],[-6.577507657930255,62.24644127301872,219.06],[-6.577428197488189,62.246535401791334,220.08],[-6.577353933826089,62.24662953056395,222.47],[-6.577250752598047,62.24670806899667,224.63],[-6.577177662402391,62.2468135971576,226.83],[-6.576985213905573,62.24684167653322,230.02],[-6.576843643561006,62.246875958517194,231.92],[-6.576777677983046,62.24696774035692,233.46],[-6.576703079044819,62.24705105647445,234.03],[-6.576658738777041,62.24714929237962,234.69],[-6.576638454571366,62.2472467739135,234.57],[-6.576596880331636,62.24735121242702,233.45],[-6.576516330242157,62.24743712693453,232.22],[-6.576468218117952,62.24753201007843,233.39],[-6.57642999663949,62.247637789696455,233.64],[-6.576414322480559,62.247733594849706,233.21],[-6.576365623623133,62.24781850352883,233.81],[-6.576304519549012,62.24789896979928,233.54],[-6.5762550663203,62.247986644506454,232.76],[-6.576156243681908,62.2480776719749,234.25],[-6.576098324730992,62.24817171692848,233.59],[-6.575979050248861,62.24824933335185,233.74],[-6.575911408290267,62.24834061227739,233.98],[-6.575797749683261,62.24841739051044,236.15],[-6.575635895133019,62.24848276935518,238.36],[-6.575564984232187,62.24857212044299,238.5],[-6.575534893199801,62.248666835948825,236.96],[-6.575436238199472,62.24875937215984,235.74],[-6.575276227667928,62.24881628528237,237.36],[-6.575143290683627,62.24890010431409,237.68],[-6.575083862990141,62.248995741829276,237.07],[-6.574990320950747,62.249087607488036,236.86],[-6.574896527454257,62.249109987169504,236.25],[-6.57493625767529,62.24910923279822,236.9],[-6.574830980971456,62.24917377345264,238.87],[-6.574714304879308,62.249269746243954,239.08],[-6.574604418128729,62.24935415200889,239.5],[-6.574511295184493,62.249456914141774,239.1],[-6.574373245239258,62.2495386376977,240.6],[-6.574257994070649,62.24962966516614,240.51],[-6.574156321585178,62.24973670206964,239.42],[-6.574046351015568,62.249823370948434,239.05],[-6.573876952752471,62.249867375940084,241.09],[-6.573663046583533,62.24990593269467,242.9],[-6.573469256982207,62.249952871352434,244.72],[-6.573355095461011,62.25004507228732,245.72],[-6.573200533166528,62.2501013148576,246.65],[-6.573008168488741,62.250145403668284,248.93],[-6.572857545688748,62.25021664984524,249.66],[-6.572712287306786,62.25028890185058,249.07],[-6.572541715577245,62.25033374503255,249.84],[-6.572385476902127,62.250389233231544,250.42],[-6.572294784709811,62.25048688240349,250.02],[-6.572206523269415,62.25057212635875,248.65],[-6.572103593498468,62.250657035037875,246.73],[-6.572085823863745,62.250752840191126,244.35],[-6.571864290162921,62.2507488168776,246.99],[-6.571736298501492,62.25081352517009,245.6],[-6.571763791143894,62.25091955624521,243.59],[-6.571717523038387,62.25102424621582,242.06],[-6.571606630459428,62.25111125037074,241.95],[-6.571550639346242,62.25120211020112,240.62],[-6.571365147829056,62.25126137025654,239.59],[-6.571234473958612,62.25133412517607,239.2],[-6.571150571107864,62.25141366943717,239.68],[-6.570983771234751,62.25147066637874,240.75],[-6.570866005495191,62.25155188702047,240.47],[-6.570734074339271,62.251628413796425,240.34],[-6.570579931139946,62.251680213958025,240.84],[-6.570472978055477,62.251764200627804,240.26],[-6.570392176508904,62.25185841321945,241.07],[-6.57032604329288,62.25195027887821,240.96],[-6.570286732167006,62.25204491056502,240.76],[-6.570189166814089,62.252134680747986,242.71],[-6.569998059421778,62.252182457596064,245.48],[-6.569880796596408,62.252274407073855,246.86],[-6.569737130776048,62.25234255194664,249.62],[-6.569518949836493,62.25238697603345,252.38],[-6.569347288459539,62.25244916975498,255.41],[-6.569202365353704,62.25252125412226,258.02],[-6.569031206890941,62.252579340711236,259.56],[-6.568869268521667,62.25260892882943,262.64],[-6.568746054545045,62.25267908535898,266.45],[-6.568560814484954,62.25271143950522,270.95],[-6.568434750661254,62.252754271030426,274.8],[-6.568289743736386,62.252790397033095,279.31],[-6.568121938034892,62.252831468358636,284.09],[-6.56796695664525,62.252906737849116,288.29],[-6.567811220884323,62.25296691991389,291.07],[-6.567631764337421,62.253028778359294,294.34],[-6.567432442680001,62.25306197069585,296.15],[-6.567233707755804,62.25310564041138,299.63],[-6.567031787708402,62.253128523007035,302.14],[-6.566920140758157,62.25319381803274,305.14],[-6.56668427400291,62.25316724739969,308.69],[-6.566563909873366,62.25323371589184,310.01],[-6.566380010917783,62.25328476168215,311.52],[-6.566265178844333,62.25336413830519,312.49],[-6.566144060343504,62.253447119146585,313.04],[-6.566080441698432,62.25352666340768,312.8],[-6.566006513312459,62.253628335893154,313.04],[-6.565897380933166,62.25369983352721,314.06],[-6.565790344029665,62.253793040290475,314.92],[-6.565727479755878,62.253881469368935,315.04],[-6.565597057342529,62.25395732559264,316.8],[-6.565470574423671,62.25402396172285,318.16],[-6.565327495336533,62.254084730520844,320.36],[-6.565142590552568,62.25413384847343,324.37],[-6.564948465675116,62.25412018597126,327.59],[-6.564821815118194,62.2541887499392,329.97],[-6.564690386876464,62.25424281321466,333.3],[-6.564565328881145,62.25429126061499,333.6],[-6.564605226740241,62.254330571740866,334.06],[-6.564400708302856,62.25437046959996,333.72],[-6.564209433272481,62.25440315902233,334.45],[-6.563985636457801,62.25438849069178,337.73],[-6.563788997009397,62.2544099483639,339.98],[-6.563585568219423,62.25438664667308,342.71],[-6.563377864658833,62.254398968070745,345.12],[-6.563276024535298,62.25431992672384,348.77],[-6.563151050359011,62.25425010547042,352.71],[-6.5630117431283,62.25415228866041,354.58],[-6.562925493344665,62.25406352430582,356.3],[-6.56285391189158,62.25397786125541,358.59],[-6.56272248364985,62.253918098285794,359.35],[-6.562555935233831,62.253866884857416,359.56],[-6.562353428453207,62.253818940371275,361.46],[-6.562253851443529,62.253908794373274,362.24],[-6.562124099582434,62.25397450849414,362.43],[-6.561932824552059,62.254011891782284,363.01],[-6.561746159568429,62.25404835306108,363.71],[-6.561543568968773,62.25407618097961,366.66],[-6.561358831822872,62.25409151986241,368.93],[-6.56115741468966,62.25407031364739,372.74],[-6.561018442735076,62.2541268914938,374.87],[-6.560853067785502,62.25419252179563,378.26],[-6.560661206021905,62.254187408834696,380.97],[-6.560493987053633,62.254229905083776,383.2],[-6.560348644852638,62.254293439909816,386.74],[-6.560276644304395,62.25438446737826,389.38],[-6.560083944350481,62.254385724663734,393.17],[-6.559983780607581,62.25442260503769,395.88],[-6.559814549982548,62.254480523988605,401.69],[-6.559687480330467,62.254562163725495,405.52],[-6.55966023914516,62.25466241128743,408.06],[-6.559560745954514,62.254740949720144,412.84],[-6.559553537517786,62.254809932783246,415.97],[-6.559649091213942,62.25490833632648,419.23],[-6.559566697105765,62.25502559915185,426.94],[-6.559507353231311,62.255087960511446,430.8],[-6.559513472020626,62.25519080646336,431.48],[-6.559405932202935,62.25526129826903,430.36],[-6.559224547818303,62.255300525575876,430.8],[-6.559031764045358,62.255314104259014,429.64],[-6.558961104601622,62.2553909663111,426.87],[-6.558937048539519,62.25548383779824,425.07],[-6.558813834562898,62.25552809424698,421.38],[-6.558699002489448,62.25557662546635,417.82],[-6.558554917573929,62.25551325827837,417.08],[-6.558375041931868,62.25546053610742,416.32],[-6.558359116315842,62.25545357912779,415.73],[-6.558469170704484,62.25550688803196,415.14],[-6.558621050789952,62.25556162185967,415.76],[-6.558766979724169,62.25555089302361,418.11],[-6.558778714388609,62.25546472705901,420.39],[-6.558854319155216,62.25538166239858,424.16],[-6.559010893106461,62.25531687028706,426.49],[-6.559156822040677,62.255254089832306,428.9],[-6.559377182275057,62.25523279979825,428.73],[-6.559477429836988,62.255145628005266,427.82],[-6.559491846710444,62.25505501963198,425.12],[-6.559546831995249,62.25496902130544,421.31],[-6.559564182534814,62.254869528114796,419.3],[-6.559607852250338,62.25478948093951,412.7],[-6.559591926634312,62.2546863835305,408.29],[-6.559684798121452,62.25463533774018,405.06],[-6.559711033478379,62.25454414263368,401.51],[-6.559819495305419,62.25446619093418,397.93],[-6.559922089800239,62.254401901736856,393.61],[-6.560080675408244,62.25437147542834,389.45],[-6.560243619605899,62.254347670823336,385.32],[-6.560385609045625,62.254285560920835,382.7],[-6.560556516051292,62.254237700253725,379.33],[-6.560750976204872,62.254243567585945,376.04],[-6.560943843796849,62.25420333445072,372.67],[-6.561092203482986,62.25412613712251,369.65],[-6.561275599524379,62.25408112630248,367.32],[-6.561430497094989,62.254073498770595,364.05],[-6.561623113229871,62.2540367860347,361.48],[-6.561817908659577,62.25401122123003,359.44],[-6.562023181468248,62.2539815492928,358.92],[-6.56217472627759,62.25391918793321,358.54],[-6.562283104285598,62.25382665172219,357.97],[-6.562502458691597,62.25383981131017,356.58],[-6.562657775357366,62.253902927041054,355.45],[-6.562795070931315,62.253962103277445,354.51],[-6.562868999317288,62.254047179594636,353.26],[-6.562944604083896,62.25412638857961,352.07],[-6.563064632937312,62.254200568422675,350.14],[-6.563189355656505,62.25426393561065,348.18],[-6.563320364803076,62.25431405939162,344.81],[-6.563327824696899,62.25437139160931,342.04],[-6.56349110417068,62.25439871661365,340.39],[-6.563673159107566,62.2544255387038,336.6],[-6.563873738050461,62.254399890080094,334.45],[-6.564092840999365,62.25439930334687,331.89],[-6.564296437427402,62.25436937995255,329.67],[-6.564477402716875,62.25433023646474,328.76],[-6.564649483188987,62.25427055731416,328.33],[-6.564783006906509,62.254212806001306,326.34],[-6.564974784851074,62.25418724119663,321.87],[-6.565124066546559,62.254122365266085,319.96],[-6.565295644104481,62.25407148711383,317.06],[-6.565439645200968,62.253992948681116,314.71],[-6.565558584406972,62.25392019376159,312.64],[-6.56567919999361,62.25384257733822,310.16],[-6.565734269097447,62.25373671390116,309.91],[-6.56585605815053,62.25365390069783,309.65],[-6.566007100045681,62.253590784966946,308.2],[-6.56606619246304,62.253478886559606,308],[-6.566156968474388,62.25337008945644,307.48],[-6.566312704235315,62.25331988185644,306.51],[-6.566444719210267,62.25324637256563,306.53],[-6.566608166322112,62.25318535231054,303.16],[-6.566795334219933,62.253170516341925,301.4],[-6.566969342529774,62.25318040698767,298.24],[-6.567080821841955,62.25310723297298,296.61],[-6.56729849986732,62.25307370536029,292.2],[-6.567504107952118,62.253038082271814,289.56],[-6.567714912816882,62.25302282720804,287.62],[-6.567864697426558,62.25296943448484,284.53],[-6.568001070991159,62.25291478447616,281.35],[-6.568168792873621,62.2528591286391,277.7],[-6.568293431773782,62.25281864404678,273.09],[-6.568432906642556,62.2527642454952,269.22],[-6.568580092862248,62.25272753275931,265.83],[-6.568766254931688,62.25269769318402,260.17],[-6.568893827497959,62.25262099877,256.05],[-6.569002121686935,62.25257674232125,252.7],[-6.569157773628831,62.25250633433461,250.72],[-6.569327088072896,62.25244263187051,247.62],[-6.569492546841502,62.25238940678537,244.96],[-6.569680133834481,62.25232939235866,242.86],[-6.56983595341444,62.252264684066176,239.91],[-6.569942990317941,62.252188408747315,238.12],[-6.570092774927616,62.252131244167686,236.73],[-6.570196794345975,62.25204499438405,234.48],[-6.570279356092215,62.251955308020115,233.71],[-6.57029720954597,62.25185891613364,234.89],[-6.570387650281191,62.25176922976971,233.94],[-6.570508349686861,62.251671915873885,234.33],[-6.570623684674501,62.25159547291696,234.56],[-6.570824347436428,62.251523304730654,233.75],[-6.570936916396022,62.25143856368959,233.91],[-6.571075636893511,62.25137343630195,232.57],[-6.571210166439414,62.251291796565056,231.65],[-6.571315778419375,62.25121091119945,233.13],[-6.571482410654426,62.2511375695467,233.64],[-6.571563631296158,62.25104050710797,235.34],[-6.571680558845401,62.25095400586724,235.35],[-6.5717186126858,62.25087085738778,236.93],[-6.571768736466765,62.250780165195465,237.29],[-6.571934362873435,62.25073205307126,236.14],[-6.572007704526186,62.25064110942185,238.6],[-6.57208263874054,62.250548489391804,240.48],[-6.572199650108814,62.25044807419181,241.17],[-6.572342393919826,62.25035226903856,242.46],[-6.572515731677413,62.250297954306006,241.79],[-6.572729637846351,62.25026425905526,241.13],[-6.572862910106778,62.25019292905927,241.89],[-6.573028871789575,62.25013735704124,240.09],[-6.573215201497078,62.25007298402488,237.72],[-6.573380995541811,62.25000944919884,236.42],[-6.573536731302738,62.249937700107694,235.71],[-6.573688611388207,62.24988137371838,233.67],[-6.573859015479684,62.24982990883291,232.27],[-6.574012069031596,62.249760841950774,230.13],[-6.5741051081568,62.24967174232006,230.62],[-6.574173588305712,62.24957451224327,231.05],[-6.574275344610214,62.24948197603226,231.3],[-6.574460752308369,62.24938835017383,230.1],[-6.574554797261953,62.2492931317538,230.61],[-6.574693182483316,62.24921191111207,229.48],[-6.574830394238234,62.249115351587534,229.3],[-6.574939945712686,62.249037651345134,228.5],[-6.575034996494651,62.248951653018594,227.53],[-6.575111942365766,62.24885676987469,229.44],[-6.575195258483291,62.24878275766969,228.59],[-6.575366500765085,62.24873556755483,226.54],[-6.575457863509655,62.248654179275036,226.78],[-6.575485691428185,62.24855870939791,228.54],[-6.575585352256894,62.248477740213275,228.64],[-6.575715355575085,62.248394675552845,227.03],[-6.575856171548367,62.24832711741328,224.65],[-6.575913671404123,62.24824639968574,224.73],[-6.576043171808124,62.2481672745198,223.71],[-6.576105868443847,62.24807909689844,224.49],[-6.576215252280235,62.24800650961697,223.57],[-6.57628390006721,62.24791942164302,222.58],[-6.576327234506607,62.24783107638359,223.81],[-6.576328575611115,62.247742395848036,224.63],[-6.576383477076888,62.247662181034684,224.36],[-6.576412729918957,62.24757065065205,224.53],[-6.576457405462861,62.247483311221,224.67],[-6.576502919197083,62.247389014810324,223.07],[-6.576583720743656,62.24730175919831,224.8],[-6.576615152880549,62.247204361483455,225.57],[-6.576664689928293,62.24712339229882,225.98],[-6.576692434027791,62.24703814834356,224.99],[-6.576782204210758,62.246949803084135,224.1],[-6.576852947473526,62.246851064264774,222.91],[-6.577039025723934,62.2468323726207,220.27],[-6.577132986858487,62.246753415092826,217.96],[-6.577186547219753,62.246679067611694,214.71],[-6.57733884640038,62.24658703431487,213.53],[-6.577375223860145,62.246491983532906,210.95],[-6.577465999871492,62.24641210399568,211.03],[-6.577538251876831,62.246327782049775,209.48],[-6.577675966545939,62.24625326693058,207.2],[-6.577743021771312,62.24619526416063,205.36],[-6.577817117795348,62.24608412012458,204.76],[-6.577935302630067,62.245992086827755,202.17],[-6.577971260994673,62.24590307101607,200.52],[-6.578082488849759,62.24579930305481,198.07],[-6.578143341466785,62.24572864361107,195.89],[-6.578186089172959,62.24570098333061,195.02],[-6.578320702537894,62.24562437273562,191.75],[-6.578381387516856,62.24552948959172,189.22],[-6.57842799089849,62.2454353608191,186.38],[-6.578484904021025,62.24535036832094,184.65],[-6.578577775508165,62.245266465470195,182.31],[-6.578614991158247,62.24517728202045,179.8],[-6.578692104667425,62.24508684128523,180.23],[-6.57882671803236,62.24501157179475,176.38],[-6.578968539834023,62.24495214410126,174.33],[-6.579051604494453,62.244859021157026,171.74],[-6.579180434346199,62.244782242923975,169.94],[-6.57929333858192,62.24470026791096,167.58],[-6.579335415735841,62.244612677022815,167.06],[-6.579357543960214,62.244522320106626,166.64],[-6.579477824270725,62.24449558183551,164.22],[-6.579489475116134,62.24442668259144,164.81],[-6.579598439857364,62.24435451440513,163.86],[-6.579626770690084,62.244263738393784,162.72],[-6.57968376763165,62.24417162127793,160.93],[-6.579770855605602,62.24407900124788,160.41],[-6.579811424016953,62.24398059770465,160.42],[-6.57985283061862,62.24388487637043,160.85],[-6.579867331311107,62.24378655664623,161.01],[-6.579960621893406,62.24369192495942,159.04],[-6.580022899433971,62.243590503931046,159.3],[-6.580025246366859,62.243501991033554,159.78],[-6.580074867233634,62.24339629523456,159.5],[-6.580112837255001,62.243298729881644,159.14],[-6.580123230814934,62.24319781176746,158.45],[-6.58016312867403,62.24308608099818,158.32],[-6.580197997391224,62.24297904409468,158.52],[-6.580229513347149,62.242885418236256,157.59],[-6.580196991562843,62.24279908463359,158.49],[-6.580222388729453,62.24270386621356,159.27],[-6.5802251547575,62.24261216819286,158.72],[-6.580231860280037,62.24251150153577,158.77],[-6.580143682658672,62.24242575466633,160.28],[-6.580172181129456,62.24233363755047,160.72],[-6.58015625551343,62.242231545969844,160.89],[-6.580071765929461,62.24214353598654,162.2],[-6.580085847526789,62.242035660892725,162.38],[-6.580062881112099,62.24197044968605,163.23],[-6.580108227208257,62.24187523126602,162.81],[-6.580210067331791,62.24178386852145,161.56],[-6.580313164740801,62.24169158376753,160.15],[-6.580334873870015,62.241603154689074,159.88],[-6.580358510836959,62.2415101993829,160.27],[-6.580493962392211,62.24143157713115,158.9],[-6.580594796687365,62.24134247750044,158.46],[-6.580693367868662,62.24126192741096,157.55],[-6.580778863281012,62.24117450416088,157.81],[-6.580820772796869,62.24107978865504,158.1],[-6.580784562975168,62.24098440259695,159.09],[-6.580863352864981,62.240884993225336,159.24],[-6.580951111391187,62.24079153500497,159.42],[-6.581057393923402,62.24070587195456,158.31],[-6.581166945397854,62.24062071181834,156.58],[-6.581204328685999,62.24052733741701,155.17],[-6.581195695325732,62.24043379537761,155.45],[-6.581253530457616,62.24033849313855,155.06],[-6.581379007548094,62.24025693722069,154.32],[-6.581522421911359,62.24018543958664,153.38],[-6.581573048606515,62.24009768106043,153.03],[-6.581664830446243,62.24002065137029,151.27],[-6.581770526245236,62.239936580881476,150.28],[-6.581829618662596,62.23984329029918,150.61],[-6.581866666674614,62.23975201137364,150.39],[-6.581933218985796,62.239657044410706,150.27],[-6.582053750753403,62.23956501111388,149.96],[-6.582136899232864,62.23947649821639,148.83],[-6.582209402695298,62.23939334973693,149.96],[-6.582271931692958,62.23930198699236,150.29],[-6.582334628328681,62.23920861259103,151.05],[-6.5824010130018,62.239109287038445,150.91],[-6.582477875053883,62.23902110941708,150.58],[-6.58255347982049,62.23893217742443,150.75],[-6.582612153142691,62.23883494734764,150.59],[-6.582648698240519,62.23873562179506,151.06],[-6.582673760131002,62.23864660598338,150.98],[-6.582759423181415,62.23855289630592,150.39],[-6.582815162837505,62.238461365923285,150.15],[-6.582910045981407,62.23837084136903,150.09],[-6.582879619672895,62.23827629350126,150.42],[-6.582850450649858,62.23817487247288,149.39],[-6.58287207596004,62.23807906731963,149.74],[-6.582911219447851,62.2379753831774,149.74],[-6.582987830042839,62.23788158968091,149.93],[-6.583078019320965,62.23779710009694,148.93],[-6.583159156143665,62.237699534744024,149.86],[-6.583178183063865,62.23760398104787,148.81],[-6.583235263824463,62.23751412704587,147.93],[-6.583335427567363,62.23741798661649,148.15],[-6.583345904946327,62.237325701862574,148.23],[-6.583340372890234,62.237312626093626,148.15],[-6.58330743201077,62.23722034133971,148.32],[-6.583343893289566,62.23712906241417,148.68],[-6.583448834717274,62.237042393535376,147.89],[-6.583514045923948,62.23694843240082,147.86],[-6.583568444475532,62.23685556091368,146.13],[-6.583595518022776,62.236766545102,145.03],[-6.583616388961673,62.23667233251035,145.04],[-6.583654023706913,62.23657904192805,142.65],[-6.583694340661168,62.23648558370769,141.83],[-6.583636924624443,62.23639715462923,142.02],[-6.58367782831192,62.236299673095345,141.64],[-6.583736669272184,62.236216105520725,141.82],[-6.583815878257155,62.23612264730036,138.29],[-6.583921741694212,62.23603639751673,134.7],[-6.583873378112912,62.235938496887684,133.18],[-6.583956610411406,62.235846212133765,130.56],[-6.583992233499885,62.23575107753277,130],[-6.584041519090533,62.23565585911274,127.78],[-6.584024839103222,62.23556022159755,126.19],[-6.583975721150637,62.235475815832615,124.93],[-6.583966668695211,62.23538604564965,123.79],[-6.583997681736946,62.23529443144798,121.16],[-6.584076471626759,62.23521379753947,120.28],[-6.584206391125917,62.23513651639223,117.22],[-6.584353242069483,62.23506812006235,115.12],[-6.584444101899862,62.23498312756419,112.92],[-6.584634119644761,62.2349775955081,109.07],[-6.584808295592666,62.23494867794216,105.52],[-6.584936371073127,62.234891932457685,101.56],[-6.584994038566947,62.23481993190944,98.69],[-6.585104679688811,62.234761510044336,95.99],[-6.585199479013681,62.23471624776721,92.2],[-6.585178775712848,62.23462580703199,90.04],[-6.58520040102303,62.23452723585069,86.34],[-6.585179278627038,62.23443629220128,83.73],[-6.585168465971947,62.23434451036155,81.74],[-6.58510023728013,62.23426043987274,81.27],[-6.585234347730875,62.23420528694987,77.29],[-6.58542662858963,62.23419832997024,73.18],[-6.585602732375264,62.23420578986406,68.92],[-6.585780931636691,62.23422674462199,66.08],[-6.585956867784262,62.23418449983001,61.8],[-6.586129534989595,62.23414015956223,57.42],[-6.586269177496433,62.23407419398427,54.63],[-6.586280828341842,62.23397696390748,51.15],[-6.586361126974225,62.233901526778936,48.75],[-6.586394067853689,62.23381225951016,47.84],[-6.586393732577562,62.23371611908078,46.55],[-6.586437486112118,62.233627354726195,43.77],[-6.586474282667041,62.233582343906164,43.1],[-6.586658600717783,62.233631797134876,41.8],[-6.5868632029742,62.23367446102202,40.49],[-6.587065039202571,62.23371343687177,39.22],[-6.587249524891377,62.2337462939322,38.12],[-6.587425880134106,62.23380505107343,36.35],[-6.587570803239942,62.23387059755623,35.28],[-6.587716899812222,62.233923403546214,33.53],[-6.587702818214893,62.23382726311684,32.36],[-6.587668117135763,62.23373313434422,31.45],[-6.587647246196866,62.233646381646395,30.62],[-6.587632577866316,62.23355853930116,29.63],[-6.587627297267318,62.23345661535859,28.66],[-6.587658310309053,62.23335737362504,27.77],[-6.587757635861635,62.23326894454658,26.68],[-6.587857129052281,62.23318990319967,26.32],[-6.587871462106705,62.23311924375594,26.83],[-6.587778339162469,62.233025282621384,27.27],[-6.58766308799386,62.23293827846646,27.75],[-6.587549597024918,62.232846496626735,27.8],[-6.587407272309065,62.23276628181338,27.94],[-6.587279280647636,62.23269226960838,28.04],[-6.587165202945471,62.23260182887316,27.43],[-6.587041905149818,62.23251507617533,27.15],[-6.586909387260675,62.23242891021073,27.18],[-6.586767816916108,62.2323249746114,27.11],[-6.58663110807538,62.232233779504895,26.77],[-6.586518539115787,62.23215381614864,26.39],[-6.586464308202267,62.23205708898604,26.81],[-6.586422566324472,62.231964049860835,26.69],[-6.586296502500773,62.23188090138137,26.38],[-6.586172031238675,62.23181074485183,25.85],[-6.586058456450701,62.23173170350492,25.94],[-6.585930800065398,62.231656266376376,25.4],[-6.585826613008976,62.23155962303281,24.95],[-6.585702057927847,62.23148477263749,24.62],[-6.585535006597638,62.23139894194901,24.79],[-6.585354711860418,62.23130179569125,24.48],[-6.585205849260092,62.23119869828224,24.19],[-6.585066206753254,62.23110339604318,23.6],[-6.584921618923545,62.231022929772735,23.04],[-6.584767643362284,62.23091815598309,23.37],[-6.584623223170638,62.23081698641181,23.36],[-6.584484921768308,62.23072176799178,23.28],[-6.584364725276828,62.230638451874256,22.71],[-6.584243690595031,62.230562595650554,22.5],[-6.584120644256473,62.23047902807593,22.42],[-6.584006818011403,62.230402920395136,22.27],[-6.583895925432444,62.23032144829631,21.91],[-6.583818728104234,62.23022639751434,21.07],[-6.583731388673186,62.23012807779014,20.62],[-6.583643881604075,62.230039313435555,19.43],[-6.583548747003079,62.229949962347746,18.9],[-6.583455288782716,62.22985700704157,18.49],[-6.5833645965904,62.22976782359183,17.34],[-6.583295194432139,62.22967620939016,16.56],[-6.583205088973045,62.22958417609334,14.87],[-6.583077600225806,62.22946833819151,14.2],[-6.582985650748015,62.22936272621155,13.71],[-6.582865118980408,62.229274632409215,13.31],[-6.582744587212801,62.22919274121523,12.9],[-6.582770990207791,62.22912778146565,11.52],[-6.582914823666215,62.22905485890806,9.97],[-6.583086149767041,62.228982439264655,7.59],[-6.583243394270539,62.22891035489738,6],[-6.583372559398413,62.2288160584867,5.05],[-6.583507508039475,62.22873014397919,4.35],[-6.583637846633792,62.22864649258554,2.69],[-6.583770699799061,62.228570049628615,2.46],[-6.58388108946383,62.228481201455,0.83],[-6.584019642323256,62.22839914262295,-0.13],[-6.584181748330593,62.22834013402462,-1.04],[-6.5842798165977,62.22826134413481,-1.69],[-6.58417378552258,62.228188421577215,-2.16],[-6.58417571336031,62.22806981764734,-2.12],[-6.584004471078515,62.22798834554851,-1.18],[-6.583904223516583,62.22788767889142,-1.19],[-6.583773549646139,62.22780176438391,-0.95],[-6.583649581298232,62.22771844826639,-0.39],[-6.583710433915258,62.227630354464054,-0.27],[-6.583877569064498,62.227566400542855,-0.48],[-6.584076303988695,62.227512085810304,-0.65],[-6.584161631762981,62.22750160843134,-1.33],[-6.583938002586365,62.22746782936156,-1.3],[-6.583746811375022,62.22740546800196,-1.24],[-6.583653353154659,62.227323492988944,-1.04],[-6.583638768643141,62.227220982313156,-1.23],[-6.583664920181036,62.227131044492126,-1.75],[-6.583701381459832,62.227023588493466,-2.78],[-6.583765167742968,62.22693180665374,-2.75],[-6.583831803873181,62.226832984015346,-2.61],[-6.583946887403727,62.22676827572286,-3.18],[-6.584117123857141,62.22679425962269,-3.56],[-6.584291383624077,62.2268249373883,-3.86],[-6.584480982273817,62.22684295848012,-4.01],[-6.584661109372973,62.22677556797862,-4.04],[-6.584839727729559,62.226716224104166,-4.15],[-6.585011053830385,62.22665729932487,-3.91],[-6.58516762778163,62.22658513113856,-3.97],[-6.585095878690481,62.2265331633389,-3.18]]}},{"type":"Feature","properties":{"name":"WP 2 07_AS","type":"user","time":"2020-07-24T09:16:02Z","gpxx_WaypointExtension":"SymbolAndName","gpxx_DisplayMode":"SymbolAndName","wptx1_WaypointExtension":"SymbolAndName","wptx1_DisplayMode":"SymbolAndName","ctx_CreationTimeExtension":"2020-07-24T09:16:02Z","ctx_CreationTime":"2020-07-24T09:16:02Z","sym":"Flag, Blue"},"geometry":{"type":"Point","coordinates":[-6.579362992197275,62.24465198814869,176.001617]}},{"type":"Feature","properties":{"name":"WP1 02_AS","type":"user","time":"2020-07-24T08:42:05Z","gpxx_WaypointExtension":"SymbolAndName","gpxx_DisplayMode":"SymbolAndName","wptx1_WaypointExtension":"SymbolAndName","wptx1_DisplayMode":"SymbolAndName","ctx_CreationTimeExtension":"2020-07-24T08:42:05Z","ctx_CreationTime":"2020-07-24T08:42:05Z","sym":"Flag, Blue"},"geometry":{"type":"Point","coordinates":[-6.586318966001272,62.23358200863004,63.55341]}},{"type":"Feature","properties":{"name":"WP3 12_AS","type":"user","time":"2020-07-24T09:51:00Z","gpxx_WaypointExtension":"SymbolAndName","gpxx_DisplayMode":"SymbolAndName","wptx1_WaypointExtension":"SymbolAndName","wptx1_DisplayMode":"SymbolAndName","ctx_CreationTimeExtension":"2020-07-24T09:51:00Z","ctx_CreationTime":"2020-07-24T09:51:00Z","sym":"Flag, Blue"},"geometry":{"type":"Point","coordinates":[-6.566265011206269,62.253363970667124,312.491058]}}]}