{"type":"FeatureCollection","features":[{"type":"Feature","properties":{"_gpxType":"trk","name":"03 Wanderung Klaksvík Klakkur CS 001","time":"2020-07-16T16:16:36Z","gpxx_TrackExtension":"Blue","gpxx_DisplayColor":"Blue","coordinateProperties":{"times":["2020-07-16T16:16:36Z","2020-07-16T16:16:18Z","2020-07-16T16:16:10Z","2020-07-16T16:16:03Z","2020-07-16T16:15:57Z","2020-07-16T16:15:51Z","2020-07-16T16:15:45Z","2020-07-16T16:15:38Z","2020-07-16T16:15:26Z","2020-07-16T16:15:19Z","2020-07-16T16:15:11Z","2020-07-16T16:15:03Z","2020-07-16T16:14:56Z","2020-07-16T16:14:48Z","2020-07-16T16:14:41Z","2020-07-16T16:14:34Z","2020-07-16T16:14:27Z","2020-07-16T16:14:21Z","2020-07-16T16:14:15Z","2020-07-16T16:14:09Z","2020-07-16T16:14:03Z","2020-07-16T16:13:56Z","2020-07-16T16:13:50Z","2020-07-16T16:13:43Z","2020-07-16T16:13:37Z","2020-07-16T16:13:31Z","2020-07-16T16:13:24Z","2020-07-16T16:13:18Z","2020-07-16T16:13:11Z","2020-07-16T16:13:06Z","2020-07-16T16:13:00Z","2020-07-16T16:12:54Z","2020-07-16T16:12:47Z","2020-07-16T16:12:41Z","2020-07-16T16:12:35Z","2020-07-16T16:12:27Z","2020-07-16T16:12:21Z","2020-07-16T16:12:14Z","2020-07-16T16:12:07Z","2020-07-16T16:12:00Z","2020-07-16T16:11:54Z","2020-07-16T16:11:47Z","2020-07-16T16:11:40Z","2020-07-16T16:11:34Z","2020-07-16T16:11:27Z","2020-07-16T16:11:21Z","2020-07-16T16:11:15Z","2020-07-16T16:11:09Z","2020-07-16T16:11:02Z","2020-07-16T16:10:55Z","2020-07-16T16:10:49Z","2020-07-16T16:10:43Z","2020-07-16T16:10:36Z","2020-07-16T16:10:30Z","2020-07-16T16:10:23Z","2020-07-16T16:10:17Z","2020-07-16T16:10:10Z","2020-07-16T16:10:03Z","2020-07-16T16:09:54Z","2020-07-16T16:09:47Z","2020-07-16T16:09:40Z","2020-07-16T16:09:33Z","2020-07-16T16:09:27Z","2020-07-16T16:09:21Z","2020-07-16T16:09:15Z","2020-07-16T16:09:09Z","2020-07-16T16:09:03Z","2020-07-16T16:08:57Z","2020-07-16T16:08:51Z","2020-07-16T16:08:45Z","2020-07-16T16:08:39Z","2020-07-16T16:08:32Z","2020-07-16T16:08:26Z","2020-07-16T16:08:19Z","2020-07-16T16:08:12Z","2020-07-16T16:08:06Z","2020-07-16T16:08:00Z","2020-07-16T16:07:54Z","2020-07-16T16:07:47Z","2020-07-16T16:07:41Z","2020-07-16T16:07:35Z","2020-07-16T16:07:29Z","2020-07-16T16:07:23Z","2020-07-16T16:07:17Z","2020-07-16T16:07:11Z","2020-07-16T16:07:05Z","2020-07-16T16:06:58Z","2020-07-16T16:06:52Z","2020-07-16T16:06:46Z","2020-07-16T16:06:40Z","2020-07-16T16:06:34Z","2020-07-16T16:06:28Z","2020-07-16T16:06:22Z","2020-07-16T16:06:16Z","2020-07-16T16:06:11Z","2020-07-16T16:06:05Z","2020-07-16T16:05:59Z","2020-07-16T16:05:53Z","2020-07-16T16:05:47Z","2020-07-16T16:05:41Z","2020-07-16T16:05:34Z","2020-07-16T16:05:28Z","2020-07-16T16:05:22Z","2020-07-16T16:05:16Z","2020-07-16T16:05:10Z","2020-07-16T16:05:03Z","2020-07-16T16:04:57Z","2020-07-16T16:04:51Z","2020-07-16T16:04:45Z","2020-07-16T16:04:39Z","2020-07-16T16:04:33Z","2020-07-16T16:04:27Z","2020-07-16T16:04:21Z","2020-07-16T16:04:15Z","2020-07-16T16:04:09Z","2020-07-16T16:04:03Z","2020-07-16T16:03:57Z","2020-07-16T16:03:51Z","2020-07-16T16:03:45Z","2020-07-16T16:03:39Z","2020-07-16T16:03:33Z","2020-07-16T16:03:27Z","2020-07-16T16:03:21Z","2020-07-16T16:03:15Z","2020-07-16T16:03:09Z","2020-07-16T16:03:03Z","2020-07-16T16:02:56Z","2020-07-16T16:02:50Z","2020-07-16T16:02:44Z","2020-07-16T16:02:38Z","2020-07-16T16:02:26Z","2020-07-16T16:02:19Z","2020-07-16T16:02:14Z","2020-07-16T16:02:08Z","2020-07-16T16:02:03Z","2020-07-16T16:01:57Z","2020-07-16T16:01:51Z","2020-07-16T16:01:46Z","2020-07-16T16:01:40Z","2020-07-16T16:01:34Z","2020-07-16T16:01:29Z","2020-07-16T16:01:23Z","2020-07-16T16:01:18Z","2020-07-16T16:01:12Z","2020-07-16T16:01:05Z","2020-07-16T16:00:59Z","2020-07-16T16:00:54Z","2020-07-16T16:00:48Z","2020-07-16T16:00:42Z","2020-07-16T16:00:36Z","2020-07-16T16:00:30Z","2020-07-16T16:00:24Z","2020-07-16T16:00:18Z","2020-07-16T16:00:12Z","2020-07-16T16:00:06Z","2020-07-16T16:00:01Z","2020-07-16T15:59:52Z","2020-07-16T15:59:46Z","2020-07-16T15:59:40Z","2020-07-16T15:59:34Z","2020-07-16T15:59:27Z","2020-07-16T15:59:21Z","2020-07-16T15:59:15Z","2020-07-16T15:59:09Z","2020-07-16T15:59:03Z","2020-07-16T15:58:57Z","2020-07-16T15:58:50Z","2020-07-16T15:58:44Z","2020-07-16T15:58:38Z","2020-07-16T15:58:32Z","2020-07-16T15:58:26Z","2020-07-16T15:58:20Z","2020-07-16T15:58:14Z","2020-07-16T15:58:08Z","2020-07-16T15:58:02Z","2020-07-16T15:57:56Z","2020-07-16T15:57:50Z","2020-07-16T15:57:44Z","2020-07-16T15:57:35Z","2020-07-16T15:57:29Z","2020-07-16T15:57:23Z","2020-07-16T15:57:11Z","2020-07-16T15:57:04Z","2020-07-16T15:56:58Z","2020-07-16T15:56:52Z","2020-07-16T15:56:45Z","2020-07-16T15:56:39Z","2020-07-16T15:56:33Z","2020-07-16T15:56:27Z","2020-07-16T15:56:21Z","2020-07-16T15:56:15Z","2020-07-16T15:56:09Z","2020-07-16T15:56:03Z","2020-07-16T15:55:57Z","2020-07-16T15:55:51Z","2020-07-16T15:55:45Z","2020-07-16T15:55:39Z","2020-07-16T15:55:33Z","2020-07-16T15:55:27Z","2020-07-16T15:55:21Z","2020-07-16T15:55:16Z","2020-07-16T15:55:10Z","2020-07-16T15:55:04Z","2020-07-16T15:54:59Z","2020-07-16T15:54:53Z","2020-07-16T15:54:48Z","2020-07-16T15:54:42Z","2020-07-16T15:54:36Z","2020-07-16T15:54:30Z","2020-07-16T15:54:24Z","2020-07-16T15:54:18Z","2020-07-16T15:54:12Z","2020-07-16T15:54:06Z","2020-07-16T15:54:00Z","2020-07-16T15:53:54Z","2020-07-16T15:53:48Z","2020-07-16T15:53:42Z","2020-07-16T15:53:36Z","2020-07-16T15:53:29Z","2020-07-16T15:53:22Z","2020-07-16T15:53:16Z","2020-07-16T15:53:08Z","2020-07-16T15:53:02Z","2020-07-16T15:52:56Z","2020-07-16T15:52:50Z","2020-07-16T15:52:44Z","2020-07-16T15:52:38Z","2020-07-16T15:52:32Z","2020-07-16T15:52:26Z","2020-07-16T15:52:20Z","2020-07-16T15:52:14Z","2020-07-16T15:52:08Z","2020-07-16T15:52:02Z","2020-07-16T15:51:56Z","2020-07-16T15:51:51Z","2020-07-16T15:51:45Z","2020-07-16T15:51:40Z","2020-07-16T15:51:34Z","2020-07-16T15:51:27Z","2020-07-16T15:51:20Z","2020-07-16T15:51:14Z","2020-07-16T15:51:08Z","2020-07-16T15:51:01Z","2020-07-16T15:50:54Z","2020-07-16T15:50:48Z","2020-07-16T15:50:42Z","2020-07-16T15:50:35Z","2020-07-16T15:50:29Z","2020-07-16T15:50:23Z","2020-07-16T15:50:17Z","2020-07-16T15:50:11Z","2020-07-16T15:50:05Z","2020-07-16T15:49:58Z","2020-07-16T15:49:52Z","2020-07-16T15:49:46Z","2020-07-16T15:49:40Z","2020-07-16T15:49:34Z","2020-07-16T15:49:28Z","2020-07-16T15:49:21Z","2020-07-16T15:49:15Z","2020-07-16T15:49:09Z","2020-07-16T15:49:03Z","2020-07-16T15:48:57Z","2020-07-16T15:48:52Z","2020-07-16T15:48:47Z","2020-07-16T15:48:41Z","2020-07-16T15:48:35Z","2020-07-16T15:48:29Z","2020-07-16T15:48:23Z","2020-07-16T15:48:18Z","2020-07-16T15:48:12Z","2020-07-16T15:48:06Z","2020-07-16T15:48:00Z","2020-07-16T15:47:54Z","2020-07-16T15:47:48Z","2020-07-16T15:47:41Z","2020-07-16T15:47:34Z","2020-07-16T15:47:27Z","2020-07-16T15:47:21Z","2020-07-16T15:47:14Z","2020-07-16T15:47:09Z","2020-07-16T15:47:03Z","2020-07-16T15:46:57Z","2020-07-16T15:46:51Z","2020-07-16T15:46:45Z","2020-07-16T15:46:39Z","2020-07-16T15:46:33Z","2020-07-16T15:46:28Z","2020-07-16T15:46:22Z","2020-07-16T15:46:17Z","2020-07-16T15:46:11Z","2020-07-16T15:46:05Z","2020-07-16T15:45:58Z","2020-07-16T15:45:53Z","2020-07-16T15:45:47Z","2020-07-16T15:45:41Z","2020-07-16T15:45:35Z","2020-07-16T15:45:29Z","2020-07-16T15:45:23Z","2020-07-16T15:45:17Z","2020-07-16T15:45:11Z","2020-07-16T15:45:04Z","2020-07-16T15:44:58Z","2020-07-16T15:44:52Z","2020-07-16T15:44:46Z","2020-07-16T15:44:39Z","2020-07-16T15:44:33Z","2020-07-16T15:44:27Z","2020-07-16T15:44:21Z","2020-07-16T15:44:15Z","2020-07-16T15:44:09Z","2020-07-16T15:44:03Z","2020-07-16T15:43:57Z","2020-07-16T15:43:51Z","2020-07-16T15:43:45Z","2020-07-16T15:43:39Z","2020-07-16T15:43:33Z","2020-07-16T15:43:27Z","2020-07-16T15:43:21Z","2020-07-16T15:43:15Z","2020-07-16T15:43:09Z","2020-07-16T15:43:02Z","2020-07-16T15:42:56Z","2020-07-16T15:42:50Z","2020-07-16T15:42:44Z","2020-07-16T15:42:37Z","2020-07-16T15:42:30Z","2020-07-16T15:42:24Z","2020-07-16T15:42:17Z","2020-07-16T15:42:10Z","2020-07-16T15:42:04Z","2020-07-16T15:41:57Z","2020-07-16T15:41:51Z","2020-07-16T15:41:44Z","2020-07-16T15:41:32Z","2020-07-16T15:41:26Z","2020-07-16T15:41:13Z","2020-07-16T15:41:07Z","2020-07-16T15:41:01Z","2020-07-16T15:40:55Z","2020-07-16T15:40:49Z","2020-07-16T15:40:43Z","2020-07-16T15:40:30Z","2020-07-16T15:40:23Z","2020-07-16T15:40:17Z","2020-07-16T15:40:09Z","2020-07-16T15:40:03Z","2020-07-16T15:39:57Z","2020-07-16T15:39:50Z","2020-07-16T15:39:43Z","2020-07-16T15:39:37Z","2020-07-16T15:39:30Z","2020-07-16T15:39:23Z","2020-07-16T15:39:15Z","2020-07-16T15:39:09Z","2020-07-16T15:39:02Z","2020-07-16T15:38:55Z","2020-07-16T15:38:45Z","2020-07-16T15:38:35Z","2020-07-16T15:38:25Z","2020-07-16T15:38:15Z","2020-07-16T15:38:08Z","2020-07-16T15:37:59Z","2020-07-16T15:37:51Z","2020-07-16T15:37:43Z","2020-07-16T15:37:35Z","2020-07-16T15:37:28Z","2020-07-16T15:37:21Z","2020-07-16T15:37:14Z","2020-07-16T15:37:08Z","2020-07-16T15:37:01Z","2020-07-16T15:36:54Z","2020-07-16T15:36:47Z","2020-07-16T15:36:39Z","2020-07-16T15:36:30Z","2020-07-16T15:36:22Z","2020-07-16T15:36:15Z","2020-07-16T15:36:08Z","2020-07-16T15:36:01Z","2020-07-16T15:35:54Z","2020-07-16T15:35:47Z","2020-07-16T15:35:41Z","2020-07-16T15:35:35Z","2020-07-16T15:35:28Z","2020-07-16T15:35:21Z","2020-07-16T15:35:15Z","2020-07-16T15:35:08Z","2020-07-16T15:35:01Z","2020-07-16T15:34:54Z","2020-07-16T15:34:48Z","2020-07-16T15:34:41Z","2020-07-16T15:34:34Z","2020-07-16T15:34:27Z","2020-07-16T15:34:21Z","2020-07-16T15:34:14Z","2020-07-16T15:34:06Z","2020-07-16T15:33:59Z","2020-07-16T15:33:52Z","2020-07-16T15:33:43Z","2020-07-16T15:33:34Z","2020-07-16T15:33:22Z","2020-07-16T15:33:15Z","2020-07-16T15:33:08Z","2020-07-16T15:33:01Z","2020-07-16T15:32:54Z","2020-07-16T15:32:46Z","2020-07-16T15:32:39Z","2020-07-16T15:32:31Z","2020-07-16T15:32:22Z","2020-07-16T15:32:10Z","2020-07-16T15:31:53Z","2020-07-16T15:31:41Z","2020-07-16T15:31:29Z","2020-07-16T15:31:20Z","2020-07-16T15:31:08Z","2020-07-16T15:30:23Z","2020-07-16T15:30:10Z","2020-07-16T15:29:59Z","2020-07-16T15:29:52Z","2020-07-16T15:29:43Z","2020-07-16T15:29:32Z","2020-07-16T15:29:23Z","2020-07-16T15:29:15Z","2020-07-16T15:29:09Z","2020-07-16T15:29:03Z","2020-07-16T15:28:57Z","2020-07-16T15:28:50Z","2020-07-16T15:28:44Z","2020-07-16T15:28:38Z","2020-07-16T15:28:31Z","2020-07-16T15:28:24Z","2020-07-16T15:28:11Z","2020-07-16T15:28:03Z","2020-07-16T15:27:56Z","2020-07-16T15:27:49Z","2020-07-16T15:27:41Z","2020-07-16T15:27:34Z","2020-07-16T15:27:28Z","2020-07-16T15:27:21Z","2020-07-16T15:27:15Z","2020-07-16T15:27:07Z","2020-07-16T15:26:58Z","2020-07-16T15:25:58Z","2020-07-16T15:24:19Z","2020-07-16T15:23:23Z","2020-07-16T15:22:38Z","2020-07-16T15:22:31Z","2020-07-16T15:22:24Z","2020-07-16T15:22:17Z","2020-07-16T15:22:11Z","2020-07-16T15:22:05Z","2020-07-16T15:21:20Z","2020-07-16T15:20:51Z","2020-07-16T15:20:44Z","2020-07-16T15:20:37Z","2020-07-16T15:20:27Z","2020-07-16T15:20:12Z","2020-07-16T15:19:51Z","2020-07-16T15:19:41Z","2020-07-16T15:19:33Z","2020-07-16T15:19:23Z","2020-07-16T15:19:14Z","2020-07-16T15:19:04Z","2020-07-16T15:18:56Z","2020-07-16T15:18:44Z","2020-07-16T15:18:35Z","2020-07-16T15:18:23Z","2020-07-16T15:18:07Z","2020-07-16T15:17:56Z","2020-07-16T15:17:48Z","2020-07-16T15:17:38Z","2020-07-16T15:17:08Z","2020-07-16T15:16:54Z","2020-07-16T15:16:39Z","2020-07-16T15:16:25Z","2020-07-16T15:16:11Z","2020-07-16T15:15:54Z","2020-07-16T15:15:39Z","2020-07-16T15:15:10Z","2020-07-16T15:14:58Z","2020-07-16T15:14:47Z","2020-07-16T15:14:37Z","2020-07-16T15:14:25Z","2020-07-16T15:14:13Z","2020-07-16T15:14:04Z","2020-07-16T15:13:56Z","2020-07-16T15:13:47Z","2020-07-16T15:13:35Z","2020-07-16T15:13:23Z","2020-07-16T15:13:11Z","2020-07-16T15:13:01Z","2020-07-16T15:12:52Z","2020-07-16T15:12:43Z","2020-07-16T15:12:36Z","2020-07-16T15:12:29Z","2020-07-16T15:12:22Z","2020-07-16T15:12:16Z","2020-07-16T15:12:10Z","2020-07-16T15:12:04Z","2020-07-16T15:11:57Z","2020-07-16T15:11:34Z","2020-07-16T15:11:28Z","2020-07-16T15:11:21Z","2020-07-16T15:11:13Z","2020-07-16T15:11:06Z","2020-07-16T15:10:59Z","2020-07-16T15:10:50Z","2020-07-16T15:10:43Z","2020-07-16T15:10:36Z","2020-07-16T15:10:28Z","2020-07-16T15:10:19Z","2020-07-16T15:10:02Z","2020-07-16T15:09:55Z","2020-07-16T15:09:42Z","2020-07-16T15:09:32Z","2020-07-16T15:09:23Z","2020-07-16T15:09:15Z","2020-07-16T15:09:07Z","2020-07-16T15:09:00Z","2020-07-16T15:08:52Z","2020-07-16T15:08:45Z","2020-07-16T15:08:38Z","2020-07-16T15:08:28Z","2020-07-16T15:08:19Z","2020-07-16T15:08:10Z","2020-07-16T15:07:55Z","2020-07-16T15:07:45Z","2020-07-16T15:07:35Z","2020-07-16T15:07:25Z","2020-07-16T15:07:16Z","2020-07-16T15:07:08Z","2020-07-16T15:06:58Z","2020-07-16T15:06:42Z","2020-07-16T15:06:34Z","2020-07-16T15:06:28Z","2020-07-16T15:06:21Z","2020-07-16T15:06:15Z","2020-07-16T15:06:09Z","2020-07-16T15:06:02Z","2020-07-16T15:05:56Z","2020-07-16T15:05:48Z","2020-07-16T15:05:42Z","2020-07-16T15:05:37Z","2020-07-16T15:05:31Z","2020-07-16T15:05:25Z","2020-07-16T15:05:18Z","2020-07-16T15:05:11Z","2020-07-16T15:04:51Z","2020-07-16T15:04:45Z","2020-07-16T15:04:39Z","2020-07-16T15:04:33Z","2020-07-16T15:04:27Z","2020-07-16T15:04:21Z","2020-07-16T15:04:06Z","2020-07-16T15:04:00Z","2020-07-16T15:03:49Z","2020-07-16T15:02:45Z","2020-07-16T15:02:37Z","2020-07-16T15:02:30Z","2020-07-16T15:02:24Z","2020-07-16T15:02:16Z","2020-07-16T15:02:08Z","2020-07-16T15:02:00Z","2020-07-16T15:01:52Z","2020-07-16T15:01:44Z","2020-07-16T15:01:36Z","2020-07-16T15:01:27Z","2020-07-16T15:01:19Z","2020-07-16T15:01:11Z","2020-07-16T15:01:03Z","2020-07-16T15:00:56Z","2020-07-16T15:00:49Z","2020-07-16T15:00:42Z","2020-07-16T15:00:35Z","2020-07-16T15:00:28Z","2020-07-16T15:00:21Z","2020-07-16T15:00:14Z","2020-07-16T15:00:08Z","2020-07-16T15:00:02Z","2020-07-16T14:59:56Z","2020-07-16T14:59:50Z","2020-07-16T14:59:44Z","2020-07-16T14:59:37Z","2020-07-16T14:59:31Z","2020-07-16T14:59:25Z","2020-07-16T14:59:19Z","2020-07-16T14:59:13Z","2020-07-16T14:59:06Z","2020-07-16T14:58:59Z","2020-07-16T14:58:54Z","2020-07-16T14:58:49Z","2020-07-16T14:58:43Z","2020-07-16T14:58:37Z","2020-07-16T14:58:31Z","2020-07-16T14:58:25Z","2020-07-16T14:58:19Z","2020-07-16T14:58:13Z","2020-07-16T14:58:07Z","2020-07-16T14:58:01Z","2020-07-16T14:57:55Z","2020-07-16T14:57:49Z","2020-07-16T14:57:43Z","2020-07-16T14:57:37Z","2020-07-16T14:57:31Z","2020-07-16T14:57:25Z","2020-07-16T14:57:19Z","2020-07-16T14:57:13Z","2020-07-16T14:56:57Z","2020-07-16T14:56:51Z","2020-07-16T14:56:45Z","2020-07-16T14:56:36Z","2020-07-16T14:56:30Z","2020-07-16T14:56:24Z","2020-07-16T14:56:17Z","2020-07-16T14:56:11Z","2020-07-16T14:56:05Z","2020-07-16T14:55:58Z","2020-07-16T14:55:52Z","2020-07-16T14:55:45Z","2020-07-16T14:55:38Z","2020-07-16T14:55:31Z","2020-07-16T14:55:24Z","2020-07-16T14:55:17Z","2020-07-16T14:55:10Z","2020-07-16T14:55:03Z","2020-07-16T14:54:56Z","2020-07-16T14:54:49Z","2020-07-16T14:54:42Z","2020-07-16T14:54:36Z","2020-07-16T14:54:29Z","2020-07-16T14:54:22Z","2020-07-16T14:54:15Z","2020-07-16T14:54:08Z","2020-07-16T14:54:00Z","2020-07-16T14:53:52Z","2020-07-16T14:53:44Z","2020-07-16T14:53:36Z","2020-07-16T14:53:28Z","2020-07-16T14:53:20Z","2020-07-16T14:53:12Z","2020-07-16T14:53:04Z","2020-07-16T14:52:56Z","2020-07-16T14:52:36Z","2020-07-16T14:52:28Z","2020-07-16T14:52:20Z","2020-07-16T14:52:12Z","2020-07-16T14:52:04Z","2020-07-16T14:51:56Z","2020-07-16T14:51:47Z","2020-07-16T14:51:39Z","2020-07-16T14:51:31Z","2020-07-16T14:51:24Z","2020-07-16T14:51:17Z","2020-07-16T14:51:10Z","2020-07-16T14:51:03Z","2020-07-16T14:50:56Z","2020-07-16T14:49:13Z","2020-07-16T14:48:57Z","2020-07-16T14:48:51Z","2020-07-16T14:48:45Z","2020-07-16T14:48:39Z","2020-07-16T14:48:33Z","2020-07-16T14:48:27Z","2020-07-16T14:48:21Z","2020-07-16T14:48:14Z","2020-07-16T14:48:08Z","2020-07-16T14:48:02Z","2020-07-16T14:47:56Z","2020-07-16T14:47:50Z","2020-07-16T14:47:44Z","2020-07-16T14:47:38Z","2020-07-16T14:47:32Z","2020-07-16T14:47:25Z","2020-07-16T14:47:18Z","2020-07-16T14:47:11Z","2020-07-16T14:47:04Z","2020-07-16T14:46:57Z","2020-07-16T14:46:51Z","2020-07-16T14:46:45Z","2020-07-16T14:46:39Z","2020-07-16T14:46:32Z","2020-07-16T14:46:25Z","2020-07-16T14:46:19Z","2020-07-16T14:46:13Z","2020-07-16T14:46:07Z","2020-07-16T14:46:01Z","2020-07-16T14:45:54Z","2020-07-16T14:45:48Z","2020-07-16T14:45:42Z","2020-07-16T14:45:36Z","2020-07-16T14:45:30Z","2020-07-16T14:45:23Z","2020-07-16T14:45:17Z","2020-07-16T14:45:11Z","2020-07-16T14:45:04Z","2020-07-16T14:44:57Z","2020-07-16T14:44:51Z","2020-07-16T14:44:45Z","2020-07-16T14:44:39Z","2020-07-16T14:44:32Z","2020-07-16T14:44:26Z","2020-07-16T14:44:19Z","2020-07-16T14:43:56Z","2020-07-16T14:43:49Z","2020-07-16T14:43:43Z","2020-07-16T14:43:36Z","2020-07-16T14:43:30Z","2020-07-16T14:43:24Z","2020-07-16T14:43:18Z","2020-07-16T14:43:12Z","2020-07-16T14:43:06Z","2020-07-16T14:43:00Z","2020-07-16T14:42:54Z","2020-07-16T14:42:48Z","2020-07-16T14:42:42Z","2020-07-16T14:42:35Z","2020-07-16T14:42:21Z","2020-07-16T14:42:13Z","2020-07-16T14:42:05Z","2020-07-16T14:41:56Z","2020-07-16T14:41:47Z","2020-07-16T14:41:39Z","2020-07-16T14:41:30Z","2020-07-16T14:41:22Z","2020-07-16T14:41:14Z","2020-07-16T14:41:08Z","2020-07-16T14:40:59Z","2020-07-16T14:40:51Z","2020-07-16T14:40:44Z","2020-07-16T14:40:37Z","2020-07-16T14:40:30Z","2020-07-16T14:40:23Z","2020-07-16T14:40:16Z","2020-07-16T14:39:54Z","2020-07-16T14:39:47Z","2020-07-16T14:39:40Z","2020-07-16T14:39:33Z","2020-07-16T14:39:26Z","2020-07-16T14:39:19Z","2020-07-16T14:39:12Z","2020-07-16T14:39:05Z","2020-07-16T14:38:58Z","2020-07-16T14:38:37Z","2020-07-16T14:36:10Z","2020-07-16T14:34:34Z","2020-07-16T14:34:26Z","2020-07-16T14:34:19Z","2020-07-16T14:34:12Z","2020-07-16T14:34:05Z","2020-07-16T14:33:57Z","2020-07-16T14:33:50Z","2020-07-16T14:33:43Z","2020-07-16T14:33:36Z","2020-07-16T14:33:30Z","2020-07-16T14:33:24Z","2020-07-16T14:33:18Z","2020-07-16T14:33:12Z","2020-07-16T14:33:05Z","2020-07-16T14:32:59Z","2020-07-16T14:32:53Z","2020-07-16T14:32:47Z","2020-07-16T14:32:40Z","2020-07-16T14:32:33Z","2020-07-16T14:32:27Z","2020-07-16T14:32:20Z","2020-07-16T14:32:14Z","2020-07-16T14:32:09Z","2020-07-16T14:32:03Z","2020-07-16T14:31:57Z","2020-07-16T14:31:50Z","2020-07-16T14:31:44Z","2020-07-16T14:31:38Z","2020-07-16T14:31:32Z","2020-07-16T14:31:26Z","2020-07-16T14:31:20Z","2020-07-16T14:31:14Z","2020-07-16T14:31:08Z","2020-07-16T14:31:01Z","2020-07-16T14:30:55Z","2020-07-16T14:30:49Z","2020-07-16T14:30:43Z","2020-07-16T14:30:36Z","2020-07-16T14:30:31Z","2020-07-16T14:30:25Z","2020-07-16T14:30:19Z","2020-07-16T14:30:13Z","2020-07-16T14:30:07Z","2020-07-16T14:30:01Z","2020-07-16T14:29:54Z","2020-07-16T14:29:47Z","2020-07-16T14:29:39Z","2020-07-16T14:29:32Z","2020-07-16T14:29:25Z","2020-07-16T14:29:18Z","2020-07-16T14:29:11Z","2020-07-16T14:29:05Z","2020-07-16T14:28:59Z","2020-07-16T14:28:53Z","2020-07-16T14:28:47Z","2020-07-16T14:28:41Z","2020-07-16T14:28:35Z","2020-07-16T14:28:28Z","2020-07-16T14:27:45Z","2020-07-16T14:27:39Z","2020-07-16T14:27:32Z","2020-07-16T14:27:26Z","2020-07-16T14:27:20Z","2020-07-16T14:27:14Z","2020-07-16T14:27:08Z","2020-07-16T14:27:02Z","2020-07-16T14:26:55Z","2020-07-16T14:26:48Z","2020-07-16T14:26:42Z","2020-07-16T14:26:35Z","2020-07-16T14:26:28Z","2020-07-16T14:26:21Z","2020-07-16T14:26:15Z","2020-07-16T14:26:09Z","2020-07-16T14:26:03Z","2020-07-16T14:25:56Z","2020-07-16T14:25:49Z","2020-07-16T14:25:43Z","2020-07-16T14:25:36Z","2020-07-16T14:25:29Z","2020-07-16T14:25:03Z","2020-07-16T14:24:57Z","2020-07-16T14:24:50Z","2020-07-16T14:24:42Z","2020-07-16T14:24:33Z","2020-07-16T14:24:25Z","2020-07-16T14:24:18Z","2020-07-16T14:24:12Z","2020-07-16T14:24:05Z","2020-07-16T14:23:59Z","2020-07-16T14:23:53Z","2020-07-16T14:23:47Z","2020-07-16T14:23:41Z","2020-07-16T14:23:34Z","2020-07-16T14:23:28Z","2020-07-16T14:23:21Z","2020-07-16T14:23:15Z","2020-07-16T14:23:08Z","2020-07-16T14:23:01Z","2020-07-16T14:22:49Z","2020-07-16T14:22:43Z","2020-07-16T14:22:37Z","2020-07-16T14:22:31Z","2020-07-16T14:22:24Z","2020-07-16T14:22:16Z","2020-07-16T14:22:09Z","2020-07-16T14:22:02Z","2020-07-16T14:21:56Z","2020-07-16T14:21:50Z","2020-07-16T14:21:43Z","2020-07-16T14:21:36Z","2020-07-16T14:21:28Z","2020-07-16T14:21:22Z","2020-07-16T14:21:15Z","2020-07-16T14:21:08Z","2020-07-16T14:21:00Z","2020-07-16T14:20:53Z","2020-07-16T14:20:46Z","2020-07-16T14:20:39Z","2020-07-16T14:20:33Z","2020-07-16T14:20:25Z","2020-07-16T14:20:18Z","2020-07-16T14:20:10Z","2020-07-16T14:19:56Z","2020-07-16T14:19:45Z","2020-07-16T14:19:35Z","2020-07-16T14:19:19Z","2020-07-16T14:19:11Z","2020-07-16T14:19:03Z","2020-07-16T14:18:55Z","2020-07-16T14:18:48Z","2020-07-16T14:18:41Z","2020-07-16T14:18:35Z","2020-07-16T14:18:29Z","2020-07-16T14:18:19Z","2020-07-16T14:18:09Z","2020-07-16T14:17:50Z","2020-07-16T14:17:43Z","2020-07-16T14:17:36Z","2020-07-16T14:17:29Z","2020-07-16T14:17:22Z","2020-07-16T14:17:15Z","2020-07-16T14:17:08Z","2020-07-16T14:16:55Z","2020-07-16T14:16:47Z","2020-07-16T14:16:41Z","2020-07-16T14:16:35Z","2020-07-16T14:16:29Z","2020-07-16T14:16:22Z","2020-07-16T14:16:16Z","2020-07-16T14:16:09Z","2020-07-16T14:16:02Z","2020-07-16T14:15:55Z","2020-07-16T14:15:49Z","2020-07-16T14:15:42Z","2020-07-16T14:14:10Z"]}},"geometry":{"type":"LineString","coordinates":[[-6.58662817440927,62.225831765681505,-8.48],[-6.586489202454686,62.225827826187015,-8.52],[-6.58628711476922,62.22579572349787,-9.63],[-6.586062228307128,62.22577736712992,-10.24],[-6.585874892771244,62.225740570575,-10.46],[-6.585668278858066,62.22569857724011,-10.38],[-6.585464011877775,62.22566873766482,-10.21],[-6.585264271125197,62.22564434632659,-10.52],[-6.585094202309847,62.22560126334429,-10.32],[-6.584911728277803,62.22553487867117,-9.06],[-6.584778875112534,62.22542708739638,-9.41],[-6.584674855694175,62.22528266720474,-9.68],[-6.584601597860456,62.22515635192394,-9.37],[-6.584485676139593,62.22504872828722,-8.55],[-6.584452735260129,62.22494211047888,-8.17],[-6.584365060552955,62.224883772432804,-7.95],[-6.584008662030101,62.224858878180385,-7.75],[-6.583821913227439,62.22481286153197,-8.39],[-6.583617813885212,62.22475175745785,-7.87],[-6.583493426442146,62.22465042024851,-7.62],[-6.583327297121286,62.22458051517606,-7.32],[-6.5831349324435,62.22452578134835,-4.72],[-6.582907531410456,62.224488481879234,-4.12],[-6.582768056541681,62.22441405057907,-3.83],[-6.58262288197875,62.22434054128826,-2.82],[-6.582452645525336,62.224282287061214,-1.48],[-6.582341752946377,62.224171394482255,-0.63],[-6.582175539806485,62.22411456517875,0.25],[-6.582041764631867,62.22403979860246,0.98],[-6.58191385678947,62.22395388409495,1.43],[-6.581767257303,62.22387509420514,2.16],[-6.581646725535393,62.22380619496107,2.76],[-6.581482356414199,62.223708629608154,3.04],[-6.581317484378815,62.22365423105657,3.77],[-6.581145823001862,62.22358725965023,3.71],[-6.580926803871989,62.223519030958414,4.29],[-6.580779617652297,62.223444348201156,5.27],[-6.580640058964491,62.22337083891034,5.92],[-6.580479042604566,62.223304621875286,6.44],[-6.580327413976193,62.22323362715542,7.05],[-6.580169415101409,62.223157435655594,7.04],[-6.579987863078713,62.22310295328498,7.2],[-6.579833719879389,62.22302910871804,7.72],[-6.579685192555189,62.22297982312739,8.2],[-6.579465083777905,62.22295803017914,7.43],[-6.579297445714474,62.22291151061654,7.51],[-6.579039786010981,62.22289399243891,6.49],[-6.578868124634028,62.22283967770636,7.12],[-6.578681040555239,62.222778322175145,7],[-6.578480713069439,62.22273347899318,7.66],[-6.578214587643743,62.22274345345795,7.25],[-6.578008392825723,62.2227203194052,7.07],[-6.577784679830074,62.22270037047565,6.61],[-6.577592818066478,62.222658628597856,5.89],[-6.577371619641781,62.222599955275655,5.77],[-6.577175902202725,62.222553100436926,6.14],[-6.576973143965006,62.22246039658785,5.93],[-6.576803075149655,62.22241538576782,6.33],[-6.576546505093575,62.22237288951874,6.9],[-6.576366042718291,62.222315557301044,7.5],[-6.57636352814734,62.222231067717075,6.79],[-6.576558658853173,62.2221933491528,6.69],[-6.576752029359341,62.22214875742793,6.7],[-6.576943388208747,62.222104920074344,6.91],[-6.577127957716584,62.22206166945398,7.63],[-6.57732468098402,62.22200978547335,8.8],[-6.577527187764645,62.22196728922427,10.83],[-6.577724749222398,62.22192822955549,11.18],[-6.57789976336062,62.2218878287822,12.72],[-6.578102353960276,62.22184524871409,13.73],[-6.578304776921868,62.22179998643696,14.33],[-6.57853402197361,62.221758496016264,15.83],[-6.578731080517173,62.22171616740525,16.74],[-6.578932665288448,62.22167995758355,17.25],[-6.579125029966235,62.22163503058255,17.88],[-6.579323848709464,62.22159856930375,18.67],[-6.579512022435665,62.221572417765856,18.94],[-6.579713774845004,62.22154676914215,20.07],[-6.579937571659684,62.22154676914215,21.3],[-6.580140413716435,62.22156001254916,21.43],[-6.58034392632544,62.22157903946936,21.91],[-6.58054324798286,62.221598736941814,22.44],[-6.580770062282682,62.22163033671677,23.22],[-6.581016071140766,62.22165229730308,23.99],[-6.581203741952777,62.221687166020274,24.98],[-6.581408176571131,62.221704348921776,23.99],[-6.581610180437565,62.22173670306802,25.58],[-6.581806400790811,62.22175422124565,26.58],[-6.58202332444489,62.22176721319556,26.27],[-6.582238487899303,62.22179579548538,26.85],[-6.582447029650211,62.221824545413256,27.67],[-6.582655236124992,62.221862096339464,29.27],[-6.582867885008454,62.221885146573186,30.13],[-6.583061004057527,62.22192529588938,31.21],[-6.583263091742992,62.22194457426667,31.43],[-6.583474231883884,62.22195723094046,31.98],[-6.583703309297562,62.22199251875281,32.19],[-6.583898607641459,62.2220207657665,32.64],[-6.584113519638777,62.222058568149805,33.44],[-6.584317032247782,62.222080109640956,33.79],[-6.584524651989341,62.22212126478553,34.32],[-6.584711903706193,62.2221605759114,33.58],[-6.584905693307519,62.2221986297518,34.27],[-6.585109205916524,62.22223341464996,34.3],[-6.585291679948568,62.22227490507066,34.35],[-6.585465352982283,62.22230155952275,34.62],[-6.585632907226682,62.22224313765764,34.42],[-6.585785960778594,62.22217574715614,34.93],[-6.585788307711482,62.22207918763161,35.66],[-6.585680264979601,62.22202068194747,36.85],[-6.585520254448056,62.22195630893111,37.85],[-6.585338450968266,62.221902748569846,38.92],[-6.585133681073785,62.22184566780925,39.76],[-6.584943160414696,62.22181348130107,40.17],[-6.584749119356275,62.22178674302995,40.57],[-6.584568992257118,62.22172932699323,41.01],[-6.584382243454456,62.221659421920776,41.36],[-6.584120225161314,62.221644166857004,40.98],[-6.58394898287952,62.221583146601915,41.15],[-6.583780841901898,62.22153302282095,41],[-6.583591159433126,62.22149069420993,40.39],[-6.583408433943987,62.221439983695745,40.36],[-6.58321657218039,62.221395475789905,40.28],[-6.583046251907945,62.22134007140994,40.43],[-6.582901664078236,62.22127930261195,40.61],[-6.582731930539012,62.221229849383235,41.03],[-6.582539062947035,62.221182910725474,40.76],[-6.58237217925489,62.221123315393925,40.82],[-6.582206804305315,62.22107260487974,40.7],[-6.582051822915673,62.22099658101797,41.07],[-6.581858536228538,62.22093891352415,41.83],[-6.581700202077627,62.22087160684168,42.37],[-6.581581765785813,62.22080145031214,42.64],[-6.581411110237241,62.22074084915221,43.25],[-6.581230396404862,62.22070924937725,43.62],[-6.581041133031249,62.22065904177725,44.43],[-6.580895204097033,62.22059634514153,45.67],[-6.580757824704051,62.2205357439816,46.53],[-6.580612985417247,62.22046064212918,46.81],[-6.580402264371514,62.220420157536864,45.54],[-6.580234123393893,62.22036148421466,45.29],[-6.580060282722116,62.220299541950226,44.41],[-6.579908654093742,62.22023265436292,44.06],[-6.579727521166205,62.220178339630365,44.57],[-6.579542951658368,62.22011120058596,44],[-6.579365925863385,62.22005286253989,44.36],[-6.57920490950346,62.21999251283705,45.92],[-6.579056465998292,62.219922775402665,47.74],[-6.578874830156565,62.21986158750951,48.96],[-6.578719345852733,62.219793274998665,50.09],[-6.578552545979619,62.21971666440368,56.33],[-6.578423464670777,62.21964742988348,56.79],[-6.578276865184307,62.21958096139133,58.61],[-6.578121380880475,62.21951608546078,59.23],[-6.577996741980314,62.21942950040102,62.43],[-6.577878138050437,62.21934903413057,61.37],[-6.577833378687501,62.21926253288984,62.94],[-6.577963046729565,62.21917921677232,63.93],[-6.57811526209116,62.21911031752825,64.48],[-6.578315421938896,62.219090200960636,65.8],[-6.578522119671106,62.21909271553159,67.32],[-6.578707275912166,62.219118028879166,68.48],[-6.578919840976596,62.21913588233292,69.92],[-6.579128885641694,62.219156585633755,70.82],[-6.579344887286425,62.219184916466475,71.4],[-6.579560302197933,62.21919832751155,72.73],[-6.57977856695652,62.219213750213385,74.02],[-6.580003704875708,62.21921366639435,75.11],[-6.580220460891724,62.219209894537926,76.28],[-6.580423386767507,62.21919598057866,76.97],[-6.580625977367163,62.21918516792357,78.59],[-6.580821527168155,62.21917200833559,80],[-6.581001067534089,62.219124315306544,81.78],[-6.581164514645934,62.21907947212458,83.77],[-6.581302983686328,62.219019792973995,85.12],[-6.581432987004519,62.21895642578602,86.98],[-6.581556452438235,62.21888333559036,89.54],[-6.581699699163437,62.21882550045848,90.69],[-6.581853590905666,62.21876163035631,91.83],[-6.582006057724357,62.21870647743344,93.87],[-6.582174031063914,62.21867496147752,95.88],[-6.582341333851218,62.21871117129922,96.7],[-6.58254417590797,62.21875844523311,97.46],[-6.582744168117642,62.21879708580673,97.89],[-6.582972910255194,62.21883145160973,98.56],[-6.583200059831142,62.21886950545013,98.83],[-6.583415977656841,62.21891116350889,98.81],[-6.583612617105246,62.218947038054466,99.01],[-6.583799030631781,62.21898794174194,99.66],[-6.583997346460819,62.219028091058135,100.44],[-6.584175294265151,62.219071509316564,100.55],[-6.584366234019399,62.21910738386214,100.68],[-6.584563460201025,62.21914988011122,101.63],[-6.584767224267125,62.21919799223542,102.11],[-6.584976771846414,62.219238728284836,102.07],[-6.585167795419693,62.21928030252457,102.51],[-6.58537826500833,62.219309555366635,102.9],[-6.58557222224772,62.2193440888077,102.85],[-6.58575939014554,62.21938096918166,103.91],[-6.585957957431674,62.219415586441755,104.48],[-6.586131043732166,62.21945816650987,104.74],[-6.586327264085412,62.219501081854105,105.36],[-6.586512755602598,62.219543159008026,106.1],[-6.586707634851337,62.2195737529546,107.2],[-6.586873680353165,62.2196258045733,107.3],[-6.587055819109082,62.219663271680474,107.73],[-6.587270563468337,62.21970518119633,108.59],[-6.587472818791866,62.21974256448448,109.15],[-6.587666273117065,62.21977651119232,109.49],[-6.587863247841597,62.219819175079465,109.68],[-6.588068353012204,62.21986326389015,109.92],[-6.588271781802177,62.219907185062766,110.22],[-6.588469510897994,62.21995580010116,110.46],[-6.58866916783154,62.219999050721526,111.25],[-6.588873686268926,62.22002947703004,111.19],[-6.58907862380147,62.22005462273955,111.63],[-6.589276604354382,62.22008320502937,112.36],[-6.589497635141015,62.220118241384625,113.13],[-6.58971531316638,62.22016450949013,113.3],[-6.589939696714282,62.22021228633821,113.85],[-6.590116219595075,62.22025578841567,114.25],[-6.590314200147986,62.22029057331383,114.96],[-6.590516958385706,62.22031722776592,115.78],[-6.590683255344629,62.220368357375264,117.45],[-6.590896658599377,62.22041211090982,118.74],[-6.591084413230419,62.220450919121504,118.45],[-6.591264791786671,62.220489056780934,119.02],[-6.591451792046428,62.22052149474621,119.75],[-6.59163267351687,62.22056399099529,120.39],[-6.591848339885473,62.22061486914754,122.45],[-6.592024862766266,62.22065744921565,122.15],[-6.592215551063418,62.220703130587935,123.09],[-6.592418812215328,62.220737747848034,124.66],[-6.592609751969576,62.220778902992606,125.12],[-6.592799769714475,62.22081142477691,125.38],[-6.593038318678737,62.22084570676088,126.4],[-6.59324124455452,62.2208742890507,127.72],[-6.593453390523791,62.22091888077557,128.62],[-6.59368590451777,62.220955258235335,129.82],[-6.593871815130115,62.22099314443767,130.53],[-6.594051104038954,62.22103530541062,131.65],[-6.594235841184855,62.22107905894518,133.25],[-6.594440275803208,62.22113421186805,134.47],[-6.594633478671312,62.221182994544506,136.85],[-6.5948068164289,62.22121115773916,137.9],[-6.594990463927388,62.221255246549845,139.72],[-6.59518207423389,62.221287935972214,141.92],[-6.595362117514014,62.221323642879725,143.31],[-6.59553830511868,62.22136169672012,145.34],[-6.595713654533029,62.22139782272279,146.63],[-6.595899313688278,62.22143051214516,148.52],[-6.596069633960724,62.22146906889975,150.59],[-6.5962521918118,62.221507458016276,151.38],[-6.596427373588085,62.22153109498322,152.08],[-6.596595011651516,62.22157686017454,154.54],[-6.59678335301578,62.22162237390876,155.72],[-6.596966413781047,62.22165179438889,157.84],[-6.597134387120605,62.22169999033213,159.96],[-6.597318202257156,62.22173469141126,162.53],[-6.597496317699552,62.2217723261565,164.39],[-6.597668481990695,62.22180769778788,166.2],[-6.597837880253792,62.22186813130975,168.01],[-6.598004177212715,62.22191280685365,169.28],[-6.598157482221723,62.221968630328774,170.47],[-6.598323192447424,62.222020933404565,171.3],[-6.598488735035062,62.222077092155814,172.56],[-6.598639022558928,62.22214004024863,174.07],[-6.598827447742224,62.22219116985798,174.89],[-6.598975891247392,62.222246658056974,175.65],[-6.599139422178268,62.22229518927634,176.19],[-6.599295744672418,62.222364507615566,176.63],[-6.599458437412977,62.22243298776448,179.11],[-6.599633116275072,62.22249308601022,181.98],[-6.599818775430322,62.22255687229335,181.79],[-6.599983479827642,62.222619988024235,184.48],[-6.600150195881724,62.222690312191844,186.32],[-6.600345578044653,62.22275694832206,186.72],[-6.600501397624612,62.22282400354743,186.65],[-6.600682195276022,62.22289147786796,186.51],[-6.60084874369204,62.22296272404492,187.81],[-6.600999534130096,62.22302868962288,188.33],[-6.601146887987852,62.22309599630535,188.87],[-6.601290972903371,62.22316497936845,188.96],[-6.601417707279325,62.223248379305005,189.99],[-6.601556846871972,62.223323648795485,191.65],[-6.601677965372801,62.22339673899114,191.81],[-6.601798748597503,62.22347175702453,192.35],[-6.601927997544408,62.2235491219908,192.33],[-6.602056324481964,62.22362187691033,192.89],[-6.602176269516349,62.223692536354065,192.21],[-6.602319097146392,62.22376445308328,193.18],[-6.602469468489289,62.22384483553469,192.89],[-6.602600729092956,62.22394147887826,192.55],[-6.60271774046123,62.22402152605355,193.3],[-6.602820754051209,62.22410316579044,193.48],[-6.602978501468897,62.224179692566395,192.24],[-6.60312719643116,62.22426141612232,193.51],[-6.603304222226143,62.22433811053634,194.05],[-6.603432632982731,62.22441539168358,194.54],[-6.603559367358685,62.224504575133324,195.28],[-6.603697249665856,62.22458101809025,197.22],[-6.603822810575366,62.22467053681612,196.36],[-6.603971924632788,62.22474463284016,197.27],[-6.60412690602243,62.22482048906386,200.24],[-6.604255735874176,62.22490858286619,199.44],[-6.604363610967994,62.224997598677874,201.55],[-6.604484142735601,62.22508192062378,202.47],[-6.604610122740269,62.22514755092561,202.41],[-6.60474942997098,62.225216031074524,203.94],[-6.604896783828735,62.22527923062444,204.19],[-6.605074647814035,62.2253380715847,204.03],[-6.605258379131556,62.2253935597837,204.18],[-6.605439260601997,62.22545927390456,203.77],[-6.605608072131872,62.225522473454475,204.94],[-6.605784008279443,62.225583996623755,207.49],[-6.60595977678895,62.22564158029854,210.05],[-6.606135629117489,62.225705701857805,211.29],[-6.606294550001621,62.22576420754194,212.22],[-6.606473755091429,62.22582472488284,215],[-6.606635609641671,62.225883062928915,214.33],[-6.606831578537822,62.225929917767644,216.99],[-6.607038443908095,62.2259892616421,219.43],[-6.607208931818605,62.22604298964143,221.22],[-6.607416048645973,62.22611214034259,222.1],[-6.607598774135113,62.226161509752274,224.43],[-6.607791893184185,62.226213812828064,227.51],[-6.608010409399867,62.226255387067795,228.99],[-6.608208222314715,62.22628413699567,231.29],[-6.608426738530397,62.22630953416228,233.86],[-6.608639219775796,62.22633635625243,235.64],[-6.608828566968441,62.226383965462446,236.09],[-6.608942896127701,62.226467030122876,236.3],[-6.609089411795139,62.226534420624375,236.72],[-6.609275909140706,62.2265728097409,238.79],[-6.609492665156722,62.22657917998731,240.75],[-6.609690897166729,62.226586723700166,242.12],[-6.609888458624482,62.226592507213354,243.27],[-6.61011460237205,62.22661631181836,243.71],[-6.610324401408434,62.22665595822036,244.16],[-6.610529255121946,62.22669719718397,244.68],[-6.610691025853157,62.22675545141101,246.23],[-6.610749531537294,62.22684404812753,247.95],[-6.610711393877864,62.22694622352719,246.52],[-6.610538642853499,62.226978577673435,248.1],[-6.610355582088232,62.2270165476948,249.92],[-6.610300093889237,62.2270942479372,248.76],[-6.610393384471536,62.22717957571149,250.28],[-6.610454823821783,62.22727655433118,249.51],[-6.610567225143313,62.22736238501966,251.23],[-6.61073268391192,62.2274172026664,250.64],[-6.610933598130941,62.22746095620096,251.64],[-6.611138619482517,62.227506721392274,254.7],[-6.611315310001373,62.22756656818092,254.45],[-6.61147590726614,62.22761493176222,251.84],[-6.611526450142264,62.227715430781245,253.19],[-6.611425532028079,62.22779514268041,256.01],[-6.611360404640436,62.227879045531154,253.87],[-6.611302234232426,62.22797107882798,259.92],[-6.6113156452775,62.22807241603732,260.84],[-6.611414635553956,62.22816629335284,265.22],[-6.611476829275489,62.2282584104687,268.18],[-6.61161026917398,62.22834407351911,267.06],[-6.611732225865126,62.22842956893146,271.26],[-6.611768938601017,62.22852478735149,273.99],[-6.611789809539914,62.22861967049539,275.31],[-6.611892068758607,62.2287037409842,279.02],[-6.612024586647749,62.2287780046463,281.01],[-6.612159283831716,62.22885704599321,282.79],[-6.612323988229036,62.2289318125695,281.49],[-6.612475868314505,62.22899157553911,285.1],[-6.612621461972594,62.229068437591195,285.05],[-6.612701090052724,62.22915854305029,285.76],[-6.61278247833252,62.22925149835646,290.84],[-6.612841906026006,62.22934378311038,295.25],[-6.612862776964903,62.22943271510303,298.19],[-6.612919773906469,62.2295153606683,296.32],[-6.613036030903459,62.22959876060486,296.99],[-6.613169806078076,62.22967159934342,299.34],[-6.613184977322817,62.22976488992572,299.3],[-6.613203668966889,62.229864383116364,300.43],[-6.613203501328826,62.22995515912771,302.94],[-6.613289583474398,62.23004400730133,301.29],[-6.613417742773891,62.230111230164766,301.7],[-6.613448085263372,62.23019538447261,299.59],[-6.613530563190579,62.23028473556042,300.81],[-6.613573897629976,62.230375008657575,301.8],[-6.613668613135815,62.230460084974766,303.68],[-6.613728711381555,62.23055597394705,303.55],[-6.613778248429298,62.23064901307225,302.75],[-6.613830970600247,62.230741968378425,304.21],[-6.613918477669358,62.230833331122994,304.5],[-6.614046972244978,62.23090482875705,305.01],[-6.614177227020264,62.23097029142082,304.64],[-6.614265823736787,62.23105117678642,307.83],[-6.614378727972508,62.2311388514936,309.13],[-6.614418206736445,62.23123775795102,310.5],[-6.614453243091703,62.23133356310427,318.24],[-6.614471431821585,62.23143506795168,318.88],[-6.61449464969337,62.231535483151674,320.35],[-6.614532200619578,62.2316309530288,323.9],[-6.614629765972495,62.231721729040146,327.39],[-6.614716434851289,62.23180546425283,329.02],[-6.61477611400187,62.23188844509423,328.3],[-6.614828417077661,62.23198567517102,330.81],[-6.614870829507709,62.2320746909827,333.42],[-6.614908464252949,62.23216362297535,336.06],[-6.614933777600527,62.23225984722376,336.73],[-6.614944841712713,62.232358837500215,339.03],[-6.614998150616884,62.232455061748624,342.51],[-6.615056740120053,62.232550950720906,346.67],[-6.615046681836247,62.23264658823609,351.75],[-6.615166878327727,62.23270467482507,354.11],[-6.615263689309359,62.23278069868684,355.99],[-6.615345496684313,62.23287499509752,359.02],[-6.615364523604512,62.23297515884042,362.7],[-6.615540375933051,62.23302804864943,364],[-6.615690495818853,62.23309367895126,368.71],[-6.615750594064593,62.23317950963974,371.04],[-6.615796023979783,62.23326827399433,372.55],[-6.615863414481282,62.23334815353155,376.37],[-6.615907838568091,62.23342727869749,378.8],[-6.616017892956734,62.2335044760257,381.82],[-6.616112859919667,62.23359097726643,384],[-6.616182764992118,62.233682088553905,384.31],[-6.61625518463552,62.23376724869013,386.27],[-6.61633288487792,62.233852157369256,388.11],[-6.616397341713309,62.23395098000765,389.55],[-6.616461798548698,62.23404234275222,391.6],[-6.616504797711968,62.234132615849376,393.63],[-6.616541845723987,62.2342349588871,395.02],[-6.61657327786088,62.2343385592103,397.33],[-6.616601273417473,62.23443780094385,401],[-6.616648966446519,62.234531259164214,401.58],[-6.616689870133996,62.23463871516287,402.23],[-6.616687020286918,62.23474457859993,403.84],[-6.616698587313294,62.23485413007438,404.65],[-6.616738233715296,62.23494490608573,404.91],[-6.616804031655192,62.2350312396884,405.72],[-6.616830015555024,62.2351348400116,406.7],[-6.616864548996091,62.235225196927786,408.92],[-6.616868237033486,62.23531739786267,410.38],[-6.616904865950346,62.23540825769305,410.77],[-6.616858430206776,62.2363156825304,392.19921875],[-6.617152215912938,62.23708120174706,394.17578125],[-6.617051046341658,62.237011129036546,395.40625],[-6.617051046341658,62.23688179627061,393.88671875],[-6.617012489587069,62.2367578279227,393.27734375],[-6.61694023758173,62.23653947934508,392.5078125],[-6.616983572021127,62.23641282878816,390.0546875],[-6.616819873452187,62.23625642247498,392.6171875],[-6.616815095767379,62.236148631200194,390.64453125],[-6.616805456578732,62.23604888655245,388.86328125],[-6.61677653901279,62.23589524626732,386.19921875],[-6.616762122139335,62.23571201786399,382.7734375],[-6.616737982258201,62.23553415387869,379.7265625],[-6.616752482950687,62.23541554994881,377.1015625],[-6.616952978074551,62.235370287671685,410.19],[-6.616904027760029,62.235374143347144,411.18],[-6.616926658898592,62.2353729698807,410.06],[-6.616912661120296,62.235310692340136,409.92],[-6.616878965869546,62.235227627679706,408.07],[-6.616861028596759,62.23513022996485,406.15],[-6.616828506812453,62.23503677174449,405.21],[-6.616777796298266,62.23494105041027,404.61],[-6.616769079118967,62.234843568876386,405.23],[-6.616892460733652,62.23479738458991,406.26],[-6.616772599518299,62.234702752903104,404.9],[-6.61673060618341,62.234612395986915,403.24],[-6.616698671132326,62.234521536156535,402.75],[-6.616622311994433,62.23442832939327,401.25],[-6.616629604250193,62.23434048704803,397.72],[-6.61661384627223,62.234248872846365,396.8],[-6.616543522104621,62.2341710049659,395.38],[-6.616528937593103,62.23407721146941,393.12],[-6.616491554304957,62.23397830501199,391.13],[-6.616442436352372,62.233890714123845,389.87],[-6.616361467167735,62.233806727454066,388.14],[-6.616291394457221,62.233716202899814,387.2],[-6.616190895438194,62.23363154567778,386.13],[-6.616108501330018,62.23354705609381,384.13],[-6.615992579609156,62.23346885293722,381.73],[-6.615914963185787,62.23338419571519,377.42],[-6.615832569077611,62.23330079577863,374.12],[-6.615733914077282,62.23322167061269,372.6],[-6.615596367046237,62.23314614966512,370.18],[-6.615465609356761,62.233073730021715,366.75],[-6.615375252440572,62.2329848818481,363.22],[-6.61534683778882,62.232889579609036,362.65],[-6.615256061777473,62.23279821686447,358.66],[-6.615174170583487,62.23271288909018,357.71],[-6.615059087052941,62.23265413194895,351.24],[-6.615054477006197,62.23257408477366,348.98],[-6.615008795633912,62.23247450776398,344.85],[-6.61497694440186,62.2323870845139,340.26],[-6.614950457587838,62.23228725604713,339.71],[-6.614895891398192,62.23220561631024,337.83],[-6.614871835336089,62.23211131989956,333.37],[-6.614857837557793,62.23203076981008,330.31],[-6.614803774282336,62.23194267600775,328.88],[-6.61474971100688,62.23184544593096,327.6],[-6.614691121503711,62.23175567574799,325.5],[-6.614646865054965,62.231660122051835,322.94],[-6.614616857841611,62.23157479427755,319.91],[-6.614609649404883,62.23148250952363,317.57],[-6.614570086821914,62.231393828988075,315.2],[-6.61450395360589,62.231315206736326,313.59],[-6.614432539790869,62.23121822811663,311.98],[-6.614384846761823,62.231123093515635,310],[-6.614302871748805,62.231031227856874,308.41],[-6.614235481247306,62.230946738272905,305.89],[-6.61416431888938,62.23085612989962,306.23],[-6.614075638353825,62.2307640966028,305.58],[-6.613999530673027,62.23067332059145,305.41],[-6.613982180133462,62.23057349212468,305.84],[-6.613932140171528,62.23050425760448,305.3],[-6.61387212574482,62.23041884601116,305.66],[-6.61380322650075,62.2303253877908,303.53],[-6.613688142970204,62.23023637197912,302.4],[-6.613549841567874,62.230169735848904,301.42],[-6.613448671996594,62.230079462751746,301.58],[-6.613384718075395,62.22999220713973,302.01],[-6.613343060016632,62.229907885193825,304.63],[-6.613300563767552,62.229814091697335,305.08],[-6.6132134757936,62.22972155548632,300.6],[-6.61307031288743,62.22965659573674,300.84],[-6.612948859110475,62.22957101650536,300.34],[-6.612885994836688,62.229488706216216,298.97],[-6.612847773358226,62.22940052859485,297.47],[-6.61280837841332,62.22931050695479,293.99],[-6.612749453634024,62.22922450862825,290.48],[-6.612679045647383,62.22914052195847,289.28],[-6.612567901611328,62.22905888222158,288.37],[-6.612419290468097,62.22899635322392,286.66],[-6.612277552485466,62.22892904654145,286.12],[-6.612143609672785,62.2288504242897,285.26],[-6.612018216401339,62.228773813694715,284.4],[-6.61188636906445,62.228693682700396,282.38],[-6.611795509234071,62.22860600799322,279.72],[-6.611757036298513,62.228513387963176,279.41],[-6.611686628311873,62.2284291498363,276.06],[-6.61155897192657,62.22835446707904,272.45],[-6.611468698829413,62.22825455479324,274.31],[-6.611365517601371,62.228164449334145,269.81],[-6.611304748803377,62.22807819955051,269.1],[-6.611288152635098,62.22797962836921,270.26],[-6.611379850655794,62.22789639607072,265.33],[-6.611483534798026,62.22782858647406,262.2],[-6.611547907814384,62.22775516100228,258.82],[-6.611478673294187,62.227664636448026,260.61],[-6.611321093514562,62.22761794924736,262.5],[-6.611162591725588,62.227568412199616,261.46],[-6.610982799902558,62.227524407207966,258.98],[-6.610804768279195,62.22747411578894,256.49],[-6.610648529604077,62.227410497143865,258.17],[-6.610511988401413,62.22732684575021,258.53],[-6.610425235703588,62.227241937071085,258.83],[-6.610344182699919,62.22715727984905,261.18],[-6.610361197963357,62.227072874084115,260.45],[-6.610512072220445,62.22700715996325,256.69],[-6.610699407756329,62.22696717828512,253.07],[-6.610788675025106,62.22687665373087,254.65],[-6.610752381384373,62.22680012695491,252.55],[-6.610602093860507,62.226742543280125,251.7],[-6.610420625656843,62.226695101708174,251.37],[-6.610208647325635,62.226664423942566,250.85],[-6.610025586560369,62.226648246869445,249.57],[-6.609818302094936,62.22663483582437,249],[-6.60960104316473,62.22662050276995,248.56],[-6.609400296583772,62.22660541534424,247.61],[-6.609216649085283,62.22658194601536,246.89],[-6.609048591926694,62.22653794102371,243.31],[-6.608904674649239,62.22647046670318,242.71],[-6.608752040192485,62.226414727047086,242.58],[-6.608602842316032,62.22636443562806,241.77],[-6.608422379940748,62.22633233293891,239.42],[-6.608245857059956,62.22630266100168,238.63],[-6.608072435483336,62.22627315670252,236.8],[-6.607867833226919,62.226245580241084,236.72],[-6.607690136879683,62.22619839012623,236.43],[-6.607523923739791,62.226150361821055,233.04],[-6.607359051704407,62.22610183060169,230.58],[-6.607172889634967,62.22605857998133,228.52],[-6.607016650959849,62.226005773991346,228.24],[-6.606837613508105,62.22594643011689,226.85],[-6.606689170002937,62.225898234173656,225.84],[-6.606526477262378,62.225838555023074,224.14],[-6.606363700702786,62.2257783729583,222.06],[-6.606196984648705,62.22571944817901,221.74],[-6.606030017137528,62.225664127618074,220.07],[-6.605893392115831,62.22559883259237,218.35],[-6.605744948610663,62.22554476931691,217.56],[-6.605596924200654,62.225490203127265,217.25],[-6.605441020801663,62.22543622367084,215.95],[-6.605283608660102,62.22538358531892,214.11],[-6.605132399126887,62.225333880633116,213.66],[-6.604979513213038,62.225276213139296,213.3],[-6.604818413034082,62.225210750475526,213.31],[-6.604674076661468,62.225155932828784,213.67],[-6.604531751945615,62.22508502192795,213.08],[-6.604408118873835,62.22501050680876,212.63],[-6.604279791936278,62.22494135610759,213.41],[-6.604145262390375,62.224860386922956,215.16],[-6.604039818048477,62.22477899864316,217.26],[-6.603920962661505,62.224710853770375,214.76],[-6.60378391854465,62.22465016879141,213.79],[-6.603658944368362,62.22457632422447,210.08],[-6.603509495034814,62.224504156038165,205.7],[-6.603391813114286,62.224414721131325,204.91],[-6.603268180042505,62.224335093051195,204.57],[-6.603167178109288,62.22425227984786,203.97],[-6.603046897798777,62.22417206503451,204.03],[-6.602916223928332,62.22409553825855,203.79],[-6.602800469845533,62.22401331178844,204.61],[-6.602664431557059,62.22393644973636,205.76],[-6.602538451552391,62.22386444918811,205.75],[-6.602405933663249,62.223789263516665,205.7],[-6.60226771607995,62.223716424778104,205.25],[-6.602156404405832,62.22364283166826,205.05],[-6.602028664201498,62.22356437705457,204.7],[-6.601894721388817,62.223492208868265,205.02],[-6.601760862395167,62.223412580788136,204.63],[-6.601667990908027,62.22333605401218,204.68],[-6.601531365886331,62.2232710942626,204.09],[-6.601391220465303,62.223200434818864,203.2],[-6.601264150813222,62.22312851808965,202.8],[-6.601121239364147,62.22306163050234,201.94],[-6.600983524695039,62.22299985587597,201.23],[-6.600830554962158,62.222924921661615,200.54],[-6.600676411762834,62.22287471406162,200.03],[-6.600536182522774,62.22281025722623,199.42],[-6.600365694612265,62.222744124010205,199.22],[-6.600222615525127,62.22268419340253,199.41],[-6.600068807601929,62.22262669354677,199.04],[-6.599911646917462,62.22257221117616,198.75],[-6.599748367443681,62.22251873463392,198.8],[-6.599575281143189,62.22247120924294,197],[-6.599428430199623,62.22241681069136,194.63],[-6.599262887611985,62.22236501052976,192.73],[-6.599115701392293,62.22230809740722,190.61],[-6.598968515172601,62.22225436940789,188.53],[-6.598808923736215,62.22219661809504,187.41],[-6.598655870184302,62.22214389592409,185.77],[-6.598493596538901,62.22209754399955,184.46],[-6.598348505795002,62.222042391076684,183.47],[-6.598181622102857,62.22199394367635,182.46],[-6.598020605742931,62.221945747733116,181.01],[-6.59787149168551,62.221891935914755,179.56],[-6.597706871107221,62.22184340469539,178.25],[-6.597532443702221,62.22179931588471,177.73],[-6.597350556403399,62.221757071092725,176.96],[-6.597172608599067,62.2217118088156,174.73],[-6.596992146223784,62.22166805528104,173.24],[-6.596802715212107,62.221635449677706,172.08],[-6.596610601991415,62.22160443663597,169.23],[-6.596447993069887,62.221556743606925,168.34],[-6.596255376935005,62.221518605947495,167.15],[-6.596140628680587,62.22147636115551,165.23],[-6.595975086092949,62.22144233062863,164.47],[-6.595804179087281,62.22141425125301,162.87],[-6.595627823844552,62.22138315439224,161.09],[-6.59545574337244,62.22133822739124,160.24],[-6.595293302088976,62.22129883244634,158.19],[-6.595110995694995,62.22127201035619,156.49],[-6.594914691522718,62.22124141640961,154],[-6.594723835587502,62.22119732759893,152.52],[-6.594532895833254,62.221161955967546,151],[-6.594340950250626,62.22113085910678,149.16],[-6.594154117628932,62.22108660265803,147.71],[-6.593956975266337,62.22104595042765,145.98],[-6.593747679144144,62.22101158462465,144.66],[-6.593668134883046,62.220963053405285,145.72],[-6.593528408557177,62.22090966068208,144.02],[-6.593355992808938,62.22088065929711,143.62],[-6.59318114630878,62.22084411419928,142.3],[-6.592998756095767,62.22081955522299,141.31],[-6.592821730300784,62.220790134742856,140.79],[-6.592645710334182,62.22075761295855,140.22],[-6.592467594891787,62.22071654163301,139.65],[-6.592287383973599,62.22067597322166,138.86],[-6.592104658484459,62.220640601590276,138.58],[-6.591924028471112,62.220600452274084,137.51],[-6.59172747284174,62.220571199432015,136.84],[-6.591526390984654,62.22054496407509,136.33],[-6.591336792334914,62.220509592443705,135.69],[-6.591146271675825,62.22046382725239,135.29],[-6.59095399081707,62.22042124718428,134.46],[-6.590738072991371,62.22038704901934,133.08],[-6.590553503483534,62.22035167738795,132.53],[-6.590349990874529,62.22029937431216,131.47],[-6.590176066383719,62.220258973538876,131.41],[-6.589988227933645,62.220223769545555,130.19],[-6.589790666475892,62.220180770382285,130.07],[-6.589600648730993,62.2201419621706,129.83],[-6.589401997625828,62.220098711550236,128.77],[-6.589200161397457,62.22005881369114,127.23],[-6.588986674323678,62.22002285532653,126.91],[-6.588807553052902,62.219981951639056,127.19],[-6.588615104556084,62.219940377399325,126.28],[-6.588399857282639,62.219904670491815,125.55],[-6.588222160935402,62.219865610823035,124.95],[-6.588016971945763,62.21982688643038,124.92],[-6.587817734107375,62.21979587338865,124.58],[-6.587635930627585,62.219765949994326,124.94],[-6.587452534586191,62.21973326057196,125.24],[-6.58728338778019,62.21969244070351,124.84],[-6.587083395570517,62.21964315511286,124.38],[-6.58689396455884,62.21960920840502,123.81],[-6.586685171350837,62.21956646069884,121.64],[-6.586463553830981,62.21952614374459,119.78],[-6.586278481408954,62.21948674879968,118.83],[-6.586093828082085,62.219454646110535,117.67],[-6.585908671841025,62.219412149861455,117.08],[-6.585722090676427,62.219372503459454,116.88],[-6.585515141487122,62.21932900138199,116.62],[-6.585315065458417,62.21929555758834,116.41],[-6.585106607526541,62.21925750374794,115.93],[-6.584918182343245,62.219223305583,115.97],[-6.584765966981649,62.219183407723904,116.41],[-6.584598999470472,62.21913722343743,115.03],[-6.584388697519898,62.219103779643774,115.43],[-6.584192980080843,62.21907687373459,114.54],[-6.584005896002054,62.21903420984745,115.36],[-6.583823841065168,62.21899691037834,115.11],[-6.583644300699234,62.21895860508084,116.28],[-6.583446403965354,62.218922562897205,116.22],[-6.583261666819453,62.218889789655805,115.9],[-6.583063770085573,62.2188591118902,117.18],[-6.582889258861542,62.218816448003054,118.03],[-6.58271768130362,62.21877420321107,116.46],[-6.582524897530675,62.21873774193227,113.58],[-6.582328928634524,62.218702118843794,111.57],[-6.582127260044217,62.21869541332126,108.77],[-6.581952916458249,62.21873891539872,105.48],[-6.581795588135719,62.21880454570055,104.65],[-6.581639181822538,62.21887587569654,103.84],[-6.581512028351426,62.21893387846649,102.59],[-6.581391496583819,62.21899414435029,100.73],[-6.581250345334411,62.21905994229019,101.02],[-6.581085389479995,62.21911920234561,99.47],[-6.580915655940771,62.21915943548083,97.08],[-6.580713735893369,62.2191989980638,93.25],[-6.580454651266336,62.21921492367983,90.94],[-6.58024619333446,62.219227496534586,89.71],[-6.580043686553836,62.21924090757966,89.39],[-6.579865319654346,62.219254821538925,89.09],[-6.579663315787911,62.21925004385412,88.1],[-6.579468436539173,62.21924593672156,86.92],[-6.579242208972573,62.21922028809786,86.16],[-6.579040456563234,62.21919002942741,84.55],[-6.578833172097802,62.219156585633755,83.03],[-6.578624043613672,62.21913328394294,81.81],[-6.578419441357255,62.21912263892591,81.07],[-6.578221628442407,62.219121968373656,79.68],[-6.578046949580312,62.21915331669152,79.76],[-6.577885765582323,62.219214253127575,79.03],[-6.577767748385668,62.21930067054927,78.32],[-6.577727682888508,62.219373593106866,77.33],[-6.577680995687842,62.21937040798366,76.28],[-6.57780789770186,62.21935238689184,76.97],[-6.577928178012371,62.219419023022056,75.58],[-6.578047201037407,62.21948507241905,74.64],[-6.578176952898502,62.21955003216863,73.37],[-6.57832833006978,62.219629073515534,71.83],[-6.578508038073778,62.219695122912526,70.59],[-6.578645333647728,62.21976259723306,69.41],[-6.5788056794554,62.219832334667444,67.72],[-6.578952698037028,62.21990919671953,66.48],[-6.579105919227004,62.2199675347656,66.12],[-6.579261738806963,62.220017574727535,65.15],[-6.579427365213633,62.22007406875491,64.83],[-6.57958947122097,62.22014640457928,64.27],[-6.579788960516453,62.2201990429312,64.02],[-6.579929776489735,62.22026031464338,63.91],[-6.580112501978874,62.22031773068011,63.82],[-6.580294305458665,62.22038981504738,63.76],[-6.580480299890041,62.22045578062534,63.79],[-6.58066101372242,62.22050925716758,63.68],[-6.580815492197871,62.22056315280497,63.07],[-6.581010622903705,62.22061486914754,62.49],[-6.581158647313714,62.22066532820463,62.32],[-6.581314131617546,62.22071696072817,63.64],[-6.581469951197505,62.22077990882099,62.49],[-6.581627950072289,62.22084009088576,61.84],[-6.581793492659926,62.220899518579245,61.15],[-6.581942522898316,62.220968501642346,60.31],[-6.582113346084952,62.22103572450578,59.51],[-6.58228375017643,62.2210952360183,59.14],[-6.582465386018157,62.221148712560534,58.94],[-6.582629503682256,62.22121434286237,58.37],[-6.582809463143349,62.2212627902627,58.34],[-6.582991266623139,62.221319284290075,58.16],[-6.583188325166702,62.221364211291075,58.34],[-6.583357723429799,62.221413077786565,58.54],[-6.583524271845818,62.22146278247237,58.78],[-6.583724431693554,62.221512235701084,59.37],[-6.58391579054296,62.221557749435306,59.27],[-6.584081668406725,62.221602173522115,59.64],[-6.584289204329252,62.221641736105084,58.86],[-6.584480060264468,62.22169227898121,58.88],[-6.584662031382322,62.22174332477152,58.71],[-6.58484073355794,62.22178112715483,58.49],[-6.585030751302838,62.2218275628984,57.89],[-6.585234347730875,62.22186938859522,57.29],[-6.585436603054404,62.221907023340464,56.42],[-6.585654867812991,62.221961757168174,55.48],[-6.585814375430346,62.22202613018453,54.31],[-6.585877742618322,62.222111374139786,53.86],[-6.585758635774255,62.2221729811281,54.01],[-6.585538191720843,62.22216032445431,54.11],[-6.5853625908494,62.22213048487902,53.82],[-6.585165280848742,62.22209947183728,53.82],[-6.584961349144578,62.22206921316683,54.1],[-6.584754567593336,62.222046833485365,53.96],[-6.58460084348917,62.222070805728436,53.9],[-6.584412921220064,62.22207893617451,53.69],[-6.584171270951629,62.222054209560156,53.08],[-6.583996927365661,62.22203861922026,52.99],[-6.583785954862833,62.222007773816586,52.7],[-6.583584621548653,62.221974581480026,52.34],[-6.583390664309263,62.22195044159889,51.96],[-6.583170974627137,62.2219396289438,51.34],[-6.582975592464209,62.2219208534807,50.82],[-6.582769397646189,62.22189352847636,50.42],[-6.582576865330339,62.22186813130975,49.36],[-6.582362540066242,62.221839632838964,48.43],[-6.582153243944049,62.22180996090174,47.41],[-6.58195928670466,62.221787413582206,46.72],[-6.581733310595155,62.22177199088037,45.84],[-6.581527786329389,62.22174349240959,45.34],[-6.581343049183488,62.22170325927436,44.94],[-6.5811369381845,62.2216822206974,44.53],[-6.580944238230586,62.22165506333113,43.63],[-6.580745335668325,62.221629498526454,42.85],[-6.580512067303062,62.22160971723497,41.92],[-6.5802803914994,62.22160376608372,41.02],[-6.580088194459677,62.22158331423998,40.38],[-6.579866157844663,62.22157409414649,39.04],[-6.579650910571218,62.22157937474549,38.34],[-6.579460054636002,62.2215839009732,37.93],[-6.579255200922489,62.22161206416786,36.99],[-6.579052694141865,62.22164534032345,36.27],[-6.578873489052057,62.22170099616051,35.49],[-6.578655811026692,62.221739301458,34.86],[-6.578478617593646,62.2217757627368,33.85],[-6.578301675617695,62.22181188873947,33.09],[-6.578125404193997,62.221856229007244,32.43],[-6.577941421419382,62.2218965459615,31.08],[-6.577757187187672,62.221933007240295,29.97],[-6.577571947127581,62.221974581480026,29.11],[-6.577380253002048,62.222008695825934,28.74],[-6.577185122296214,62.22204758785665,27.83],[-6.576979765668511,62.222092263400555,26.81],[-6.576772816479206,62.22213844768703,25.97],[-6.576579697430134,62.22219795919955,25.43],[-6.576395127922297,62.222249088808894,25.69],[-6.57627702690661,62.222326789051294,25.6],[-6.576241403818131,62.22245369106531,26.17],[-6.576450364664197,62.22249031998217,26.38],[-6.57664842903614,62.22252267412841,26.43],[-6.576838027685881,62.22256408073008,26.15],[-6.577043384313583,62.2226027213037,26.14],[-6.577280340716243,62.22264463081956,26.35],[-6.577550489455462,62.2226875461638,26.61],[-6.577768586575985,62.222712356597185,27.13],[-6.578008225187659,62.22273347899318,27.46],[-6.578227579593658,62.2227737121284,27.45],[-6.57845146022737,62.22280732356012,27.15],[-6.578676262870431,62.22285334020853,26.96],[-6.57895915210247,62.22290983423591,27.49],[-6.579194013029337,62.222957611083984,27.31],[-6.579438261687756,62.22296968102455,28.26],[-6.579645713791251,62.22301745787263,29.27],[-6.579877724871039,62.22307889722288,28.64],[-6.580004207789898,62.22318182699382,27.96],[-6.580186514183879,62.223261035978794,26.84],[-6.580353733152151,62.22335122525692,26.9],[-6.580513995140791,62.2234315238893,26.77],[-6.58067568205297,62.2235216293484,26.06],[-6.580865196883678,62.22361064516008,24.77],[-6.581048676744103,62.223674515262246,24.89],[-6.581208687275648,62.22376034595072,24.58],[-6.581351347267628,62.223882135003805,25.1],[-6.581490654498339,62.22396528348327,24.65],[-6.581638427451253,62.22406938672066,24.37],[-6.581807071343064,62.22413199953735,24.45],[-6.581995161250234,62.22420936450362,23.96],[-6.582178892567754,62.2242915071547,23.13],[-6.582340160384774,62.22437842749059,22.3],[-6.58250997774303,62.224454283714294,21.79],[-6.582651967182756,62.22454874776304,20.96],[-6.582813151180744,62.224615132436156,20.59],[-6.582963773980737,62.224683444947004,19.77],[-6.583116492256522,62.22478092648089,18.53],[-6.583286812528968,62.22487488761544,17.6],[-6.583436010405421,62.224959544837475,17.44],[-6.583644719794393,62.225004471838474,17.66],[-6.583887375891209,62.22502584569156,16.75],[-6.584073873236775,62.225070521235466,16.79],[-6.584208151325584,62.22515668720007,17.64],[-6.584139000624418,62.22524855285883,17.08],[-6.584069766104221,62.22533882595599,16.48],[-6.58414495177567,62.22542583011091,16.2],[-6.584337148815393,62.225470589473844,16.22],[-6.584518030285835,62.22550914622843,15.48],[-6.584707126021385,62.225549379363656,16.21],[-6.584894126281142,62.22559120506048,15.41],[-6.585116581991315,62.22563403658569,15.32],[-6.585331996902823,62.22565851174295,14.53],[-6.585577167570591,62.225665636360645,14.85],[-6.585829211398959,62.225695475935936,14.98],[-6.586035909131169,62.22574073821306,13.83],[-6.586231794208288,62.225777031853795,14.78],[-6.586423991248012,62.22581927664578,15.14],[-6.586492722854018,62.22588465549052,14.65]]}},{"type":"Feature","properties":{"name":"WP1 01_KL","type":"user","time":"2020-07-16T14:34:36Z","gpxx_WaypointExtension":"SymbolAndName","gpxx_DisplayMode":"SymbolAndName","wptx1_WaypointExtension":"SymbolAndName","wptx1_DisplayMode":"SymbolAndName","ctx_CreationTimeExtension":"2020-07-16T14:34:36Z","ctx_CreationTime":"2020-07-16T14:34:36Z","sym":"Flag, Blue"},"geometry":{"type":"Point","coordinates":[-6.57780303619802,62.21934903413057,76.932777]}},{"type":"Feature","properties":{"name":"WP2 03_KL","type":"user","time":"2020-07-16T14:49:07Z","gpxx_WaypointExtension":"SymbolAndName","gpxx_DisplayMode":"SymbolAndName","wptx1_WaypointExtension":"SymbolAndName","wptx1_DisplayMode":"SymbolAndName","ctx_CreationTimeExtension":"2020-07-16T14:49:07Z","ctx_CreationTime":"2020-07-16T14:49:07Z","sym":"Flag, Blue"},"geometry":{"type":"Point","coordinates":[-6.593653969466686,62.22094997763634,145.769272]}},{"type":"Feature","properties":{"name":"WP3 04_KL","type":"user","time":"2020-07-16T15:03:18Z","gpxx_WaypointExtension":"SymbolAndName","gpxx_DisplayMode":"SymbolAndName","wptx1_WaypointExtension":"SymbolAndName","wptx1_DisplayMode":"SymbolAndName","ctx_CreationTimeExtension":"2020-07-16T15:03:18Z","ctx_CreationTime":"2020-07-16T15:03:18Z","sym":"Flag, Blue"},"geometry":{"type":"Point","coordinates":[-6.609048005193472,62.22653601318598,244.704956]}}]}