{"type":"FeatureCollection","features":[{"type":"Feature","properties":{"_gpxType":"trk","name":"04 Wanderung Slættaratindur CS 001","time":"2020-07-16T17:14:13Z","gpxx_TrackExtension":"Blue","gpxx_DisplayColor":"Blue","coordinateProperties":{"times":["2020-07-16T17:14:13Z","2020-07-16T17:15:04Z","2020-07-16T17:15:15Z","2020-07-16T17:15:25Z","2020-07-16T17:15:32Z","2020-07-16T17:15:40Z","2020-07-16T17:15:49Z","2020-07-16T17:15:57Z","2020-07-16T17:16:06Z","2020-07-16T17:16:16Z","2020-07-16T17:16:34Z","2020-07-16T17:16:46Z","2020-07-16T17:16:58Z","2020-07-16T17:17:10Z","2020-07-16T17:17:23Z","2020-07-16T17:17:39Z","2020-07-16T17:17:51Z","2020-07-16T17:18:03Z","2020-07-16T17:18:15Z","2020-07-16T17:18:30Z","2020-07-16T17:18:43Z","2020-07-16T17:18:58Z","2020-07-16T17:19:17Z","2020-07-16T17:19:29Z","2020-07-16T17:19:45Z","2020-07-16T17:20:19Z","2020-07-16T17:20:29Z","2020-07-16T17:20:39Z","2020-07-16T17:20:49Z","2020-07-16T17:20:59Z","2020-07-16T17:21:10Z","2020-07-16T17:21:25Z","2020-07-16T17:21:38Z","2020-07-16T17:21:49Z","2020-07-16T17:22:14Z","2020-07-16T17:22:27Z","2020-07-16T17:22:39Z","2020-07-16T17:22:51Z","2020-07-16T17:23:05Z","2020-07-16T17:23:26Z","2020-07-16T17:23:47Z","2020-07-16T17:24:06Z","2020-07-16T17:24:33Z","2020-07-16T17:24:54Z","2020-07-16T17:25:19Z","2020-07-16T17:25:39Z","2020-07-16T17:26:02Z","2020-07-16T17:26:22Z","2020-07-16T17:26:48Z","2020-07-16T17:27:11Z","2020-07-16T17:27:36Z","2020-07-16T17:28:02Z","2020-07-16T17:28:35Z","2020-07-16T17:29:00Z","2020-07-16T17:29:22Z","2020-07-16T17:29:51Z","2020-07-16T17:30:14Z","2020-07-16T17:30:40Z","2020-07-16T17:31:00Z","2020-07-16T17:31:19Z","2020-07-16T17:31:40Z","2020-07-16T17:32:03Z","2020-07-16T17:32:28Z","2020-07-16T17:32:49Z","2020-07-16T17:33:24Z","2020-07-16T17:33:41Z","2020-07-16T17:33:59Z","2020-07-16T17:34:16Z","2020-07-16T17:34:33Z","2020-07-16T17:34:46Z","2020-07-16T17:35:05Z","2020-07-16T17:35:27Z","2020-07-16T17:35:52Z","2020-07-16T17:36:23Z","2020-07-16T17:36:48Z","2020-07-16T17:37:08Z","2020-07-16T17:37:23Z","2020-07-16T17:37:45Z","2020-07-16T17:38:06Z","2020-07-16T17:38:23Z","2020-07-16T17:38:38Z","2020-07-16T17:38:51Z","2020-07-16T17:39:05Z","2020-07-16T17:39:14Z","2020-07-16T17:39:26Z","2020-07-16T17:39:42Z","2020-07-16T17:39:55Z","2020-07-16T17:40:07Z","2020-07-16T17:40:19Z","2020-07-16T17:40:30Z","2020-07-16T17:40:42Z","2020-07-16T17:40:53Z","2020-07-16T17:41:13Z","2020-07-16T17:41:24Z","2020-07-16T17:41:33Z","2020-07-16T17:41:43Z","2020-07-16T17:41:55Z","2020-07-16T17:42:08Z","2020-07-16T17:42:18Z","2020-07-16T17:42:28Z","2020-07-16T17:42:40Z","2020-07-16T17:42:53Z","2020-07-16T17:43:07Z","2020-07-16T17:43:21Z","2020-07-16T17:43:36Z","2020-07-16T17:43:51Z","2020-07-16T17:44:02Z","2020-07-16T17:44:15Z","2020-07-16T17:44:27Z","2020-07-16T17:44:38Z","2020-07-16T17:44:50Z","2020-07-16T17:45:01Z","2020-07-16T17:45:11Z","2020-07-16T17:45:23Z","2020-07-16T17:45:45Z","2020-07-16T17:45:58Z","2020-07-16T17:46:10Z","2020-07-16T17:46:22Z","2020-07-16T17:46:38Z","2020-07-16T17:46:48Z","2020-07-16T17:47:08Z","2020-07-16T17:47:20Z","2020-07-16T17:47:53Z","2020-07-16T17:48:06Z","2020-07-16T17:48:15Z","2020-07-16T17:48:27Z","2020-07-16T17:48:41Z","2020-07-16T17:48:53Z","2020-07-16T17:49:06Z","2020-07-16T17:49:19Z","2020-07-16T17:49:34Z","2020-07-16T17:49:59Z","2020-07-16T17:50:11Z","2020-07-16T17:50:24Z","2020-07-16T17:50:37Z","2020-07-16T17:50:47Z","2020-07-16T17:50:58Z","2020-07-16T17:51:20Z","2020-07-16T17:51:34Z","2020-07-16T17:51:43Z","2020-07-16T17:51:53Z","2020-07-16T17:52:01Z","2020-07-16T17:52:10Z","2020-07-16T17:52:21Z","2020-07-16T17:52:37Z","2020-07-16T17:52:50Z","2020-07-16T17:53:03Z","2020-07-16T17:53:14Z","2020-07-16T17:53:27Z","2020-07-16T17:53:37Z","2020-07-16T17:54:03Z","2020-07-16T17:54:19Z","2020-07-16T17:54:40Z","2020-07-16T17:54:50Z","2020-07-16T17:55:08Z","2020-07-16T17:55:19Z","2020-07-16T17:55:32Z","2020-07-16T17:55:44Z","2020-07-16T17:56:00Z","2020-07-16T17:57:08Z","2020-07-16T17:59:42Z","2020-07-16T18:00:19Z","2020-07-16T18:00:44Z","2020-07-16T18:01:00Z","2020-07-16T18:01:18Z","2020-07-16T18:01:42Z","2020-07-16T18:02:05Z","2020-07-16T18:02:28Z","2020-07-16T18:02:50Z","2020-07-16T18:03:11Z","2020-07-16T18:07:31Z","2020-07-16T18:07:45Z","2020-07-16T18:07:56Z","2020-07-16T18:08:12Z","2020-07-16T18:08:31Z","2020-07-16T18:08:43Z","2020-07-16T18:09:06Z","2020-07-16T18:10:17Z","2020-07-16T18:10:38Z","2020-07-16T18:11:11Z","2020-07-16T18:11:21Z","2020-07-16T18:11:30Z","2020-07-16T18:11:43Z","2020-07-16T18:12:56Z","2020-07-16T18:14:44Z","2020-07-16T18:14:53Z","2020-07-16T18:15:04Z","2020-07-16T18:16:22Z","2020-07-16T18:16:31Z","2020-07-16T18:17:07Z","2020-07-16T18:17:44Z","2020-07-16T18:18:07Z","2020-07-16T18:20:16Z","2020-07-16T18:20:38Z","2020-07-16T18:20:49Z","2020-07-16T18:21:01Z","2020-07-16T18:21:19Z","2020-07-16T18:21:42Z","2020-07-16T18:21:50Z","2020-07-16T18:21:58Z","2020-07-16T18:22:07Z","2020-07-16T18:22:20Z","2020-07-16T18:22:37Z","2020-07-16T18:22:57Z","2020-07-16T18:23:11Z","2020-07-16T18:23:23Z","2020-07-16T18:23:36Z","2020-07-16T18:23:56Z","2020-07-16T18:24:21Z","2020-07-16T18:25:04Z","2020-07-16T18:25:12Z","2020-07-16T18:25:22Z","2020-07-16T18:25:31Z","2020-07-16T18:25:39Z","2020-07-16T18:25:49Z","2020-07-16T18:25:59Z","2020-07-16T18:26:11Z","2020-07-16T18:26:18Z","2020-07-16T18:26:27Z","2020-07-16T18:26:37Z","2020-07-16T18:26:44Z","2020-07-16T18:26:51Z","2020-07-16T18:27:00Z","2020-07-16T18:27:07Z","2020-07-16T18:27:28Z","2020-07-16T18:27:42Z","2020-07-16T18:27:55Z","2020-07-16T18:28:04Z","2020-07-16T18:28:14Z","2020-07-16T18:28:26Z","2020-07-16T18:28:37Z","2020-07-16T18:28:47Z","2020-07-16T18:28:59Z","2020-07-16T18:29:10Z","2020-07-16T18:29:23Z","2020-07-16T18:29:32Z","2020-07-16T18:29:46Z","2020-07-16T18:29:58Z","2020-07-16T18:30:08Z","2020-07-16T18:30:16Z","2020-07-16T18:30:31Z","2020-07-16T18:30:42Z","2020-07-16T18:30:51Z","2020-07-16T18:31:01Z","2020-07-16T18:31:08Z","2020-07-16T18:31:15Z","2020-07-16T18:31:23Z","2020-07-16T18:31:31Z","2020-07-16T18:31:40Z","2020-07-16T18:31:49Z","2020-07-16T18:31:58Z","2020-07-16T18:32:06Z","2020-07-16T18:32:31Z","2020-07-16T18:32:38Z","2020-07-16T18:32:46Z","2020-07-16T18:32:55Z","2020-07-16T18:33:08Z","2020-07-16T18:33:17Z","2020-07-16T18:33:24Z","2020-07-16T18:33:35Z","2020-07-16T18:33:45Z","2020-07-16T18:34:07Z","2020-07-16T18:34:20Z","2020-07-16T18:34:29Z","2020-07-16T18:34:38Z","2020-07-16T18:34:46Z","2020-07-16T18:34:54Z","2020-07-16T18:35:03Z","2020-07-16T18:35:14Z","2020-07-16T18:35:23Z","2020-07-16T18:35:30Z","2020-07-16T18:35:37Z","2020-07-16T18:35:46Z","2020-07-16T18:36:06Z","2020-07-16T18:36:14Z","2020-07-16T18:36:23Z","2020-07-16T18:36:33Z","2020-07-16T18:36:43Z","2020-07-16T18:36:55Z","2020-07-16T18:37:03Z","2020-07-16T18:37:14Z","2020-07-16T18:37:22Z","2020-07-16T18:37:32Z","2020-07-16T18:37:42Z","2020-07-16T18:37:53Z","2020-07-16T18:38:17Z","2020-07-16T18:38:29Z","2020-07-16T18:38:45Z","2020-07-16T18:38:57Z","2020-07-16T18:39:09Z","2020-07-16T18:39:30Z","2020-07-16T18:39:48Z","2020-07-16T18:40:18Z","2020-07-16T18:40:43Z","2020-07-16T18:41:00Z","2020-07-16T18:41:08Z","2020-07-16T18:41:26Z","2020-07-16T18:41:37Z","2020-07-16T18:41:50Z","2020-07-16T18:42:17Z","2020-07-16T18:42:34Z","2020-07-16T18:42:46Z","2020-07-16T18:43:11Z","2020-07-16T18:43:32Z","2020-07-16T18:43:52Z","2020-07-16T18:44:07Z","2020-07-16T18:44:25Z","2020-07-16T18:44:35Z","2020-07-16T18:44:52Z","2020-07-16T18:45:10Z","2020-07-16T18:45:33Z","2020-07-16T18:45:53Z","2020-07-16T18:46:11Z","2020-07-16T18:46:27Z","2020-07-16T18:46:44Z","2020-07-16T18:47:01Z","2020-07-16T18:47:16Z","2020-07-16T18:47:33Z","2020-07-16T18:47:46Z","2020-07-16T18:47:58Z","2020-07-16T18:48:11Z","2020-07-16T18:48:30Z","2020-07-16T18:48:44Z","2020-07-16T18:48:59Z","2020-07-16T18:49:12Z","2020-07-16T18:49:27Z","2020-07-16T18:49:39Z","2020-07-16T18:49:52Z","2020-07-16T18:50:07Z","2020-07-16T18:50:20Z","2020-07-16T18:50:30Z","2020-07-16T18:50:42Z","2020-07-16T18:50:53Z","2020-07-16T18:51:03Z","2020-07-16T18:51:11Z","2020-07-16T18:51:20Z","2020-07-16T18:51:31Z","2020-07-16T18:51:42Z","2020-07-16T18:51:52Z","2020-07-16T18:52:02Z","2020-07-16T18:52:10Z","2020-07-16T18:52:20Z","2020-07-16T18:52:32Z","2020-07-16T18:52:40Z","2020-07-16T18:52:51Z","2020-07-16T18:53:00Z","2020-07-16T18:53:12Z","2020-07-16T18:53:23Z","2020-07-16T18:53:37Z","2020-07-16T18:53:51Z","2020-07-16T18:54:00Z","2020-07-16T18:54:08Z","2020-07-16T18:54:16Z","2020-07-16T18:54:24Z","2020-07-16T18:54:35Z","2020-07-16T18:54:49Z","2020-07-16T18:54:59Z","2020-07-16T18:55:07Z","2020-07-16T18:55:15Z","2020-07-16T18:55:26Z","2020-07-16T18:55:36Z","2020-07-16T18:55:53Z","2020-07-16T18:56:00Z","2020-07-16T18:56:07Z","2020-07-16T18:56:16Z","2020-07-16T18:56:23Z","2020-07-16T18:56:30Z","2020-07-16T18:56:38Z","2020-07-16T18:56:51Z"]}},"geometry":{"type":"LineString","coordinates":[[-7.006706278771162,62.28566153906286,394.42],[-7.006697142496705,62.2857922129333,395.48],[-7.006565378978849,62.28587745688856,400.71],[-7.00662455521524,62.28595222346485,402.2],[-7.006739052012563,62.286028414964676,402.51],[-7.006800910457969,62.28612522594631,402.42],[-7.006815327331424,62.286228742450476,405.21],[-7.006809124723077,62.286329325288534,406.42],[-7.006743410602212,62.28641968220472,407.8],[-7.006786912679672,62.286508195102215,409.4],[-7.006861930713058,62.28658991865814,412.42],[-7.006956730037928,62.2866712231189,414.67],[-7.007035855203867,62.286766692996025,418.23],[-7.007017079740763,62.28684162721038,419.55],[-7.007044069468975,62.286926032975316,421.34],[-7.006947426125407,62.28703122586012,424.82],[-7.007066449150443,62.28711571544409,428.63],[-7.007156554609537,62.287198193371296,431.01],[-7.007254706695676,62.28728628717363,433.17],[-7.007338106632233,62.287379410117865,436.27],[-7.007442377507687,62.28745300322771,438.98],[-7.007438354194164,62.287545036524534,443.34],[-7.007337687537074,62.287639919668436,446.14],[-7.007407592609525,62.287723906338215,448.01],[-7.007450256496668,62.28781996294856,451.18],[-7.007504822686315,62.28790545836091,454.04],[-7.007587300613523,62.288002939894795,456.31],[-7.007614290341735,62.28811207227409,458.83],[-7.007675059139729,62.288211062550545,460.09],[-7.007754519581795,62.28830368258059,462.93],[-7.007751502096653,62.288399906829,464.11],[-7.007777402177453,62.288494538515806,468.26],[-7.00783783569932,62.2885864879936,470.32],[-7.007928360253573,62.288672821596265,472.5],[-7.007957696914673,62.28875177912414,476.1],[-7.008021399378777,62.2888418007642,477.87],[-7.008083928376436,62.28893483988941,482.63],[-7.008106475695968,62.289029555395246,484.75],[-7.008104715496302,62.28912108577788,487.19],[-7.008038247004151,62.28919945657253,491.99],[-7.007991811260581,62.28929174132645,496.63],[-7.007839931175113,62.28934119455516,501.21],[-7.007770780473948,62.28943666443229,503.39],[-7.007685117423534,62.289546551182866,508.61],[-7.00755687430501,62.289625676348805,513.82],[-7.007438521832228,62.289698934182525,518.14],[-7.007340621203184,62.28979121893644,521.79],[-7.007281864061952,62.28988828137517,526.72],[-7.007199302315712,62.289979979395866,531.3],[-7.007087487727404,62.29006765410304,536.35],[-7.006976930424571,62.29015415534377,541.25],[-7.006866205483675,62.29024048894644,547.03],[-7.006762186065316,62.2903392277658,554.05],[-7.006651880219579,62.29042857885361,557.92],[-7.006572671234608,62.29050359688699,562.42],[-7.006538473069668,62.290548691526055,568.21],[-7.006538053974509,62.290614573284984,571.08],[-7.006498407572508,62.29067550972104,576.57],[-7.006536209955812,62.29073745198548,580.87],[-7.006527911871672,62.29080593213439,583.61],[-7.006363207474351,62.29089695960283,588.5],[-7.00623806566,62.29096166789532,593.23],[-7.00615257024765,62.29105403646827,597.72],[-7.006063051521778,62.291085636243224,601.5],[-7.00612423941493,62.29108680970967,603.6],[-7.006237395107746,62.29116794653237,607.18],[-7.006208980455995,62.291246401146054,612.47],[-7.006012005731463,62.29132787324488,615.39],[-7.005827184766531,62.2913511749357,618.31],[-7.005631551146507,62.291346145793796,621.51],[-7.005462069064379,62.2913596406579,625.22],[-7.005257466807962,62.29138193652034,628.64],[-7.005068957805634,62.29139903560281,633.19],[-7.004911629483104,62.29142946191132,635.94],[-7.004744159057736,62.29146525263786,640.65],[-7.004532599821687,62.29150213301182,647.24],[-7.004314586520195,62.29152409359813,649.28],[-7.004168657585979,62.29152551852167,655.89],[-7.004009820520878,62.291577234864235,658.02],[-7.00383204035461,62.29160682298243,657.74],[-7.003934215754271,62.29163557291031,660.55],[-7.004055920988321,62.29170111939311,663.54],[-7.004192210733891,62.291772197932005,666.29],[-7.004365213215351,62.291819555684924,665.56],[-7.004523128271103,62.29188007302582,668.85],[-7.004653802141547,62.291957857087255,672.08],[-7.004813645035029,62.2920245770365,673.25],[-7.00493291951716,62.29209448210895,676.06],[-7.00508639216423,62.2921556700021,678.25],[-7.005252856761217,62.29220914654434,680.88],[-7.005428541451693,62.29226924479008,680.82],[-7.005584193393588,62.29232599027455,681.59],[-7.005732133984566,62.29240134358406,683.72],[-7.00589164160192,62.29245599359274,684.73],[-7.006031116470695,62.29252246208489,686.32],[-7.006170088425279,62.29257493279874,689.6],[-7.006303863599896,62.29265816509724,692.23],[-7.006453648209572,62.29273117147386,693.42],[-7.006620280444622,62.29278448037803,696.23],[-7.006782637909055,62.292849691584706,696.01],[-7.006950862705708,62.292915070429444,696.7],[-7.00711565092206,62.292971732094884,700.73],[-7.007260825484991,62.29303359054029,703.28],[-7.007365096360445,62.29311673901975,704.55],[-7.007519155740738,62.29317415505648,707.42],[-7.007667766883969,62.29323701933026,709.84],[-7.007834566757083,62.293289909139276,711.32],[-7.007978316396475,62.29335905984044,714.69],[-7.008115695789456,62.29343860410154,716.22],[-7.008280735462904,62.293505324050784,717.61],[-7.008438734337688,62.293569445610046,720.04],[-7.008565301075578,62.29364672675729,723.5],[-7.008737800642848,62.29369819164276,723.85],[-7.008861266076565,62.29377815499902,726.32],[-7.009027730673552,62.293835151940584,728.7],[-7.009197967126966,62.29389273561537,732.55],[-7.009353786706924,62.29396037757397,735.39],[-7.009502565488219,62.29403539560735,735.88],[-7.009654110297561,62.29410069063306,738.7],[-7.009814623743296,62.29416246525943,739.93],[-7.009963737800717,62.2942366451025,744.13],[-7.010127017274499,62.2943005990237,746.18],[-7.010282585397363,62.294377628713846,747.08],[-7.010438991710544,62.294440660625696,749.86],[-7.010580059140921,62.29450587183237,751.06],[-7.010730430483818,62.29457460343838,753.28],[-7.010874096304178,62.29465389624238,757.04],[-7.011025976389647,62.294715670868754,760.21],[-7.011199984699488,62.294767973944545,759.29],[-7.011347506195307,62.2948291618377,762.39],[-7.011516485363245,62.294882386922836,765.62],[-7.011627713218331,62.29496746324003,768.45],[-7.011782946065068,62.29503502137959,771.06],[-7.011970281600952,62.29508782736957,772.95],[-7.012160299345851,62.29514507576823,773.88],[-7.012339923530817,62.29520349763334,774.75],[-7.012476716190577,62.29527038522065,776.9],[-7.012588111683726,62.29534381069243,779.77],[-7.012718785554171,62.29541656561196,782.48],[-7.012873683124781,62.295472053810954,783.55],[-7.013065461069346,62.29551983065903,784.53],[-7.013246761634946,62.29556911624968,784.89],[-7.013412220403552,62.29562636464834,786.04],[-7.01355773024261,62.295688055455685,789.11],[-7.01370432972908,62.295739101246,792.63],[-7.013875404372811,62.29581621475518,793.95],[-7.014049245044589,62.295877654105425,795.95],[-7.014194084331393,62.29594437405467,797.7],[-7.01432928442955,62.296012518927455,800.51],[-7.014489797875285,62.29606666602194,802.97],[-7.014659866690636,62.29613740928471,805.81],[-7.014819961041212,62.29619993828237,808.15],[-7.014993550255895,62.29627696797252,808.01],[-7.0151486992836,62.296338407322764,808.83],[-7.015132941305637,62.29635274037719,809.71],[-7.015136126428843,62.29635810479522,808.61],[-7.015104023739696,62.29638509452343,808.82],[-7.015030179172754,62.296410240232944,807.29],[-7.015075106173754,62.29647126048803,807.16],[-7.015113662928343,62.29648567736149,806.96],[-7.015094384551048,62.29648928157985,808.45],[-7.015238972380757,62.29656832292676,813.94],[-7.015258250758052,62.296604281291366,817.95],[-7.015258250758052,62.29662397876382,817.49],[-7.015261435881257,62.29664015583694,823.17],[-7.015312816947699,62.29668692685664,827.27],[-7.01531482860446,62.296735206618905,832.25],[-7.015177868306637,62.296797316521406,839.92],[-7.014977373182774,62.29679354466498,840.69],[-7.014783918857575,62.296796813607216,846.3],[-7.014803281053901,62.296828497201204,838],[-7.014651484787464,62.29689219966531,839.54],[-7.014442859217525,62.29692748747766,840.4],[-7.01421202160418,62.29695037007332,843.21],[-7.013989062979817,62.29696612805128,847.9],[-7.013794770464301,62.29699571616948,849.65],[-7.013595113530755,62.296992698684335,853.92],[-7.01343996450305,62.29696570895612,858.52],[-7.013249779120088,62.29697400704026,861.96],[-7.013063030317426,62.29693888686597,867.29],[-7.013145843520761,62.29684785939753,869.44],[-7.013227483257651,62.29676043614745,870.45],[-7.013246677815914,62.29666789993644,870.86],[-7.01324257068336,62.29666010476649,869.45],[-7.013259083032608,62.29663562960923,869.88],[-7.013411801308394,62.29669178836048,870.84],[-7.01355529949069,62.29675758630037,869.57],[-7.013382129371166,62.296791952103376,870.02],[-7.013192865997553,62.29683528654277,869.55],[-7.013083649799228,62.29692128486931,866.95],[-7.013247013092041,62.29695280082524,862.65],[-7.013436695560813,62.296930169686675,857.96],[-7.013639956712723,62.29692497290671,853.85],[-7.013800889253616,62.29693980887532,850.97],[-7.013999707996845,62.29691877029836,847.04],[-7.014200203120709,62.29691281914711,846.46],[-7.014290140941739,62.29690410196781,845.26],[-7.014264408499003,62.296956572681665,841.98],[-7.014483259990811,62.29692346416414,839.32],[-7.014690712094307,62.2968924511224,835.78],[-7.014870923012495,62.29686194099486,837.89],[-7.015089271590114,62.296833861619234,830.47],[-7.015262776985765,62.296811984851956,832.3],[-7.015301752835512,62.29676093906164,823.96],[-7.015234613791108,62.296664295718074,820.79],[-7.015144843608141,62.29656698182225,819.55],[-7.015067813917995,62.29648274369538,816.86],[-7.014991203323007,62.296398505568504,812.58],[-7.015061276033521,62.29635986499488,809.66],[-7.015115087851882,62.29630772955716,803.61],[-7.014960525557399,62.29624821804464,801.2],[-7.0147670712322,62.296209493651986,800.67],[-7.014616029337049,62.29614771902561,799.14],[-7.014464819803834,62.296080999076366,796.66],[-7.014302797615528,62.29602106846869,793.8],[-7.014147061854601,62.295958288013935,791.71],[-7.01399895362556,62.29589349590242,789.49],[-7.01385579071939,62.29582451283932,788.71],[-7.013708185404539,62.29575293138623,786.12],[-7.013548677787185,62.29568981565535,783.66],[-7.013416327536106,62.29562577791512,782.47],[-7.013250533491373,62.295579174533486,780.76],[-7.013040902093053,62.29555428028107,780.19],[-7.012885250151157,62.29549393057823,779.35],[-7.012737477198243,62.29543190449476,777.84],[-7.01260294765234,62.29535839520395,774.51],[-7.012473195791245,62.295296201482415,773.69],[-7.012289967387915,62.29524448513985,770.22],[-7.012128615751863,62.2951883263886,768.72],[-7.01192082837224,62.29513702914119,767.49],[-7.011751178652048,62.29507131502032,765.54],[-7.011619498953223,62.29499654844403,763.12],[-7.011492010205984,62.29492211714387,760.08],[-7.01134180650115,62.29485078714788,757.29],[-7.011178778484464,62.29480376467109,753.94],[-7.010989096015692,62.294756323099136,753.16],[-7.010840987786651,62.2946735098958,750.87],[-7.010682988911867,62.29460737667978,748.28],[-7.010527169331908,62.294542668387294,745.98],[-7.010384341701865,62.294463543221354,743.75],[-7.010255008935928,62.294426411390305,742.42],[-7.010058872401714,62.294372683390975,739.67],[-7.009909003973007,62.29430143721402,736.08],[-7.009768774732947,62.294216779991984,734.13],[-7.009642962366343,62.29414377361536,732.66],[-7.009526705369353,62.294071186333895,732.36],[-7.009383710101247,62.29400555603206,730.18],[-7.009224118664861,62.293945625424385,726.93],[-7.00906771235168,62.29389013722539,724.66],[-7.008923878893256,62.293815203011036,721.93],[-7.008791780099273,62.293751081451774,720.15],[-7.008616933599114,62.29370187968016,719.07],[-7.00846035964787,62.293622670695186,716.62],[-7.008332284167409,62.29356148280203,715.94],[-7.008173698559403,62.293508341535926,711.69],[-7.008052747696638,62.293441873043776,709.72],[-7.007875135168433,62.29339116252959,706.71],[-7.007731469348073,62.29333307594061,704.87],[-7.007606327533722,62.293270882219076,704.51],[-7.007484622299671,62.293186224997044,701.31],[-7.007345482707024,62.293118331581354,698.27],[-7.007223945111036,62.29306644760072,694.35],[-7.007057815790176,62.293016240000725,691.61],[-7.006921442225575,62.29295295663178,689.92],[-7.006743242964149,62.292934684082866,688.51],[-7.00659622438252,62.29285874404013,687.29],[-7.006463287398219,62.292783642187715,686.23],[-7.006307048723102,62.29272136464715,683.71],[-7.006185175850987,62.29263184592128,682.16],[-7.006076797842979,62.29255615733564,679.93],[-7.005925504490733,62.292496310546994,678.97],[-7.005778569728136,62.29243696667254,676.97],[-7.005653595551848,62.292358595877886,675.14],[-7.005527531728149,62.292309729382396,673.79],[-7.005370622500777,62.29224057868123,673.95],[-7.005195859819651,62.29220579378307,672.68],[-7.00504289008677,62.29212147183716,669.55],[-7.004887405782938,62.29206548072398,668.12],[-7.004719600081444,62.2920124232769,664.67],[-7.004579789936543,62.29192449711263,663.41],[-7.004407625645399,62.29186054319143,661.41],[-7.004244094714522,62.29179382324219,659.18],[-7.004114091396332,62.2917156200856,656.9],[-7.003974281251431,62.291641775518656,655.5],[-7.003888282924891,62.2915636561811,652.21],[-7.003908399492502,62.29153348132968,646.83],[-7.004111744463444,62.29152241721749,644.52],[-7.004182655364275,62.291475646197796,640.55],[-7.004389353096485,62.29146416299045,638.27],[-7.004580879583955,62.29143834672868,634.7],[-7.004727981984615,62.29141764342785,633.07],[-7.004892267286778,62.29138545691967,627.45],[-7.005078261718154,62.291356874629855,621.1],[-7.005277164280415,62.291325107216835,617.09],[-7.005482520908117,62.291305577382445,612.38],[-7.005687626078725,62.291312953457236,609.89],[-7.005887869745493,62.29129711166024,607.96],[-7.006080821156502,62.2912975307554,604.83],[-7.006268994882703,62.29128152132034,601.06],[-7.006265390664339,62.29122075252235,598.72],[-7.006188947707415,62.291144309565425,595.51],[-7.006120635196567,62.291061244904995,592.79],[-7.006232952699065,62.291017826646566,588.21],[-7.006322806701064,62.29095336981118,584.09],[-7.006400255486369,62.29089209809899,577.49],[-7.006527995690703,62.29083082638681,574.35],[-7.006506621837616,62.290765196084976,571.03],[-7.00641106814146,62.29069009423256,568.94],[-7.006463371217251,62.2906447481364,563.81],[-7.006595637649298,62.290624380111694,563.68],[-7.006638301536441,62.29056939482689,557.16],[-7.006669398397207,62.29048800654709,549.52],[-7.00667199678719,62.2904150839895,544.88],[-7.006757911294699,62.2903426643461,540.28],[-7.006852542981505,62.29027125053108,534.67],[-7.00695245526731,62.290190029889345,533.96],[-7.007021605968475,62.29011258110404,526.53],[-7.007146077230573,62.29003286920488,521.31],[-7.007189160212874,62.28995181620121,518.14],[-7.007282618433237,62.28987202048302,514.13],[-7.00737657956779,62.289785938337445,509.32],[-7.007470456883311,62.289708741009235,507.11],[-7.007532902061939,62.289626095443964,503.02],[-7.007632562890649,62.289552334696054,496.96],[-7.00772057287395,62.28947974741459,494.13],[-7.007817467674613,62.28940984234214,491.24],[-7.007946129888296,62.28934546932578,485.43],[-7.008029278367758,62.289279252290726,482.8],[-7.008157437667251,62.289214292541146,479.13],[-7.008195910602808,62.289125360548496,475.33],[-7.008224409073591,62.28903726674616,473.28],[-7.008159952238202,62.28894900530577,469.75],[-7.008118964731693,62.28885873220861,467.06],[-7.00805920176208,62.28877231478691,464.03],[-7.0080098323524,62.288681119680405,461.7],[-7.007898855954409,62.28860232979059,459.91],[-7.007846971973777,62.288513481616974,456.99],[-7.007844541221857,62.28842547163367,452.97],[-7.007825346663594,62.28833058848977,449.6],[-7.007766757160425,62.28823956102133,448.13],[-7.007694421336055,62.28815716691315,446.64],[-7.007669443264604,62.28806957602501,444.27],[-7.007588557898998,62.28798030875623,442.52],[-7.007511695846915,62.28790386579931,440.48],[-7.007514126598835,62.28781225159764,437.42],[-7.007435671985149,62.28773111477494,435.53],[-7.007368784397841,62.28763916529715,431.55],[-7.007494177669287,62.28756825439632,426.96],[-7.007490154355764,62.28748904541135,426.55],[-7.007394516840577,62.28741293773055,424.83],[-7.007317990064621,62.287329621613026,421.04],[-7.007247665897012,62.287253346294165,418.56],[-7.007180526852608,62.28717648424208,417.48],[-7.007071143016219,62.28710909374058,415.09],[-7.006993358954787,62.28706349618733,410.22],[-7.007128642871976,62.286986131221056,407.64],[-7.007112884894013,62.286891750991344,405.88],[-7.007121350616217,62.28680633939803,403.42],[-7.007070807740092,62.28672964498401,401.55],[-7.006940385326743,62.286650352180004,397.92],[-7.006859164685011,62.286569215357304,393.69],[-7.006816752254963,62.28645924478769,394.88],[-7.006900738924742,62.286363523453474,391.26],[-7.006929824128747,62.28626939468086,389.59],[-7.006939798593521,62.28616587817669,387.39],[-7.006925716996193,62.2860720846802,385.55],[-7.00683812610805,62.285981895402074,385.16],[-7.006725389510393,62.285904698073864,385.42],[-7.006784314289689,62.28581702336669,382.08]]}},{"type":"Feature","properties":{"name":"WP1 03_SL","type":"user","time":"2020-07-16T17:36:14Z","gpxx_WaypointExtension":"SymbolAndName","gpxx_DisplayMode":"SymbolAndName","wptx1_WaypointExtension":"SymbolAndName","wptx1_DisplayMode":"SymbolAndName","ctx_CreationTimeExtension":"2020-07-16T17:36:14Z","ctx_CreationTime":"2020-07-16T17:36:14Z","sym":"Flag, Blue"},"geometry":{"type":"Point","coordinates":[-7.004954963922501,62.29142501950264,635.309875]}},{"type":"Feature","properties":{"name":"WP2 06_SL","type":"user","time":"2020-07-16T17:54:23Z","gpxx_WaypointExtension":"SymbolAndName","gpxx_DisplayMode":"SymbolAndName","wptx1_WaypointExtension":"SymbolAndName","wptx1_DisplayMode":"SymbolAndName","ctx_CreationTimeExtension":"2020-07-16T17:54:23Z","ctx_CreationTime":"2020-07-16T17:54:23Z","sym":"Flag, Blue"},"geometry":{"type":"Point","coordinates":[-7.014830019325018,62.296203039586544,808.545593]}},{"type":"Feature","properties":{"name":"WP3 07_SL","type":"user","time":"2020-07-16T18:11:33Z","gpxx_WaypointExtension":"SymbolAndName","gpxx_DisplayMode":"SymbolAndName","wptx1_WaypointExtension":"SymbolAndName","wptx1_DisplayMode":"SymbolAndName","ctx_CreationTimeExtension":"2020-07-16T18:11:33Z","ctx_CreationTime":"2020-07-16T18:11:33Z","sym":"Flag, Blue"},"geometry":{"type":"Point","coordinates":[-7.013237960636616,62.29673503898084,870.531006]}}]}