{"type":"FeatureCollection","features":[{"type":"Feature","properties":{"_gpxType":"trk","name":"05 Wanderung Oyndarfjørður Elduvik","time":"2020-07-15T11:43:25Z","gpxx_TrackExtension":"Black","gpxx_DisplayColor":"Black","coordinateProperties":{"times":["2020-07-15T11:43:25Z","2020-07-15T11:42:01Z","2020-07-15T11:41:55Z","2020-07-15T11:41:49Z","2020-07-15T11:41:43Z","2020-07-15T11:41:36Z","2020-07-15T11:41:30Z","2020-07-15T11:41:24Z","2020-07-15T11:41:17Z","2020-07-15T11:41:11Z","2020-07-15T11:41:05Z","2020-07-15T11:40:58Z","2020-07-15T11:40:51Z","2020-07-15T11:40:14Z","2020-07-15T11:40:05Z","2020-07-15T11:39:55Z","2020-07-15T11:38:56Z","2020-07-15T11:38:49Z","2020-07-15T11:38:43Z","2020-07-15T11:38:36Z","2020-07-15T11:38:29Z","2020-07-15T11:38:23Z","2020-07-15T11:38:17Z","2020-07-15T11:38:10Z","2020-07-15T11:38:03Z","2020-07-15T11:37:56Z","2020-07-15T11:37:49Z","2020-07-15T11:37:43Z","2020-07-15T11:37:37Z","2020-07-15T11:37:31Z","2020-07-15T11:37:25Z","2020-07-15T11:37:19Z","2020-07-15T11:37:13Z","2020-07-15T11:37:07Z","2020-07-15T11:37:01Z","2020-07-15T11:36:54Z","2020-07-15T11:36:48Z","2020-07-15T11:36:42Z","2020-07-15T11:36:36Z","2020-07-15T11:36:30Z","2020-07-15T11:36:24Z","2020-07-15T11:36:18Z","2020-07-15T11:36:12Z","2020-07-15T11:36:06Z","2020-07-15T11:36:00Z","2020-07-15T11:35:47Z","2020-07-15T11:35:41Z","2020-07-15T11:35:36Z","2020-07-15T11:35:30Z","2020-07-15T11:35:25Z","2020-07-15T11:35:20Z","2020-07-15T11:35:14Z","2020-07-15T11:35:07Z","2020-07-15T11:35:00Z","2020-07-15T11:34:54Z","2020-07-15T11:34:48Z","2020-07-15T11:34:42Z","2020-07-15T11:34:36Z","2020-07-15T11:34:30Z","2020-07-15T11:34:24Z","2020-07-15T11:34:18Z","2020-07-15T11:34:12Z","2020-07-15T11:34:06Z","2020-07-15T11:33:55Z","2020-07-15T11:33:49Z","2020-07-15T11:33:11Z","2020-07-15T11:33:04Z","2020-07-15T11:25:51Z","2020-07-15T11:25:20Z","2020-07-15T11:25:08Z","2020-07-15T11:24:59Z","2020-07-15T11:24:50Z","2020-07-15T11:24:40Z","2020-07-15T11:24:31Z","2020-07-15T11:24:23Z","2020-07-15T11:24:15Z","2020-07-15T11:24:07Z","2020-07-15T11:23:58Z","2020-07-15T11:18:41Z","2020-07-15T11:18:35Z","2020-07-15T11:18:28Z","2020-07-15T11:18:02Z","2020-07-15T11:17:55Z","2020-07-15T11:17:48Z","2020-07-15T11:17:41Z","2020-07-15T11:17:34Z","2020-07-15T11:17:28Z","2020-07-15T11:17:16Z","2020-07-15T11:17:09Z","2020-07-15T11:17:03Z","2020-07-15T11:16:56Z","2020-07-15T11:16:49Z","2020-07-15T11:16:42Z","2020-07-15T11:16:35Z","2020-07-15T11:16:28Z","2020-07-15T11:15:07Z","2020-07-15T11:14:57Z","2020-07-15T11:14:46Z","2020-07-15T11:14:35Z","2020-07-15T11:14:15Z","2020-07-15T11:14:04Z","2020-07-15T11:13:55Z","2020-07-15T11:13:42Z","2020-07-15T11:13:32Z","2020-07-15T11:13:21Z","2020-07-15T11:13:06Z","2020-07-15T11:12:52Z","2020-07-15T11:12:41Z","2020-07-15T11:12:26Z","2020-07-15T11:12:10Z","2020-07-15T11:11:56Z","2020-07-15T11:11:34Z","2020-07-15T11:11:19Z","2020-07-15T11:11:11Z","2020-07-15T11:11:02Z","2020-07-15T11:10:49Z","2020-07-15T11:10:42Z","2020-07-15T11:10:34Z","2020-07-15T11:10:26Z","2020-07-15T11:10:19Z","2020-07-15T11:10:11Z","2020-07-15T11:10:03Z","2020-07-15T11:09:55Z","2020-07-15T11:09:48Z","2020-07-15T11:09:41Z","2020-07-15T11:09:33Z","2020-07-15T11:09:25Z","2020-07-15T09:13:39Z","2020-07-15T09:15:53Z","2020-07-15T09:16:04Z","2020-07-15T09:16:11Z","2020-07-15T09:16:18Z","2020-07-15T09:16:25Z","2020-07-15T09:16:31Z","2020-07-15T09:16:39Z","2020-07-15T09:16:59Z","2020-07-15T09:17:06Z","2020-07-15T09:17:12Z","2020-07-15T09:17:19Z","2020-07-15T09:17:26Z","2020-07-15T09:17:35Z","2020-07-15T09:17:42Z","2020-07-15T09:17:49Z","2020-07-15T09:17:55Z","2020-07-15T09:18:00Z","2020-07-15T09:18:06Z","2020-07-15T09:18:12Z","2020-07-15T09:18:19Z","2020-07-15T09:18:26Z","2020-07-15T09:18:33Z","2020-07-15T09:18:43Z","2020-07-15T09:18:50Z","2020-07-15T09:18:58Z","2020-07-15T09:19:06Z","2020-07-15T09:19:12Z","2020-07-15T09:19:18Z","2020-07-15T09:19:24Z","2020-07-15T09:19:30Z","2020-07-15T09:19:36Z","2020-07-15T09:19:43Z","2020-07-15T09:19:50Z","2020-07-15T09:19:58Z","2020-07-15T09:20:13Z","2020-07-15T09:20:23Z","2020-07-15T09:20:30Z","2020-07-15T09:20:37Z","2020-07-15T09:20:44Z","2020-07-15T09:21:09Z","2020-07-15T09:21:16Z","2020-07-15T09:21:23Z","2020-07-15T09:21:32Z","2020-07-15T09:21:39Z","2020-07-15T09:21:46Z","2020-07-15T09:21:53Z","2020-07-15T09:22:01Z","2020-07-15T09:22:09Z","2020-07-15T09:22:38Z","2020-07-15T09:22:45Z","2020-07-15T09:22:52Z","2020-07-15T09:22:59Z","2020-07-15T09:23:08Z","2020-07-15T09:23:23Z","2020-07-15T09:23:45Z","2020-07-15T09:23:54Z","2020-07-15T09:24:00Z","2020-07-15T09:24:08Z","2020-07-15T09:24:15Z","2020-07-15T09:24:26Z","2020-07-15T09:24:32Z","2020-07-15T09:24:39Z","2020-07-15T09:24:47Z","2020-07-15T09:25:17Z","2020-07-15T09:25:27Z","2020-07-15T09:25:38Z","2020-07-15T09:25:47Z","2020-07-15T09:25:56Z","2020-07-15T09:26:06Z","2020-07-15T09:26:14Z","2020-07-15T09:26:22Z","2020-07-15T09:26:30Z","2020-07-15T09:26:39Z","2020-07-15T09:26:48Z","2020-07-15T09:26:57Z","2020-07-15T09:27:05Z","2020-07-15T09:27:13Z","2020-07-15T09:27:21Z","2020-07-15T09:27:29Z","2020-07-15T09:27:38Z","2020-07-15T09:27:48Z","2020-07-15T09:27:56Z","2020-07-15T09:28:04Z","2020-07-15T09:28:12Z","2020-07-15T09:28:22Z","2020-07-15T09:28:29Z","2020-07-15T09:28:40Z","2020-07-15T09:28:49Z","2020-07-15T09:28:55Z","2020-07-15T09:29:03Z","2020-07-15T09:29:14Z","2020-07-15T09:29:41Z","2020-07-15T09:29:49Z","2020-07-15T09:30:01Z","2020-07-15T09:30:47Z","2020-07-15T09:31:09Z","2020-07-15T09:31:16Z","2020-07-15T09:31:24Z","2020-07-15T09:31:33Z","2020-07-15T09:31:41Z","2020-07-15T09:31:49Z","2020-07-15T09:31:57Z","2020-07-15T09:32:04Z","2020-07-15T09:32:12Z","2020-07-15T09:32:22Z","2020-07-15T09:32:37Z","2020-07-15T09:32:48Z","2020-07-15T09:32:55Z","2020-07-15T09:33:03Z","2020-07-15T09:33:10Z","2020-07-15T09:33:19Z","2020-07-15T09:33:38Z","2020-07-15T09:33:49Z","2020-07-15T09:34:00Z","2020-07-15T09:34:07Z","2020-07-15T09:34:14Z","2020-07-15T09:34:21Z","2020-07-15T09:34:31Z","2020-07-15T09:34:40Z","2020-07-15T09:34:48Z","2020-07-15T09:34:58Z","2020-07-15T09:35:08Z","2020-07-15T09:35:21Z","2020-07-15T09:35:30Z","2020-07-15T09:35:44Z","2020-07-15T09:35:52Z","2020-07-15T09:35:59Z","2020-07-15T09:36:09Z","2020-07-15T09:36:20Z","2020-07-15T09:36:28Z","2020-07-15T09:36:38Z","2020-07-15T09:36:47Z","2020-07-15T09:36:56Z","2020-07-15T09:37:33Z","2020-07-15T09:37:58Z","2020-07-15T09:38:28Z","2020-07-15T09:38:45Z","2020-07-15T09:39:07Z","2020-07-15T09:39:29Z","2020-07-15T09:39:45Z","2020-07-15T09:39:55Z","2020-07-15T09:40:04Z","2020-07-15T09:40:13Z","2020-07-15T09:40:21Z","2020-07-15T09:40:31Z","2020-07-15T09:40:48Z","2020-07-15T09:40:59Z","2020-07-15T09:41:09Z","2020-07-15T09:41:20Z","2020-07-15T09:42:35Z","2020-07-15T09:42:47Z","2020-07-15T09:42:56Z","2020-07-15T09:43:05Z","2020-07-15T09:43:12Z","2020-07-15T09:43:21Z","2020-07-15T09:43:30Z","2020-07-15T09:43:37Z","2020-07-15T09:43:45Z","2020-07-15T09:43:53Z","2020-07-15T09:44:02Z","2020-07-15T09:44:12Z","2020-07-15T09:44:21Z","2020-07-15T09:44:32Z","2020-07-15T09:44:40Z","2020-07-15T09:44:50Z","2020-07-15T09:45:02Z","2020-07-15T09:45:14Z","2020-07-15T09:45:23Z","2020-07-15T09:45:32Z","2020-07-15T09:45:43Z","2020-07-15T09:46:00Z","2020-07-15T09:46:11Z","2020-07-15T09:46:19Z","2020-07-15T09:46:26Z","2020-07-15T09:46:33Z","2020-07-15T09:46:42Z","2020-07-15T09:46:55Z","2020-07-15T09:47:03Z","2020-07-15T09:47:11Z","2020-07-15T09:47:19Z","2020-07-15T09:47:27Z","2020-07-15T09:47:35Z","2020-07-15T09:47:43Z","2020-07-15T09:47:51Z","2020-07-15T09:48:00Z","2020-07-15T09:48:08Z","2020-07-15T09:48:15Z","2020-07-15T09:48:23Z","2020-07-15T09:48:33Z","2020-07-15T09:48:40Z","2020-07-15T09:48:47Z","2020-07-15T09:48:54Z","2020-07-15T09:49:00Z","2020-07-15T09:49:07Z","2020-07-15T09:49:16Z","2020-07-15T09:49:24Z","2020-07-15T09:49:34Z","2020-07-15T09:49:45Z","2020-07-15T09:49:55Z","2020-07-15T09:50:04Z","2020-07-15T09:50:11Z","2020-07-15T09:50:18Z","2020-07-15T09:50:25Z","2020-07-15T09:50:35Z","2020-07-15T09:50:56Z","2020-07-15T09:51:05Z","2020-07-15T09:51:15Z","2020-07-15T09:51:28Z","2020-07-15T09:51:39Z","2020-07-15T09:51:47Z","2020-07-15T09:51:55Z","2020-07-15T09:52:03Z","2020-07-15T09:52:09Z","2020-07-15T09:52:15Z","2020-07-15T09:52:21Z","2020-07-15T09:52:37Z","2020-07-15T09:52:56Z","2020-07-15T09:53:03Z","2020-07-15T09:53:31Z","2020-07-15T09:53:41Z","2020-07-15T09:53:50Z","2020-07-15T09:53:56Z","2020-07-15T09:54:03Z","2020-07-15T09:54:11Z","2020-07-15T09:54:20Z","2020-07-15T09:54:26Z","2020-07-15T09:54:34Z","2020-07-15T09:54:42Z","2020-07-15T09:55:24Z","2020-07-15T09:57:39Z","2020-07-15T09:57:47Z","2020-07-15T09:57:53Z","2020-07-15T09:58:01Z","2020-07-15T09:58:11Z","2020-07-15T09:58:23Z","2020-07-15T09:58:29Z","2020-07-15T09:58:35Z","2020-07-15T09:58:41Z","2020-07-15T09:58:47Z","2020-07-15T09:58:53Z","2020-07-15T09:59:01Z","2020-07-15T09:59:10Z","2020-07-15T09:59:17Z","2020-07-15T09:59:23Z","2020-07-15T09:59:29Z","2020-07-15T09:59:35Z","2020-07-15T09:59:41Z","2020-07-15T09:59:47Z","2020-07-15T09:59:53Z","2020-07-15T09:59:59Z","2020-07-15T10:00:24Z","2020-07-15T10:00:31Z","2020-07-15T10:00:39Z","2020-07-15T10:00:46Z","2020-07-15T10:00:52Z","2020-07-15T10:00:58Z","2020-07-15T10:01:04Z","2020-07-15T10:01:11Z","2020-07-15T10:01:30Z","2020-07-15T10:01:36Z","2020-07-15T10:01:42Z","2020-07-15T10:01:49Z","2020-07-15T10:01:55Z","2020-07-15T10:02:01Z","2020-07-15T10:02:07Z","2020-07-15T10:02:15Z","2020-07-15T10:02:23Z","2020-07-15T10:02:29Z","2020-07-15T10:02:35Z","2020-07-15T10:02:42Z","2020-07-15T10:02:49Z","2020-07-15T10:02:55Z","2020-07-15T10:03:01Z","2020-07-15T10:03:07Z","2020-07-15T10:03:13Z","2020-07-15T10:03:19Z","2020-07-15T10:03:25Z","2020-07-15T10:03:31Z","2020-07-15T10:03:36Z","2020-07-15T10:03:42Z","2020-07-15T10:03:49Z","2020-07-15T10:03:56Z","2020-07-15T10:04:04Z","2020-07-15T10:05:47Z","2020-07-15T10:05:53Z","2020-07-15T10:05:59Z","2020-07-15T10:06:05Z","2020-07-15T10:06:15Z","2020-07-15T10:06:56Z","2020-07-15T10:07:12Z","2020-07-15T10:07:21Z","2020-07-15T10:07:28Z","2020-07-15T10:07:37Z","2020-07-15T10:07:44Z","2020-07-15T10:07:50Z","2020-07-15T10:07:56Z","2020-07-15T10:08:02Z","2020-07-15T10:08:09Z","2020-07-15T10:08:16Z","2020-07-15T10:08:25Z","2020-07-15T10:08:32Z","2020-07-15T10:08:38Z","2020-07-15T10:08:44Z","2020-07-15T10:08:50Z","2020-07-15T10:08:56Z","2020-07-15T10:09:03Z","2020-07-15T10:09:10Z","2020-07-15T10:09:16Z","2020-07-15T10:09:23Z","2020-07-15T10:09:30Z","2020-07-15T10:09:37Z","2020-07-15T10:09:43Z","2020-07-15T10:09:49Z","2020-07-15T10:09:55Z","2020-07-15T10:10:02Z","2020-07-15T10:10:09Z","2020-07-15T10:10:16Z","2020-07-15T10:10:23Z","2020-07-15T10:10:33Z","2020-07-15T10:10:48Z","2020-07-15T10:10:59Z","2020-07-15T10:11:11Z","2020-07-15T10:11:22Z","2020-07-15T10:11:35Z","2020-07-15T10:11:47Z","2020-07-15T10:12:17Z","2020-07-15T10:12:50Z","2020-07-15T10:13:05Z","2020-07-15T10:13:24Z","2020-07-15T10:13:39Z","2020-07-15T10:13:56Z","2020-07-15T10:14:07Z","2020-07-15T10:17:52Z","2020-07-15T10:20:42Z","2020-07-15T10:20:50Z","2020-07-15T10:20:56Z","2020-07-15T10:21:02Z","2020-07-15T10:21:08Z","2020-07-15T10:21:14Z","2020-07-15T10:21:21Z","2020-07-15T10:21:28Z","2020-07-15T10:21:34Z","2020-07-15T10:21:41Z","2020-07-15T10:21:47Z","2020-07-15T10:21:53Z","2020-07-15T10:22:00Z","2020-07-15T10:22:07Z","2020-07-15T10:22:14Z","2020-07-15T10:22:20Z","2020-07-15T10:22:26Z","2020-07-15T10:22:33Z","2020-07-15T10:22:40Z","2020-07-15T10:22:46Z","2020-07-15T10:22:53Z","2020-07-15T10:23:03Z","2020-07-15T10:23:28Z","2020-07-15T10:23:35Z","2020-07-15T10:23:43Z","2020-07-15T10:23:52Z","2020-07-15T10:24:27Z","2020-07-15T10:24:35Z","2020-07-15T10:24:41Z","2020-07-15T10:24:47Z","2020-07-15T10:24:53Z","2020-07-15T10:24:59Z","2020-07-15T10:25:05Z","2020-07-15T10:25:11Z","2020-07-15T10:25:17Z","2020-07-15T10:25:24Z","2020-07-15T10:25:33Z","2020-07-15T10:26:15Z","2020-07-15T10:26:21Z","2020-07-15T10:26:27Z","2020-07-15T10:26:33Z","2020-07-15T10:26:39Z","2020-07-15T10:26:45Z","2020-07-15T10:26:51Z","2020-07-15T10:26:57Z","2020-07-15T10:27:05Z","2020-07-15T10:27:20Z","2020-07-15T10:27:28Z","2020-07-15T10:27:36Z","2020-07-15T10:27:43Z","2020-07-15T10:27:50Z","2020-07-15T10:27:56Z","2020-07-15T10:28:02Z","2020-07-15T10:28:08Z","2020-07-15T10:28:15Z","2020-07-15T10:28:41Z","2020-07-15T10:28:47Z","2020-07-15T10:28:53Z","2020-07-15T10:28:59Z","2020-07-15T10:29:05Z","2020-07-15T10:29:12Z","2020-07-15T10:29:18Z","2020-07-15T10:29:24Z","2020-07-15T10:30:09Z","2020-07-15T10:30:15Z","2020-07-15T10:30:21Z","2020-07-15T10:30:27Z","2020-07-15T10:30:33Z","2020-07-15T10:30:40Z","2020-07-15T10:30:46Z","2020-07-15T10:30:53Z","2020-07-15T10:31:00Z","2020-07-15T10:31:07Z","2020-07-15T10:31:13Z","2020-07-15T10:31:20Z","2020-07-15T10:31:27Z","2020-07-15T10:31:34Z","2020-07-15T10:31:41Z","2020-07-15T10:31:48Z","2020-07-15T10:31:55Z","2020-07-15T10:32:02Z","2020-07-15T10:32:09Z","2020-07-15T10:32:16Z","2020-07-15T10:32:23Z","2020-07-15T10:32:34Z","2020-07-15T10:32:44Z","2020-07-15T10:32:52Z","2020-07-15T10:32:59Z","2020-07-15T10:33:09Z","2020-07-15T10:33:50Z","2020-07-15T10:34:00Z","2020-07-15T10:34:09Z","2020-07-15T10:34:16Z","2020-07-15T10:34:24Z","2020-07-15T10:35:29Z","2020-07-15T10:35:36Z","2020-07-15T10:35:43Z","2020-07-15T10:35:50Z","2020-07-15T10:35:57Z","2020-07-15T10:36:06Z","2020-07-15T10:36:14Z","2020-07-15T10:36:22Z","2020-07-15T10:36:39Z","2020-07-15T10:36:45Z","2020-07-15T10:36:52Z","2020-07-15T10:36:59Z","2020-07-15T10:37:08Z","2020-07-15T10:37:17Z","2020-07-15T10:37:26Z","2020-07-15T10:37:38Z","2020-07-15T10:37:50Z","2020-07-15T10:38:01Z","2020-07-15T10:38:09Z","2020-07-15T10:38:17Z","2020-07-15T10:38:25Z","2020-07-15T10:38:33Z","2020-07-15T10:38:41Z","2020-07-15T10:38:52Z","2020-07-15T10:39:05Z","2020-07-15T10:39:19Z","2020-07-15T10:39:33Z","2020-07-15T10:39:42Z","2020-07-15T10:39:50Z","2020-07-15T10:39:58Z","2020-07-15T10:40:07Z","2020-07-15T10:40:16Z","2020-07-15T10:40:24Z","2020-07-15T10:40:32Z","2020-07-15T10:40:41Z","2020-07-15T10:40:48Z","2020-07-15T10:40:55Z","2020-07-15T10:41:03Z","2020-07-15T10:41:11Z","2020-07-15T10:41:18Z","2020-07-15T10:41:26Z","2020-07-15T10:41:34Z","2020-07-15T10:41:43Z","2020-07-15T10:41:52Z","2020-07-15T10:42:11Z","2020-07-15T10:42:21Z","2020-07-15T10:42:55Z","2020-07-15T10:43:02Z","2020-07-15T10:43:09Z","2020-07-15T10:43:19Z","2020-07-15T10:43:36Z","2020-07-15T10:43:46Z","2020-07-15T10:43:53Z","2020-07-15T10:44:02Z","2020-07-15T10:44:14Z","2020-07-15T10:44:30Z","2020-07-15T10:44:55Z","2020-07-15T10:45:16Z","2020-07-15T10:45:26Z","2020-07-15T10:45:34Z","2020-07-15T10:45:44Z","2020-07-15T10:45:52Z","2020-07-15T10:46:00Z","2020-07-15T10:46:09Z","2020-07-15T10:46:23Z","2020-07-15T10:46:32Z","2020-07-15T10:46:40Z","2020-07-15T10:46:47Z","2020-07-15T10:46:58Z","2020-07-15T10:47:09Z","2020-07-15T10:47:20Z","2020-07-15T10:48:31Z","2020-07-15T10:48:40Z","2020-07-15T10:48:49Z","2020-07-15T10:49:00Z","2020-07-15T10:49:12Z","2020-07-15T10:49:23Z","2020-07-15T10:49:31Z","2020-07-15T10:49:40Z","2020-07-15T10:49:50Z","2020-07-15T10:49:57Z","2020-07-15T10:50:04Z","2020-07-15T10:50:11Z","2020-07-15T10:50:20Z","2020-07-15T10:50:29Z","2020-07-15T10:50:37Z","2020-07-15T10:50:47Z","2020-07-15T10:50:54Z","2020-07-15T10:51:01Z","2020-07-15T10:51:12Z","2020-07-15T10:51:21Z","2020-07-15T10:51:42Z","2020-07-15T10:51:51Z","2020-07-15T10:52:00Z","2020-07-15T10:52:08Z","2020-07-15T10:52:15Z","2020-07-15T10:52:24Z","2020-07-15T10:52:32Z","2020-07-15T10:52:40Z","2020-07-15T10:52:49Z","2020-07-15T10:53:01Z","2020-07-15T10:53:13Z","2020-07-15T10:53:25Z","2020-07-15T10:53:36Z","2020-07-15T10:53:47Z","2020-07-15T10:53:58Z","2020-07-15T10:54:14Z","2020-07-15T10:54:35Z","2020-07-15T10:54:45Z","2020-07-15T10:54:54Z","2020-07-15T10:55:02Z","2020-07-15T10:55:10Z","2020-07-15T10:55:36Z","2020-07-15T10:55:45Z","2020-07-15T10:55:53Z","2020-07-15T10:56:01Z","2020-07-15T10:56:11Z","2020-07-15T10:56:19Z","2020-07-15T10:56:28Z","2020-07-15T10:56:37Z","2020-07-15T10:56:48Z","2020-07-15T10:56:56Z","2020-07-15T10:57:03Z","2020-07-15T10:57:11Z","2020-07-15T10:57:20Z","2020-07-15T10:57:27Z","2020-07-15T10:57:36Z","2020-07-15T10:57:44Z","2020-07-15T10:57:53Z","2020-07-15T10:58:02Z","2020-07-15T10:58:10Z","2020-07-15T10:58:19Z","2020-07-15T10:58:29Z","2020-07-15T10:58:38Z","2020-07-15T10:58:49Z","2020-07-15T10:58:57Z","2020-07-15T10:59:07Z","2020-07-15T10:59:16Z","2020-07-15T10:59:26Z","2020-07-15T10:59:34Z","2020-07-15T10:59:42Z","2020-07-15T10:59:51Z","2020-07-15T11:00:01Z","2020-07-15T11:00:11Z","2020-07-15T11:00:23Z","2020-07-15T11:00:33Z","2020-07-15T11:00:40Z","2020-07-15T11:00:48Z","2020-07-15T11:00:55Z","2020-07-15T11:01:02Z","2020-07-15T11:01:10Z","2020-07-15T11:01:19Z","2020-07-15T11:01:27Z","2020-07-15T11:01:35Z","2020-07-15T11:01:43Z","2020-07-15T11:01:54Z","2020-07-15T11:02:05Z","2020-07-15T11:02:13Z","2020-07-15T11:02:21Z","2020-07-15T11:02:28Z","2020-07-15T11:02:37Z","2020-07-15T11:02:45Z","2020-07-15T11:02:53Z","2020-07-15T11:03:01Z","2020-07-15T11:03:09Z","2020-07-15T11:03:16Z","2020-07-15T11:03:23Z","2020-07-15T11:03:30Z","2020-07-15T11:03:39Z","2020-07-15T11:03:46Z","2020-07-15T11:03:53Z","2020-07-15T11:04:00Z","2020-07-15T11:04:08Z","2020-07-15T11:04:17Z","2020-07-15T11:04:28Z","2020-07-15T11:04:37Z","2020-07-15T11:04:44Z","2020-07-15T11:04:51Z","2020-07-15T11:04:59Z","2020-07-15T11:05:07Z","2020-07-15T11:05:14Z","2020-07-15T11:05:22Z","2020-07-15T11:05:29Z","2020-07-15T11:05:37Z","2020-07-15T11:05:45Z","2020-07-15T11:05:53Z","2020-07-15T11:06:01Z","2020-07-15T11:06:09Z","2020-07-15T11:06:17Z","2020-07-15T11:06:24Z","2020-07-15T11:06:30Z","2020-07-15T11:06:37Z","2020-07-15T11:06:45Z","2020-07-15T11:06:53Z","2020-07-15T11:07:01Z","2020-07-15T11:07:09Z","2020-07-15T11:07:16Z","2020-07-15T11:07:23Z","2020-07-15T11:07:30Z","2020-07-15T11:07:37Z","2020-07-15T11:07:45Z","2020-07-15T11:08:05Z","2020-07-15T11:08:25Z","2020-07-15T11:08:31Z","2020-07-15T11:08:38Z","2020-07-15T11:08:44Z","2020-07-15T11:08:50Z","2020-07-15T11:08:57Z","2020-07-15T11:09:05Z","2020-07-15T11:09:25Z","2020-07-15T11:09:25Z","2020-07-15T11:09:33Z","2020-07-15T11:09:41Z","2020-07-15T11:09:48Z","2020-07-15T11:09:55Z","2020-07-15T11:10:03Z","2020-07-15T11:10:11Z","2020-07-15T11:10:19Z","2020-07-15T11:10:26Z","2020-07-15T11:10:34Z","2020-07-15T11:10:42Z","2020-07-15T11:10:49Z","2020-07-15T11:11:02Z","2020-07-15T11:11:11Z","2020-07-15T11:11:19Z","2020-07-15T11:11:34Z","2020-07-15T11:11:56Z","2020-07-15T11:12:10Z","2020-07-15T11:12:26Z","2020-07-15T11:12:41Z","2020-07-15T11:12:52Z","2020-07-15T11:13:06Z","2020-07-15T11:13:21Z","2020-07-15T11:13:32Z","2020-07-15T11:13:42Z","2020-07-15T11:13:55Z","2020-07-15T11:14:04Z","2020-07-15T11:14:15Z","2020-07-15T11:14:35Z","2020-07-15T11:14:46Z","2020-07-15T11:14:57Z","2020-07-15T11:15:07Z","2020-07-15T11:16:28Z","2020-07-15T11:16:35Z","2020-07-15T11:16:42Z","2020-07-15T11:16:49Z","2020-07-15T11:16:56Z","2020-07-15T11:17:03Z","2020-07-15T11:17:09Z","2020-07-15T11:17:16Z","2020-07-15T11:17:28Z","2020-07-15T11:17:34Z","2020-07-15T11:17:41Z","2020-07-15T11:17:48Z","2020-07-15T11:17:55Z","2020-07-15T11:18:02Z","2020-07-15T11:18:28Z","2020-07-15T11:18:35Z","2020-07-15T11:18:41Z","2020-07-15T11:23:58Z","2020-07-15T11:24:07Z","2020-07-15T11:24:15Z","2020-07-15T11:24:23Z","2020-07-15T11:24:31Z","2020-07-15T11:24:40Z","2020-07-15T11:24:50Z","2020-07-15T11:24:59Z","2020-07-15T11:25:08Z","2020-07-15T11:25:20Z","2020-07-15T11:25:51Z","2020-07-15T11:33:04Z","2020-07-15T11:33:11Z","2020-07-15T11:33:49Z","2020-07-15T11:33:55Z","2020-07-15T11:34:06Z","2020-07-15T11:34:12Z","2020-07-15T11:34:18Z","2020-07-15T11:34:24Z","2020-07-15T11:34:30Z","2020-07-15T11:34:36Z","2020-07-15T11:34:42Z","2020-07-15T11:34:48Z","2020-07-15T11:34:54Z","2020-07-15T11:35:00Z","2020-07-15T11:35:07Z","2020-07-15T11:35:14Z","2020-07-15T11:35:20Z","2020-07-15T11:35:25Z","2020-07-15T11:35:30Z","2020-07-15T11:35:36Z","2020-07-15T11:35:41Z","2020-07-15T11:35:47Z","2020-07-15T11:36:00Z","2020-07-15T11:36:06Z","2020-07-15T11:36:12Z","2020-07-15T11:36:18Z","2020-07-15T11:36:24Z","2020-07-15T11:36:30Z","2020-07-15T11:36:36Z","2020-07-15T11:36:42Z","2020-07-15T11:36:48Z","2020-07-15T11:36:54Z","2020-07-15T11:37:01Z","2020-07-15T11:37:07Z","2020-07-15T11:37:13Z","2020-07-15T11:37:19Z","2020-07-15T11:37:25Z","2020-07-15T11:37:31Z","2020-07-15T11:37:37Z","2020-07-15T11:37:43Z","2020-07-15T11:37:49Z","2020-07-15T11:37:56Z","2020-07-15T11:38:03Z","2020-07-15T11:38:10Z","2020-07-15T11:38:17Z","2020-07-15T11:38:23Z","2020-07-15T11:38:29Z","2020-07-15T11:38:36Z","2020-07-15T11:38:43Z","2020-07-15T11:38:49Z","2020-07-15T11:38:56Z","2020-07-15T11:39:55Z","2020-07-15T11:40:05Z","2020-07-15T11:40:14Z","2020-07-15T11:40:51Z","2020-07-15T11:40:58Z","2020-07-15T11:41:05Z","2020-07-15T11:41:11Z","2020-07-15T11:41:17Z","2020-07-15T11:41:24Z","2020-07-15T11:41:30Z","2020-07-15T11:41:36Z","2020-07-15T11:41:43Z","2020-07-15T11:41:49Z","2020-07-15T11:41:55Z","2020-07-15T11:42:01Z","2020-07-15T11:43:25Z"]}},"geometry":{"type":"LineString","coordinates":[[-6.854994501918554,62.27631856687367,17.63],[-6.855113189667463,62.27637665346265,18.45],[-6.855170438066125,62.27646357379854,19.08],[-6.85515602119267,62.276558708399534,19.35],[-6.855132132768631,62.27664973586798,19.88],[-6.855124002322555,62.27675300091505,20.71],[-6.855100616812706,62.2768472135067,21.2],[-6.855100113898516,62.276939330622554,21.3],[-6.855095000937581,62.277044439688325,20.82],[-6.855097180232406,62.27713865227997,20.65],[-6.855089217424393,62.277235044166446,20.98],[-6.85506071895361,62.27734032087028,20.9],[-6.855000117793679,62.27743964642286,20.4],[-6.854931553825736,62.277516005560756,20.47],[-6.854981426149607,62.277599992230535,20.37],[-6.854932811111212,62.27768532000482,20.81],[-6.854930464178324,62.27777668274939,21.34],[-6.85492149554193,62.27787600830197,23.19],[-6.854869024828076,62.27797416038811,24.51],[-6.854796437546611,62.27807759307325,25.86],[-6.854651430621743,62.27815764024854,27.19],[-6.854494102299213,62.27822184562683,28.35],[-6.854336354881525,62.2782822791487,28.93],[-6.854204088449478,62.278347071260214,29.49],[-6.854304755106568,62.27842787280679,31.73],[-6.854483541101217,62.27848378010094,33.92],[-6.854679929092526,62.27852711454034,35.06],[-6.85480372980237,62.27859701961279,36.84],[-6.854911437258124,62.27867664769292,37.71],[-6.855030627921224,62.27875309064984,38.97],[-6.855172952637076,62.27882375009358,40.69],[-6.855295496061444,62.27889164350927,42.35],[-6.85543455183506,62.2789609618485,44.05],[-6.855544270947576,62.27904067374766,45.65],[-6.855677627027035,62.27910571731627,47.04],[-6.855862867087126,62.27915986441076,49.23],[-6.856075432151556,62.279195906594396,50.17],[-6.856272490695119,62.279235888272524,50.2],[-6.856458820402622,62.27925826795399,50.58],[-6.856644647195935,62.279271092265844,50.92],[-6.856846399605274,62.27927980944514,50.79],[-6.857047313824296,62.279303865507245,50.91],[-6.857230039313436,62.27932909503579,51.2],[-6.857437575235963,62.27934476919472,51.81],[-6.857628850266337,62.279342422261834,52.67],[-6.85771644115448,62.279354743659496,53.59],[-6.857904028147459,62.279371339827776,54.1],[-6.858083149418235,62.279373267665505,54.52],[-6.85829596593976,62.27938164956868,54.81],[-6.858484307304025,62.27938215248287,55.2],[-6.858695028349757,62.27938391268253,55.31],[-6.858907928690314,62.279391372576356,56.1],[-6.859133904799819,62.27940386161208,56.65],[-6.859349235892296,62.27941928431392,57.05],[-6.859530955553055,62.279437724500895,57.51],[-6.859723320230842,62.279446022585034,57.69],[-6.859914846718311,62.279454320669174,57.29],[-6.860117772594094,62.27946538478136,57.55],[-6.860325308516622,62.279493464156985,57.54],[-6.860528402030468,62.27950385771692,57.62],[-6.860733339563012,62.279517939314246,57.9],[-6.860929476097226,62.279519280418754,57.52],[-6.861092336475849,62.27947510778904,56.67],[-6.861203648149967,62.279435796663165,56.76],[-6.86108160763979,62.27951114997268,57.38],[-6.860953951254487,62.279586838558316,58.72],[-6.860841298475862,62.27967308834195,59.69],[-6.860838448628783,62.27970083244145,60.76],[-6.860712803900242,62.279764702543616,61.75],[-6.860622363165021,62.27984516881406,63.14],[-6.860402002930641,62.27985430508852,64.14],[-6.860205782577395,62.279912140220404,66.11],[-6.860148198902607,62.28000031784177,68.84],[-6.860151216387749,62.28009436279535,71.83],[-6.860114503651857,62.28019100613892,74.79],[-6.860031858086586,62.28028412908316,77.66],[-6.859917277470231,62.2803751565516,80.6],[-6.859902944415808,62.28045428171754,82.74],[-6.860009897500277,62.28054815903306,83.73],[-6.860176026821137,62.28059945628047,84.63],[-6.860342239961028,62.280665673315525,86.57],[-6.860522367060185,62.280700877308846,88.32],[-6.860659243538976,62.28076650761068,89.77],[-6.860793689265847,62.28084957227111,91.34],[-6.860927632078528,62.280917381867766,93.13],[-6.86108504422009,62.28099097497761,94.53],[-6.861217310652137,62.281067334115505,95.43],[-6.861362401396036,62.28112131357193,96.23],[-6.861551245674491,62.28115467354655,97.07],[-6.861710334196687,62.2812092397362,98.41],[-6.861906554549933,62.2812504786998,98.86],[-6.862066565081477,62.28131183423102,100.59],[-6.862203441560268,62.28137578815222,102.62],[-6.862343838438392,62.2814407479018,104.61],[-6.862521953880787,62.281467989087105,106.09],[-6.862633517012,62.281501181423664,108.45],[-6.862794449552894,62.281573433429,111.01],[-6.862978264689446,62.281603775918484,112.32],[-6.863123439252377,62.28164744563401,115.11],[-6.863237516954541,62.28173009119928,117.57],[-6.863401299342513,62.28175196796656,118.2],[-6.863580672070384,62.28179756551981,120.28],[-6.863742275163531,62.28184777311981,123.12],[-6.863780915737152,62.28194575756788,126.34],[-6.863958779722452,62.2819983959198,128.48],[-6.864116862416267,62.28203007951379,129.05],[-6.86427528038621,62.282087076455355,131.66],[-6.864462615922093,62.28210627101362,132.36],[-6.864614328369498,62.282175505533814,133.44],[-6.864741314202547,62.282236609607935,136.79],[-6.864926889538765,62.28224909864366,138.51],[-6.865082792937756,62.28221112862229,136.44],[-6.865243893116713,62.282207272946835,137.38],[-6.865439023822546,62.28222168982029,137.76],[-6.865633903071284,62.28225362487137,139.63],[-6.865865495055914,62.2822230309248,139.14],[-6.866058697924018,62.282237531617284,139.34],[-6.866274196654558,62.28224616497755,139.86],[-6.866490030661225,62.282237531617284,139.82],[-6.866708630695939,62.28224901482463,140.47],[-6.866916250437498,62.28228279389441,141.99],[-6.867128564044833,62.28231246583164,143.47],[-6.867343224585056,62.28235026821494,144.41],[-6.867517903447151,62.28238924406469,145.39],[-6.867695013061166,62.282424783334136,146.76],[-6.867873044684529,62.28246895596385,148.6],[-6.868057949468494,62.282508770003915,149.76],[-6.86799961142242,62.2825076803565,144.87],[-6.868096757680178,62.282540537416935,144.68],[-6.868276884779334,62.282595690339804,145.1],[-6.868463214486837,62.282646149396896,145.68],[-6.868661530315876,62.28269761428237,145.86],[-6.868875771760941,62.28273290209472,146.29],[-6.869028741493821,62.282791659235954,146.61],[-6.86914742924273,62.28287589736283,146.8],[-6.869252370670438,62.28297212161124,146.53],[-6.869327304884791,62.28307144716382,146.16],[-6.86945035122335,62.28315090760589,146.01],[-6.869593597948551,62.28322039358318,145.57],[-6.869680434465408,62.28330706246197,145.69],[-6.869767103344202,62.2834160272032,145.21],[-6.869783531874418,62.283527590334415,144.75],[-6.869808593764901,62.283643847331405,144.17],[-6.869908422231674,62.28374493308365,143.71],[-6.869972627609968,62.28383210487664,143.05],[-6.870034234598279,62.28391760028899,142.3],[-6.870086370036006,62.28400778956711,142.25],[-6.87016130425036,62.28409957140684,142.68],[-6.870232550427318,62.28419914841652,142.95],[-6.870312513783574,62.284293780103326,141.67],[-6.870457269251347,62.284411545842886,140.36],[-6.870623482391238,62.284499891102314,139.75],[-6.870759604498744,62.28459628298879,139.26],[-6.870898911729455,62.2846956923604,138.56],[-6.87101399526,62.28478361852467,138.1],[-6.871110051870346,62.284881519153714,137.94],[-6.871213903650641,62.28496424853802,137.69],[-6.87131742015481,62.28504898957908,137.11],[-6.871464354917407,62.28511210530996,136.41],[-6.871613301336765,62.285182597115636,135.65],[-6.871756967157126,62.28524680249393,134.99],[-6.871877750381827,62.28531813248992,133.53],[-6.871944302693009,62.285380996763706,132.48],[-6.872075311839581,62.28543455712497,132.3],[-6.872139517217875,62.28553086519241,131.54],[-6.872259546071291,62.285615941509604,131.05],[-6.872314028441906,62.28571208193898,130.92],[-6.872373288497329,62.285816268995404,130.61],[-6.872452078387141,62.2859029378742,129.99],[-6.872554589062929,62.28598457761109,128.63],[-6.872641677036881,62.286079628393054,128.6],[-6.8727339617908,62.28618012741208,128.36],[-6.872850973159075,62.286261431872845,128.12],[-6.872909311205149,62.28634634055197,126.93],[-6.872968822717667,62.28644977323711,125.69],[-6.873066974803805,62.28653124533594,124.64],[-6.873062113299966,62.28663786314428,124.02],[-6.873160935938358,62.28671791031957,123.51],[-6.873290855437517,62.28680307045579,123.01],[-6.873423540964723,62.28686920367181,121.6],[-6.873556394129992,62.286940114572644,121.29],[-6.873724535107613,62.286979760974646,119.76],[-6.873793266713619,62.287069614976645,118.48],[-6.873904410749674,62.28716273792088,117.77],[-6.873998371884227,62.28724379092455,116.57],[-6.874114209786058,62.287318892776966,115.5],[-6.874204901978374,62.287407321855426,114.44],[-6.874342951923609,62.28748619556427,112.53],[-6.874489635229111,62.28755559772253,112.07],[-6.874690549448133,62.28759465739131,111.43],[-6.874877214431763,62.28759415447712,110.98],[-6.875047953799367,62.28760404512286,110.69],[-6.875235289335251,62.28757663629949,111.39],[-6.875435784459114,62.28756004013121,110.38],[-6.875625886023045,62.287608068436384,108.42],[-6.87578346580267,62.28764117695391,107.55],[-6.875999718904495,62.28765903040767,106.01],[-6.876202644780278,62.287652576342225,105.44],[-6.876446390524507,62.28766246698797,104.78],[-6.876660715788603,62.28768736124039,104.87],[-6.876866323873401,62.28772851638496,102.54],[-6.877062795683742,62.287758607417345,100.65],[-6.877287095412612,62.28778484277427,100.22],[-6.877460181713104,62.287820717319846,99.21],[-6.877646427601576,62.28782222606242,98.86],[-6.877841139212251,62.28784871287644,98.16],[-6.878016153350473,62.287912080064416,97.19],[-6.878160824999213,62.28796220384538,96.5],[-6.878336342051625,62.2879923786968,94.88],[-6.878510266542435,62.288035210222006,93.6],[-6.878668516874313,62.28809589520097,93.18],[-6.878859708085656,62.28813788853586,91.69],[-6.879063053056598,62.288136379793286,92.22],[-6.879272852092981,62.28814006783068,91.77],[-6.879484578967094,62.28809547610581,91.96],[-6.879632938653231,62.28816923685372,91.61],[-6.879810132086277,62.28822338394821,91.2],[-6.879994869232178,62.28818893432617,92.8],[-6.880189832299948,62.28821475058794,92.01],[-6.880232999101281,62.28830954991281,90.87],[-6.880350429564714,62.28838004171848,90.38],[-6.880529802292585,62.28837878443301,88.91],[-6.880641533061862,62.288418766111135,90.34],[-6.880750833079219,62.288431925699115,88.29],[-6.880935486406088,62.28844651021063,86.13],[-6.881137071177363,62.288431925699115,87.17],[-6.8813182041049,62.28840770199895,85.81],[-6.881537977606058,62.28844190016389,86.67],[-6.88170662149787,62.28845598176122,87.47],[-6.881921282038093,62.28846159763634,86.69],[-6.8821454141289,62.28847433812916,86.76],[-6.882344065234065,62.288513984531164,86.01],[-6.882498124614358,62.28853493928909,83.81],[-6.882628630846739,62.28852488100529,82.16],[-6.88280263915658,62.28857391513884,79.17],[-6.882979664951563,62.28858908638358,77.02],[-6.883178148418665,62.288598557934165,74.64],[-6.883380571380258,62.28862563148141,72.98],[-6.883582910522819,62.28861750103533,72],[-6.883703107014298,62.28861087933183,70.03],[-6.883815592154861,62.28866770863533,67.49],[-6.88401198014617,62.28870182298124,64.89],[-6.884192610159516,62.288691429421306,62.43],[-6.884398553520441,62.2886969614774,61.75],[-6.884611621499062,62.28870442137122,61.26],[-6.884808763861656,62.28867843747139,59.34],[-6.885002972558141,62.288663517683744,59.15],[-6.885204054415226,62.28866276331246,58.87],[-6.885406896471977,62.28865169920027,57.73],[-6.885602781549096,62.288617668673396,58.31],[-6.885800510644913,62.288595205172896,58.72],[-6.885937973856926,62.28851876221597,60.71],[-6.886128578335047,62.28847534395754,61.64],[-6.886335778981447,62.288479199633,60.3],[-6.886513056233525,62.28843326680362,60.65],[-6.886676168069243,62.28837174363434,62.74],[-6.886907089501619,62.28834366425872,62.49],[-6.887098699808121,62.288295552134514,63.35],[-6.88728871755302,62.288245260715485,64.15],[-6.88749248161912,62.28821567259729,65.06],[-6.887703621760011,62.28818968869746,65.16],[-6.887696497142315,62.28816010057926,64.46],[-6.887765899300575,62.28814727626741,64.75],[-6.887744441628456,62.288159346207976,64.7],[-6.887793308123946,62.288113413378596,65.21],[-6.887921299785376,62.28814484551549,65.18],[-6.887745195999742,62.288186671212316,65.26],[-6.887888442724943,62.28814098984003,65.68],[-6.888050464913249,62.2880666423589,67.75],[-6.888273423537612,62.28806077502668,67.07],[-6.888411222025752,62.287985840812325,68.74],[-6.888585314154625,62.28793513029814,70.04],[-6.888783127069473,62.28788576088846,69.53],[-6.888985633850098,62.28786530904472,71.15],[-6.889192750677466,62.28784108534455,71.33],[-6.889428533613682,62.28785893879831,68.36],[-6.889663813635707,62.287838235497475,68.11],[-6.889838743954897,62.287845527753234,66.6],[-6.890023816376925,62.287805462256074,65.43],[-6.890243757516146,62.2878042049706,65.38],[-6.890440061688423,62.287802109494805,63.76],[-6.890639886260033,62.28777151554823,62.55],[-6.890823785215616,62.28773480281234,62.01],[-6.891043055802584,62.28771862573922,61.38],[-6.891252771019936,62.28773010894656,61.12],[-6.891467599198222,62.28771971538663,59.05],[-6.8916932400316,62.28770303539932,58.56],[-6.891858614981175,62.287643775343895,58.3],[-6.892036395147443,62.28760052472353,58.05],[-6.892232280224562,62.287548976019025,58.11],[-6.892448030412197,62.287522489205,57.65],[-6.892642574384809,62.28748066350818,57.31],[-6.89284055493772,62.28746901266277,57.02],[-6.89302034676075,62.28742274455726,57.45],[-6.89325051382184,62.2874260134995,59.28],[-6.893486464396119,62.28743297047913,56.49],[-6.893659802153707,62.28738519363105,56.58],[-6.893808664754033,62.28733666241169,55.85],[-6.894016535952687,62.287329537793994,54.6],[-6.894248630851507,62.28731604292989,54.22],[-6.894459687173367,62.28730187751353,55.33],[-6.894653812050819,62.287269523367286,54.76],[-6.894857240840793,62.287281677126884,54.49],[-6.895041726529598,62.287250412628055,56.66],[-6.895215986296535,62.28718997910619,58.88],[-6.895420756191015,62.2871633246541,58.24],[-6.895634075626731,62.28716508485377,58.1],[-6.895843958482146,62.287137592211366,59.55],[-6.896029114723206,62.28710020892322,61.14],[-6.896221144124866,62.28707523085177,61.17],[-6.896437983959913,62.28704824112356,62.06],[-6.896657757461071,62.28702099993825,61.13],[-6.896854648366571,62.28698864579201,62.11],[-6.897065034136176,62.286968948319554,62.25],[-6.897268798202276,62.28694371879101,61.91],[-6.897463593631983,62.28690130636096,62.74],[-6.897642882540822,62.28686157613993,65.48],[-6.897840108722448,62.286845315247774,66.04],[-6.898027108982205,62.286811200901866,65.08],[-6.898217042908073,62.28683198802173,64.3],[-6.898403121158481,62.28683475404978,63.11],[-6.898584002628923,62.286805249750614,63.88],[-6.898749796673656,62.28673970326781,65.77],[-6.898917183279991,62.286693854257464,64.59],[-6.899122036993504,62.286667451262474,62.02],[-6.89932269975543,62.28666124865413,59.15],[-6.89952495507896,62.28664021007717,57.01],[-6.899730227887631,62.2866402938962,54.7],[-6.899922760203481,62.28665160946548,53.32],[-6.900130463764072,62.28661607019603,52.1],[-6.900321152061224,62.28658044710755,50.53],[-6.90047831274569,62.28654155507684,50.53],[-6.900644022971392,62.28648606687784,50.16],[-6.900798752903938,62.286415407434106,48.93],[-6.900998242199421,62.2863672953099,46.76],[-6.901212483644486,62.28632907383144,44.08],[-6.901443907991052,62.28629135526717,41.59],[-6.901634596288204,62.28623528033495,39.77],[-6.901843389496207,62.286193957552314,37.57],[-6.902067940682173,62.28614098392427,36.57],[-6.902222754433751,62.28606822900474,36.48],[-6.902392823249102,62.28600570000708,36.38],[-6.902527436614037,62.28593772277236,36.55],[-6.902688285335898,62.28589019738138,35.76],[-6.902835387736559,62.285825069993734,35.57],[-6.902990369126201,62.28577595204115,35.33],[-6.903150631114841,62.28572767227888,35.05],[-6.903354311361909,62.285681907087564,33.31],[-6.903524296358228,62.28561074472964,32.9],[-6.903665866702795,62.285538325086236,32.43],[-6.903834594413638,62.2854761313647,31.93],[-6.904034167528153,62.28544143028557,30.9],[-6.904200380668044,62.28537420742214,30.18],[-6.904306327924132,62.2852985188365,30.04],[-6.904431972652674,62.28523029014468,29.72],[-6.904621236026287,62.2851946670562,28.36],[-6.904797088354826,62.2851204033941,26.63],[-6.904947878792882,62.285093078389764,25.02],[-6.905101099982858,62.28501143865287,23.76],[-6.905235126614571,62.2849306371063,23.21],[-6.905381390824914,62.28488084860146,22.66],[-6.905508544296026,62.28481253609061,20.55],[-6.905678529292345,62.2847802657634,18.91],[-6.905849603936076,62.28472310118377,18.69],[-6.905986228957772,62.284650010988116,18.07],[-6.906116735190153,62.28457205928862,17.51],[-6.906254030764103,62.284493520855904,16.95],[-6.906368862837553,62.28443291969597,16.53],[-6.906503476202488,62.284362679347396,15.62],[-6.906620487570763,62.28428036905825,14.74],[-6.906743533909321,62.28420602157712,14.51],[-6.906853839755058,62.28412153199315,14.04],[-6.9069604575634,62.28403980843723,13.8],[-6.907077049836516,62.283965880051255,13.73],[-6.907223900780082,62.28388834744692,12.83],[-6.907332865521312,62.28381316177547,12.26],[-6.907444261014462,62.28373353369534,12.09],[-6.907560015097261,62.28366253897548,11.84],[-6.907692197710276,62.28360897861421,11.6],[-6.90778867341578,62.28353756479919,11.31],[-6.907931081950665,62.28347009047866,12.07],[-6.908064689487219,62.283397587016225,12.7],[-6.908198716118932,62.28332952596247,12.62],[-6.908338190987706,62.283265655860305,12.82],[-6.908488143235445,62.28320304304361,12.58],[-6.908618733286858,62.28314227424562,12.31],[-6.908724345266819,62.283066837117076,11.96],[-6.908826688304544,62.28298871777952,11.86],[-6.908940011635423,62.28290322236717,11.58],[-6.909047719091177,62.282816637307405,11.03],[-6.909120390191674,62.2827272862196,10.94],[-6.909192306920886,62.282637264579535,11.19],[-6.909277383238077,62.28253844194114,11.82],[-6.909381067380309,62.282438445836306,12.82],[-6.909534456208348,62.282339287921786,13.35],[-6.909684408456087,62.282261587679386,12.98],[-6.909828996285796,62.28219092823565,12.52],[-6.909978361800313,62.28212705813348,11.67],[-6.910173241049051,62.28209923021495,10.19],[-6.910389326512814,62.28211356326938,8.7],[-6.910618068650365,62.282142732292414,7.95],[-6.91080741584301,62.28216762654483,7.74],[-6.911005396395922,62.28220551274717,7.72],[-6.91121393814683,62.2822402138263,7.6],[-6.91140454262495,62.28226468898356,7.88],[-6.911605373024941,62.28230089880526,7.88],[-6.911779213696718,62.28233543224633,8.3],[-6.91196789033711,62.28236191906035,9.14],[-6.912157572805882,62.282395865768194,10.61],[-6.91234901547432,62.282425202429295,11.64],[-6.9125313218683,62.28245520964265,13.12],[-6.912703821435571,62.28250759653747,13.79],[-6.912682196125388,62.282609436661005,13.7],[-6.912638358771801,62.28270951658487,13.75],[-6.912621427327395,62.28278654627502,13.65],[-6.912771379575133,62.28280381299555,14.38],[-6.912989225238562,62.282827785238624,15.91],[-6.913224924355745,62.28287111967802,17.72],[-6.91341863013804,62.28294094093144,18.7],[-6.913608564063907,62.282985616475344,19.9],[-6.913745272904635,62.28305107913911,20.4],[-6.913905618712306,62.2831242531538,20.74],[-6.914031933993101,62.28321469388902,20.44],[-6.914145089685917,62.283294489607215,19.97],[-6.914264280349016,62.283365903422236,20.09],[-6.914451951161027,62.28341829031706,20.21],[-6.914627719670534,62.28346522897482,20.57],[-6.914765853434801,62.28352532722056,21.19],[-6.914945561438799,62.2835835814476,21.52],[-6.915118983015418,62.28363303467631,22.04],[-6.915293158963323,62.2836871817708,22.38],[-6.915469514206052,62.2837355453521,22.51],[-6.915652491152287,62.28377913124859,22.57],[-6.915849382057786,62.283817352727056,22.89],[-6.916067395359278,62.283835709095,23.43],[-6.916269734501839,62.28385607711971,23.58],[-6.916479701176286,62.283864710479975,23.77],[-6.916688913479447,62.2838531434536,23.57],[-6.916920337826014,62.28383369743824,23.38],[-6.917121587321162,62.28381659835577,23.01],[-6.917327949777246,62.28380092419684,22.39],[-6.917530540376902,62.28376873768866,22.3],[-6.91773371770978,62.283736215904355,22.36],[-6.91794971935451,62.28373487479985,22.23],[-6.918156249448657,62.28376287035644,22.6],[-6.918366886675358,62.28378692641854,22.91],[-6.918570483103395,62.28379899635911,21.39],[-6.918693110346794,62.283824644982815,19.69],[-6.918549612164497,62.2838840726763,16.41],[-6.9186030048877,62.28394861333072,13.68],[-6.918808780610561,62.28395389392972,10.09],[-6.91898756660521,62.28394174017012,5.32],[-6.919039953500032,62.28386781178415,3.79],[-6.919063506647945,62.283810479566455,3.86],[-6.919118408113718,62.283864291384816,4.04],[-6.918932665139437,62.28391399607062,7.41],[-6.918700905516744,62.28395112790167,13.49],[-6.918505188077688,62.28391248732805,16.6],[-6.918629659339786,62.28384015150368,20.1],[-6.918492950499058,62.283825566992164,21.83],[-6.91816664300859,62.283775778487325,22.38],[-6.91814417950809,62.28378089144826,22.48],[-6.91794041544199,62.283742586150765,21.87],[-6.917734807357192,62.283734288066626,22.2],[-6.917530624195933,62.283757673576474,22.29],[-6.917310431599617,62.2837786283344,22.25],[-6.917117312550545,62.283800169825554,22.58],[-6.916915979236364,62.283815843984485,23.54],[-6.916679944843054,62.28382598608732,23.72],[-6.916477270424366,62.283839732408524,23.89],[-6.916237128898501,62.28384216316044,23.88],[-6.916007464751601,62.28382984176278,23.49],[-6.915817949920893,62.28379857726395,22.94],[-6.915624914690852,62.28375222533941,22.42],[-6.915427688509226,62.28370067663491,22.46],[-6.915228115394712,62.28364996612072,22.26],[-6.915054442360997,62.28360503911972,21.86],[-6.91488353535533,62.28355273604393,21.55],[-6.914709024131298,62.283488530665636,21.43],[-6.914507858455181,62.28344528004527,20.45],[-6.914332592859864,62.283394150435925,20.29],[-6.914145005866885,62.28332759812474,20.73],[-6.914031766355038,62.2832487244159,20.8],[-6.913930848240852,62.283163983374834,21.21],[-6.913788355886936,62.28308251127601,20.52],[-6.913604205474258,62.283027693629265,19.87],[-6.913438327610493,62.28297354653478,18.6],[-6.913249650970101,62.282901126891375,17.56],[-6.913023004308343,62.2828636597842,16.36],[-6.912846397608519,62.28283306583762,15.07],[-6.91266811452806,62.282776487991214,13.87],[-6.912622852250934,62.282684203237295,14.35],[-6.912643136456609,62.28257775306702,14.54],[-6.912639951333404,62.28247918188572,14.41],[-6.912450101226568,62.28243618272245,13.89],[-6.912269638851285,62.28240726515651,12.47],[-6.912058331072331,62.28237088769674,10.93],[-6.911970069631934,62.282411959022284,9.84],[-6.911918604746461,62.282377760857344,10.15],[-6.911726072430611,62.28233685716987,9.53],[-6.911522895097733,62.28231171146035,9.17],[-6.911337403580546,62.28227307088673,8.83],[-6.911139003932476,62.28223878890276,8.92],[-6.910938676446676,62.28220165707171,9.1],[-6.910742036998272,62.282167291268706,9.2],[-6.910544894635677,62.282128650695086,9.68],[-6.910362085327506,62.28211523965001,10.51],[-6.910203918814659,62.28209889493883,11.01],[-6.910025216639042,62.28213896043599,12.26],[-6.909854141995311,62.2822040040046,13.36],[-6.909702010452747,62.2822745796293,13.75],[-6.909558093175292,62.282352866604924,13.98],[-6.90944317728281,62.28242645971477,13.79],[-6.909360196441412,62.28250751271844,13.23],[-6.909281490370631,62.28259208612144,12.39],[-6.909222900867462,62.282687136903405,12.32],[-6.909140674397349,62.28276860900223,11.81],[-6.909063309431076,62.28286433033645,11.87],[-6.908973371610045,62.28295334614813,12.31],[-6.90887295641005,62.28303146548569,12.57],[-6.908758543431759,62.28309818543494,12.34],[-6.908610099926591,62.283176723867655,12.83],[-6.908456040546298,62.28323849849403,13.04],[-6.908320086076856,62.283301362767816,13.46],[-6.908203074708581,62.28336372412741,13.29],[-6.908064102753997,62.283430779352784,13.08],[-6.907953210175037,62.28351166471839,12.56],[-6.907835947349668,62.28359271772206,12.06],[-6.90771927125752,62.28366572409868,12.06],[-6.907588765025139,62.28373873047531,12.48],[-6.907481476664543,62.28381332941353,12.5],[-6.907363878563047,62.283895472064614,13.02],[-6.907226163893938,62.28396872989833,13.54],[-6.907086437568069,62.28405464440584,14.32],[-6.906966995447874,62.28412153199315,14.33],[-6.906831292435527,62.2841916885227,15.04],[-6.906748227775097,62.284262934699655,15.38],[-6.906640520319343,62.28434951975942,15.35],[-6.906503308564425,62.284424202516675,16.33],[-6.906367857009172,62.28449620306492,17.03],[-6.906222011893988,62.28455646894872,17.36],[-6.906100222840905,62.28463592939079,17.97],[-6.905975667759776,62.28471228852868,19.04],[-6.905830996111035,62.284774482250214,19.36],[-6.90565824508667,62.28481228463352,20],[-6.905507873743773,62.28485302068293,21.59],[-6.90537141636014,62.28491588495672,23.77],[-6.905212327837944,62.28496835567057,24.25],[-6.905084419995546,62.28504647500813,24.63],[-6.904924409464002,62.28511059656739,26.63],[-6.904731709510088,62.28515594266355,28.37],[-6.904549654573202,62.28520765900612,30.61],[-6.904370449483395,62.28526767343283,31.79],[-6.904259137809277,62.285346211865544,31.98],[-6.904115052893758,62.28541133925319,32.77],[-6.903938865289092,62.285440508276224,33.78],[-6.90376820974052,62.28548677638173,34.12],[-6.903607025742531,62.28555810637772,35.11],[-6.903438130393624,62.28562398813665,35.93],[-6.903267223387957,62.285684840753675,36.2],[-6.90307142212987,62.28574267588556,37.86],[-6.902871178463101,62.28579539805651,38.25],[-6.902706641703844,62.285861279815435,38.7],[-6.902520563453436,62.285933028906584,39.39],[-6.90239273943007,62.286008298397064,39.25],[-6.902220407500863,62.286071833223104,39.1],[-6.902056792750955,62.28613989427686,39.9],[-6.901878593489528,62.286200914531946,40.97],[-6.901674410328269,62.28625372052193,43.35],[-6.901466455310583,62.286300994455814,44.88],[-6.901258584111929,62.286338126286864,47.36],[-6.90105733461678,62.286391854286194,50.03],[-6.900808559730649,62.286430578678846,51.79],[-6.900642095133662,62.286500316113234,53.28],[-6.900457190349698,62.286551697179675,53.31],[-6.900230711326003,62.286582039669156,54.06],[-6.900033820420504,62.28661590255797,55.5],[-6.899823769927025,62.28663442656398,56.54],[-6.899609109386802,62.28662663139403,59.42],[-6.899398975074291,62.28662269189954,62.18],[-6.899168137460947,62.28664079681039,65.56],[-6.898912908509374,62.28668027557433,68.23],[-6.898730602115393,62.2867351770401,68.98],[-6.898565394803882,62.28679670020938,67.26],[-6.898347130045295,62.28682268410921,66.48],[-6.898119812831283,62.28679670020938,68.22],[-6.897876905277371,62.286799969151616,69.09],[-6.897654365748167,62.286825366318226,69.04],[-6.897474909201264,62.286871802061796,66.46],[-6.897249100729823,62.286893175914884,65.43],[-6.897048270329833,62.286925530061126,66.06],[-6.896823551505804,62.286958722397685,65.5],[-6.896604280918837,62.28697364218533,64.91],[-6.896355589851737,62.286983197554946,65.48],[-6.896138666197658,62.2870047390461,65.02],[-6.895922245457768,62.28705067187548,64.43],[-6.895721247419715,62.287100963294506,62.89],[-6.895496947690845,62.287130719050765,61.29],[-6.895259404554963,62.28713968768716,62.81],[-6.895044408738613,62.2871892247349,61.74],[-6.894865958020091,62.28725301101804,59.26],[-6.894748108461499,62.287257704883814,58.87],[-6.894536884501576,62.28727321140468,59.2],[-6.894327085465193,62.28728402405977,58.94],[-6.894093649461865,62.28728477843106,57.71],[-6.893856776878238,62.287291986867785,59.83],[-6.893654018640518,62.28731964714825,61.13],[-6.893507083877921,62.28738393634558,60.73],[-6.893302146345377,62.28737966157496,62.74],[-6.893074996769428,62.287384271621704,62.21],[-6.892878860235214,62.28741453029215,60.24],[-6.892670737579465,62.28742961771786,61.94],[-6.892452808097005,62.28745434433222,61.76],[-6.892236052080989,62.287477562204,61.87],[-6.892019798979163,62.2875105869025,62.43],[-6.891845958307385,62.28756959550083,62.32],[-6.891669267788529,62.287627095356584,63.49],[-6.891479333862662,62.287646709010005,63.46],[-6.89127204939723,62.2876538336277,65.35],[-6.891086054965854,62.287666238844395,65.45],[-6.890860917046666,62.28767369873822,65.79],[-6.890654554590583,62.28772072121501,67.06],[-6.890446180477738,62.28775701485574,67.07],[-6.890223808586597,62.28774972259998,69.38],[-6.890016021206975,62.28775651194155,69.95],[-6.889809994027019,62.2877902071923,71.07],[-6.8896468821913,62.287783082574606,71.82],[-6.889439094811678,62.287795320153236,71.59],[-6.889241365715861,62.28777931071818,74.01],[-6.889039194211364,62.28781761601567,76.3],[-6.888841632753611,62.28784351609647,74.51],[-6.888649016618729,62.287902273237705,74.1],[-6.888455478474498,62.2879421710968,72.73],[-6.888255067169666,62.28799522854388,71.04],[-6.888028420507908,62.288023978471756,71.34],[-6.887859106063843,62.28809799067676,69.58],[-6.887651486322284,62.28814258240163,69.11],[-6.887460127472878,62.28817745111883,68.78],[-6.887250328436494,62.288206620141864,67.86],[-6.887041451409459,62.288240902125835,67.83],[-6.886830730363727,62.28827769868076,66.59],[-6.886646579951048,62.2883341088891,66.71],[-6.886467626318336,62.28840300813317,65.18],[-6.886275429278612,62.28843703866005,65.07],[-6.88607158139348,62.28844542056322,66.12],[-6.885909140110016,62.28851482272148,65.2],[-6.885749213397503,62.28855430148542,64.5],[-6.885557938367128,62.28858497925103,63.35],[-6.885330537334085,62.28859830647707,63.53],[-6.885118391364813,62.2886020783335,64.75],[-6.884917058050633,62.28861096315086,64.72],[-6.884702816605568,62.28863334283233,65.43],[-6.884489413350821,62.28865270502865,66.33],[-6.884267795830965,62.28865647688508,67.42],[-6.884044334292412,62.28864717297256,69.35],[-6.883822549134493,62.28862714022398,72.05],[-6.883666813373566,62.28855731897056,74.52],[-6.88349599018693,62.28857500478625,77.44],[-6.883274205029011,62.288576513528824,78.41],[-6.883086701855063,62.28854591958225,80.68],[-6.882866509258747,62.288536950945854,82.87],[-6.882653441280127,62.28851683437824,85.4],[-6.882471637800336,62.28848154656589,88.68],[-6.882286481559277,62.288435362279415,91.3],[-6.882082717493177,62.28842228651047,92.01],[-6.881851041689515,62.288422705605626,91.99],[-6.881637722253799,62.28843653574586,92.36],[-6.881428342312574,62.288414826616645,91.45],[-6.881205132231116,62.2884189337492,92.01],[-6.881004720926285,62.28843376971781,91.87],[-6.880798693746328,62.28842086158693,92.36],[-6.880621332675219,62.28837300091982,94.52],[-6.880422178655863,62.28836730122566,94.21],[-6.880262000486255,62.28831843473017,96.16],[-6.880158735439181,62.288236040621996,97.01],[-6.879993109032512,62.28818407282233,98.86],[-6.879784064367414,62.28819371201098,96.72],[-6.879603434354067,62.28813964873552,96.99],[-6.879472676664591,62.28807544335723,98.16],[-6.879282826557756,62.28809463791549,97.61],[-6.879086270928383,62.28811022825539,97.34],[-6.878861133009195,62.28811592794955,97.45],[-6.878680251538754,62.28809053078294,99.12],[-6.87848168425262,62.288051303476095,99.55],[-6.87828479334712,62.288002939894795,100.7],[-6.878121765330434,62.287945691496134,101.88],[-6.877936357632279,62.28788542561233,102.84],[-6.87774483114481,62.28784586302936,104.32],[-6.877540983259678,62.287824992090464,105.05],[-6.877341326326132,62.28781568817794,105.22],[-6.877154912799597,62.28777344338596,105.91],[-6.876952238380909,62.28774947114289,107.33],[-6.876752162352204,62.28771502152085,109.68],[-6.876524426043034,62.28768602013588,110.48],[-6.87630632892251,62.28767520748079,110.68],[-6.876115053892136,62.287663305178285,111.72],[-6.875908859074116,62.28766615502536,112.15],[-6.875698054209352,62.28764310479164,113.68],[-6.875520860776305,62.287623742595315,114.74],[-6.875313492491841,62.28761016391218,116.38],[-6.875120457261801,62.28759801015258,116.31],[-6.874927254393697,62.28757915087044,116.7],[-6.874745450913906,62.28752139955759,117.55],[-6.874553086236119,62.287498684599996,118.19],[-6.874385867267847,62.2874516621232,118.34],[-6.874240189790726,62.287392653524876,119.84],[-6.874092081561685,62.28731864131987,121.91],[-6.873956210911274,62.28724379092455,123.35],[-6.87386903911829,62.287159552797675,124.53],[-6.873766025528312,62.28707472793758,125.05],[-6.873683799058199,62.286988059058785,126.81],[-6.873542480170727,62.286944976076484,127.35],[-6.873402167111635,62.286874148994684,128.62],[-6.873252131044865,62.286795526742935,129.07],[-6.873157415539026,62.28670818731189,129.61],[-6.873084492981434,62.28661137633026,131.3],[-6.872995980083942,62.28652177378535,131.18],[-6.872930517420173,62.28643066249788,132.72],[-6.872870838269591,62.28634030558169,133.7],[-6.872762879356742,62.28625061921775,134.58],[-6.872679479420185,62.286156909540296,134.87],[-6.872608149424195,62.2860670555383,135.02],[-6.872481750324369,62.28599748574197,135.4],[-6.872395249083638,62.28589514270425,136.28],[-6.872312100604177,62.28580981492996,136.97],[-6.87224630266428,62.28571652434766,137.11],[-6.872206320986152,62.285616025328636,137.34],[-6.872114539146423,62.2855316195637,138.03],[-6.872035497799516,62.2854245826602,138.42],[-6.871887557208538,62.2853727824986,139.48],[-6.871768115088344,62.28527965955436,140.11],[-6.871689409017563,62.28518754243851,140.64],[-6.871579438447952,62.28511042892933,141.5],[-6.871473575010896,62.285024765878916,142.41],[-6.871378859505057,62.28493558242917,143.53],[-6.87123192474246,62.28487095795572,144.22],[-6.871081301942468,62.2847992926836,144.3],[-6.870991364121437,62.284720335155725,144.54],[-6.870857169851661,62.2846404556185,145.41],[-6.87073202803731,62.284560576081276,145.81],[-6.870600432157517,62.28447717614472,146.13],[-6.870476128533483,62.28439511731267,147.52],[-6.870376048609614,62.28429880924523,148.41],[-6.870287954807282,62.28420593775809,149.28],[-6.870228024199605,62.28410569019616,148.92],[-6.870146300643683,62.2840188536793,148.75],[-6.870083436369896,62.28392455726862,148.65],[-6.870059631764889,62.28382791392505,149.44],[-6.869970532134175,62.28373269550502,150.61],[-6.869894089177251,62.2836337890476,151.3],[-6.869840528815985,62.283529099076986,151.7],[-6.869783364236355,62.28343253955245,152.06],[-6.869698036462069,62.28333396837115,152.38],[-6.869639698415995,62.28323447518051,151.96],[-6.869502486661077,62.28317387402058,152.76],[-6.869370471686125,62.28309977799654,152.95],[-6.869318587705493,62.28299374692142,153.13],[-6.869162181392312,62.282915292307734,152.96],[-6.869064616039395,62.28283314965665,152.58],[-6.868912233039737,62.282759891822934,152.64],[-6.868761023506522,62.28269920684397,152.27],[-6.868589781224728,62.28266065008938,152.45],[-6.868418706580997,62.28260340169072,152.51],[-6.868254840373993,62.28255352936685,150.78],[-6.868057949468494,62.282508770003915,149.76],[-6.868057949468494,62.282508770003915,149.76],[-6.867873044684529,62.28246895596385,148.6],[-6.867695013061166,62.282424783334136,146.76],[-6.867517903447151,62.28238924406469,145.39],[-6.867343224585056,62.28235026821494,144.41],[-6.867128564044833,62.28231246583164,143.47],[-6.866916250437498,62.28228279389441,141.99],[-6.866708630695939,62.28224901482463,140.47],[-6.866490030661225,62.282237531617284,139.82],[-6.866274196654558,62.28224616497755,139.86],[-6.866058697924018,62.282237531617284,139.34],[-6.865865495055914,62.2822230309248,139.14],[-6.865633903071284,62.28225362487137,139.63],[-6.865439023822546,62.28222168982029,137.76],[-6.865243893116713,62.282207272946835,137.38],[-6.865082792937756,62.28221112862229,136.44],[-6.864926889538765,62.28224909864366,138.51],[-6.864741314202547,62.282236609607935,136.79],[-6.864614328369498,62.282175505533814,133.44],[-6.864462615922093,62.28210627101362,132.36],[-6.86427528038621,62.282087076455355,131.66],[-6.864116862416267,62.28203007951379,129.05],[-6.863958779722452,62.2819983959198,128.48],[-6.863780915737152,62.28194575756788,126.34],[-6.863742275163531,62.28184777311981,123.12],[-6.863580672070384,62.28179756551981,120.28],[-6.863401299342513,62.28175196796656,118.2],[-6.863237516954541,62.28173009119928,117.57],[-6.863123439252377,62.28164744563401,115.11],[-6.862978264689446,62.281603775918484,112.32],[-6.862794449552894,62.281573433429,111.01],[-6.862633517012,62.281501181423664,108.45],[-6.862521953880787,62.281467989087105,106.09],[-6.862343838438392,62.2814407479018,104.61],[-6.862203441560268,62.28137578815222,102.62],[-6.862066565081477,62.28131183423102,100.59],[-6.861906554549933,62.2812504786998,98.86],[-6.861710334196687,62.2812092397362,98.41],[-6.861551245674491,62.28115467354655,97.07],[-6.861362401396036,62.28112131357193,96.23],[-6.861217310652137,62.281067334115505,95.43],[-6.86108504422009,62.28099097497761,94.53],[-6.860927632078528,62.280917381867766,93.13],[-6.860793689265847,62.28084957227111,91.34],[-6.860659243538976,62.28076650761068,89.77],[-6.860522367060185,62.280700877308846,88.32],[-6.860342239961028,62.280665673315525,86.57],[-6.860176026821137,62.28059945628047,84.63],[-6.860009897500277,62.28054815903306,83.73],[-6.859902944415808,62.28045428171754,82.74],[-6.859917277470231,62.2803751565516,80.6],[-6.860031858086586,62.28028412908316,77.66],[-6.860114503651857,62.28019100613892,74.79],[-6.860151216387749,62.28009436279535,71.83],[-6.860148198902607,62.28000031784177,68.84],[-6.860205782577395,62.279912140220404,66.11],[-6.860402002930641,62.27985430508852,64.14],[-6.860622363165021,62.27984516881406,63.14],[-6.860712803900242,62.279764702543616,61.75],[-6.860838448628783,62.27970083244145,60.76],[-6.860841298475862,62.27967308834195,59.69],[-6.860953951254487,62.279586838558316,58.72],[-6.86108160763979,62.27951114997268,57.38],[-6.861203648149967,62.279435796663165,56.76],[-6.861092336475849,62.27947510778904,56.67],[-6.860929476097226,62.279519280418754,57.52],[-6.860733339563012,62.279517939314246,57.9],[-6.860528402030468,62.27950385771692,57.62],[-6.860325308516622,62.279493464156985,57.54],[-6.860117772594094,62.27946538478136,57.55],[-6.859914846718311,62.279454320669174,57.29],[-6.859723320230842,62.279446022585034,57.69],[-6.859530955553055,62.279437724500895,57.51],[-6.859349235892296,62.27941928431392,57.05],[-6.859133904799819,62.27940386161208,56.65],[-6.858907928690314,62.279391372576356,56.1],[-6.858695028349757,62.27938391268253,55.31],[-6.858484307304025,62.27938215248287,55.2],[-6.85829596593976,62.27938164956868,54.81],[-6.858083149418235,62.279373267665505,54.52],[-6.857904028147459,62.279371339827776,54.1],[-6.85771644115448,62.279354743659496,53.59],[-6.857628850266337,62.279342422261834,52.67],[-6.857437575235963,62.27934476919472,51.81],[-6.857230039313436,62.27932909503579,51.2],[-6.857047313824296,62.279303865507245,50.91],[-6.856846399605274,62.27927980944514,50.79],[-6.856644647195935,62.279271092265844,50.92],[-6.856458820402622,62.27925826795399,50.58],[-6.856272490695119,62.279235888272524,50.2],[-6.856075432151556,62.279195906594396,50.17],[-6.855862867087126,62.27915986441076,49.23],[-6.855677627027035,62.27910571731627,47.04],[-6.855544270947576,62.27904067374766,45.65],[-6.85543455183506,62.2789609618485,44.05],[-6.855295496061444,62.27889164350927,42.35],[-6.855172952637076,62.27882375009358,40.69],[-6.855030627921224,62.27875309064984,38.97],[-6.854911437258124,62.27867664769292,37.71],[-6.85480372980237,62.27859701961279,36.84],[-6.854679929092526,62.27852711454034,35.06],[-6.854483541101217,62.27848378010094,33.92],[-6.854304755106568,62.27842787280679,31.73],[-6.854204088449478,62.278347071260214,29.49],[-6.854336354881525,62.2782822791487,28.93],[-6.854494102299213,62.27822184562683,28.35],[-6.854651430621743,62.27815764024854,27.19],[-6.854796437546611,62.27807759307325,25.86],[-6.854869024828076,62.27797416038811,24.51],[-6.85492149554193,62.27787600830197,23.19],[-6.854930464178324,62.27777668274939,21.34],[-6.854932811111212,62.27768532000482,20.81],[-6.854981426149607,62.277599992230535,20.37],[-6.854931553825736,62.277516005560756,20.47],[-6.855000117793679,62.27743964642286,20.4],[-6.85506071895361,62.27734032087028,20.9],[-6.855089217424393,62.277235044166446,20.98],[-6.855097180232406,62.27713865227997,20.65],[-6.855095000937581,62.277044439688325,20.82],[-6.855100113898516,62.276939330622554,21.3],[-6.855100616812706,62.2768472135067,21.2],[-6.855124002322555,62.27675300091505,20.71],[-6.855132132768631,62.27664973586798,19.88],[-6.85515602119267,62.276558708399534,19.35],[-6.855170438066125,62.27646357379854,19.08],[-6.855113189667463,62.27637665346265,18.45],[-6.854994501918554,62.27631856687367,17.63]]}},{"type":"Feature","properties":{"name":"WP1 02_OE","type":"user","time":"2020-07-15T09:13:46Z","gpxx_WaypointExtension":"SymbolAndName","gpxx_DisplayMode":"SymbolAndName","wptx1_WaypointExtension":"SymbolAndName","wptx1_DisplayMode":"SymbolAndName","ctx_CreationTimeExtension":"2020-07-15T09:13:46Z","ctx_CreationTime":"2020-07-15T09:13:46Z","sym":"Flag, Blue"},"geometry":{"type":"Point","coordinates":[-6.867993995547295,62.2825269587338,144.983429]}},{"type":"Feature","properties":{"name":"WP2 05_OE","type":"user","time":"2020-07-15T09:42:26Z","gpxx_WaypointExtension":"SymbolAndName","gpxx_DisplayMode":"SymbolAndName","wptx1_WaypointExtension":"SymbolAndName","wptx1_DisplayMode":"SymbolAndName","ctx_CreationTimeExtension":"2020-07-15T09:42:26Z","ctx_CreationTime":"2020-07-15T09:42:26Z","sym":"Flag, Blue"},"geometry":{"type":"Point","coordinates":[-6.889750985428691,62.28786002844572,68.134682]}},{"type":"Feature","properties":{"name":"WP3 07_OE","type":"user","time":"2020-07-15T10:05:17Z","gpxx_WaypointExtension":"SymbolAndName","gpxx_DisplayMode":"SymbolAndName","wptx1_WaypointExtension":"SymbolAndName","wptx1_DisplayMode":"SymbolAndName","ctx_CreationTimeExtension":"2020-07-15T10:05:17Z","ctx_CreationTime":"2020-07-15T10:05:17Z","sym":"Flag, Blue"},"geometry":{"type":"Point","coordinates":[-6.912641962990165,62.28247197344899,13.783804]}}]}