{"type":"FeatureCollection","features":[{"type":"Feature","properties":{"_gpxType":"trk","name":"06 Wanderung Fuglafjørður Hellurnar","time":"2020-07-27T13:00:23Z","gpxx_TrackExtension":"Black","gpxx_DisplayColor":"Black","coordinateProperties":{"times":["2020-07-27T13:00:23Z","2020-07-27T13:01:04Z","2020-07-27T13:01:24Z","2020-07-27T13:01:36Z","2020-07-27T13:01:58Z","2020-07-27T13:02:14Z","2020-07-27T13:02:32Z","2020-07-27T13:02:41Z","2020-07-27T13:02:49Z","2020-07-27T13:02:57Z","2020-07-27T13:03:05Z","2020-07-27T13:03:14Z","2020-07-27T13:03:30Z","2020-07-27T13:03:39Z","2020-07-27T13:03:49Z","2020-07-27T13:03:58Z","2020-07-27T13:04:08Z","2020-07-27T13:04:18Z","2020-07-27T13:04:29Z","2020-07-27T13:04:48Z","2020-07-27T10:17:40Z","2020-07-27T10:19:19Z","2020-07-27T10:19:27Z","2020-07-27T10:19:36Z","2020-07-27T10:19:44Z","2020-07-27T10:19:53Z","2020-07-27T10:20:02Z","2020-07-27T10:20:21Z","2020-07-27T10:20:33Z","2020-07-27T10:20:44Z","2020-07-27T10:21:04Z","2020-07-27T10:21:18Z","2020-07-27T10:21:38Z","2020-07-27T10:21:52Z","2020-07-27T10:22:47Z","2020-07-27T10:22:55Z","2020-07-27T10:23:03Z","2020-07-27T10:23:55Z","2020-07-27T10:24:35Z","2020-07-27T10:25:28Z","2020-07-27T10:26:21Z","2020-07-27T10:26:32Z","2020-07-27T10:26:44Z","2020-07-27T10:27:06Z","2020-07-27T10:27:21Z","2020-07-27T10:27:33Z","2020-07-27T10:27:54Z","2020-07-27T10:28:05Z","2020-07-27T10:28:18Z","2020-07-27T10:28:32Z","2020-07-27T10:28:50Z","2020-07-27T10:29:14Z","2020-07-27T10:29:33Z","2020-07-27T10:29:47Z","2020-07-27T10:30:04Z","2020-07-27T10:30:18Z","2020-07-27T10:30:32Z","2020-07-27T10:30:46Z","2020-07-27T10:31:01Z","2020-07-27T10:31:15Z","2020-07-27T10:31:35Z","2020-07-27T10:31:50Z","2020-07-27T10:32:49Z","2020-07-27T10:33:02Z","2020-07-27T10:33:18Z","2020-07-27T10:33:28Z","2020-07-27T10:33:38Z","2020-07-27T10:33:47Z","2020-07-27T10:33:58Z","2020-07-27T10:34:07Z","2020-07-27T10:34:16Z","2020-07-27T10:34:29Z","2020-07-27T10:34:40Z","2020-07-27T10:34:53Z","2020-07-27T10:35:05Z","2020-07-27T10:35:19Z","2020-07-27T10:35:35Z","2020-07-27T10:35:46Z","2020-07-27T10:35:58Z","2020-07-27T10:36:12Z","2020-07-27T10:36:35Z","2020-07-27T10:37:17Z","2020-07-27T10:37:30Z","2020-07-27T10:37:43Z","2020-07-27T10:37:57Z","2020-07-27T10:38:13Z","2020-07-27T10:38:29Z","2020-07-27T10:38:50Z","2020-07-27T10:39:17Z","2020-07-27T10:39:42Z","2020-07-27T10:40:00Z","2020-07-27T10:40:21Z","2020-07-27T10:40:40Z","2020-07-27T10:41:45Z","2020-07-27T10:42:22Z","2020-07-27T10:42:37Z","2020-07-27T10:42:58Z","2020-07-27T10:43:18Z","2020-07-27T10:43:36Z","2020-07-27T10:43:52Z","2020-07-27T10:44:09Z","2020-07-27T10:44:25Z","2020-07-27T10:44:40Z","2020-07-27T10:44:56Z","2020-07-27T10:45:16Z","2020-07-27T10:45:31Z","2020-07-27T10:45:44Z","2020-07-27T10:45:59Z","2020-07-27T10:46:11Z","2020-07-27T10:46:23Z","2020-07-27T10:46:38Z","2020-07-27T10:46:52Z","2020-07-27T10:47:05Z","2020-07-27T10:47:18Z","2020-07-27T10:47:31Z","2020-07-27T10:47:55Z","2020-07-27T10:48:11Z","2020-07-27T10:48:24Z","2020-07-27T10:48:46Z","2020-07-27T10:49:04Z","2020-07-27T10:49:29Z","2020-07-27T10:49:57Z","2020-07-27T10:50:09Z","2020-07-27T10:50:21Z","2020-07-27T10:50:34Z","2020-07-27T10:50:48Z","2020-07-27T10:51:05Z","2020-07-27T10:51:27Z","2020-07-27T10:51:46Z","2020-07-27T10:52:06Z","2020-07-27T10:52:32Z","2020-07-27T10:53:40Z","2020-07-27T10:53:50Z","2020-07-27T10:54:02Z","2020-07-27T10:54:11Z","2020-07-27T10:54:21Z","2020-07-27T10:54:31Z","2020-07-27T10:54:42Z","2020-07-27T10:54:51Z","2020-07-27T10:55:01Z","2020-07-27T10:55:11Z","2020-07-27T10:55:22Z","2020-07-27T10:55:36Z","2020-07-27T10:55:45Z","2020-07-27T10:56:01Z","2020-07-27T10:56:15Z","2020-07-27T10:56:25Z","2020-07-27T10:56:48Z","2020-07-27T10:56:57Z","2020-07-27T10:57:08Z","2020-07-27T10:57:19Z","2020-07-27T10:57:31Z","2020-07-27T10:57:43Z","2020-07-27T10:57:57Z","2020-07-27T10:58:11Z","2020-07-27T10:58:30Z","2020-07-27T10:58:42Z","2020-07-27T10:58:55Z","2020-07-27T10:59:07Z","2020-07-27T10:59:21Z","2020-07-27T10:59:33Z","2020-07-27T10:59:49Z","2020-07-27T11:00:03Z","2020-07-27T11:00:32Z","2020-07-27T11:02:08Z","2020-07-27T11:05:33Z","2020-07-27T11:05:40Z","2020-07-27T11:07:25Z","2020-07-27T11:18:16Z","2020-07-27T11:18:58Z","2020-07-27T11:20:42Z","2020-07-27T11:21:56Z","2020-07-27T11:22:46Z","2020-07-27T11:23:13Z","2020-07-27T11:23:36Z","2020-07-27T11:23:48Z","2020-07-27T11:23:57Z","2020-07-27T11:24:14Z","2020-07-27T11:24:23Z","2020-07-27T11:24:33Z","2020-07-27T11:24:43Z","2020-07-27T11:24:56Z","2020-07-27T11:25:10Z","2020-07-27T11:25:24Z","2020-07-27T11:25:38Z","2020-07-27T11:25:49Z","2020-07-27T11:26:01Z","2020-07-27T11:26:12Z","2020-07-27T11:26:28Z","2020-07-27T11:27:00Z","2020-07-27T11:27:29Z","2020-07-27T11:28:10Z","2020-07-27T11:28:34Z","2020-07-27T11:28:50Z","2020-07-27T11:29:04Z","2020-07-27T11:29:22Z","2020-07-27T11:29:39Z","2020-07-27T11:29:55Z","2020-07-27T11:30:16Z","2020-07-27T11:31:43Z","2020-07-27T11:32:10Z","2020-07-27T11:32:25Z","2020-07-27T11:32:41Z","2020-07-27T11:32:55Z","2020-07-27T11:33:08Z","2020-07-27T11:33:21Z","2020-07-27T11:33:36Z","2020-07-27T11:33:51Z","2020-07-27T11:34:03Z","2020-07-27T11:34:18Z","2020-07-27T11:34:30Z","2020-07-27T11:34:44Z","2020-07-27T11:34:57Z","2020-07-27T11:35:06Z","2020-07-27T11:35:14Z","2020-07-27T11:35:23Z","2020-07-27T11:35:35Z","2020-07-27T11:35:50Z","2020-07-27T11:36:06Z","2020-07-27T11:36:20Z","2020-07-27T11:36:30Z","2020-07-27T11:36:39Z","2020-07-27T11:36:48Z","2020-07-27T11:37:00Z","2020-07-27T11:37:13Z","2020-07-27T11:37:30Z","2020-07-27T11:37:41Z","2020-07-27T11:37:50Z","2020-07-27T11:37:58Z","2020-07-27T11:38:06Z","2020-07-27T11:38:15Z","2020-07-27T11:38:24Z","2020-07-27T11:38:34Z","2020-07-27T11:38:43Z","2020-07-27T11:38:54Z","2020-07-27T11:39:03Z","2020-07-27T11:39:15Z","2020-07-27T11:39:29Z","2020-07-27T11:39:45Z","2020-07-27T11:39:55Z","2020-07-27T11:40:05Z","2020-07-27T11:40:16Z","2020-07-27T11:40:27Z","2020-07-27T11:40:37Z","2020-07-27T11:40:48Z","2020-07-27T11:41:00Z","2020-07-27T11:42:47Z","2020-07-27T11:43:13Z","2020-07-27T11:43:50Z","2020-07-27T11:44:15Z","2020-07-27T11:44:50Z","2020-07-27T11:45:04Z","2020-07-27T11:45:47Z","2020-07-27T11:46:01Z","2020-07-27T11:46:16Z","2020-07-27T11:46:47Z","2020-07-27T11:47:06Z","2020-07-27T11:47:23Z","2020-07-27T11:47:46Z","2020-07-27T11:48:01Z","2020-07-27T11:48:17Z","2020-07-27T11:48:54Z","2020-07-27T11:49:54Z","2020-07-27T11:50:58Z","2020-07-27T11:51:22Z","2020-07-27T11:51:36Z","2020-07-27T11:52:07Z","2020-07-27T11:52:26Z","2020-07-27T11:52:42Z","2020-07-27T11:52:57Z","2020-07-27T11:53:15Z","2020-07-27T11:53:33Z","2020-07-27T11:53:53Z","2020-07-27T11:54:11Z","2020-07-27T11:54:28Z","2020-07-27T11:54:45Z","2020-07-27T11:55:08Z","2020-07-27T11:55:25Z","2020-07-27T11:55:37Z","2020-07-27T11:55:52Z","2020-07-27T11:56:05Z","2020-07-27T11:56:21Z","2020-07-27T11:56:37Z","2020-07-27T11:56:52Z","2020-07-27T11:57:26Z","2020-07-27T11:57:46Z","2020-07-27T11:58:01Z","2020-07-27T11:58:52Z","2020-07-27T11:59:13Z","2020-07-27T12:02:29Z","2020-07-27T12:02:47Z","2020-07-27T12:03:08Z","2020-07-27T12:03:23Z","2020-07-27T12:03:59Z","2020-07-27T12:04:28Z","2020-07-27T12:04:56Z","2020-07-27T12:05:15Z","2020-07-27T12:05:53Z","2020-07-27T12:06:10Z","2020-07-27T12:06:26Z","2020-07-27T12:06:46Z","2020-07-27T12:07:01Z","2020-07-27T12:07:17Z","2020-07-27T12:07:45Z","2020-07-27T12:08:01Z","2020-07-27T12:08:21Z","2020-07-27T12:08:56Z","2020-07-27T12:09:22Z","2020-07-27T12:09:48Z","2020-07-27T12:10:26Z","2020-07-27T12:10:48Z","2020-07-27T12:11:06Z","2020-07-27T12:11:23Z","2020-07-27T12:12:59Z","2020-07-27T12:15:21Z","2020-07-27T12:15:34Z","2020-07-27T12:15:49Z","2020-07-27T12:16:06Z","2020-07-27T12:16:23Z","2020-07-27T12:16:35Z","2020-07-27T12:16:47Z","2020-07-27T12:16:56Z","2020-07-27T12:17:05Z","2020-07-27T12:17:14Z","2020-07-27T12:17:25Z","2020-07-27T12:17:38Z","2020-07-27T12:17:48Z","2020-07-27T12:18:01Z","2020-07-27T12:18:12Z","2020-07-27T12:18:23Z","2020-07-27T12:18:35Z","2020-07-27T12:19:05Z","2020-07-27T12:19:13Z","2020-07-27T12:19:20Z","2020-07-27T12:19:20Z","2020-07-27T12:19:13Z","2020-07-27T12:19:05Z","2020-07-27T12:18:35Z","2020-07-27T12:18:23Z","2020-07-27T12:18:12Z","2020-07-27T12:18:01Z","2020-07-27T12:17:48Z","2020-07-27T12:17:38Z","2020-07-27T12:17:25Z","2020-07-27T12:17:14Z","2020-07-27T12:17:05Z","2020-07-27T12:16:56Z","2020-07-27T12:16:47Z","2020-07-27T12:16:35Z","2020-07-27T12:16:23Z","2020-07-27T12:16:06Z","2020-07-27T12:15:49Z","2020-07-27T12:15:34Z","2020-07-27T12:15:21Z","2020-07-27T12:12:59Z","2020-07-27T12:11:23Z","2020-07-27T12:11:06Z","2020-07-27T12:10:48Z","2020-07-27T12:10:26Z","2020-07-27T12:09:48Z","2020-07-27T12:09:22Z","2020-07-27T12:08:56Z","2020-07-27T12:08:21Z","2020-07-27T12:08:01Z","2020-07-27T12:07:45Z","2020-07-27T12:07:17Z","2020-07-27T12:07:01Z","2020-07-27T12:06:46Z","2020-07-27T12:06:26Z","2020-07-27T12:06:10Z","2020-07-27T12:05:53Z","2020-07-27T12:05:15Z","2020-07-27T12:04:56Z","2020-07-27T12:04:28Z","2020-07-27T12:03:59Z","2020-07-27T12:03:23Z","2020-07-27T12:03:08Z","2020-07-27T12:02:47Z","2020-07-27T12:02:29Z","2020-07-27T11:59:13Z","2020-07-27T11:58:52Z","2020-07-27T11:58:01Z","2020-07-27T11:57:46Z","2020-07-27T11:57:26Z","2020-07-27T11:56:52Z","2020-07-27T11:56:37Z","2020-07-27T11:56:21Z","2020-07-27T11:56:05Z","2020-07-27T11:55:52Z","2020-07-27T11:55:37Z","2020-07-27T11:55:25Z","2020-07-27T11:55:08Z","2020-07-27T11:54:45Z","2020-07-27T11:54:28Z","2020-07-27T11:54:11Z","2020-07-27T11:53:53Z","2020-07-27T11:53:33Z","2020-07-27T11:53:15Z","2020-07-27T11:52:57Z","2020-07-27T11:52:42Z","2020-07-27T11:52:26Z","2020-07-27T11:52:07Z","2020-07-27T11:51:36Z","2020-07-27T11:51:22Z","2020-07-27T11:50:58Z","2020-07-27T11:49:54Z","2020-07-27T11:48:54Z","2020-07-27T11:48:17Z","2020-07-27T11:48:01Z","2020-07-27T11:47:46Z","2020-07-27T11:47:23Z","2020-07-27T11:47:06Z","2020-07-27T11:46:47Z","2020-07-27T11:46:16Z","2020-07-27T11:46:01Z","2020-07-27T11:45:47Z","2020-07-27T11:45:04Z","2020-07-27T11:44:50Z","2020-07-27T11:44:15Z","2020-07-27T11:43:50Z","2020-07-27T11:43:13Z","2020-07-27T11:42:47Z","2020-07-27T11:41:00Z","2020-07-27T11:40:48Z","2020-07-27T11:40:37Z","2020-07-27T11:40:27Z","2020-07-27T11:40:16Z","2020-07-27T11:40:05Z","2020-07-27T11:39:55Z","2020-07-27T11:39:45Z","2020-07-27T11:39:29Z","2020-07-27T11:39:15Z","2020-07-27T11:39:03Z","2020-07-27T11:38:54Z","2020-07-27T11:38:43Z","2020-07-27T11:38:34Z","2020-07-27T11:38:24Z","2020-07-27T11:38:15Z","2020-07-27T11:38:06Z","2020-07-27T11:37:58Z","2020-07-27T11:37:50Z","2020-07-27T11:37:41Z","2020-07-27T11:37:30Z","2020-07-27T11:37:13Z","2020-07-27T11:37:00Z","2020-07-27T11:36:48Z","2020-07-27T11:36:39Z","2020-07-27T11:36:30Z","2020-07-27T11:36:20Z","2020-07-27T11:36:06Z","2020-07-27T11:35:50Z","2020-07-27T11:35:35Z","2020-07-27T11:35:23Z","2020-07-27T11:35:14Z","2020-07-27T11:35:06Z","2020-07-27T11:34:57Z","2020-07-27T11:34:44Z","2020-07-27T11:34:30Z","2020-07-27T11:34:18Z","2020-07-27T11:34:03Z","2020-07-27T11:33:51Z","2020-07-27T11:33:36Z","2020-07-27T11:33:21Z","2020-07-27T11:33:08Z","2020-07-27T11:32:55Z","2020-07-27T11:32:41Z","2020-07-27T11:32:25Z","2020-07-27T11:32:10Z","2020-07-27T11:31:43Z","2020-07-27T11:30:16Z","2020-07-27T11:29:55Z","2020-07-27T11:29:39Z","2020-07-27T11:29:22Z","2020-07-27T11:29:04Z","2020-07-27T11:28:50Z","2020-07-27T11:28:34Z","2020-07-27T11:28:10Z","2020-07-27T11:27:29Z","2020-07-27T11:27:00Z","2020-07-27T11:26:28Z","2020-07-27T11:26:12Z","2020-07-27T11:26:01Z","2020-07-27T11:25:49Z","2020-07-27T11:25:38Z","2020-07-27T11:25:24Z","2020-07-27T11:25:10Z","2020-07-27T11:24:56Z","2020-07-27T11:24:43Z","2020-07-27T11:24:33Z","2020-07-27T11:24:23Z","2020-07-27T11:24:14Z","2020-07-27T11:23:57Z","2020-07-27T11:23:48Z","2020-07-27T11:23:36Z","2020-07-27T11:23:13Z","2020-07-27T11:22:46Z","2020-07-27T11:21:56Z","2020-07-27T11:20:42Z","2020-07-27T11:18:58Z","2020-07-27T11:18:16Z","2020-07-27T11:07:25Z","2020-07-27T11:05:40Z","2020-07-27T11:05:33Z","2020-07-27T11:02:08Z","2020-07-27T11:00:32Z","2020-07-27T11:00:03Z","2020-07-27T10:59:49Z","2020-07-27T10:59:33Z","2020-07-27T10:59:21Z","2020-07-27T10:59:07Z","2020-07-27T10:58:55Z","2020-07-27T10:58:42Z","2020-07-27T10:58:30Z","2020-07-27T10:58:11Z","2020-07-27T10:57:57Z","2020-07-27T10:57:43Z","2020-07-27T10:57:31Z","2020-07-27T10:57:19Z","2020-07-27T10:57:08Z","2020-07-27T10:56:57Z","2020-07-27T10:56:48Z","2020-07-27T10:56:25Z","2020-07-27T10:56:15Z","2020-07-27T10:56:01Z","2020-07-27T10:55:45Z","2020-07-27T10:55:36Z","2020-07-27T10:55:22Z","2020-07-27T10:55:11Z","2020-07-27T10:55:01Z","2020-07-27T10:54:51Z","2020-07-27T10:54:42Z","2020-07-27T10:54:31Z","2020-07-27T10:54:21Z","2020-07-27T10:54:11Z","2020-07-27T10:54:02Z","2020-07-27T10:53:50Z","2020-07-27T10:53:40Z","2020-07-27T10:52:32Z","2020-07-27T10:52:06Z","2020-07-27T10:51:46Z","2020-07-27T10:51:27Z","2020-07-27T10:51:05Z","2020-07-27T10:50:48Z","2020-07-27T10:50:34Z","2020-07-27T10:50:21Z","2020-07-27T10:50:09Z","2020-07-27T10:49:57Z","2020-07-27T10:49:29Z","2020-07-27T10:49:04Z","2020-07-27T10:48:46Z","2020-07-27T10:48:24Z","2020-07-27T10:48:11Z","2020-07-27T10:47:55Z","2020-07-27T10:47:31Z","2020-07-27T10:47:18Z","2020-07-27T10:47:05Z","2020-07-27T10:46:52Z","2020-07-27T10:46:38Z","2020-07-27T10:46:23Z","2020-07-27T10:46:11Z","2020-07-27T10:45:59Z","2020-07-27T10:45:44Z","2020-07-27T10:45:31Z","2020-07-27T10:45:16Z","2020-07-27T10:44:56Z","2020-07-27T10:44:40Z","2020-07-27T10:44:25Z","2020-07-27T10:44:09Z","2020-07-27T10:43:52Z","2020-07-27T10:43:36Z","2020-07-27T10:43:18Z","2020-07-27T10:42:58Z","2020-07-27T10:42:37Z","2020-07-27T10:42:22Z","2020-07-27T10:41:45Z","2020-07-27T10:40:40Z","2020-07-27T10:40:21Z","2020-07-27T10:40:00Z","2020-07-27T10:39:42Z","2020-07-27T10:39:17Z","2020-07-27T10:38:50Z","2020-07-27T10:38:29Z","2020-07-27T10:38:13Z","2020-07-27T10:37:57Z","2020-07-27T10:37:43Z","2020-07-27T10:37:30Z","2020-07-27T10:37:17Z","2020-07-27T10:36:35Z","2020-07-27T10:36:12Z","2020-07-27T10:35:58Z","2020-07-27T10:35:46Z","2020-07-27T10:35:35Z","2020-07-27T10:35:19Z","2020-07-27T10:35:05Z","2020-07-27T10:34:53Z","2020-07-27T10:34:40Z","2020-07-27T10:34:29Z","2020-07-27T10:34:16Z","2020-07-27T10:34:07Z","2020-07-27T10:33:58Z","2020-07-27T10:33:47Z","2020-07-27T10:33:38Z","2020-07-27T10:33:28Z","2020-07-27T10:33:18Z","2020-07-27T10:33:02Z","2020-07-27T10:32:49Z","2020-07-27T10:31:50Z","2020-07-27T10:31:35Z","2020-07-27T10:31:15Z","2020-07-27T10:31:01Z","2020-07-27T10:30:46Z","2020-07-27T10:30:32Z","2020-07-27T10:30:18Z","2020-07-27T10:30:04Z","2020-07-27T10:29:47Z","2020-07-27T10:29:33Z","2020-07-27T10:29:14Z","2020-07-27T10:28:50Z","2020-07-27T10:28:32Z","2020-07-27T10:28:18Z","2020-07-27T10:28:05Z","2020-07-27T10:27:54Z","2020-07-27T10:27:33Z","2020-07-27T10:27:21Z","2020-07-27T10:27:06Z","2020-07-27T10:26:44Z","2020-07-27T10:26:32Z","2020-07-27T10:26:21Z","2020-07-27T10:25:28Z","2020-07-27T10:24:35Z","2020-07-27T10:23:55Z","2020-07-27T10:23:03Z","2020-07-27T10:22:55Z","2020-07-27T10:22:47Z","2020-07-27T10:21:52Z","2020-07-27T10:21:38Z","2020-07-27T10:21:18Z","2020-07-27T10:21:04Z","2020-07-27T10:20:44Z","2020-07-27T10:20:33Z","2020-07-27T10:20:21Z","2020-07-27T10:20:02Z","2020-07-27T10:19:53Z","2020-07-27T10:19:44Z","2020-07-27T10:19:36Z","2020-07-27T10:19:27Z","2020-07-27T10:19:19Z","2020-07-27T10:17:40Z","2020-07-27T13:04:48Z","2020-07-27T13:04:29Z","2020-07-27T13:04:18Z","2020-07-27T13:04:08Z","2020-07-27T13:03:58Z","2020-07-27T13:03:49Z","2020-07-27T13:03:39Z","2020-07-27T13:03:30Z","2020-07-27T13:03:14Z","2020-07-27T13:03:05Z","2020-07-27T13:02:57Z","2020-07-27T13:02:49Z","2020-07-27T13:02:41Z","2020-07-27T13:02:32Z","2020-07-27T13:02:14Z","2020-07-27T13:01:58Z","2020-07-27T13:01:36Z","2020-07-27T13:01:24Z","2020-07-27T13:01:04Z","2020-07-27T13:00:23Z"]}},"geometry":{"type":"LineString","coordinates":[[-6.814195588231087,62.24246112629771,3.07],[-6.814345540478826,62.24252876825631,1.64],[-6.814496498554945,62.24264561198652,4.04],[-6.814560536295176,62.24275331944227,5.02],[-6.814731862396002,62.242841413244605,7.82],[-6.814734879881144,62.24297200329602,10.58],[-6.814958928152919,62.24306596443057,13.59],[-6.815097313374281,62.24311105906963,13.67],[-6.815253300592303,62.24312589503825,13.55],[-6.81545102968812,62.243119943886995,13.38],[-6.815653368830681,62.24314349703491,13.33],[-6.815753113478422,62.243226394057274,14.46],[-6.815802147611976,62.243350027129054,14.69],[-6.8158492539078,62.24345672875643,15.56],[-6.815902730450034,62.2435565572232,17.46],[-6.815952854231,62.24366401322186,18.92],[-6.815999122336507,62.24375797435641,21.23],[-6.816042456775904,62.24385118111968,22.97],[-6.816086545586586,62.24395184777677,25.63],[-6.816138932481408,62.244052262976766,27.69],[-6.816222500056028,62.24404253996909,21.15],[-6.816196935251355,62.244081599637866,37.04],[-6.815982023254037,62.24415083415806,37.63],[-6.815792508423328,62.2442178055644,38.58],[-6.815586732700467,62.24426415748894,38.57],[-6.815365618094802,62.244285363703966,38.84],[-6.81518373079598,62.24433825351298,40.47],[-6.815237710252404,62.244447553530335,44.07],[-6.815307615324855,62.24458116106689,46],[-6.81545102968812,62.2446998488158,47.81],[-6.815599054098129,62.24485625512898,51.8],[-6.815688237547875,62.24496128037572,54.98],[-6.815804662182927,62.24509388208389,59.23],[-6.81574372574687,62.24522748962045,59.71],[-6.815503416582942,62.24525053985417,59.31],[-6.815308956429362,62.24526663310826,59.08],[-6.815107371658087,62.245288426056504,58.53],[-6.81507476605475,62.24536260589957,58.72],[-6.815107455477119,62.24537702277303,58.81],[-6.815127488225699,62.24542639218271,58.92],[-6.815045429393649,62.2454786952585,60.16],[-6.815094882622361,62.24558372050524,62.34],[-6.815159674733877,62.245677346363664,64.78],[-6.81521600112319,62.24574842490256,67.71],[-6.815284984186292,62.24586023949087,70.56],[-6.815293869003654,62.24597389809787,73.32],[-6.815210301429033,62.24607347510755,76.38],[-6.815185155719519,62.24617657251656,78.42],[-6.815225640311837,62.24627723917365,81.1],[-6.815302083268762,62.24636952392757,85.18],[-6.815378777682781,62.246455857530236,88.63],[-6.815442563965917,62.24654646590352,91.87],[-6.81547055952251,62.24663581699133,96.39],[-6.815607938915491,62.24671242758632,99.21],[-6.81574129499495,62.24682834930718,103.43],[-6.815771972760558,62.246928345412016,106.28],[-6.815864676609635,62.2470361366868,109.47],[-6.815949585288763,62.24710998125374,112.28],[-6.816040361300111,62.247214671224356,115.8],[-6.816110517829657,62.24729052744806,118.81],[-6.8162084184587,62.247375855222344,122.75],[-6.816396843641996,62.24748180247843,126.29],[-6.816382259130478,62.24755162373185,128.27],[-6.816345462575555,62.247652960941195,130.29],[-6.816257536411285,62.24776444025338,131.1],[-6.816184530034661,62.24786049686372,132.19],[-6.816142033785582,62.247946579009295,132.48],[-6.816016053780913,62.24802017211914,133.97],[-6.815912956371903,62.24812067113817,133.3],[-6.815890911966562,62.24820549599826,136.16],[-6.815832993015647,62.248283782973886,137.06],[-6.8157974537462,62.24839392118156,139.47],[-6.815732242539525,62.24848830141127,140.26],[-6.815666276961565,62.24856558255851,142.77],[-6.815713131800294,62.248640432953835,144.37],[-6.81568949483335,62.248731879517436,146.63],[-6.815726459026337,62.24882575683296,149.29],[-6.815799884498119,62.24890789948404,152.09],[-6.815884876996279,62.24899875931442,154.41],[-6.815958889201284,62.24909665994346,157.57],[-6.816030135378242,62.249171091243625,159.27],[-6.81602125056088,62.24918098188937,161.37],[-6.816024519503117,62.24927645176649,164.02],[-6.816057125106454,62.249383656308055,167.3],[-6.816062657162547,62.249483400955796,170.15],[-6.816087970510125,62.24958322942257,172.28],[-6.81617078371346,62.24966729991138,175.66],[-6.816264912486076,62.249750867486,180.22],[-6.81635744869709,62.24982219748199,184.79],[-6.816444369032979,62.24990132264793,191.34],[-6.816517123952508,62.24999989382923,193.94],[-6.816614773124456,62.25007717497647,198.05],[-6.816657772287726,62.25017163902521,201.67],[-6.81660027243197,62.25022193044424,202.19],[-6.81656951084733,62.25026920437813,204.02],[-6.816623993217945,62.25035780109465,206.5],[-6.816574791446328,62.250430723652244,208.52],[-6.816724995151162,62.25048101507127,210.29],[-6.816788529977202,62.25057237781584,214.68],[-6.816800851374865,62.25065477192402,216.7],[-6.816879054531455,62.25074948742986,220.39],[-6.816822476685047,62.25084311328828,222.14],[-6.816837731748819,62.25092886015773,224.71],[-6.816840749233961,62.251039668917656,227.61],[-6.816886346787214,62.25112994201481,229.88],[-6.816952060908079,62.25122658535838,232.6],[-6.81697066873312,62.25133018568158,234.93],[-6.816976116970182,62.25142255425453,236.69],[-6.816980978474021,62.25151777267456,239.4],[-6.816974440589547,62.25163067691028,241.3],[-6.817007716745138,62.25174047984183,243.33],[-6.81702540256083,62.25184693001211,246.68],[-6.817063791677356,62.25195799022913,248.94],[-6.817052140831947,62.2520752530545,250.88],[-6.817107880488038,62.25219997577369,251.99],[-6.817194297909737,62.252262672409415,254.67],[-6.817250372841954,62.25236853584647,257.46],[-6.817264873534441,62.252466939389706,259.89],[-6.817290773615241,62.2525588888675,263.63],[-6.817322121933103,62.25265326909721,267.04],[-6.817351542413235,62.252770364284515,268.53],[-6.81738012470305,62.25280581973493,271.32],[-6.817420525476337,62.25289240479469,272.81],[-6.817498560994864,62.25299583747983,274.17],[-6.817644909024239,62.25307798013091,277.13],[-6.817760746926069,62.25317093543708,279.27],[-6.817869544029236,62.25323966704309,282.8],[-6.818043384701014,62.253269674256444,286.55],[-6.818108847364783,62.25338869728148,289.08],[-6.818240275606513,62.253471007570624,292.2],[-6.818329123780131,62.253539990633726,295.56],[-6.818480081856251,62.25357385352254,296.39],[-6.818634979426861,62.253640573471785,296.77],[-6.818729611113668,62.25372112356126,297.39],[-6.818856177851558,62.253795973956585,297.39],[-6.818977715447545,62.25387535057962,299.49],[-6.819102605804801,62.25394047796726,300.12],[-6.819203859195113,62.25403209216893,300.5],[-6.819308968260884,62.25411222316325,301.46],[-6.819454394280911,62.25418665446341,302.08],[-6.819619769230485,62.254246501252055,302.68],[-6.819808529689908,62.254287069663405,303.95],[-6.820032158866525,62.25427835248411,305.47],[-6.820179345086217,62.25422856397927,306.38],[-6.820395765826106,62.254248009994626,307.86],[-6.82052250020206,62.254330571740866,309.27],[-6.820635823532939,62.2544152289629,309.84],[-6.820759205147624,62.25450919009745,311.73],[-6.820857357233763,62.254600720480084,313.37],[-6.82100479491055,62.254668110981584,315.7],[-6.821125326678157,62.25474270991981,317.81],[-6.821224903687835,62.25483566522598,320.7],[-6.821289360523224,62.25493381731212,322.94],[-6.821335377171636,62.25502476096153,326.11],[-6.821460938081145,62.25509751588106,328.87],[-6.821579206734896,62.255153842270374,332.12],[-6.82173770852387,62.255208576098084,334.56],[-6.821878273040056,62.25528426468372,336.88],[-6.822037193924189,62.255340591073036,338.76],[-6.822199383750558,62.25535391829908,341.25],[-6.822400130331516,62.2553735319525,344.25],[-6.822615042328835,62.25539146922529,347.35],[-6.822825847193599,62.255428014323115,349.31],[-6.823022486642003,62.2554237395525,350.33],[-6.823008824139834,62.25539364852011,350.73],[-6.823174534365535,62.255441257730126,350.94],[-6.823357930406928,62.255444610491395,350.75],[-6.823826981708407,62.25571081973612,347.88],[-6.824653437361121,62.25588901899755,313.52],[-6.824817890301347,62.25598582997918,318.68],[-6.824982846155763,62.256091525778174,322.2],[-6.825211253017187,62.256178529933095,321.02],[-6.825426416471601,62.25633753463626,321.6],[-6.82560671120882,62.2564251255244,322.9],[-6.825689524412155,62.25648698396981,325.99],[-6.826025303453207,62.25655445829034,327.27],[-6.826101243495941,62.25662528537214,326.83],[-6.826236359775066,62.25669426843524,326.12],[-6.826414810493588,62.25672570057213,324.67],[-6.826607091352344,62.25675252266228,323.6],[-6.826819404959679,62.25676668807864,321.8],[-6.827029790729284,62.256769705563784,320.45],[-6.827237410470843,62.25676308386028,318.82],[-6.827454837039113,62.25677146576345,316.76],[-6.827628677710891,62.256831815466285,316.84],[-6.827829927206039,62.256862660869956,314.72],[-6.828040312975645,62.256883615627885,312.4],[-6.828249609097838,62.256890488788486,310.78],[-6.828434681519866,62.25691068917513,310.02],[-6.828552447259426,62.25696492008865,308.95],[-6.82869041338563,62.25702568888664,306.42],[-6.828823769465089,62.257059048861265,298.75],[-6.829024013131857,62.25710506550968,294.92],[-6.829216796904802,62.2571608889848,291.5],[-6.829364318400621,62.257216880097985,288.76],[-6.829519970342517,62.25728259421885,286.15],[-6.829629940912128,62.25735585205257,283.13],[-6.829786850139499,62.25739675574005,279.33],[-6.829958343878388,62.25746548734605,275.41],[-6.830011149868369,62.2575078997761,272.77],[-6.830183733254671,62.25753178820014,271.9],[-6.830335194244981,62.25757922977209,267.78],[-6.830498222261667,62.25763304159045,264.88],[-6.830663764849305,62.25768710486591,261.69],[-6.830821093171835,62.25775122642517,260.01],[-6.830962579697371,62.25781953893602,256.13],[-6.831110687926412,62.257879385724664,253.47],[-6.83128209784627,62.257931688800454,249.51],[-6.831465242430568,62.257995307445526,247.62],[-6.831664899364114,62.25805909372866,245.35],[-6.83186111971736,62.2581020090729,243.88],[-6.832054322585464,62.25816956721246,242.53],[-6.832253811880946,62.258221954107285,241.15],[-6.832474255934358,62.25825305096805,239.81],[-6.832668213173747,62.2582901827991,239.17],[-6.832870803773403,62.258318178355694,238.4],[-6.833107592537999,62.258356316015124,236.87],[-6.83328059501946,62.258426221087575,236.82],[-6.833472205325961,62.25841867737472,233.57],[-6.833713101223111,62.25843426771462,231.12],[-6.833929438143969,62.25846611894667,229.64],[-6.834161030128598,62.2585079446435,227.7],[-6.834356663748622,62.258536694571376,225.96],[-6.83456227183342,62.25855337455869,225.13],[-6.834758408367634,62.25857449695468,223.86],[-6.834966111928225,62.258575251325965,223.22],[-6.83515889570117,62.25861355662346,222.5],[-6.83537095785141,62.25859645754099,221.41],[-6.835564495995641,62.25860953330994,221.14],[-6.83576331473887,62.25862579420209,220],[-6.835954589769244,62.258661249652505,219.06],[-6.836161958053708,62.25868119858205,218.11],[-6.83635113760829,62.258703829720616,218.06],[-6.836563115939498,62.258729729801416,217.74],[-6.836722455918789,62.25877767428756,216.26],[-6.83690425939858,62.258785385638475,216.12],[-6.83709193021059,62.25874540396035,215.52],[-6.837286055088043,62.25876250304282,213.59],[-6.837484370917082,62.258809357881546,213.04],[-6.837679501622915,62.258824026212096,211.71],[-6.837881756946445,62.258821092545986,210.44],[-6.838065907359123,62.25886585190892,209.32],[-6.838285597041249,62.2588636726141,207.76],[-6.838460946455598,62.25881673395634,206.97],[-6.838683234527707,62.25880382582545,207.23],[-6.838923543691635,62.25879150442779,205.79],[-6.838954137638211,62.25881589576602,206.86],[-6.839087577536702,62.258826959878206,206.84],[-6.839070813730359,62.25882478058338,206.69],[-6.83899998664856,62.258759401738644,207.34],[-6.839050110429525,62.258831821382046,206.3],[-6.839207774028182,62.2589051630348,204.16],[-6.839303076267242,62.258958555758,204.75],[-6.839437689632177,62.25903566926718,200.78],[-6.839604992419481,62.25905679166317,198.1],[-6.839782018214464,62.25903131067753,199.15],[-6.839811187237501,62.25893894210458,199.85],[-6.839928282424808,62.25896970368922,198.74],[-6.840058118104935,62.25903139449656,196.98],[-6.840193150565028,62.259098114445806,193.71],[-6.840266324579716,62.259192327037454,191.25],[-6.840243861079216,62.259283773601055,188.9],[-6.840270012617111,62.259293580427766,188.49],[-6.840252578258514,62.259271619841456,189.41],[-6.840264815837145,62.259334567934275,189.69],[-6.840438656508923,62.2593349032104,185.19],[-6.840629847720265,62.259302129969,184.29],[-6.840811902657151,62.25931579247117,180.98],[-6.840991359204054,62.25933741778135,177.72],[-6.841204846277833,62.259326772764325,174.33],[-6.841404587030411,62.25930850021541,172.93],[-6.841504080221057,62.25937161594629,168.03],[-6.841659480705857,62.25939919240773,165.26],[-6.84185310266912,62.259366838261485,162.39],[-6.84195963665843,62.25943313911557,160.61],[-6.842039516195655,62.25950388237834,157.17],[-6.842216458171606,62.25954947993159,154.77],[-6.842336235567927,62.259609159082174,152.32],[-6.842466155067086,62.259670263156295,149.99],[-6.842642091214657,62.25970957428217,147.99],[-6.842745440080762,62.25978517904878,145.31],[-6.84292615391314,62.259819796308875,143.61],[-6.843022042885423,62.2598928026855,140.29],[-6.843110891059041,62.25997502915561,138.03],[-6.8431699834764,62.260046945884824,136.06],[-6.843277690932155,62.26013470441103,132.9],[-6.84339084662497,62.2601951379329,129.79],[-6.843570889905095,62.26023872382939,127.16],[-6.843714723363519,62.26027853786945,125.61],[-6.843711286783218,62.26028230972588,124.45],[-6.843696953728795,62.260363111272454,121.93],[-6.843845816329122,62.26039554923773,117.27],[-6.844023261219263,62.26036000996828,114.49],[-6.844031140208244,62.26041231304407,110.69],[-6.844115797430277,62.26046830415726,105.85],[-6.84431042522192,62.26042002439499,101.97],[-6.844278573989868,62.26051197387278,98.91],[-6.844363315030932,62.26052261888981,96.2],[-6.844521313905716,62.26051323115826,92.78],[-6.844576131552458,62.26060509681702,88.55],[-6.844716444611549,62.260592775419354,83.43],[-6.844837730750442,62.260638792067766,79.82],[-6.84499841183424,62.260620603337884,76.67],[-6.844960357993841,62.26072411984205,73.99],[-6.844984497874975,62.260788744315505,70.25],[-6.845156913623214,62.26078958250582,65.73],[-6.845162780955434,62.260871389880776,62.92],[-6.845282139256597,62.260922100394964,57.46],[-6.845399653539062,62.260947078466415,53.61],[-6.845502918586135,62.26097968406975,48.27],[-6.845636190846562,62.260991083458066,45.19],[-6.845634011551738,62.26105277426541,41.69],[-6.845569973811507,62.26112946867943,39.72],[-6.845493195578456,62.26119794882834,37.44],[-6.845424715429544,62.261286126449704,35.42],[-6.845364952459931,62.261379500851035,32.39],[-6.845319522544742,62.26146818138659,29.44],[-6.845192536711693,62.26155661046505,27.65],[-6.845150627195835,62.26165099069476,25.98],[-6.845059348270297,62.261732798069715,23.17],[-6.844962034374476,62.261816784739494,21.49],[-6.844891374930739,62.261905716732144,20.19],[-6.84482884593308,62.2620081435889,19.15],[-6.844769921153784,62.26210093125701,18.89],[-6.844730693846941,62.26219573058188,18.23],[-6.844665901735425,62.26228675805032,17.32],[-6.844604210928083,62.262377701699734,15.97],[-6.844529276713729,62.26247996091843,14.94],[-6.844489965587854,62.26257199421525,13.7],[-6.844474459066987,62.26267064921558,13.76],[-6.844523325562477,62.26275371387601,13.45],[-6.84463924728334,62.262837029993534,11.85],[-6.844663890078664,62.26292872801423,10.46],[-6.844776207581163,62.263009529560804,9.89],[-6.844843178987503,62.263100389391184,11.65625],[-6.844863127917051,62.26311815902591,11.4609375],[-6.844883160665631,62.2631358448416,11.265625],[-6.844903025776148,62.26315001025796,11.09765625],[-6.844903025776148,62.26315001025796,11.09765625],[-6.844883160665631,62.2631358448416,11.265625],[-6.844863127917051,62.26311815902591,11.4609375],[-6.844843178987503,62.263100389391184,11.65625],[-6.844776207581163,62.263009529560804,9.89],[-6.844663890078664,62.26292872801423,10.46],[-6.84463924728334,62.262837029993534,11.85],[-6.844523325562477,62.26275371387601,13.45],[-6.844474459066987,62.26267064921558,13.76],[-6.844489965587854,62.26257199421525,13.7],[-6.844529276713729,62.26247996091843,14.94],[-6.844604210928083,62.262377701699734,15.97],[-6.844665901735425,62.26228675805032,17.32],[-6.844730693846941,62.26219573058188,18.23],[-6.844769921153784,62.26210093125701,18.89],[-6.84482884593308,62.2620081435889,19.15],[-6.844891374930739,62.261905716732144,20.19],[-6.844962034374476,62.261816784739494,21.49],[-6.845059348270297,62.261732798069715,23.17],[-6.845150627195835,62.26165099069476,25.98],[-6.845192536711693,62.26155661046505,27.65],[-6.845319522544742,62.26146818138659,29.44],[-6.845364952459931,62.261379500851035,32.39],[-6.845424715429544,62.261286126449704,35.42],[-6.845493195578456,62.26119794882834,37.44],[-6.845569973811507,62.26112946867943,39.72],[-6.845634011551738,62.26105277426541,41.69],[-6.845636190846562,62.260991083458066,45.19],[-6.845502918586135,62.26097968406975,48.27],[-6.845399653539062,62.260947078466415,53.61],[-6.845282139256597,62.260922100394964,57.46],[-6.845162780955434,62.260871389880776,62.92],[-6.845156913623214,62.26078958250582,65.73],[-6.844984497874975,62.260788744315505,70.25],[-6.844960357993841,62.26072411984205,73.99],[-6.84499841183424,62.260620603337884,76.67],[-6.844837730750442,62.260638792067766,79.82],[-6.844716444611549,62.260592775419354,83.43],[-6.844576131552458,62.26060509681702,88.55],[-6.844521313905716,62.26051323115826,92.78],[-6.844363315030932,62.26052261888981,96.2],[-6.844278573989868,62.26051197387278,98.91],[-6.84431042522192,62.26042002439499,101.97],[-6.844115797430277,62.26046830415726,105.85],[-6.844031140208244,62.26041231304407,110.69],[-6.844023261219263,62.26036000996828,114.49],[-6.843845816329122,62.26039554923773,117.27],[-6.843696953728795,62.260363111272454,121.93],[-6.843711286783218,62.26028230972588,124.45],[-6.843714723363519,62.26027853786945,125.61],[-6.843570889905095,62.26023872382939,127.16],[-6.84339084662497,62.2601951379329,129.79],[-6.843277690932155,62.26013470441103,132.9],[-6.8431699834764,62.260046945884824,136.06],[-6.843110891059041,62.25997502915561,138.03],[-6.843022042885423,62.2598928026855,140.29],[-6.84292615391314,62.259819796308875,143.61],[-6.842745440080762,62.25978517904878,145.31],[-6.842642091214657,62.25970957428217,147.99],[-6.842466155067086,62.259670263156295,149.99],[-6.842336235567927,62.259609159082174,152.32],[-6.842216458171606,62.25954947993159,154.77],[-6.842039516195655,62.25950388237834,157.17],[-6.84195963665843,62.25943313911557,160.61],[-6.84185310266912,62.259366838261485,162.39],[-6.841659480705857,62.25939919240773,165.26],[-6.841504080221057,62.25937161594629,168.03],[-6.841404587030411,62.25930850021541,172.93],[-6.841204846277833,62.259326772764325,174.33],[-6.840991359204054,62.25933741778135,177.72],[-6.840811902657151,62.25931579247117,180.98],[-6.840629847720265,62.259302129969,184.29],[-6.840438656508923,62.2593349032104,185.19],[-6.840264815837145,62.259334567934275,189.69],[-6.840252578258514,62.259271619841456,189.41],[-6.840270012617111,62.259293580427766,188.49],[-6.840243861079216,62.259283773601055,188.9],[-6.840266324579716,62.259192327037454,191.25],[-6.840193150565028,62.259098114445806,193.71],[-6.840058118104935,62.25903139449656,196.98],[-6.839928282424808,62.25896970368922,198.74],[-6.839811187237501,62.25893894210458,199.85],[-6.839782018214464,62.25903131067753,199.15],[-6.839604992419481,62.25905679166317,198.1],[-6.839437689632177,62.25903566926718,200.78],[-6.839303076267242,62.258958555758,204.75],[-6.839207774028182,62.2589051630348,204.16],[-6.839050110429525,62.258831821382046,206.3],[-6.83899998664856,62.258759401738644,207.34],[-6.839070813730359,62.25882478058338,206.69],[-6.839087577536702,62.258826959878206,206.84],[-6.838954137638211,62.25881589576602,206.86],[-6.838923543691635,62.25879150442779,205.79],[-6.838683234527707,62.25880382582545,207.23],[-6.838460946455598,62.25881673395634,206.97],[-6.838285597041249,62.2588636726141,207.76],[-6.838065907359123,62.25886585190892,209.32],[-6.837881756946445,62.258821092545986,210.44],[-6.837679501622915,62.258824026212096,211.71],[-6.837484370917082,62.258809357881546,213.04],[-6.837286055088043,62.25876250304282,213.59],[-6.83709193021059,62.25874540396035,215.52],[-6.83690425939858,62.258785385638475,216.12],[-6.836722455918789,62.25877767428756,216.26],[-6.836563115939498,62.258729729801416,217.74],[-6.83635113760829,62.258703829720616,218.06],[-6.836161958053708,62.25868119858205,218.11],[-6.835954589769244,62.258661249652505,219.06],[-6.83576331473887,62.25862579420209,220],[-6.835564495995641,62.25860953330994,221.14],[-6.83537095785141,62.25859645754099,221.41],[-6.83515889570117,62.25861355662346,222.5],[-6.834966111928225,62.258575251325965,223.22],[-6.834758408367634,62.25857449695468,223.86],[-6.83456227183342,62.25855337455869,225.13],[-6.834356663748622,62.258536694571376,225.96],[-6.834161030128598,62.2585079446435,227.7],[-6.833929438143969,62.25846611894667,229.64],[-6.833713101223111,62.25843426771462,231.12],[-6.833472205325961,62.25841867737472,233.57],[-6.83328059501946,62.258426221087575,236.82],[-6.833107592537999,62.258356316015124,236.87],[-6.832870803773403,62.258318178355694,238.4],[-6.832668213173747,62.2582901827991,239.17],[-6.832474255934358,62.25825305096805,239.81],[-6.832253811880946,62.258221954107285,241.15],[-6.832054322585464,62.25816956721246,242.53],[-6.83186111971736,62.2581020090729,243.88],[-6.831664899364114,62.25805909372866,245.35],[-6.831465242430568,62.257995307445526,247.62],[-6.83128209784627,62.257931688800454,249.51],[-6.831110687926412,62.257879385724664,253.47],[-6.830962579697371,62.25781953893602,256.13],[-6.830821093171835,62.25775122642517,260.01],[-6.830663764849305,62.25768710486591,261.69],[-6.830498222261667,62.25763304159045,264.88],[-6.830335194244981,62.25757922977209,267.78],[-6.830183733254671,62.25753178820014,271.9],[-6.830011149868369,62.2575078997761,272.77],[-6.829958343878388,62.25746548734605,275.41],[-6.829786850139499,62.25739675574005,279.33],[-6.829629940912128,62.25735585205257,283.13],[-6.829519970342517,62.25728259421885,286.15],[-6.829364318400621,62.257216880097985,288.76],[-6.829216796904802,62.2571608889848,291.5],[-6.829024013131857,62.25710506550968,294.92],[-6.828823769465089,62.257059048861265,298.75],[-6.82869041338563,62.25702568888664,306.42],[-6.828552447259426,62.25696492008865,308.95],[-6.828434681519866,62.25691068917513,310.02],[-6.828249609097838,62.256890488788486,310.78],[-6.828040312975645,62.256883615627885,312.4],[-6.827829927206039,62.256862660869956,314.72],[-6.827628677710891,62.256831815466285,316.84],[-6.827454837039113,62.25677146576345,316.76],[-6.827237410470843,62.25676308386028,318.82],[-6.827029790729284,62.256769705563784,320.45],[-6.826819404959679,62.25676668807864,321.8],[-6.826607091352344,62.25675252266228,323.6],[-6.826414810493588,62.25672570057213,324.67],[-6.826236359775066,62.25669426843524,326.12],[-6.826101243495941,62.25662528537214,326.83],[-6.826025303453207,62.25655445829034,327.27],[-6.825689524412155,62.25648698396981,325.99],[-6.82560671120882,62.2564251255244,322.9],[-6.825426416471601,62.25633753463626,321.6],[-6.825211253017187,62.256178529933095,321.02],[-6.824982846155763,62.256091525778174,322.2],[-6.824817890301347,62.25598582997918,318.68],[-6.824653437361121,62.25588901899755,313.52],[-6.823826981708407,62.25571081973612,347.88],[-6.823357930406928,62.255444610491395,350.75],[-6.823174534365535,62.255441257730126,350.94],[-6.823008824139834,62.25539364852011,350.73],[-6.823022486642003,62.2554237395525,350.33],[-6.822825847193599,62.255428014323115,349.31],[-6.822615042328835,62.25539146922529,347.35],[-6.822400130331516,62.2553735319525,344.25],[-6.822199383750558,62.25535391829908,341.25],[-6.822037193924189,62.255340591073036,338.76],[-6.821878273040056,62.25528426468372,336.88],[-6.82173770852387,62.255208576098084,334.56],[-6.821579206734896,62.255153842270374,332.12],[-6.821460938081145,62.25509751588106,328.87],[-6.821335377171636,62.25502476096153,326.11],[-6.821289360523224,62.25493381731212,322.94],[-6.821224903687835,62.25483566522598,320.7],[-6.821125326678157,62.25474270991981,317.81],[-6.82100479491055,62.254668110981584,315.7],[-6.820857357233763,62.254600720480084,313.37],[-6.820759205147624,62.25450919009745,311.73],[-6.820635823532939,62.2544152289629,309.84],[-6.82052250020206,62.254330571740866,309.27],[-6.820395765826106,62.254248009994626,307.86],[-6.820179345086217,62.25422856397927,306.38],[-6.820032158866525,62.25427835248411,305.47],[-6.819808529689908,62.254287069663405,303.95],[-6.819619769230485,62.254246501252055,302.68],[-6.819454394280911,62.25418665446341,302.08],[-6.819308968260884,62.25411222316325,301.46],[-6.819203859195113,62.25403209216893,300.5],[-6.819102605804801,62.25394047796726,300.12],[-6.818977715447545,62.25387535057962,299.49],[-6.818856177851558,62.253795973956585,297.39],[-6.818729611113668,62.25372112356126,297.39],[-6.818634979426861,62.253640573471785,296.77],[-6.818480081856251,62.25357385352254,296.39],[-6.818329123780131,62.253539990633726,295.56],[-6.818240275606513,62.253471007570624,292.2],[-6.818108847364783,62.25338869728148,289.08],[-6.818043384701014,62.253269674256444,286.55],[-6.817869544029236,62.25323966704309,282.8],[-6.817760746926069,62.25317093543708,279.27],[-6.817644909024239,62.25307798013091,277.13],[-6.817498560994864,62.25299583747983,274.17],[-6.817420525476337,62.25289240479469,272.81],[-6.81738012470305,62.25280581973493,271.32],[-6.817351542413235,62.252770364284515,268.53],[-6.817322121933103,62.25265326909721,267.04],[-6.817290773615241,62.2525588888675,263.63],[-6.817264873534441,62.252466939389706,259.89],[-6.817250372841954,62.25236853584647,257.46],[-6.817194297909737,62.252262672409415,254.67],[-6.817107880488038,62.25219997577369,251.99],[-6.817052140831947,62.2520752530545,250.88],[-6.817063791677356,62.25195799022913,248.94],[-6.81702540256083,62.25184693001211,246.68],[-6.817007716745138,62.25174047984183,243.33],[-6.816974440589547,62.25163067691028,241.3],[-6.816980978474021,62.25151777267456,239.4],[-6.816976116970182,62.25142255425453,236.69],[-6.81697066873312,62.25133018568158,234.93],[-6.816952060908079,62.25122658535838,232.6],[-6.816886346787214,62.25112994201481,229.88],[-6.816840749233961,62.251039668917656,227.61],[-6.816837731748819,62.25092886015773,224.71],[-6.816822476685047,62.25084311328828,222.14],[-6.816879054531455,62.25074948742986,220.39],[-6.816800851374865,62.25065477192402,216.7],[-6.816788529977202,62.25057237781584,214.68],[-6.816724995151162,62.25048101507127,210.29],[-6.816574791446328,62.250430723652244,208.52],[-6.816623993217945,62.25035780109465,206.5],[-6.81656951084733,62.25026920437813,204.02],[-6.81660027243197,62.25022193044424,202.19],[-6.816657772287726,62.25017163902521,201.67],[-6.816614773124456,62.25007717497647,198.05],[-6.816517123952508,62.24999989382923,193.94],[-6.816444369032979,62.24990132264793,191.34],[-6.81635744869709,62.24982219748199,184.79],[-6.816264912486076,62.249750867486,180.22],[-6.81617078371346,62.24966729991138,175.66],[-6.816087970510125,62.24958322942257,172.28],[-6.816062657162547,62.249483400955796,170.15],[-6.816057125106454,62.249383656308055,167.3],[-6.816024519503117,62.24927645176649,164.02],[-6.81602125056088,62.24918098188937,161.37],[-6.816030135378242,62.249171091243625,159.27],[-6.815958889201284,62.24909665994346,157.57],[-6.815884876996279,62.24899875931442,154.41],[-6.815799884498119,62.24890789948404,152.09],[-6.815726459026337,62.24882575683296,149.29],[-6.81568949483335,62.248731879517436,146.63],[-6.815713131800294,62.248640432953835,144.37],[-6.815666276961565,62.24856558255851,142.77],[-6.815732242539525,62.24848830141127,140.26],[-6.8157974537462,62.24839392118156,139.47],[-6.815832993015647,62.248283782973886,137.06],[-6.815890911966562,62.24820549599826,136.16],[-6.815912956371903,62.24812067113817,133.3],[-6.816016053780913,62.24802017211914,133.97],[-6.816142033785582,62.247946579009295,132.48],[-6.816184530034661,62.24786049686372,132.19],[-6.816257536411285,62.24776444025338,131.1],[-6.816345462575555,62.247652960941195,130.29],[-6.816382259130478,62.24755162373185,128.27],[-6.816396843641996,62.24748180247843,126.29],[-6.8162084184587,62.247375855222344,122.75],[-6.816110517829657,62.24729052744806,118.81],[-6.816040361300111,62.247214671224356,115.8],[-6.815949585288763,62.24710998125374,112.28],[-6.815864676609635,62.2470361366868,109.47],[-6.815771972760558,62.246928345412016,106.28],[-6.81574129499495,62.24682834930718,103.43],[-6.815607938915491,62.24671242758632,99.21],[-6.81547055952251,62.24663581699133,96.39],[-6.815442563965917,62.24654646590352,91.87],[-6.815378777682781,62.246455857530236,88.63],[-6.815302083268762,62.24636952392757,85.18],[-6.815225640311837,62.24627723917365,81.1],[-6.815185155719519,62.24617657251656,78.42],[-6.815210301429033,62.24607347510755,76.38],[-6.815293869003654,62.24597389809787,73.32],[-6.815284984186292,62.24586023949087,70.56],[-6.81521600112319,62.24574842490256,67.71],[-6.815159674733877,62.245677346363664,64.78],[-6.815094882622361,62.24558372050524,62.34],[-6.815045429393649,62.2454786952585,60.16],[-6.815127488225699,62.24542639218271,58.92],[-6.815107455477119,62.24537702277303,58.81],[-6.81507476605475,62.24536260589957,58.72],[-6.815107371658087,62.245288426056504,58.53],[-6.815308956429362,62.24526663310826,59.08],[-6.815503416582942,62.24525053985417,59.31],[-6.81574372574687,62.24522748962045,59.71],[-6.815804662182927,62.24509388208389,59.23],[-6.815688237547875,62.24496128037572,54.98],[-6.815599054098129,62.24485625512898,51.8],[-6.81545102968812,62.2446998488158,47.81],[-6.815307615324855,62.24458116106689,46],[-6.815237710252404,62.244447553530335,44.07],[-6.81518373079598,62.24433825351298,40.47],[-6.815365618094802,62.244285363703966,38.84],[-6.815586732700467,62.24426415748894,38.57],[-6.815792508423328,62.2442178055644,38.58],[-6.815982023254037,62.24415083415806,37.63],[-6.816196935251355,62.244081599637866,37.04],[-6.816222500056028,62.24404253996909,21.15],[-6.816138932481408,62.244052262976766,27.69],[-6.816086545586586,62.24395184777677,25.63],[-6.816042456775904,62.24385118111968,22.97],[-6.815999122336507,62.24375797435641,21.23],[-6.815952854231,62.24366401322186,18.92],[-6.815902730450034,62.2435565572232,17.46],[-6.8158492539078,62.24345672875643,15.56],[-6.815802147611976,62.243350027129054,14.69],[-6.815753113478422,62.243226394057274,14.46],[-6.815653368830681,62.24314349703491,13.33],[-6.81545102968812,62.243119943886995,13.38],[-6.815253300592303,62.24312589503825,13.55],[-6.815097313374281,62.24311105906963,13.67],[-6.814958928152919,62.24306596443057,13.59],[-6.814734879881144,62.24297200329602,10.58],[-6.814731862396002,62.242841413244605,7.82],[-6.814560536295176,62.24275331944227,5.02],[-6.814496498554945,62.24264561198652,4.04],[-6.814345540478826,62.24252876825631,1.64],[-6.814195588231087,62.24246112629771,3.07]]}},{"type":"Feature","properties":{"name":"WP1 04_FH","type":"user","time":"2020-07-27T10:40:40Z","gpxx_WaypointExtension":"SymbolAndName","gpxx_DisplayMode":"SymbolAndName","wptx1_WaypointExtension":"SymbolAndName","wptx1_DisplayMode":"SymbolAndName","ctx_CreationTimeExtension":"2020-07-27T10:40:40Z","ctx_CreationTime":"2020-07-27T10:40:40Z","sym":"Flag, Blue"},"geometry":{"type":"Point","coordinates":[-6.816665986552835,62.25017197430134,201.611298]}},{"type":"Feature","properties":{"name":"WP2 07_FH","type":"user","time":"2020-07-27T11:00:09Z","gpxx_WaypointExtension":"SymbolAndName","gpxx_DisplayMode":"SymbolAndName","wptx1_WaypointExtension":"SymbolAndName","wptx1_DisplayMode":"SymbolAndName","ctx_CreationTimeExtension":"2020-07-27T11:00:09Z","ctx_CreationTime":"2020-07-27T11:00:09Z","sym":"Flag, Blue"},"geometry":{"type":"Point","coordinates":[-6.822944032028318,62.255429020151496,349.590118]}},{"type":"Feature","properties":{"name":"WP3 15_FH","type":"user","time":"2020-07-27T11:59:12Z","gpxx_WaypointExtension":"SymbolAndName","gpxx_DisplayMode":"SymbolAndName","wptx1_WaypointExtension":"SymbolAndName","wptx1_DisplayMode":"SymbolAndName","ctx_CreationTimeExtension":"2020-07-27T11:59:12Z","ctx_CreationTime":"2020-07-27T11:59:12Z","sym":"Flag, Blue"},"geometry":{"type":"Point","coordinates":[-6.843711035326123,62.26027996279299,125.601196]}}]}