{"type":"FeatureCollection","features":[{"type":"Feature","properties":{"_gpxType":"trk","name":"08 Wanderung Toftavatn CS","time":"2020-07-16T11:03:25Z","gpxx_TrackExtension":"Blue","gpxx_DisplayColor":"Blue","coordinateProperties":{"times":["2020-07-16T11:03:25Z","2020-07-16T11:03:41Z","2020-07-16T11:03:50Z","2020-07-16T11:03:58Z","2020-07-16T11:04:06Z","2020-07-16T11:04:16Z","2020-07-16T11:04:24Z","2020-07-16T11:04:33Z","2020-07-16T11:04:42Z","2020-07-16T11:04:50Z","2020-07-16T11:04:59Z","2020-07-16T11:05:13Z","2020-07-16T11:05:21Z","2020-07-16T11:05:28Z","2020-07-16T11:05:35Z","2020-07-16T11:05:42Z","2020-07-16T11:05:49Z","2020-07-16T11:05:56Z","2020-07-16T11:06:03Z","2020-07-16T11:06:10Z","2020-07-16T11:06:17Z","2020-07-16T11:06:25Z","2020-07-16T11:06:32Z","2020-07-16T11:06:39Z","2020-07-16T11:06:46Z","2020-07-16T11:07:09Z","2020-07-16T11:07:27Z","2020-07-16T11:07:35Z","2020-07-16T11:07:42Z","2020-07-16T11:07:49Z","2020-07-16T11:07:56Z","2020-07-16T11:08:03Z","2020-07-16T11:08:09Z","2020-07-16T11:08:16Z","2020-07-16T11:08:23Z","2020-07-16T11:08:30Z","2020-07-16T11:08:37Z","2020-07-16T11:08:44Z","2020-07-16T11:08:52Z","2020-07-16T11:08:58Z","2020-07-16T11:09:06Z","2020-07-16T11:09:20Z","2020-07-16T11:09:26Z","2020-07-16T11:09:32Z","2020-07-16T11:09:38Z","2020-07-16T11:09:44Z","2020-07-16T11:09:50Z","2020-07-16T11:09:56Z","2020-07-16T11:10:03Z","2020-07-16T11:10:09Z","2020-07-16T11:10:15Z","2020-07-16T11:10:22Z","2020-07-16T11:10:28Z","2020-07-16T11:10:35Z","2020-07-16T11:10:41Z","2020-07-16T11:10:47Z","2020-07-16T11:10:53Z","2020-07-16T11:10:59Z","2020-07-16T11:11:05Z","2020-07-16T11:11:12Z","2020-07-16T11:11:18Z","2020-07-16T11:11:24Z","2020-07-16T11:11:30Z","2020-07-16T11:11:36Z","2020-07-16T11:11:43Z","2020-07-16T11:11:50Z","2020-07-16T11:11:57Z","2020-07-16T11:12:04Z","2020-07-16T11:12:11Z","2020-07-16T11:12:24Z","2020-07-16T11:12:31Z","2020-07-16T11:12:38Z","2020-07-16T11:12:45Z","2020-07-16T11:13:02Z","2020-07-16T11:14:20Z","2020-07-16T11:14:28Z","2020-07-16T11:14:40Z","2020-07-16T11:14:47Z","2020-07-16T11:14:53Z","2020-07-16T11:14:59Z","2020-07-16T11:15:06Z","2020-07-16T11:15:13Z","2020-07-16T11:15:21Z","2020-07-16T11:16:21Z","2020-07-16T11:16:27Z","2020-07-16T11:16:34Z","2020-07-16T11:16:40Z","2020-07-16T11:16:47Z","2020-07-16T11:16:53Z","2020-07-16T11:17:00Z","2020-07-16T11:17:07Z","2020-07-16T11:17:13Z","2020-07-16T11:17:20Z","2020-07-16T11:17:26Z","2020-07-16T11:17:32Z","2020-07-16T11:17:39Z","2020-07-16T11:17:45Z","2020-07-16T11:17:51Z","2020-07-16T11:17:57Z","2020-07-16T11:18:03Z","2020-07-16T11:18:09Z","2020-07-16T11:18:15Z","2020-07-16T11:18:22Z","2020-07-16T11:18:29Z","2020-07-16T11:18:36Z","2020-07-16T11:18:42Z","2020-07-16T11:18:48Z","2020-07-16T11:18:54Z","2020-07-16T11:19:01Z","2020-07-16T11:19:08Z","2020-07-16T11:19:14Z","2020-07-16T11:19:20Z","2020-07-16T11:19:26Z","2020-07-16T11:19:32Z","2020-07-16T11:19:39Z","2020-07-16T11:19:45Z","2020-07-16T11:19:53Z","2020-07-16T11:19:59Z","2020-07-16T11:20:06Z","2020-07-16T11:20:13Z","2020-07-16T11:20:20Z","2020-07-16T11:20:26Z","2020-07-16T11:20:32Z","2020-07-16T11:20:38Z","2020-07-16T11:20:49Z","2020-07-16T11:20:55Z","2020-07-16T11:21:01Z","2020-07-16T11:21:07Z","2020-07-16T11:21:13Z","2020-07-16T11:21:20Z","2020-07-16T11:21:27Z","2020-07-16T11:21:40Z","2020-07-16T11:21:47Z","2020-07-16T11:21:53Z","2020-07-16T11:22:00Z","2020-07-16T11:22:07Z","2020-07-16T11:22:14Z","2020-07-16T11:22:21Z","2020-07-16T11:22:27Z","2020-07-16T11:22:34Z","2020-07-16T11:22:41Z","2020-07-16T11:22:48Z","2020-07-16T11:23:59Z","2020-07-16T11:24:07Z","2020-07-16T11:24:13Z","2020-07-16T11:24:19Z","2020-07-16T11:24:25Z","2020-07-16T11:24:32Z","2020-07-16T11:24:39Z","2020-07-16T11:24:46Z","2020-07-16T11:24:52Z","2020-07-16T11:24:59Z","2020-07-16T11:25:05Z","2020-07-16T11:25:11Z","2020-07-16T11:25:18Z","2020-07-16T11:25:24Z","2020-07-16T11:25:31Z","2020-07-16T11:25:40Z","2020-07-16T11:27:49Z","2020-07-16T11:27:56Z","2020-07-16T11:28:07Z","2020-07-16T11:28:14Z","2020-07-16T11:28:20Z","2020-07-16T11:28:27Z","2020-07-16T11:28:33Z","2020-07-16T11:28:40Z","2020-07-16T11:28:47Z","2020-07-16T11:28:54Z","2020-07-16T11:29:01Z","2020-07-16T11:29:09Z","2020-07-16T11:29:16Z","2020-07-16T11:29:23Z","2020-07-16T11:29:30Z","2020-07-16T11:29:37Z","2020-07-16T11:29:44Z","2020-07-16T11:29:50Z","2020-07-16T11:29:56Z","2020-07-16T11:30:02Z","2020-07-16T11:30:08Z","2020-07-16T11:30:14Z","2020-07-16T11:30:20Z","2020-07-16T11:30:56Z","2020-07-16T11:31:03Z","2020-07-16T11:31:09Z","2020-07-16T11:31:15Z","2020-07-16T11:31:21Z","2020-07-16T11:31:27Z","2020-07-16T11:31:34Z","2020-07-16T11:31:40Z","2020-07-16T11:31:46Z","2020-07-16T11:31:52Z","2020-07-16T11:31:58Z","2020-07-16T11:32:05Z","2020-07-16T11:32:12Z","2020-07-16T11:32:18Z","2020-07-16T11:32:24Z","2020-07-16T11:32:31Z","2020-07-16T11:32:38Z","2020-07-16T11:32:45Z","2020-07-16T11:32:53Z","2020-07-16T11:33:00Z","2020-07-16T11:33:07Z","2020-07-16T11:33:20Z","2020-07-16T11:33:27Z","2020-07-16T11:33:34Z","2020-07-16T11:33:41Z","2020-07-16T11:33:48Z","2020-07-16T11:33:56Z","2020-07-16T11:34:03Z","2020-07-16T11:34:10Z","2020-07-16T11:34:17Z","2020-07-16T11:34:24Z","2020-07-16T11:34:32Z","2020-07-16T11:34:46Z","2020-07-16T11:34:55Z","2020-07-16T11:35:06Z","2020-07-16T11:35:15Z","2020-07-16T11:35:27Z","2020-07-16T11:35:35Z","2020-07-16T11:35:42Z","2020-07-16T11:35:49Z","2020-07-16T11:35:56Z","2020-07-16T11:36:03Z","2020-07-16T11:36:10Z","2020-07-16T11:36:17Z","2020-07-16T11:36:24Z","2020-07-16T11:36:32Z","2020-07-16T11:36:39Z","2020-07-16T11:36:46Z","2020-07-16T11:36:53Z","2020-07-16T11:37:00Z","2020-07-16T11:37:07Z","2020-07-16T11:37:14Z","2020-07-16T11:37:21Z","2020-07-16T11:37:28Z","2020-07-16T11:37:35Z","2020-07-16T11:37:43Z","2020-07-16T11:37:50Z","2020-07-16T11:37:57Z","2020-07-16T11:38:04Z","2020-07-16T11:38:11Z","2020-07-16T11:38:17Z","2020-07-16T11:38:24Z","2020-07-16T11:38:31Z","2020-07-16T11:38:38Z","2020-07-16T11:38:45Z","2020-07-16T11:38:52Z","2020-07-16T11:38:59Z","2020-07-16T11:39:06Z","2020-07-16T11:39:13Z","2020-07-16T11:39:20Z","2020-07-16T11:39:27Z","2020-07-16T11:39:34Z","2020-07-16T11:39:40Z","2020-07-16T11:39:46Z","2020-07-16T11:39:53Z","2020-07-16T11:39:59Z","2020-07-16T11:40:05Z","2020-07-16T11:40:11Z","2020-07-16T11:40:17Z","2020-07-16T11:40:24Z","2020-07-16T11:40:31Z","2020-07-16T11:40:38Z","2020-07-16T11:40:45Z","2020-07-16T11:40:52Z","2020-07-16T11:40:59Z","2020-07-16T11:41:06Z","2020-07-16T11:41:13Z","2020-07-16T11:41:19Z","2020-07-16T11:41:25Z","2020-07-16T11:41:31Z","2020-07-16T11:41:37Z","2020-07-16T11:41:44Z","2020-07-16T11:41:50Z","2020-07-16T11:41:56Z","2020-07-16T11:42:02Z","2020-07-16T11:42:09Z","2020-07-16T11:42:15Z","2020-07-16T11:42:21Z","2020-07-16T11:42:27Z","2020-07-16T11:42:34Z","2020-07-16T11:42:41Z","2020-07-16T11:42:47Z","2020-07-16T11:42:53Z","2020-07-16T11:42:59Z","2020-07-16T11:43:05Z","2020-07-16T11:43:11Z","2020-07-16T11:43:17Z","2020-07-16T11:43:23Z","2020-07-16T11:43:29Z","2020-07-16T11:43:35Z","2020-07-16T11:43:41Z","2020-07-16T11:43:47Z","2020-07-16T11:43:53Z","2020-07-16T11:44:00Z","2020-07-16T11:44:07Z","2020-07-16T11:44:13Z","2020-07-16T11:44:20Z","2020-07-16T11:44:26Z","2020-07-16T11:44:32Z","2020-07-16T11:44:38Z","2020-07-16T11:44:44Z","2020-07-16T11:44:50Z","2020-07-16T11:44:56Z","2020-07-16T11:45:02Z","2020-07-16T11:45:08Z","2020-07-16T11:45:14Z","2020-07-16T11:45:21Z","2020-07-16T11:45:27Z","2020-07-16T11:45:34Z","2020-07-16T11:45:40Z","2020-07-16T11:45:46Z","2020-07-16T11:45:52Z","2020-07-16T11:45:58Z","2020-07-16T11:46:04Z","2020-07-16T11:46:10Z","2020-07-16T11:46:16Z","2020-07-16T11:46:22Z","2020-07-16T11:46:28Z","2020-07-16T11:46:35Z","2020-07-16T11:46:41Z","2020-07-16T11:46:47Z","2020-07-16T11:46:53Z","2020-07-16T11:46:59Z","2020-07-16T11:47:06Z","2020-07-16T11:47:12Z","2020-07-16T11:47:19Z","2020-07-16T11:47:25Z","2020-07-16T11:47:31Z","2020-07-16T11:47:38Z","2020-07-16T11:47:45Z","2020-07-16T11:47:53Z","2020-07-16T11:48:00Z","2020-07-16T11:48:07Z","2020-07-16T11:48:13Z","2020-07-16T11:48:20Z","2020-07-16T11:48:26Z","2020-07-16T11:48:32Z","2020-07-16T11:48:38Z","2020-07-16T11:48:44Z","2020-07-16T11:48:50Z","2020-07-16T11:48:56Z","2020-07-16T11:49:02Z","2020-07-16T11:49:09Z","2020-07-16T11:49:15Z","2020-07-16T11:49:24Z","2020-07-16T11:49:31Z","2020-07-16T11:49:38Z","2020-07-16T11:49:44Z","2020-07-16T11:49:50Z","2020-07-16T11:49:56Z","2020-07-16T11:50:02Z","2020-07-16T11:50:09Z","2020-07-16T11:50:15Z","2020-07-16T11:50:21Z","2020-07-16T11:50:27Z","2020-07-16T11:50:33Z","2020-07-16T11:50:39Z","2020-07-16T11:50:46Z","2020-07-16T11:50:53Z","2020-07-16T11:50:59Z","2020-07-16T11:51:05Z","2020-07-16T11:51:12Z","2020-07-16T11:51:20Z","2020-07-16T11:51:28Z","2020-07-16T11:51:35Z","2020-07-16T11:51:42Z","2020-07-16T11:51:49Z","2020-07-16T11:51:56Z","2020-07-16T11:52:04Z","2020-07-16T11:52:29Z","2020-07-16T11:53:05Z","2020-07-16T11:53:13Z","2020-07-16T11:53:20Z","2020-07-16T11:53:27Z","2020-07-16T11:53:34Z","2020-07-16T11:53:41Z","2020-07-16T11:53:49Z","2020-07-16T11:55:03Z","2020-07-16T11:55:14Z","2020-07-16T11:55:28Z","2020-07-16T11:55:38Z","2020-07-16T11:55:49Z","2020-07-16T11:55:58Z","2020-07-16T11:56:13Z","2020-07-16T11:56:22Z","2020-07-16T11:56:30Z","2020-07-16T11:56:40Z","2020-07-16T11:57:07Z","2020-07-16T11:57:17Z","2020-07-16T11:57:28Z","2020-07-16T11:57:46Z","2020-07-16T11:57:57Z","2020-07-16T11:58:07Z","2020-07-16T11:58:16Z","2020-07-16T11:58:27Z","2020-07-16T11:58:37Z","2020-07-16T11:58:46Z","2020-07-16T11:58:58Z","2020-07-16T11:59:11Z","2020-07-16T11:59:22Z","2020-07-16T11:59:34Z","2020-07-16T12:00:08Z","2020-07-16T12:00:23Z","2020-07-16T12:00:36Z","2020-07-16T12:00:46Z","2020-07-16T12:01:01Z","2020-07-16T12:01:15Z","2020-07-16T12:01:27Z","2020-07-16T12:01:42Z","2020-07-16T12:02:00Z","2020-07-16T12:02:14Z","2020-07-16T12:02:29Z","2020-07-16T12:02:57Z","2020-07-16T12:03:06Z","2020-07-16T12:03:15Z","2020-07-16T12:03:24Z","2020-07-16T12:03:33Z","2020-07-16T12:03:43Z","2020-07-16T12:03:53Z","2020-07-16T12:04:02Z","2020-07-16T12:04:13Z","2020-07-16T12:04:29Z","2020-07-16T12:04:41Z","2020-07-16T12:04:54Z","2020-07-16T12:05:05Z","2020-07-16T12:05:20Z","2020-07-16T12:05:36Z","2020-07-16T12:06:00Z","2020-07-16T12:06:09Z","2020-07-16T12:06:19Z","2020-07-16T12:06:29Z","2020-07-16T12:06:40Z","2020-07-16T12:06:50Z","2020-07-16T12:07:01Z","2020-07-16T12:07:10Z","2020-07-16T12:07:20Z","2020-07-16T12:07:29Z","2020-07-16T12:07:39Z","2020-07-16T12:07:53Z","2020-07-16T12:08:23Z","2020-07-16T12:08:35Z","2020-07-16T12:08:45Z","2020-07-16T12:08:57Z","2020-07-16T12:09:08Z","2020-07-16T12:09:24Z","2020-07-16T12:09:35Z","2020-07-16T12:09:49Z","2020-07-16T12:10:02Z","2020-07-16T12:10:13Z","2020-07-16T12:10:26Z","2020-07-16T12:10:40Z","2020-07-16T12:10:55Z","2020-07-16T12:11:05Z","2020-07-16T12:11:25Z","2020-07-16T12:11:42Z","2020-07-16T12:12:39Z","2020-07-16T12:12:48Z","2020-07-16T12:13:01Z","2020-07-16T12:13:09Z","2020-07-16T12:13:18Z","2020-07-16T12:13:34Z","2020-07-16T12:13:42Z","2020-07-16T12:13:52Z","2020-07-16T12:14:01Z","2020-07-16T12:14:10Z","2020-07-16T12:14:21Z","2020-07-16T12:14:31Z","2020-07-16T12:14:41Z","2020-07-16T12:14:49Z","2020-07-16T12:14:59Z","2020-07-16T12:16:27Z","2020-07-16T12:17:28Z","2020-07-16T12:17:41Z","2020-07-16T12:17:50Z","2020-07-16T12:18:06Z","2020-07-16T12:18:21Z","2020-07-16T12:18:34Z","2020-07-16T12:18:48Z","2020-07-16T12:19:54Z","2020-07-16T12:20:09Z","2020-07-16T12:20:19Z","2020-07-16T12:20:51Z","2020-07-16T12:21:00Z","2020-07-16T12:21:10Z","2020-07-16T12:21:17Z","2020-07-16T12:21:25Z","2020-07-16T12:21:35Z","2020-07-16T12:21:45Z","2020-07-16T12:22:56Z","2020-07-16T12:23:06Z","2020-07-16T12:23:14Z","2020-07-16T12:23:22Z","2020-07-16T12:23:35Z","2020-07-16T12:23:44Z","2020-07-16T12:23:52Z","2020-07-16T12:24:01Z","2020-07-16T12:24:10Z","2020-07-16T12:24:17Z","2020-07-16T12:24:23Z","2020-07-16T12:24:29Z","2020-07-16T12:24:35Z","2020-07-16T12:24:41Z","2020-07-16T12:24:47Z","2020-07-16T12:24:53Z","2020-07-16T12:24:59Z","2020-07-16T12:25:05Z","2020-07-16T12:25:11Z","2020-07-16T12:25:17Z","2020-07-16T12:25:23Z","2020-07-16T12:25:30Z","2020-07-16T12:25:36Z","2020-07-16T12:25:43Z","2020-07-16T12:25:52Z","2020-07-16T12:26:02Z","2020-07-16T12:26:10Z","2020-07-16T12:27:34Z","2020-07-16T12:27:41Z","2020-07-16T12:27:49Z","2020-07-16T12:28:06Z","2020-07-16T12:28:21Z","2020-07-16T12:28:38Z","2020-07-16T12:28:47Z","2020-07-16T12:28:57Z","2020-07-16T12:29:07Z","2020-07-16T12:29:14Z","2020-07-16T12:29:23Z","2020-07-16T12:30:03Z","2020-07-16T12:30:10Z","2020-07-16T12:30:16Z","2020-07-16T12:30:23Z","2020-07-16T12:30:29Z","2020-07-16T12:30:35Z","2020-07-16T12:30:41Z","2020-07-16T12:30:47Z","2020-07-16T12:30:53Z","2020-07-16T12:30:59Z","2020-07-16T12:31:06Z","2020-07-16T12:31:12Z","2020-07-16T12:31:19Z","2020-07-16T12:31:25Z","2020-07-16T12:31:31Z","2020-07-16T12:31:38Z","2020-07-16T12:31:44Z","2020-07-16T12:31:52Z","2020-07-16T12:31:58Z","2020-07-16T12:32:04Z","2020-07-16T12:32:10Z","2020-07-16T12:32:16Z","2020-07-16T12:32:22Z","2020-07-16T12:32:28Z","2020-07-16T12:32:35Z","2020-07-16T12:32:41Z","2020-07-16T12:33:20Z","2020-07-16T12:33:27Z","2020-07-16T12:33:34Z","2020-07-16T12:33:40Z","2020-07-16T12:33:46Z","2020-07-16T12:33:52Z","2020-07-16T12:33:59Z","2020-07-16T12:34:05Z","2020-07-16T12:34:11Z","2020-07-16T12:34:18Z","2020-07-16T12:34:25Z","2020-07-16T12:34:32Z","2020-07-16T12:34:38Z","2020-07-16T12:34:45Z","2020-07-16T12:34:52Z","2020-07-16T12:34:59Z","2020-07-16T12:35:05Z","2020-07-16T12:35:12Z","2020-07-16T12:35:19Z","2020-07-16T12:35:27Z","2020-07-16T12:35:34Z","2020-07-16T12:35:40Z","2020-07-16T12:35:46Z","2020-07-16T12:35:52Z","2020-07-16T12:35:59Z","2020-07-16T12:36:09Z","2020-07-16T12:36:16Z","2020-07-16T12:36:23Z","2020-07-16T12:36:30Z","2020-07-16T12:36:37Z","2020-07-16T12:36:45Z","2020-07-16T12:36:52Z","2020-07-16T12:36:59Z","2020-07-16T12:37:05Z","2020-07-16T12:37:11Z","2020-07-16T12:37:18Z","2020-07-16T12:37:25Z","2020-07-16T12:37:32Z","2020-07-16T12:37:40Z","2020-07-16T12:37:48Z","2020-07-16T12:37:55Z","2020-07-16T12:38:54Z","2020-07-16T12:39:00Z","2020-07-16T12:39:09Z","2020-07-16T12:39:15Z","2020-07-16T12:39:22Z","2020-07-16T12:39:29Z","2020-07-16T12:39:35Z","2020-07-16T12:39:42Z","2020-07-16T12:39:49Z","2020-07-16T12:41:41Z","2020-07-16T12:41:48Z","2020-07-16T12:41:55Z","2020-07-16T12:42:02Z","2020-07-16T12:42:09Z","2020-07-16T12:42:16Z","2020-07-16T12:42:23Z","2020-07-16T12:42:30Z","2020-07-16T12:42:38Z","2020-07-16T12:42:45Z","2020-07-16T12:42:51Z","2020-07-16T12:42:57Z","2020-07-16T12:43:03Z","2020-07-16T12:43:09Z","2020-07-16T12:43:15Z","2020-07-16T12:43:21Z","2020-07-16T12:43:27Z","2020-07-16T12:43:33Z","2020-07-16T12:43:39Z","2020-07-16T12:43:45Z","2020-07-16T12:43:51Z","2020-07-16T12:43:57Z","2020-07-16T12:44:03Z","2020-07-16T12:44:09Z","2020-07-16T12:44:16Z","2020-07-16T12:44:22Z","2020-07-16T12:44:29Z","2020-07-16T12:44:35Z","2020-07-16T12:44:41Z","2020-07-16T12:44:47Z","2020-07-16T12:44:54Z","2020-07-16T12:45:00Z","2020-07-16T12:45:06Z","2020-07-16T12:45:12Z","2020-07-16T12:45:18Z","2020-07-16T12:45:25Z","2020-07-16T12:46:07Z","2020-07-16T12:46:56Z","2020-07-16T12:47:02Z","2020-07-16T12:47:08Z","2020-07-16T12:47:14Z","2020-07-16T12:47:21Z","2020-07-16T12:47:28Z","2020-07-16T12:47:35Z","2020-07-16T12:47:41Z","2020-07-16T12:47:49Z","2020-07-16T12:47:56Z","2020-07-16T12:48:02Z","2020-07-16T12:48:08Z","2020-07-16T12:48:14Z","2020-07-16T12:48:20Z","2020-07-16T12:48:26Z","2020-07-16T12:48:32Z","2020-07-16T12:48:38Z","2020-07-16T12:48:44Z","2020-07-16T12:48:50Z","2020-07-16T12:48:56Z","2020-07-16T12:49:03Z","2020-07-16T12:49:10Z","2020-07-16T12:49:16Z","2020-07-16T12:49:22Z","2020-07-16T12:49:29Z","2020-07-16T12:49:35Z","2020-07-16T12:49:41Z","2020-07-16T12:49:47Z","2020-07-16T12:49:53Z","2020-07-16T12:49:59Z","2020-07-16T12:50:05Z","2020-07-16T12:50:11Z","2020-07-16T12:50:18Z","2020-07-16T12:50:25Z","2020-07-16T12:50:31Z","2020-07-16T12:50:37Z","2020-07-16T12:50:43Z","2020-07-16T12:50:49Z","2020-07-16T12:50:55Z","2020-07-16T12:51:01Z","2020-07-16T12:51:07Z","2020-07-16T12:51:14Z","2020-07-16T12:51:20Z","2020-07-16T12:51:26Z","2020-07-16T12:51:32Z","2020-07-16T12:51:38Z","2020-07-16T12:51:44Z","2020-07-16T12:51:51Z","2020-07-16T12:51:57Z","2020-07-16T12:52:04Z","2020-07-16T12:52:10Z","2020-07-16T12:52:16Z","2020-07-16T12:52:22Z","2020-07-16T12:52:28Z","2020-07-16T12:52:34Z","2020-07-16T12:52:40Z","2020-07-16T12:52:46Z","2020-07-16T12:52:53Z","2020-07-16T12:53:00Z","2020-07-16T12:53:06Z","2020-07-16T12:53:12Z","2020-07-16T12:53:18Z","2020-07-16T12:53:24Z","2020-07-16T12:53:31Z","2020-07-16T12:53:37Z","2020-07-16T12:53:43Z","2020-07-16T12:53:50Z","2020-07-16T12:53:56Z","2020-07-16T12:54:02Z","2020-07-16T12:54:09Z","2020-07-16T12:54:15Z","2020-07-16T12:54:21Z","2020-07-16T12:54:27Z","2020-07-16T12:54:33Z","2020-07-16T12:54:39Z","2020-07-16T12:54:45Z","2020-07-16T12:54:51Z","2020-07-16T12:54:57Z","2020-07-16T12:55:03Z","2020-07-16T12:55:09Z","2020-07-16T12:55:15Z","2020-07-16T12:55:21Z","2020-07-16T12:55:27Z","2020-07-16T12:55:34Z","2020-07-16T12:55:40Z","2020-07-16T12:55:46Z","2020-07-16T12:55:52Z","2020-07-16T12:55:58Z","2020-07-16T12:56:04Z","2020-07-16T12:56:10Z","2020-07-16T12:56:16Z","2020-07-16T12:56:22Z","2020-07-16T12:56:28Z","2020-07-16T12:56:34Z","2020-07-16T12:57:10Z","2020-07-16T12:57:16Z","2020-07-16T12:57:23Z","2020-07-16T12:57:32Z","2020-07-16T12:57:38Z","2020-07-16T12:57:44Z","2020-07-16T12:57:51Z","2020-07-16T12:57:59Z","2020-07-16T12:58:30Z","2020-07-16T12:58:37Z","2020-07-16T12:58:43Z","2020-07-16T12:59:32Z","2020-07-16T12:59:39Z","2020-07-16T12:59:45Z","2020-07-16T12:59:51Z","2020-07-16T12:59:58Z","2020-07-16T13:00:04Z","2020-07-16T13:00:10Z","2020-07-16T13:00:17Z","2020-07-16T13:00:23Z","2020-07-16T13:00:29Z","2020-07-16T13:00:35Z","2020-07-16T13:00:41Z","2020-07-16T13:00:47Z","2020-07-16T13:00:53Z","2020-07-16T13:01:00Z","2020-07-16T13:01:06Z","2020-07-16T13:01:13Z","2020-07-16T13:01:20Z","2020-07-16T13:01:27Z","2020-07-16T13:01:34Z","2020-07-16T13:01:41Z","2020-07-16T13:01:48Z","2020-07-16T13:01:55Z","2020-07-16T13:02:02Z","2020-07-16T13:02:08Z","2020-07-16T13:02:14Z","2020-07-16T13:02:20Z","2020-07-16T13:02:26Z","2020-07-16T13:02:33Z","2020-07-16T13:02:40Z","2020-07-16T13:02:46Z","2020-07-16T13:02:52Z","2020-07-16T13:02:58Z","2020-07-16T13:03:04Z","2020-07-16T13:03:11Z","2020-07-16T13:03:18Z","2020-07-16T13:03:25Z","2020-07-16T13:03:33Z","2020-07-16T13:03:41Z","2020-07-16T13:03:49Z","2020-07-16T13:03:56Z","2020-07-16T13:04:03Z","2020-07-16T13:04:11Z","2020-07-16T13:04:18Z","2020-07-16T13:04:25Z","2020-07-16T13:04:32Z","2020-07-16T13:04:38Z","2020-07-16T13:04:44Z","2020-07-16T13:04:50Z","2020-07-16T13:04:56Z","2020-07-16T13:05:02Z","2020-07-16T13:05:09Z","2020-07-16T13:05:15Z","2020-07-16T13:05:22Z","2020-07-16T13:05:28Z","2020-07-16T13:05:34Z","2020-07-16T13:05:40Z","2020-07-16T13:05:46Z","2020-07-16T13:05:53Z","2020-07-16T13:05:59Z","2020-07-16T13:06:07Z","2020-07-16T13:06:16Z","2020-07-16T13:06:23Z","2020-07-16T13:06:29Z","2020-07-16T13:06:35Z","2020-07-16T13:06:41Z","2020-07-16T13:06:48Z","2020-07-16T13:06:54Z","2020-07-16T13:07:01Z","2020-07-16T13:07:07Z","2020-07-16T13:07:13Z","2020-07-16T13:07:20Z","2020-07-16T13:07:26Z","2020-07-16T13:07:33Z","2020-07-16T13:07:39Z","2020-07-16T13:07:45Z","2020-07-16T13:07:52Z","2020-07-16T13:07:58Z","2020-07-16T13:08:04Z","2020-07-16T13:08:10Z","2020-07-16T13:08:16Z","2020-07-16T13:08:22Z","2020-07-16T13:08:28Z","2020-07-16T13:08:34Z","2020-07-16T13:08:40Z","2020-07-16T13:08:46Z","2020-07-16T13:08:53Z","2020-07-16T13:08:59Z","2020-07-16T13:09:05Z","2020-07-16T13:09:11Z","2020-07-16T13:09:18Z","2020-07-16T13:09:25Z","2020-07-16T13:09:31Z","2020-07-16T13:09:37Z","2020-07-16T13:09:43Z","2020-07-16T13:09:49Z","2020-07-16T13:09:55Z","2020-07-16T13:10:01Z","2020-07-16T13:10:08Z","2020-07-16T13:11:16Z","2020-07-16T13:11:22Z","2020-07-16T13:11:28Z","2020-07-16T13:11:34Z","2020-07-16T13:11:40Z","2020-07-16T13:11:46Z","2020-07-16T13:11:52Z","2020-07-16T13:11:58Z","2020-07-16T13:12:04Z","2020-07-16T13:12:11Z","2020-07-16T13:12:18Z","2020-07-16T13:14:00Z","2020-07-16T13:14:07Z","2020-07-16T13:14:13Z","2020-07-16T13:14:19Z","2020-07-16T13:14:25Z","2020-07-16T13:14:31Z","2020-07-16T13:14:37Z","2020-07-16T13:14:43Z","2020-07-16T13:14:49Z","2020-07-16T13:14:55Z","2020-07-16T13:15:01Z","2020-07-16T13:15:07Z","2020-07-16T13:15:13Z","2020-07-16T13:15:19Z","2020-07-16T13:15:25Z","2020-07-16T13:15:31Z","2020-07-16T13:15:37Z","2020-07-16T13:15:43Z","2020-07-16T13:15:49Z","2020-07-16T13:15:55Z","2020-07-16T13:16:01Z","2020-07-16T13:16:07Z","2020-07-16T13:16:13Z","2020-07-16T13:16:19Z","2020-07-16T13:16:25Z","2020-07-16T13:16:31Z","2020-07-16T13:16:37Z","2020-07-16T13:16:42Z","2020-07-16T13:16:48Z","2020-07-16T13:16:54Z","2020-07-16T13:17:00Z","2020-07-16T13:17:06Z","2020-07-16T13:17:12Z","2020-07-16T13:17:21Z","2020-07-16T13:18:52Z","2020-07-16T13:18:58Z","2020-07-16T13:19:04Z","2020-07-16T13:19:10Z","2020-07-16T13:19:16Z","2020-07-16T13:19:22Z","2020-07-16T13:19:28Z","2020-07-16T13:19:34Z","2020-07-16T13:19:40Z","2020-07-16T13:19:46Z","2020-07-16T13:19:52Z","2020-07-16T13:19:58Z","2020-07-16T13:20:04Z","2020-07-16T13:20:10Z","2020-07-16T13:20:16Z","2020-07-16T13:20:23Z","2020-07-16T13:20:32Z","2020-07-16T13:20:38Z","2020-07-16T13:20:44Z","2020-07-16T13:20:50Z","2020-07-16T13:20:56Z","2020-07-16T13:21:02Z","2020-07-16T13:21:08Z","2020-07-16T13:21:14Z","2020-07-16T13:21:20Z","2020-07-16T13:21:26Z","2020-07-16T13:21:32Z","2020-07-16T13:21:38Z","2020-07-16T13:21:44Z","2020-07-16T13:21:51Z","2020-07-16T13:21:58Z","2020-07-16T13:22:08Z","2020-07-16T13:22:15Z","2020-07-16T13:22:21Z","2020-07-16T13:22:27Z","2020-07-16T13:22:33Z","2020-07-16T13:22:39Z","2020-07-16T13:22:45Z","2020-07-16T13:22:51Z","2020-07-16T13:22:57Z","2020-07-16T13:23:03Z","2020-07-16T13:23:09Z","2020-07-16T13:23:16Z","2020-07-16T13:23:22Z"]}},"geometry":{"type":"LineString","coordinates":[[-6.724645933136344,62.10861914791167,2.98],[-6.724464381113648,62.10858855396509,5.19],[-6.724308645352721,62.10853474214673,6.37],[-6.724396403878927,62.10843943990767,6.14],[-6.724499501287937,62.10833642631769,5.23],[-6.724651213735342,62.10820089094341,4.46],[-6.724724806845188,62.10807583294809,4.97],[-6.724833771586418,62.10795043967664,5.31],[-6.724906861782074,62.107816245406866,4.48],[-6.724917590618134,62.10768238641322,3.91],[-6.724875345826149,62.10752145387232,4.37],[-6.725010294467211,62.10737803950906,5.13],[-6.725007696077228,62.10725356824696,4],[-6.724946089088917,62.10712809115648,3.9],[-6.724878614768386,62.10702725686133,3.59],[-6.724799741059542,62.10694226436317,3.92],[-6.724712317809463,62.10684855468571,4.49],[-6.724674263969064,62.1067161206156,4.9],[-6.724622631445527,62.10660967044532,5.27],[-6.724603939801455,62.10651185363531,6.03],[-6.724544344469905,62.10641370154917,5.38],[-6.724683651700616,62.10632124915719,5.97],[-6.724808122962713,62.10623516701162,4.89],[-6.724730338901281,62.10615838877857,4.92],[-6.72465842217207,62.10607498884201,6.65],[-6.724640149623156,62.10600365884602,7.01],[-6.724704774096608,62.105931071564555,5.98],[-6.724712485447526,62.10585949011147,4.89],[-6.724597653374076,62.10578757338226,5.83],[-6.724532945081592,62.10569285787642,4.03],[-6.724431440234184,62.1056092903018,4.42],[-6.724332114681602,62.10552957840264,5.3],[-6.724219378083944,62.105450704693794,5.3],[-6.72409356571734,62.10537099279463,5.49],[-6.723969597369432,62.10528491064906,6.98],[-6.723847892135382,62.105192290619016,6.52],[-6.723766000941396,62.10509967058897,6.9],[-6.723702549934387,62.105012917891145,7.25],[-6.723773879930377,62.104912335053086,8.67],[-6.72392601147294,62.10486707277596,8.88],[-6.724095325917006,62.10482910275459,8.55],[-6.724225915968418,62.10475760512054,9.1],[-6.724301436915994,62.10466490127146,8.93],[-6.724352817982435,62.10456591099501,8.57],[-6.724399253726006,62.10446733981371,8.84],[-6.724382154643536,62.10437304340303,8.35],[-6.724363882094622,62.104290230199695,7.69],[-6.724351644515991,62.10419811308384,9.08],[-6.724430518224835,62.104099625721574,9.71],[-6.724372515454888,62.10400985553861,6.95],[-6.724178390577436,62.10395679809153,7.06],[-6.724066492170095,62.10387499071658,6.91],[-6.724020056426525,62.10378874093294,8.42],[-6.723943864926696,62.10368597880006,9.05],[-6.723849149420857,62.10359562188387,8.76],[-6.723818723112345,62.10350509732962,9.16],[-6.723658377304673,62.103444496169686,7.25],[-6.723463833332062,62.10341298021376,8.04],[-6.723316982388496,62.10335036739707,6.61],[-6.723212376236916,62.103267051279545,9.23],[-6.723079942166805,62.103191865608096,9.13],[-6.722939042374492,62.1031244751066,9.27],[-6.722850529477,62.10303579457104,8.94],[-6.72278406098485,62.10295566357672,8.43],[-6.722761346027255,62.102859606966376,8.39],[-6.722707618027926,62.102758185938,9.05],[-6.722590439021587,62.102661710232496,9.89],[-6.722517432644963,62.10256112739444,8.93],[-6.722360020503402,62.102501867339015,8.83],[-6.722266813740134,62.1024333871901,10.39],[-6.722406959161162,62.102352837100625,10.69],[-6.722593121230602,62.10229936055839,11.12],[-6.722793783992529,62.102257618680596,10.7],[-6.722808536142111,62.102191569283605,11.27],[-6.722940048202872,62.10216139443219,10.76],[-6.723126713186503,62.10212250240147,13.75],[-6.723267948254943,62.10205108858645,12.99],[-6.7233841214329,62.10196207277477,10.6],[-6.723496606573463,62.10188093595207,10.14],[-6.723649241030216,62.101831482723355,11.54],[-6.723834564909339,62.101794267073274,13.51],[-6.724030114710331,62.10175788961351,12.54],[-6.724138576537371,62.10167180746794,15.7],[-6.724263969808817,62.10159368813038,14.68],[-6.724468655884266,62.101557813584805,14.75],[-6.72466135583818,62.101520681753755,14.38],[-6.724872998893261,62.1015131380409,12.19],[-6.724995039403439,62.10159578360617,12.35],[-6.725175753235817,62.10163878276944,12.98],[-6.725378427654505,62.10167616605759,13.46],[-6.725614881142974,62.101651690900326,13.69],[-6.725800791755319,62.10159963928163,13.93],[-6.726013273000717,62.10159217938781,14.04],[-6.726234555244446,62.101571476086974,12.31],[-6.726388866081834,62.101511964574456,12.73],[-6.726552816107869,62.10144725628197,12.43],[-6.726761525496841,62.10143594071269,12.32],[-6.72684601508081,62.1013595815748,10.34],[-6.726891277357936,62.10127081722021,13.2],[-6.726975431665778,62.101187501102686,14.75],[-6.726981718093157,62.10110083222389,12.15],[-6.726942490786314,62.10101776756346,10.77],[-6.726983645930886,62.10092447698116,11.72],[-6.726992363110185,62.10082431323826,11.56],[-6.726937294006348,62.10072465240955,10.85],[-6.726917680352926,62.10062951780856,9.63],[-6.726972749456763,62.10053698159754,14.05],[-6.726972162723541,62.100444696843624,10.09],[-6.727026309818029,62.10034520365298,8.76],[-6.727095376700163,62.10024302825332,10.34],[-6.727213896811009,62.100155437365174,10.64],[-6.727244490757585,62.100060135126114,10],[-6.727289753034711,62.099961061030626,10.4],[-6.727323532104492,62.099875062704086,10.48],[-6.727281203493476,62.09977556951344,11.37],[-6.727257566526532,62.099683452397585,12.43],[-6.727217501029372,62.099581779912114,14.65],[-6.727223955094814,62.099489495158195,16.06],[-6.727229906246066,62.09939922206104,17.51],[-6.727171987295151,62.099304255098104,16.97],[-6.727123204618692,62.09921708330512,19.02],[-6.72705078497529,62.0991335157305,16.83],[-6.726924888789654,62.099068723618984,16.39],[-6.726773343980312,62.099010134115815,16.27],[-6.726642418652773,62.09893369115889,14.67],[-6.726501183584333,62.098866887390614,12.45],[-6.726350476965308,62.09881500340998,11.8],[-6.726178145036101,62.098761862143874,9.13],[-6.726003298535943,62.09870805032551,9.59],[-6.725821411237121,62.09865448996425,11.98],[-6.725635416805744,62.09861693903804,9.18],[-6.725410614162684,62.09859749302268,9.61],[-6.725194612517953,62.09858827292919,9.59],[-6.724989842623472,62.09861936978996,9.03],[-6.724789850413799,62.098638229072094,8.99],[-6.724606622010469,62.09869572892785,9.82],[-6.724465135484934,62.098759431391954,11.85],[-6.724562365561724,62.09882849827409,15.01],[-6.724674766883254,62.09889446385205,12.16],[-6.724612656980753,62.09898557513952,11.77],[-6.724517438560724,62.099075596779585,12.28],[-6.724447784945369,62.09917299449444,12.59],[-6.724405623972416,62.09927651099861,16.27],[-6.72428366728127,62.09935571998358,15.16],[-6.72411066479981,62.09938899613917,11.81],[-6.7239142768085,62.09939243271947,12.75],[-6.723715960979462,62.09940165281296,12.5],[-6.723515801131725,62.09937927313149,12.43],[-6.723319748416543,62.09936066530645,11.58],[-6.723087234422565,62.099361000582576,10.54],[-6.722881710156798,62.09933484904468,10.43],[-6.72266093082726,62.099361503496766,11.07],[-6.72251190058887,62.09942411631346,11.33],[-6.722470913082361,62.09951153956354,12.28],[-6.722355326637626,62.09958655759692,13.6],[-6.72226220369339,62.09966350346804,14.14],[-6.722069587558508,62.09970373660326,11.86],[-6.721875295042992,62.0997395273298,13.35],[-6.721712602302432,62.09975050762296,12.6],[-6.721503809094429,62.09976836107671,11.13],[-6.721287975087762,62.09975888952613,9.72],[-6.721089575439692,62.099712789058685,9.41],[-6.720916489139199,62.09967490285635,9.23],[-6.720725717023015,62.09963047876954,9.36],[-6.720571490004659,62.099577002227306,10.11],[-6.720362361520529,62.09957482293248,11.27],[-6.720137726515532,62.09961832500994,10.99],[-6.719991881400347,62.09967699833214,11.99],[-6.719867074862123,62.09975402802229,12.09],[-6.719703460112214,62.09982334636152,13.58],[-6.719556776806712,62.099890653043985,13.11],[-6.71942325308919,62.099968269467354,12.26],[-6.7192517593503,62.1000368334353,11.73],[-6.719197696074843,62.100132973864675,12.22],[-6.7191481590271,62.10023338906467,12.87],[-6.719113877043128,62.10031972266734,13.17],[-6.719119492918253,62.10041410289705,14.02],[-6.71910566277802,62.1005062200129,13.68],[-6.719132903963327,62.10059414617717,13.81],[-6.719213873147965,62.10068047977984,13.47],[-6.719276905059815,62.10076798684895,13.03],[-6.719295848160982,62.10085591301322,11.32],[-6.71936122700572,62.10095129907131,11.24],[-6.719457618892193,62.10102464072406,11.06],[-6.719552585855126,62.101100916042924,11.65],[-6.71961972489953,62.101185992360115,12.03],[-6.719668004661799,62.10127182304859,12.95],[-6.719708824530244,62.10137089714408,12.72],[-6.719793733209372,62.10144951939583,12.02],[-6.719931028783321,62.10152286104858,11.6],[-6.720102438703179,62.10157608613372,11.92],[-6.720240404829383,62.1016392018646,12.36],[-6.720379963517189,62.10171681828797,13.18],[-6.720519522204995,62.101800218224525,13.57],[-6.72063359990716,62.10187867283821,14.12],[-6.720787826925516,62.10194120183587,14.78],[-6.720848930999637,62.10203390568495,15.3],[-6.720894612371922,62.10213205777109,14.99],[-6.720863934606314,62.10222702473402,14.86],[-6.720780618488789,62.10232484154403,14.23],[-6.720746420323849,62.10244361311197,12.48],[-6.720732590183616,62.102549225091934,12.23],[-6.720599988475442,62.10260538384318,12.27],[-6.72039077617228,62.10262466222048,13.38],[-6.720203775912523,62.10267570801079,12.95],[-6.720027169212699,62.102726167067885,13.39],[-6.719841007143259,62.10278073325753,13.71],[-6.719642775133252,62.102853320539,14.23],[-6.719482010230422,62.102904533967376,14.52],[-6.719282269477844,62.10291660390794,14.77],[-6.719141285866499,62.10299413651228,15.17],[-6.719067189842463,62.10309237241745,15.87],[-6.718915393576026,62.10316420532763,17.19],[-6.718682292848826,62.10319412872195,18.68],[-6.71847534365952,62.103213826194406,18.67],[-6.718259006738663,62.103197230026126,21.87],[-6.718098744750023,62.10312070325017,23.18],[-6.717931525781751,62.10307720117271,24.97],[-6.717825578525662,62.10300042293966,23.51],[-6.717744190245867,62.10291308350861,23.2],[-6.717628436163068,62.102819960564375,21.62],[-6.717531709000468,62.102732537314296,23.03],[-6.717429449781776,62.10263203829527,25.27],[-6.717331968247891,62.102542938664556,23.82],[-6.717252256348729,62.10245358757675,23.25],[-6.717178160324693,62.10235811769962,25.47],[-6.717092748731375,62.10225242190063,25.45],[-6.717020496726036,62.102156365290284,25.5],[-6.71693030744791,62.102055698633194,27.05],[-6.716839950531721,62.10195695981383,27.13],[-6.716762417927384,62.10185755044222,27.19],[-6.716718580573797,62.10174858570099,27.6],[-6.716650100424886,62.10164473392069,28.34],[-6.716590840369463,62.10154255852103,27.99],[-6.716519426554442,62.101441472768784,27.87],[-6.716482462361455,62.10134667344391,27.13],[-6.716428985819221,62.101236870512366,24.84],[-6.716355560347438,62.10112664848566,27.99],[-6.716294791549444,62.10101667791605,28.66],[-6.716241901740432,62.100904108956456,26.52],[-6.716169901192188,62.100790701806545,29.04],[-6.716111311689019,62.10069028660655,27.47],[-6.71604635193944,62.100567827001214,27.48],[-6.715985666960478,62.100465819239616,26.33],[-6.715911068022251,62.10035911761224,27.26],[-6.715849712491036,62.10024612955749,28.88],[-6.715790117159486,62.10013465024531,27.46],[-6.715726666152477,62.1000297088176,26.91],[-6.71565399505198,62.099925857037306,28],[-6.715604458004236,62.099829129874706,25.82],[-6.715537235140801,62.0997205004096,28.08],[-6.715472862124443,62.09960742853582,28.1],[-6.715406812727451,62.0994908362627,28.25],[-6.715351408347487,62.09939050488174,27.68],[-6.715295417234302,62.099295537918806,29.41],[-6.715214028954506,62.09918632172048,29.44],[-6.715161139145494,62.09909194149077,28.95],[-6.715114954859018,62.09899412468076,29.49],[-6.715075308457017,62.09890108555555,29.06],[-6.715023927390575,62.0988087169826,30.28],[-6.714970199391246,62.098703775554895,30.51],[-6.714887637645006,62.09858098067343,31.83],[-6.714840782806277,62.098477464169264,32.32],[-6.714815888553858,62.09838492795825,32.24],[-6.714749671518803,62.0982907153666,31.9],[-6.714667864143848,62.09818745031953,32.04],[-6.714585134759545,62.09808527491987,28.11],[-6.71451305039227,62.09797773510218,31.46],[-6.714439792558551,62.09788226522505,32.38],[-6.714380197227001,62.09778922609985,32.68],[-6.714300233870745,62.097689313814044,32.85],[-6.714208871126175,62.097604824230075,33.8],[-6.714098146185279,62.097511449828744,32.33],[-6.714003933593631,62.09742511622608,32.76],[-6.713913157582283,62.09733777679503,30.61],[-6.713810479268432,62.097256388515234,30.32],[-6.71369019895792,62.097178269177675,33.52],[-6.713575618341565,62.09709688089788,33.33],[-6.713467156514525,62.09701582789421,33.68],[-6.713338913396001,62.09693695418537,35.18],[-6.713197259232402,62.09684961475432,35.04],[-6.713059041649103,62.096764203161,34.88],[-6.712914621457458,62.09669186733663,35.11],[-6.712771542370319,62.09661550819874,34.96],[-6.71262888237834,62.096540154889226,35.22],[-6.712477589026094,62.09645926952362,35.57],[-6.712335096672177,62.0963894482702,36.49],[-6.712183887138963,62.09631719626486,37.62],[-6.712029995396733,62.096242597326636,37.49],[-6.711886748671532,62.0961806550622,37.77],[-6.711746854707599,62.09612223319709,39.5],[-6.711580725386739,62.096062721684575,40.62],[-6.711409818381071,62.096001701429486,39.48],[-6.711253747344017,62.095941603183746,40.6],[-6.711071860045195,62.095883432775736,42.45],[-6.710895923897624,62.09581713192165,40.94],[-6.710725268349052,62.09576432593167,43.56],[-6.710532400757074,62.09571881219745,44.03],[-6.710354369133711,62.09566684439778,45.11],[-6.710182959213853,62.095617139711976,45.23],[-6.710005346685648,62.095568776130676,46.03],[-6.709823710843921,62.09552451968193,46.76],[-6.709659341722727,62.095475904643536,47.05],[-6.709476029500365,62.0954258646816,47.82],[-6.709305290132761,62.09537884220481,48.36],[-6.709139412268996,62.09533240646124,49.4],[-6.708957860246301,62.0952860545367,49.28],[-6.708757448941469,62.09523861296475,49.44],[-6.708576651290059,62.095200307667255,49.49],[-6.708367858082056,62.095157811418176,50.33],[-6.708181276917458,62.09511296823621,51.1],[-6.707992097362876,62.095075249671936,51.64],[-6.707812389358878,62.09504515863955,51.87],[-6.707617091014981,62.095016995444894,51.69],[-6.707424726337194,62.09498346783221,51.94],[-6.707235043868423,62.09495086222887,52.02],[-6.707037230953574,62.09491624496877,53.16],[-6.706841345876455,62.09488238207996,52.73],[-6.706649567931891,62.094855811446905,53],[-6.706426609307528,62.09482245147228,53.53],[-6.70622686855495,62.094791857525706,53.37],[-6.706016398966312,62.094762017950416,54.02],[-6.705816742032766,62.09473737515509,53.78],[-6.705573247745633,62.094700410962105,54.21],[-6.705391779541969,62.09465313702822,54.63],[-6.70522715896368,62.09460988640785,52.04],[-6.705040158703923,62.09457317367196,50.19],[-6.704849470406771,62.09454819560051,49.08],[-6.704671857878566,62.09451399743557,47.1],[-6.704469602555037,62.09446320310235,46.04],[-6.704282015562058,62.09441928192973,45.29],[-6.704101469367743,62.09436756558716,45.21],[-6.703914050012827,62.094317777082324,43.49],[-6.703719925135374,62.09425834938884,42.51],[-6.7035355232656,62.09421048872173,40.6],[-6.703350869938731,62.09415240213275,40.49],[-6.70318222604692,62.09410211071372,39.6],[-6.703022047877312,62.0940428506583,39.13],[-6.702859103679657,62.09398325532675,39.54],[-6.702682748436928,62.09391091950238,38.46],[-6.702528102323413,62.09385040216148,38.13],[-6.702379072085023,62.09378628060222,38.47],[-6.702239429578185,62.09371612407267,38.77],[-6.702085202559829,62.09363205358386,36.55],[-6.701933238655329,62.093560975044966,36.48],[-6.701791081577539,62.09347774274647,34.84],[-6.701641799882054,62.09340104833245,35.92],[-6.701472233980894,62.093322509899735,36.12],[-6.701330495998263,62.09325436502695,34.57],[-6.701190769672394,62.09318244829774,32.77],[-6.701065879315138,62.09310106001794,33.28],[-6.700957752764225,62.09301380440593,31.46],[-6.700863121077418,62.092916909605265,31.5],[-6.70079967007041,62.09282630123198,32.05],[-6.700728759169579,62.09272705949843,32.19],[-6.700679725036025,62.092637373134494,31.79],[-6.700644269585609,62.09254584275186,31.94],[-6.700642425566912,62.092459592968225,31.31],[-6.700662290677428,62.092353478074074,31.37],[-6.700684418901801,62.09225105121732,31.44],[-6.700719203799963,62.09215893410146,32.84],[-6.700736386701465,62.092059860005975,32.52],[-6.700757928192616,62.091961205005646,32.53],[-6.70075767673552,62.091861041262746,32.47],[-6.700776955112815,62.09175484254956,32.18],[-6.700802184641361,62.091656690463424,29.76],[-6.70083143748343,62.09154940210283,29.51],[-6.700860857963562,62.09144253283739,29.55],[-6.700923386961222,62.0913471467793,28.77],[-6.701013660058379,62.09125008434057,29.59],[-6.701045427471399,62.09116869606078,30.73],[-6.701181884855032,62.091227201744914,32.05],[-6.70136989094317,62.09127388894558,29.43],[-6.701565608382225,62.09132828749716,28.17],[-6.701759397983551,62.09136391058564,26.58],[-6.701980512589216,62.09138939157128,24.58],[-6.702182935550809,62.09138595499098,20.53],[-6.702349567785859,62.09131579846144,21.19],[-6.702563473954797,62.091288222,21.49],[-6.702753072604537,62.091259974986315,18.7],[-6.702977791428566,62.09121831692755,17.57],[-6.703203935176134,62.091174898669124,16.54],[-6.703418176621199,62.09113273769617,17.57],[-6.70364985242486,62.09109099581838,16.84],[-6.703830398619175,62.09103391505778,16.61],[-6.704047825187445,62.09099845960736,16.75],[-6.704228287562728,62.09094909019768,15.53],[-6.704445797950029,62.090914053842425,14.89],[-6.704655261710286,62.09088262170553,14.72],[-6.704796496778727,62.09080098196864,13.76],[-6.704961787909269,62.090735686942935,13.88],[-6.705165049061179,62.09070266224444,14.31],[-6.705305781215429,62.09061574190855,13.79],[-6.705365628004074,62.090521194040775,14.93],[-6.70537325553596,62.090433770790696,15.51],[-6.705377027392387,62.090336540713906,16.5],[-6.705520525574684,62.09024048410356,18.34],[-6.705653630197048,62.090164544060826,18.67],[-6.705799223855138,62.090083407238126,20.09],[-6.705898130312562,62.089991541579366,21.03],[-6.706063002347946,62.089935382828116,22.38],[-6.706239944323897,62.08987352438271,24.3],[-6.706416131928563,62.08980856463313,25.95],[-6.706552086398006,62.08973413333297,27.49],[-6.706732381135225,62.089673364534974,28.72],[-6.706892643123865,62.08961443975568,29.97],[-6.707049803808332,62.089522406458855,31.04],[-6.707223057746887,62.08942727185786,32.56],[-6.707413243129849,62.08934982307255,33.93],[-6.707588089630008,62.08924840204418,36.02],[-6.707787746563554,62.08913968876004,40.31],[-6.707980446517468,62.089076321572065,42.62],[-6.708112629130483,62.08900113590062,45.54],[-6.7083396948874,62.08889133296907,46.21],[-6.708514373749495,62.08881572820246,46.35],[-6.708666505292058,62.088746996596456,47.48],[-6.708834227174521,62.08869041875005,49.13],[-6.709001194685698,62.08864130079746,50.56],[-6.709161372855306,62.08858313038945,52.4],[-6.709266398102045,62.088505597785115,54.17],[-6.709381649270654,62.08843502216041,55.19],[-6.709539564326406,62.08837961778045,57.16],[-6.709613325074315,62.088298900052905,58.69],[-6.70975279994309,62.08823310211301,60.01],[-6.709802923724055,62.0881368778646,63.3],[-6.70993946492672,62.088061859831214,64.58],[-6.710035353899002,62.08799262531102,68.47],[-6.710140127688646,62.0879262406379,68.44],[-6.710251020267606,62.08785021677613,71.67],[-6.710416143760085,62.08777813240886,70.98],[-6.710586464032531,62.087722811847925,72.31],[-6.710752844810486,62.08767059259117,72.85],[-6.710939090698957,62.08761946298182,74.57],[-6.711075380444527,62.087549809366465,76.02],[-6.71122508123517,62.087487783282995,76.84],[-6.711406884714961,62.087432295084,78.47],[-6.711606290191412,62.08736448548734,78.7],[-6.711789518594742,62.0873181335628,77.68],[-6.711982470005751,62.08725979551673,79.18],[-6.712180199101567,62.08720413967967,80.86],[-6.712249433621764,62.0871439576149,82.15],[-6.712390333414078,62.087077321484685,83.86],[-6.712535256519914,62.08700381219387,81.96],[-6.712721418589354,62.086955700069666,81.48],[-6.712862234562635,62.08688898012042,81.76],[-6.712998943403363,62.08680055104196,83.85],[-6.713185608386993,62.08675662986934,85.45],[-6.71338970772922,62.08668706007302,86.3],[-6.713593807071447,62.08663324825466,89.22],[-6.713766139000654,62.086568707600236,88.13],[-6.713953390717506,62.08651623688638,88.01],[-6.714076437056065,62.08642705343664,88.75],[-6.71423552557826,62.086341893300414,89.29],[-6.714390674605966,62.08625430241227,89.05],[-6.714435685425997,62.08617894910276,91.55],[-6.71441774815321,62.0860886760056,95.12],[-6.714463429525495,62.085994463413954,98.09],[-6.714657889679074,62.085949536412954,99.25],[-6.714854696765542,62.085960768163204,98.2],[-6.715055024251342,62.08595087751746,98.95],[-6.715275049209595,62.08593042567372,98.14],[-6.715470850467682,62.085895305499434,98.86],[-6.715640751644969,62.085857670754194,97.55],[-6.715826662257314,62.08581106737256,99.92],[-6.716007459908724,62.08576421253383,100.23],[-6.716162273660302,62.08570562303066,102.45],[-6.716326726600528,62.08562674932182,101.63],[-6.716529568657279,62.08559447899461,102.54],[-6.71673190779984,62.08555893972516,103.65],[-6.716917483136058,62.085517197847366,102.94],[-6.717092581093311,62.085446286946535,105.9],[-6.717162234708667,62.08537923172116,108.32],[-6.717310091480613,62.08540504798293,111.41],[-6.71749365516007,62.08535869605839,101.97],[-6.717611337080598,62.08527957089245,102.1],[-6.717766569927335,62.085208743810654,106.86],[-6.717889280989766,62.085123332217336,103.36],[-6.717993468046188,62.085024174302816,103.24],[-6.71812891960144,62.08494605496526,101.71],[-6.71820804476738,62.08485812880099,104.56],[-6.718289013952017,62.08474983461201,104.3],[-6.718381131067872,62.08465696312487,107.14],[-6.718485821038485,62.084558978676796,104.37],[-6.718561509624124,62.08446191623807,102.59],[-6.718633593991399,62.08437432534993,105.6],[-6.718691764399409,62.084283800795674,106.11],[-6.718789162114263,62.08419126458466,104.4],[-6.718857306987047,62.08409453742206,102.43],[-6.718899635598064,62.08399680443108,101.75],[-6.718887146562338,62.08393628709018,103.2],[-6.718927882611752,62.08381198346615,103.36],[-6.718889493495226,62.08371425047517,103.37],[-6.718978593125939,62.08363520912826,106.52],[-6.719136089086533,62.083562621846795,103.74],[-6.719300793483853,62.08358047530055,104.23],[-6.719519142061472,62.08357318304479,105.01],[-6.719730952754617,62.083555245772004,105.21],[-6.719921305775642,62.08352389745414,107.01],[-6.72013814561069,62.08349531516433,108.14],[-6.720352973788977,62.0834762044251,108.6],[-6.720561096444726,62.083446783944964,107.76],[-6.720768213272095,62.08341300487518,106.57],[-6.720964433625341,62.083382243290544,105.91],[-6.721169957891107,62.08334770984948,104.76],[-6.721359807997942,62.08331116475165,104.79],[-6.72156491316855,62.08327570930123,105.51],[-6.721764067187905,62.08323698490858,103.84],[-6.721957353875041,62.08320043981075,103.36],[-6.722150053828955,62.083159452304244,101.49],[-6.722332360222936,62.083113603293896,100.47],[-6.722503351047635,62.083053924143314,99.1],[-6.722665876150131,62.08298678509891,97.41],[-6.722806859761477,62.08291595801711,95.18],[-6.722917919978499,62.082839012145996,97.36],[-6.723018418997526,62.08275703713298,94.88],[-6.72312612645328,62.082665506750345,93.07],[-6.723274234682322,62.08267950452864,95.02],[-6.723477579653263,62.082686042413116,93.8],[-6.723662065342069,62.08266542293131,92.45],[-6.723709590733051,62.08257489837706,89.57],[-6.723744124174118,62.08247565664351,89.18],[-6.7238624766469,62.08242125809193,84.09],[-6.724065905436873,62.08240147680044,85.01],[-6.724275033921003,62.082384964451194,80.85],[-6.724499501287937,62.08238764666021,77.95],[-6.724714078009129,62.08236074075103,75.87],[-6.724949106574059,62.082380605861545,76.05],[-6.725140465423465,62.08243106491864,75.11],[-6.725378008559346,62.08243399858475,73.91],[-6.725589064881206,62.08241522312164,73.02],[-6.725813448429108,62.082399213686585,71.74],[-6.726011177524924,62.08238035440445,71.01],[-6.726227179169655,62.08237004466355,71.22],[-6.726454412564635,62.082382617518306,71.15],[-6.726648034527898,62.08240239880979,70.13],[-6.726844506338239,62.082437854260206,69.08],[-6.727029075846076,62.082482278347015,67.17],[-6.727232923731208,62.08252754062414,66.53],[-6.727408524602652,62.08256618119776,66.25],[-6.727604912593961,62.08261135965586,64.43],[-6.727781686931849,62.082660645246506,63.67],[-6.727967597544193,62.08268671296537,62.55],[-6.728161051869392,62.082730550318956,61.43],[-6.728335479274392,62.082789642736316,61.45],[-6.728546284139156,62.08282509818673,60.23],[-6.728723729029298,62.08287404850125,59.34],[-6.728908885270357,62.082926938310266,57.86],[-6.729090437293053,62.08297890610993,56.5],[-6.729270564392209,62.08304311148822,56.33],[-6.729442561045289,62.0831046346575,56.43],[-6.729605253785849,62.08316037431359,56.5],[-6.729788314551115,62.08320857025683,57.03],[-6.729954108595848,62.083263136446476,57.58],[-6.73013155348599,62.08330672234297,58.88],[-6.730314362794161,62.083363216370344,60.29],[-6.730487365275621,62.08342549391091,60.12],[-6.730645028874278,62.083480479195714,59.55],[-6.730803027749062,62.08353320136666,60.81],[-6.730977287515998,62.08358005620539,58.57],[-6.731159510090947,62.08364157937467,60.4],[-6.731351036578417,62.08368198014796,59.23],[-6.731535773724318,62.083722464740276,59.27],[-6.73173132352531,62.08376906812191,58.38],[-6.731928717344999,62.083808463066816,57.58],[-6.732111945748329,62.08386839367449,56.07],[-6.73228888772428,62.0839196909219,56.57],[-6.73247454687953,62.08395833149552,54.55],[-6.732676047831774,62.084007784724236,52.61],[-6.732905628159642,62.08405254408717,51.74],[-6.733108218759298,62.084088837727904,50.03],[-6.733314832672477,62.084128400310874,48.37],[-6.733517255634069,62.08415497094393,46.97],[-6.733719762414694,62.0842014066875,44.54],[-6.73392235301435,62.084242729470134,44.18],[-6.734103485941887,62.08428514190018,43.2],[-6.734280679374933,62.084332751110196,41.73],[-6.734468685463071,62.08438144996762,40.49],[-6.734687956050038,62.08441212773323,40.46],[-6.734904712066054,62.0844017341733,40.75],[-6.735055083408952,62.08445998840034,40.45],[-6.735208053141832,62.084528133273125,41.84],[-6.735371081158519,62.08460373803973,40.45],[-6.735509969294071,62.084675654768944,42.14],[-6.735663190484047,62.08474061451852,42.49],[-6.735810795798898,62.08481320179999,42.37],[-6.735972901806235,62.08488419651985,42.18],[-6.736121093854308,62.084951335564256,42.36],[-6.736258389428258,62.08501696586609,42.65],[-6.736412197351456,62.08509382791817,42.27],[-6.736546140164137,62.08517177961767,42.29],[-6.736674048006535,62.085244534537196,42.13],[-6.736839758232236,62.08530815318227,42.76],[-6.73686683177948,62.085399935022,42.34],[-6.736923409625888,62.0854980032891,41.99],[-6.736971689388156,62.08559506572783,41.82],[-6.737023741006851,62.08569321781397,42.02],[-6.73707352951169,62.08579497411847,42.64],[-6.737091299146414,62.08588432520628,42.62],[-6.737158605828881,62.08598046563566,42.66],[-6.737209232524037,62.08608482033014,43.35],[-6.737281233072281,62.08617744036019,43.89],[-6.737345606088638,62.08627953194082,44.82],[-6.737378127872944,62.08636804483831,44.63],[-6.737358430400491,62.08639059215784,45.1],[-6.737146535888314,62.08640266209841,45.17],[-6.736916620284319,62.086416156962514,46.99],[-6.736711766570807,62.08638329990208,48.54],[-6.736556617543101,62.08631222136319,49.33],[-6.736412448808551,62.08624265156686,50.81],[-6.736269118264318,62.08617752417922,51.82],[-6.736131571233273,62.086111307144165,53.37],[-6.73594675026834,62.08606126718223,55.62],[-6.735847759991884,62.086138129234314,57.44],[-6.735871313139796,62.0862356107682,56.96],[-6.735913222655654,62.086333092302084,56.1],[-6.735949600115418,62.08643543533981,55.58],[-6.735977092757821,62.08653258159757,55.32],[-6.736010620370507,62.08663148805499,55.11],[-6.736041298136115,62.08673416636884,54.1],[-6.73607767559588,62.08683273755014,54.06],[-6.736117824912071,62.08693482913077,52.82],[-6.736164512112737,62.08702711388469,52.46],[-6.736194686964154,62.08712141029537,53.05],[-6.736230477690697,62.08721889182925,52.7],[-6.736230812966824,62.087314277887344,52.43],[-6.736239362508059,62.087414022535086,52.84],[-6.736237350851297,62.0875065587461,51.22],[-6.73622427508235,62.087614350020885,50.8],[-6.736216228455305,62.08770495839417,51.53],[-6.736185131594539,62.08781057037413,51.31],[-6.736178509891033,62.08791165612638,50.97],[-6.736181527376175,62.088005198165774,50.74],[-6.736143808811903,62.08810133859515,50.73],[-6.736074658110738,62.08820225670934,50.59],[-6.736023109406233,62.08829437382519,50.72],[-6.735966866835952,62.08838322199881,50.39],[-6.735923532396555,62.08846922032535,50.15],[-6.735831499099731,62.088553039357066,49.87],[-6.735719684511423,62.08864700049162,50.13],[-6.735649527981877,62.08871413953602,50.94],[-6.735505778342485,62.08882352337241,50.53],[-6.735385162755847,62.08889585919678,50.54],[-6.735233031213284,62.088977079838514,50.98],[-6.735119624063373,62.089047487825155,51.08],[-6.73499976284802,62.08912493661046,51.33],[-6.734925163909793,62.08921386860311,51.76],[-6.73486003652215,62.08931545726955,52.48],[-6.734789712354541,62.08940631709993,52.59],[-6.734688961878419,62.0895027089864,52.66],[-6.734639424830675,62.089607901871204,53.85],[-6.734607322141528,62.08970194682479,54.31],[-6.734551917761564,62.08980764262378,54.65],[-6.734495088458061,62.089900178834796,55.73],[-6.734458459541202,62.09000553935766,55.75],[-6.734428368508816,62.09010788239539,56.07],[-6.734412359073758,62.09020871669054,57.01],[-6.734396349638701,62.090307706966996,57.88],[-6.734400289133191,62.090408792719245,58.07],[-6.734413783997297,62.09049948491156,58.15],[-6.734424596652389,62.0905891712755,57.66],[-6.734420321881771,62.09070073440671,58.73],[-6.734429122880101,62.09081104025245,58.02],[-6.734485365450382,62.09090223535895,57.97],[-6.734502045437694,62.090997118502855,58.27],[-6.734520485624671,62.09111019037664,59.36],[-6.734523586928845,62.09121722728014,60.11],[-6.734537752345204,62.09133951924741,61.11],[-6.734564071521163,62.09143758751452,59.96],[-6.734580164775252,62.09152953699231,59.77],[-6.734599191695452,62.09162609651685,59.68],[-6.734626516699791,62.09172282367945,59.97],[-6.73465627245605,62.09181737154722,59.94],[-6.73468166962266,62.09192147478461,59.44],[-6.734787952154875,62.092005629092455,60.65],[-6.734859365969896,62.09208844229579,61.34],[-6.734895994886756,62.092181062325835,61.35],[-6.734940921887755,62.09227510727942,60.86],[-6.734990878030658,62.0923709962517,60.53],[-6.735036727041006,62.09246680140495,60.61],[-6.735083498060703,62.09255849942565,60.72],[-6.735124820843339,62.09265623241663,61.05],[-6.735164215788245,62.09275941364467,61.35],[-6.7351786326617,62.09285086020827,60.55],[-6.735244849696755,62.09293719381094,58.86],[-6.73529053106904,62.09302470088005,57.11],[-6.735313329845667,62.093114806339145,54.99],[-6.735327243804932,62.09320063702762,53.6],[-6.735335877165198,62.09330406971276,51.54],[-6.735347611829639,62.09340188652277,51.9],[-6.735310899093747,62.09350297227502,52.91],[-6.735274353995919,62.09359969943762,54.33],[-6.73525339923799,62.0936974324286,53.83],[-6.735233785584569,62.09379524923861,54.48],[-6.735203443095088,62.093888875097036,54.67],[-6.735182823613286,62.09398400969803,55.63],[-6.735169664025307,62.09407973103225,55.94],[-6.73515172675252,62.09417444653809,56.65],[-6.735129347071052,62.09427645429969,57.46],[-6.735099256038666,62.09437812678516,58.85],[-6.735079558566213,62.09447250701487,59.36],[-6.735065644606948,62.09456370212138,60.43],[-6.735065476968885,62.094656992703676,61],[-6.735055167227984,62.09474651142955,61.37],[-6.735046952962875,62.094850782305,62.26],[-6.735030943527818,62.09494172595441,63.27],[-6.735016442835331,62.095033172518015,63.76],[-6.73501250334084,62.0951393712312,64.62],[-6.735006300732493,62.09523232653737,65.32],[-6.73499540425837,62.09532419219613,66.01],[-6.734990207478404,62.09542477503419,66.44],[-6.734972940757871,62.0955173112452,67.02],[-6.734966235235333,62.09560934454203,67.57],[-6.734958607703447,62.09570104256272,68.49],[-6.734936228021979,62.09578972309828,69.37],[-6.734927343204618,62.0958820078522,70.28],[-6.734911166131496,62.09597303532064,71.01],[-6.73490890301764,62.096067583188415,71.76],[-6.73490303568542,62.09616062231362,72.07],[-6.734900269657373,62.09625483490527,72.63],[-6.734890295192599,62.096347119659185,74.04],[-6.734877722337842,62.096441835165024,75.09],[-6.734876381233335,62.096537640318274,74.3],[-6.734871855005622,62.09663277491927,75.41],[-6.734890965744853,62.09673444740474,76.54],[-6.734875123947859,62.09682782180607,75.19],[-6.734869256615639,62.09692404605448,75.57],[-6.734864059835672,62.09701926447451,76.59],[-6.73486297018826,62.09711599163711,77.04],[-6.73485760577023,62.09721028804779,77.17],[-6.734852995723486,62.09730517119169,77.86],[-6.734832292422652,62.097400138154626,77.93],[-6.734809493646026,62.097494853660464,78.18],[-6.734795160591602,62.097587306052446,78.66],[-6.734783425927162,62.097681015729904,79.89],[-6.73475886695087,62.09776324220002,80.32],[-6.734664235264063,62.09784613922238,80.72],[-6.73458393663168,62.09792895242572,82.17],[-6.734549822285771,62.098021153360605,82.07],[-6.734507074579597,62.09811461158097,83.27],[-6.734464494511485,62.0982148591429,83.89],[-6.734433565288782,62.098313346505165,83.65],[-6.734361564740539,62.098409570753574,84.74],[-6.734189987182617,62.098395489156246,84.23],[-6.733998795971274,62.09835039451718,84.84],[-6.733833840116859,62.09828711114824,84.64],[-6.733833840116859,62.09818116389215,83.47],[-6.733884131535888,62.098073959350586,84.32],[-6.733884802088141,62.097978573292494,84.5],[-6.733793523162603,62.09790129214525,86.49],[-6.733571654185653,62.09788595326245,88.25],[-6.733368393033743,62.097891150042415,88.49],[-6.73316890373826,62.09788762964308,89.25],[-6.732953656464815,62.09787539206445,88.37],[-6.732757771387696,62.09783876314759,87.98],[-6.732566999271512,62.09779727272689,87.93],[-6.732380501925945,62.09775301627815,87.46],[-6.732209678739309,62.097714794799685,86.93],[-6.732027372345328,62.09767984226346,85.71],[-6.731844898313284,62.097637597471476,85.2],[-6.731641972437501,62.097594598308206,83.85],[-6.731451787054539,62.09755780175328,82.86],[-6.731246933341026,62.09752410650253,81.24],[-6.731059346348047,62.097516814246774,80.1],[-6.73088014125824,62.09754187613726,77.97],[-6.730677718296647,62.09749208763242,77.41],[-6.730472780764103,62.09745571017265,75.33],[-6.730260215699673,62.097421092912555,73.02],[-6.730058044195175,62.09737792611122,71.07],[-6.729862410575151,62.097325790673494,69.15],[-6.729692090302706,62.097287233918905,66.61],[-6.72948120161891,62.097276924178004,64.64],[-6.72927157022059,62.09727097302675,62.56],[-6.72906051389873,62.09726829081774,60.75],[-6.728836297988892,62.09729393944144,58.42],[-6.72862465493381,62.09732470102608,55.9],[-6.728425417095423,62.097363006323576,54.1],[-6.728216707706451,62.097401563078165,52.95],[-6.728018894791603,62.09744858555496,52.29],[-6.727800127118826,62.09747951477766,51.69],[-6.727575156837702,62.097502648830414,50.8],[-6.727375248447061,62.097534500062466,47.73],[-6.727252285927534,62.097619995474815,45.66],[-6.727287154644728,62.09771353751421,43.98],[-6.727415230125189,62.097794925794005,40.63],[-6.72744557261467,62.09786684252322,37.87],[-6.727258069440723,62.097854940220714,35.22],[-6.727052628993988,62.09785586223006,33.8],[-6.727059418335557,62.09795577451587,30.68],[-6.727081881836057,62.098052417859435,28.71],[-6.726959673687816,62.09814537316561,26.09],[-6.726851295679808,62.09823899902403,24.02],[-6.726654656231403,62.09824654273689,21.49],[-6.72645902261138,62.09821636788547,21.26],[-6.726265903562307,62.09819625131786,20.42],[-6.726086279377341,62.09823723882437,19.24],[-6.725926268845797,62.0982959959656,18.26],[-6.72575443983078,62.098361710086465,16.94],[-6.725636003538966,62.09844888187945,13.94],[-6.725547155365348,62.09854217246175,12.38],[-6.725663663819432,62.09861073642969,11.22],[-6.725841695442796,62.098669577389956,11.17],[-6.726027270779014,62.09872498176992,12.02],[-6.726210247725248,62.098778039216995,12.96],[-6.726391548290849,62.09884366951883,13.87],[-6.726554995402694,62.09890175610781,14.8],[-6.726695224642754,62.098978869616985,16.36],[-6.7268499545753,62.09904592484236,17.51],[-6.726994123309851,62.099126894026995,18.18],[-6.727062854915857,62.09921557456255,18.7],[-6.727145500481129,62.09930341690779,18.14],[-6.727218087762594,62.09939477965236,17.53],[-6.727240551263094,62.099496368318796,17.18],[-6.727228565141559,62.09959183819592,15.98],[-6.727275587618351,62.09969686344266,13.93],[-6.727284975349903,62.09979669190943,12.48],[-6.727304002270103,62.099896017462015,11.36],[-6.727243820205331,62.09999919869006,11.23],[-6.727225128561258,62.100096344947815,12.66],[-6.727145500481129,62.1002006996423,11.93],[-6.727040894329548,62.10028485395014,12.27],[-6.726976940408349,62.10038443095982,11.62],[-6.726975683122873,62.10048350505531,12.71],[-6.726949783042073,62.10057788528502,13.17],[-6.726941904053092,62.10067410953343,13.64],[-6.726975599303842,62.10077033378184,13.12],[-6.726988423615694,62.10086773149669,12.01],[-6.72693595290184,62.100969571620226,11.23],[-6.726942406967282,62.10106520913541,11.1],[-6.726965792477131,62.10116235539317,11.66],[-6.726904101669788,62.10125321522355,11.65],[-6.726826401427388,62.10135195404291,10.47],[-6.726739313453436,62.10144708864391,11],[-6.726533202454448,62.101455219089985,11.23],[-6.726367240771651,62.10150936618447,10.82],[-6.726222569122911,62.10157508030534,10.5],[-6.726019894704223,62.10159486159682,11.55],[-6.725818729028106,62.10159578360617,12.72],[-6.725645726546645,62.10164515301585,12.85],[-6.725455457344651,62.10167893208563,12.74],[-6.725258231163025,62.10165303200483,12.08],[-6.725067710503936,62.10161631926894,12.27],[-6.724917171522975,62.10155018605292,12],[-6.724763698875904,62.10151322185993,11.7],[-6.724572675302625,62.10152336396277,14.11],[-6.724395146593452,62.101547755301,13.91],[-6.724198088049889,62.10158606059849,13.54],[-6.724068839102984,62.10165286436677,13.53],[-6.723977643996477,62.10173442028463,12.42],[-6.72378527931869,62.10178043693304,12.18],[-6.723599284887314,62.10181756876409,11.34],[-6.723434329032898,62.10187330842018,10.26],[-6.723316563293338,62.10195570252836,10.42],[-6.723241293802857,62.10204564034939,10.83],[-6.723108692094684,62.10212585516274,12.41],[-6.722923032939434,62.10217262618244,11.52],[-6.722816750407219,62.10217899642885,9.68],[-6.722712563350797,62.10226415656507,9.67],[-6.722500501200557,62.10228452458978,9.46],[-6.722354907542467,62.10235157981515,9.46],[-6.722240829840303,62.10242978297174,9.76],[-6.722356583923101,62.102489210665226,9.89],[-6.722487173974514,62.102553667500615,9.41],[-6.722550624981523,62.102649472653866,9.64],[-6.722653638571501,62.10274108685553,9.81],[-6.722710719332099,62.10282959975302,9.36],[-6.722741900011897,62.102931356057525,9.18],[-6.722822953015566,62.10302892141044,8.79],[-6.722922530025244,62.10311726666987,9.13],[-6.723074242472649,62.103191781789064,9.82],[-6.723200893029571,62.103270906955004,9.21],[-6.723336344584823,62.10335120558739,8.98],[-6.723499791696668,62.10340904071927,9.13],[-6.723698442801833,62.1034455858171,9.31],[-6.723814615979791,62.103525046259165,8.86],[-6.723853424191475,62.10362655110657,8.72],[-6.723944367840886,62.1037114597857,9.06],[-6.723989965394139,62.103809444233775,8.49],[-6.724039250984788,62.103908685967326,8.41],[-6.724192975088954,62.103969706222415,8.38],[-6.724335551261902,62.104033743962646,8.32],[-6.724342089146376,62.10412284359336,7.94],[-6.72425533644855,62.10422049276531,7.66],[-6.724267657846212,62.104308754205704,7.85],[-6.724285092204809,62.10440841503441,8.19],[-6.724267574027181,62.104503298178315,8.24],[-6.724224407225847,62.10460044443607,7.93],[-6.724184425547719,62.10470295511186,8.01],[-6.724130194634199,62.104798424988985,8.02],[-6.724007399752736,62.10485240444541,7.64],[-6.723818890750408,62.104837568476796,6.97],[-6.723625855520368,62.104863384738564,7.32],[-6.723526865243912,62.10494862869382,7],[-6.72359760850668,62.10504300892353,6.58],[-6.723693246021867,62.10513646714389,6.47],[-6.72379944473505,62.105226907879114,6.21],[-6.723929280415177,62.10530913434923,5.83],[-6.72405106946826,62.10539169609547,5.79],[-6.724175624549389,62.10547576658428,4.92],[-6.724293390288949,62.10555346682668,4.86],[-6.724411910399795,62.105627143755555,4.74],[-6.724507212638855,62.105715153738856,4.6],[-6.724579045549035,62.105802074074745,4.78],[-6.724681053310633,62.10588438436389,4.17],[-6.72459052875638,62.105965772643685,4.57],[-6.724546356126666,62.10605428554118,5.26],[-6.724670995026827,62.10613709874451,4.63],[-6.724777864292264,62.10622359998524,3.74],[-6.724777445197105,62.10631395690143,3.09],[-6.724584242329001,62.106339521706104,3.21],[-6.724548535421491,62.10642711259425,2.83],[-6.72459832392633,62.106521325185895,2.84],[-6.724616596475244,62.10662609897554,2.91],[-6.72463838942349,62.10672433488071,1.69],[-6.724647860974073,62.10682751610875,1.69],[-6.724749449640513,62.10691544227302,1.39],[-6.724866377189755,62.10700194351375,1.72],[-6.724937623366714,62.10709489881992,1.66],[-6.724956566467881,62.10719531401992,1.45],[-6.724942652508616,62.10729455575347,1.29],[-6.724854726344347,62.10738541558385,2.39],[-6.724765375256538,62.10746554657817,1.93],[-6.724715167656541,62.10757861845195,2.23],[-6.724704438820481,62.10768557153642,2.12],[-6.724676610901952,62.10779193788767,1.97],[-6.724637802690268,62.10789671167731,2.01],[-6.724609471857548,62.1079957857728,2.48],[-6.724575106054544,62.108094776049256,1.95],[-6.724528921768069,62.10818622261286,1.94],[-6.724470416083932,62.1082806866616,1.93],[-6.724401852115989,62.108371714130044,2.26],[-6.724339155480266,62.108465088531375,1.95],[-6.724505452439189,62.10851479321718,2.06],[-6.724591450765729,62.10859341546893,1.96]]}},{"type":"Feature","properties":{"name":"WP1 03_TV","type":"user","time":"2020-07-16T11:21:30Z","gpxx_WaypointExtension":"SymbolAndName","gpxx_DisplayMode":"SymbolAndName","wptx1_WaypointExtension":"SymbolAndName","wptx1_DisplayMode":"SymbolAndName","ctx_CreationTimeExtension":"2020-07-16T11:21:30Z","ctx_CreationTime":"2020-07-16T11:21:30Z","sym":"Flag, Blue"},"geometry":{"type":"Point","coordinates":[-6.725595016032457,62.098607970401645,10.608239]}},{"type":"Feature","properties":{"name":"WP2 05_TV","type":"user","time":"2020-07-16T11:47:01Z","gpxx_WaypointExtension":"SymbolAndName","gpxx_DisplayMode":"SymbolAndName","wptx1_WaypointExtension":"SymbolAndName","wptx1_DisplayMode":"SymbolAndName","ctx_CreationTimeExtension":"2020-07-16T11:47:01Z","ctx_CreationTime":"2020-07-16T11:47:01Z","sym":"Flag, Blue"},"geometry":{"type":"Point","coordinates":[-6.705520022660494,62.09469102323055,54.645473]}},{"type":"Feature","properties":{"name":"WP3 12_TV","type":"user","time":"2020-07-16T12:15:21Z","gpxx_WaypointExtension":"SymbolAndName","gpxx_DisplayMode":"SymbolAndName","wptx1_WaypointExtension":"SymbolAndName","wptx1_DisplayMode":"SymbolAndName","ctx_CreationTimeExtension":"2020-07-16T12:15:21Z","ctx_CreationTime":"2020-07-16T12:15:21Z","sym":"Flag, Blue"},"geometry":{"type":"Point","coordinates":[-6.717173969373107,62.085395995527506,107.464249]}},{"type":"Feature","properties":{"name":"WP4_TV","type":"user","time":"2020-08-13T07:44:37Z","gpxx_WaypointExtension":"SymbolAndName","gpxx_DisplayMode":"SymbolAndName","wptx1_WaypointExtension":"SymbolAndName","wptx1_DisplayMode":"SymbolAndName","ctx_CreationTimeExtension":"2020-08-13T07:44:37Z","ctx_CreationTime":"2020-08-13T07:44:37Z","sym":"Flag, Blue"},"geometry":{"type":"Point","coordinates":[-6.737473011016846,62.086336612701416,31.15234375]}},{"type":"Feature","properties":{"name":"WP5 15_TV","type":"user","time":"2020-07-16T12:58:12Z","gpxx_WaypointExtension":"SymbolAndName","gpxx_DisplayMode":"SymbolAndName","wptx1_WaypointExtension":"SymbolAndName","wptx1_DisplayMode":"SymbolAndName","ctx_CreationTimeExtension":"2020-07-16T12:58:12Z","ctx_CreationTime":"2020-07-16T12:58:12Z","sym":"Flag, Blue"},"geometry":{"type":"Point","coordinates":[-6.734255030751228,62.09840697236359,84.893333]}}]}