{"type":"FeatureCollection","features":[{"type":"Feature","properties":{"_gpxType":"trk","name":"09 Wanderung Saksun Tjørnuvik","time":"2020-07-13T12:23:21Z","gpxx_TrackExtension":"Black","gpxx_DisplayColor":"Black","coordinateProperties":{"times":["2020-07-13T12:23:21Z","2020-07-13T12:23:43Z","2020-07-13T12:23:49Z","2020-07-13T12:23:55Z","2020-07-13T12:24:01Z","2020-07-13T12:24:07Z","2020-07-13T12:24:14Z","2020-07-13T12:24:21Z","2020-07-13T12:24:27Z","2020-07-13T12:24:33Z","2020-07-13T12:24:39Z","2020-07-13T12:24:45Z","2020-07-13T12:24:51Z","2020-07-13T12:24:57Z","2020-07-13T12:25:03Z","2020-07-13T12:25:09Z","2020-07-13T12:25:17Z","2020-07-13T12:25:29Z","2020-07-13T12:25:40Z","2020-07-13T12:25:50Z","2020-07-13T12:25:59Z","2020-07-13T12:26:11Z","2020-07-13T12:26:27Z","2020-07-13T12:26:47Z","2020-07-13T12:26:57Z","2020-07-13T12:27:18Z","2020-07-13T12:27:33Z","2020-07-13T12:27:45Z","2020-07-13T12:27:55Z","2020-07-13T12:28:11Z","2020-07-13T12:28:19Z","2020-07-13T12:28:35Z","2020-07-13T12:28:49Z","2020-07-13T12:29:03Z","2020-07-13T12:29:17Z","2020-07-13T12:29:33Z","2020-07-13T12:29:46Z","2020-07-13T12:30:04Z","2020-07-13T12:30:14Z","2020-07-13T12:30:24Z","2020-07-13T12:30:33Z","2020-07-13T12:30:42Z","2020-07-13T12:30:50Z","2020-07-13T12:30:58Z","2020-07-13T12:31:08Z","2020-07-13T12:31:23Z","2020-07-13T12:31:32Z","2020-07-13T12:31:41Z","2020-07-13T12:31:54Z","2020-07-13T12:32:06Z","2020-07-13T12:32:17Z","2020-07-13T12:34:30Z","2020-07-13T12:34:43Z","2020-07-13T12:34:52Z","2020-07-13T12:35:04Z","2020-07-13T12:35:15Z","2020-07-13T12:35:29Z","2020-07-13T12:35:37Z","2020-07-13T12:35:50Z","2020-07-13T12:36:00Z","2020-07-13T12:36:13Z","2020-07-13T12:36:24Z","2020-07-13T12:36:39Z","2020-07-13T12:36:49Z","2020-07-13T12:36:57Z","2020-07-13T12:37:05Z","2020-07-13T12:37:13Z","2020-07-13T12:37:22Z","2020-07-13T12:37:29Z","2020-07-13T12:37:37Z","2020-07-13T12:37:45Z","2020-07-13T12:37:54Z","2020-07-13T12:38:08Z","2020-07-13T12:38:16Z","2020-07-13T12:38:24Z","2020-07-13T12:38:31Z","2020-07-13T12:38:44Z","2020-07-13T12:38:55Z","2020-07-13T12:39:02Z","2020-07-13T12:39:09Z","2020-07-13T12:39:17Z","2020-07-13T12:39:26Z","2020-07-13T12:39:35Z","2020-07-13T12:39:44Z","2020-07-13T12:39:55Z","2020-07-13T12:40:03Z","2020-07-13T12:40:11Z","2020-07-13T12:40:19Z","2020-07-13T12:40:28Z","2020-07-13T12:40:38Z","2020-07-13T12:40:49Z","2020-07-13T12:41:02Z","2020-07-13T12:41:15Z","2020-07-13T12:41:30Z","2020-07-13T12:41:53Z","2020-07-13T12:42:38Z","2020-07-13T12:42:49Z","2020-07-13T12:43:02Z","2020-07-13T12:43:17Z","2020-07-13T12:43:33Z","2020-07-13T12:43:50Z","2020-07-13T12:44:08Z","2020-07-13T12:44:26Z","2020-07-13T12:44:49Z","2020-07-13T12:45:07Z","2020-07-13T12:45:31Z","2020-07-13T12:45:50Z","2020-07-13T12:46:05Z","2020-07-13T12:46:16Z","2020-07-13T12:46:26Z","2020-07-13T12:46:38Z","2020-07-13T12:46:46Z","2020-07-13T12:46:55Z","2020-07-13T12:47:06Z","2020-07-13T12:47:20Z","2020-07-13T12:47:39Z","2020-07-13T12:48:02Z","2020-07-13T12:48:11Z","2020-07-13T12:48:25Z","2020-07-13T12:48:46Z","2020-07-13T12:49:15Z","2020-07-13T12:49:36Z","2020-07-13T12:50:02Z","2020-07-13T12:50:26Z","2020-07-13T12:51:05Z","2020-07-13T12:51:34Z","2020-07-13T12:52:14Z","2020-07-13T12:53:02Z","2020-07-13T12:53:23Z","2020-07-13T12:53:34Z","2020-07-13T12:53:44Z","2020-07-13T12:53:56Z","2020-07-13T12:54:10Z","2020-07-13T12:54:21Z","2020-07-13T12:54:46Z","2020-07-13T12:55:03Z","2020-07-13T12:55:25Z","2020-07-13T12:55:38Z","2020-07-13T12:56:11Z","2020-07-13T12:58:19Z","2020-07-13T12:58:29Z","2020-07-13T12:58:39Z","2020-07-13T12:58:51Z","2020-07-13T12:59:08Z","2020-07-13T12:59:24Z","2020-07-13T12:59:39Z","2020-07-13T12:59:52Z","2020-07-13T13:00:04Z","2020-07-13T13:00:18Z","2020-07-13T13:00:29Z","2020-07-13T13:00:49Z","2020-07-13T13:01:08Z","2020-07-13T13:01:29Z","2020-07-13T13:01:51Z","2020-07-13T13:02:10Z","2020-07-13T13:02:52Z","2020-07-13T13:03:11Z","2020-07-13T13:03:26Z","2020-07-13T13:03:39Z","2020-07-13T13:03:59Z","2020-07-13T13:04:16Z","2020-07-13T13:04:26Z","2020-07-13T13:04:36Z","2020-07-13T13:05:01Z","2020-07-13T13:05:09Z","2020-07-13T13:05:47Z","2020-07-13T13:05:56Z","2020-07-13T13:06:07Z","2020-07-13T13:06:16Z","2020-07-13T13:06:24Z","2020-07-13T13:06:34Z","2020-07-13T13:06:43Z","2020-07-13T13:06:55Z","2020-07-13T13:07:07Z","2020-07-13T13:07:17Z","2020-07-13T13:07:33Z","2020-07-13T13:07:49Z","2020-07-13T13:08:11Z","2020-07-13T13:08:26Z","2020-07-13T13:08:59Z","2020-07-13T13:12:27Z","2020-07-13T13:12:41Z","2020-07-13T13:13:00Z","2020-07-13T13:13:16Z","2020-07-13T13:13:34Z","2020-07-13T13:13:57Z","2020-07-13T13:14:11Z","2020-07-13T13:14:30Z","2020-07-13T13:14:43Z","2020-07-13T13:14:53Z","2020-07-13T13:15:05Z","2020-07-13T13:15:21Z","2020-07-13T13:15:36Z","2020-07-13T13:15:52Z","2020-07-13T13:16:04Z","2020-07-13T13:16:20Z","2020-07-13T13:16:31Z","2020-07-13T13:16:42Z","2020-07-13T13:16:55Z","2020-07-13T13:17:06Z","2020-07-13T13:17:17Z","2020-07-13T13:17:28Z","2020-07-13T13:17:54Z","2020-07-13T13:18:24Z","2020-07-13T13:18:33Z","2020-07-13T13:18:44Z","2020-07-13T13:19:12Z","2020-07-13T13:19:22Z","2020-07-13T13:19:30Z","2020-07-13T13:19:39Z","2020-07-13T13:19:46Z","2020-07-13T13:19:54Z","2020-07-13T13:20:01Z","2020-07-13T13:20:10Z","2020-07-13T13:20:19Z","2020-07-13T13:20:28Z","2020-07-13T13:20:36Z","2020-07-13T13:20:45Z","2020-07-13T13:20:56Z","2020-07-13T13:21:08Z","2020-07-13T13:21:20Z","2020-07-13T13:21:39Z","2020-07-13T13:21:57Z","2020-07-13T13:22:11Z","2020-07-13T13:22:24Z","2020-07-13T13:22:37Z","2020-07-13T13:23:14Z","2020-07-13T13:23:25Z","2020-07-13T13:23:57Z","2020-07-13T13:24:05Z","2020-07-13T13:24:12Z","2020-07-13T13:24:20Z","2020-07-13T13:24:30Z","2020-07-13T13:24:38Z","2020-07-13T13:24:47Z","2020-07-13T13:24:57Z","2020-07-13T13:25:05Z","2020-07-13T13:25:14Z","2020-07-13T13:25:23Z","2020-07-13T13:25:36Z","2020-07-13T13:25:48Z","2020-07-13T13:25:57Z","2020-07-13T13:26:08Z","2020-07-13T13:26:18Z","2020-07-13T13:26:27Z","2020-07-13T13:26:35Z","2020-07-13T13:26:42Z","2020-07-13T13:26:49Z","2020-07-13T13:26:58Z","2020-07-13T13:27:07Z","2020-07-13T13:27:14Z","2020-07-13T13:27:24Z","2020-07-13T13:27:35Z","2020-07-13T13:27:46Z","2020-07-13T13:27:57Z","2020-07-13T13:28:07Z","2020-07-13T13:28:23Z","2020-07-13T13:28:34Z","2020-07-13T13:28:44Z","2020-07-13T13:28:53Z","2020-07-13T13:29:01Z","2020-07-13T13:29:09Z","2020-07-13T13:29:17Z","2020-07-13T13:29:25Z","2020-07-13T13:29:34Z","2020-07-13T13:29:42Z","2020-07-13T13:29:51Z","2020-07-13T13:30:01Z","2020-07-13T13:30:16Z","2020-07-13T13:30:24Z","2020-07-13T13:30:34Z","2020-07-13T13:30:42Z","2020-07-13T13:30:51Z","2020-07-13T13:30:59Z","2020-07-13T13:31:25Z","2020-07-13T13:31:34Z","2020-07-13T13:31:41Z","2020-07-13T13:31:50Z","2020-07-13T13:31:59Z","2020-07-13T13:32:09Z","2020-07-13T13:32:21Z","2020-07-13T13:32:31Z","2020-07-13T13:32:39Z","2020-07-13T13:32:48Z","2020-07-13T13:32:56Z","2020-07-13T13:33:03Z","2020-07-13T13:33:12Z","2020-07-13T13:33:20Z","2020-07-13T13:33:29Z","2020-07-13T13:33:37Z","2020-07-13T13:33:49Z","2020-07-13T13:33:58Z","2020-07-13T13:34:05Z","2020-07-13T13:34:14Z","2020-07-13T13:34:23Z","2020-07-13T13:34:32Z","2020-07-13T13:34:42Z","2020-07-13T13:34:51Z","2020-07-13T13:34:59Z","2020-07-13T13:35:07Z","2020-07-13T13:35:25Z","2020-07-13T13:35:34Z","2020-07-13T13:35:53Z","2020-07-13T13:36:01Z","2020-07-13T13:36:16Z","2020-07-13T13:36:31Z","2020-07-13T13:36:45Z","2020-07-13T13:36:52Z","2020-07-13T13:37:07Z","2020-07-13T13:37:20Z","2020-07-13T13:37:30Z","2020-07-13T13:37:59Z","2020-07-13T13:38:08Z","2020-07-13T13:38:19Z","2020-07-13T13:38:31Z","2020-07-13T13:38:40Z","2020-07-13T13:38:49Z","2020-07-13T13:39:09Z","2020-07-13T13:39:20Z","2020-07-13T13:39:30Z","2020-07-13T13:39:39Z","2020-07-13T13:39:50Z","2020-07-13T13:40:01Z","2020-07-13T13:40:11Z","2020-07-13T13:40:23Z","2020-07-13T13:40:38Z","2020-07-13T13:40:50Z","2020-07-13T13:41:02Z","2020-07-13T13:41:15Z","2020-07-13T13:41:27Z","2020-07-13T13:41:36Z","2020-07-13T13:41:49Z","2020-07-13T13:41:58Z","2020-07-13T13:42:07Z","2020-07-13T13:42:16Z","2020-07-13T13:42:25Z","2020-07-13T13:42:35Z","2020-07-13T13:42:45Z","2020-07-13T13:42:53Z","2020-07-13T13:43:03Z","2020-07-13T13:43:15Z","2020-07-13T13:43:28Z","2020-07-13T13:43:40Z","2020-07-13T13:43:50Z","2020-07-13T13:43:57Z","2020-07-13T13:44:08Z","2020-07-13T13:44:17Z","2020-07-13T13:44:33Z","2020-07-13T13:44:56Z","2020-07-13T13:47:52Z","2020-07-13T13:48:00Z","2020-07-13T13:48:10Z","2020-07-13T13:48:18Z","2020-07-13T13:48:26Z","2020-07-13T13:48:33Z","2020-07-13T13:48:41Z","2020-07-13T13:48:52Z","2020-07-13T13:49:06Z","2020-07-13T13:49:17Z","2020-07-13T13:49:31Z","2020-07-13T13:49:39Z","2020-07-13T13:49:46Z","2020-07-13T13:50:24Z","2020-07-13T13:50:37Z","2020-07-13T13:50:46Z","2020-07-13T13:50:57Z","2020-07-13T13:51:08Z","2020-07-13T13:51:17Z","2020-07-13T13:51:26Z","2020-07-13T13:51:41Z","2020-07-13T13:51:50Z","2020-07-13T13:51:59Z","2020-07-13T13:52:11Z","2020-07-13T13:52:21Z","2020-07-13T13:52:32Z","2020-07-13T13:52:42Z","2020-07-13T13:52:52Z","2020-07-13T13:53:04Z","2020-07-13T13:53:14Z","2020-07-13T13:53:24Z","2020-07-13T13:53:34Z","2020-07-13T13:53:44Z","2020-07-13T13:53:52Z","2020-07-13T13:54:02Z","2020-07-13T13:54:16Z","2020-07-13T13:54:26Z","2020-07-13T13:54:37Z","2020-07-13T13:54:49Z","2020-07-13T13:55:01Z","2020-07-13T13:55:10Z","2020-07-13T13:55:20Z","2020-07-13T13:55:31Z","2020-07-13T13:55:41Z","2020-07-13T13:55:49Z","2020-07-13T13:55:59Z","2020-07-13T13:56:10Z","2020-07-13T13:56:20Z","2020-07-13T13:56:31Z","2020-07-13T13:56:40Z","2020-07-13T13:57:03Z","2020-07-13T13:57:13Z","2020-07-13T13:57:22Z","2020-07-13T13:57:31Z","2020-07-13T13:57:40Z","2020-07-13T13:57:51Z","2020-07-13T13:58:01Z","2020-07-13T13:58:12Z","2020-07-13T13:58:21Z","2020-07-13T13:58:29Z","2020-07-13T13:58:39Z","2020-07-13T13:58:49Z","2020-07-13T13:58:58Z","2020-07-13T13:59:06Z","2020-07-13T13:59:14Z","2020-07-13T13:59:23Z","2020-07-13T13:59:31Z","2020-07-13T13:59:38Z","2020-07-13T13:59:49Z","2020-07-13T13:59:56Z","2020-07-13T14:00:04Z","2020-07-13T14:00:15Z","2020-07-13T14:00:27Z","2020-07-13T14:00:44Z","2020-07-13T14:00:54Z","2020-07-13T14:01:06Z","2020-07-13T14:01:16Z","2020-07-13T14:01:24Z","2020-07-13T14:01:32Z","2020-07-13T14:01:41Z","2020-07-13T14:01:54Z","2020-07-13T14:02:06Z","2020-07-13T14:02:14Z","2020-07-13T14:02:21Z","2020-07-13T14:02:29Z","2020-07-13T14:02:37Z","2020-07-13T14:02:45Z","2020-07-13T14:02:53Z","2020-07-13T14:03:02Z","2020-07-13T14:03:08Z","2020-07-13T14:03:14Z","2020-07-13T14:03:23Z","2020-07-13T14:03:30Z","2020-07-13T14:03:38Z","2020-07-13T14:03:45Z","2020-07-13T14:03:52Z","2020-07-13T14:03:59Z","2020-07-13T14:04:07Z","2020-07-13T14:04:15Z","2020-07-13T14:04:22Z","2020-07-13T14:04:31Z","2020-07-13T14:04:41Z","2020-07-13T14:04:51Z","2020-07-13T14:04:58Z","2020-07-13T14:05:05Z","2020-07-13T14:05:12Z","2020-07-13T14:05:21Z","2020-07-13T14:05:29Z","2020-07-13T14:05:38Z","2020-07-13T14:05:45Z","2020-07-13T14:05:53Z","2020-07-13T14:06:02Z","2020-07-13T14:06:16Z","2020-07-13T14:06:37Z","2020-07-13T14:06:49Z","2020-07-13T14:07:14Z","2020-07-13T14:07:22Z","2020-07-13T14:07:32Z","2020-07-13T14:07:40Z","2020-07-13T14:07:49Z","2020-07-13T14:07:57Z","2020-07-13T14:08:07Z","2020-07-13T14:08:17Z","2020-07-13T14:08:29Z","2020-07-13T14:08:39Z","2020-07-13T14:08:49Z","2020-07-13T14:08:59Z","2020-07-13T14:09:10Z","2020-07-13T14:09:19Z","2020-07-13T14:09:27Z","2020-07-13T14:09:35Z","2020-07-13T14:09:43Z","2020-07-13T14:09:51Z","2020-07-13T14:09:58Z","2020-07-13T14:10:06Z","2020-07-13T14:10:17Z","2020-07-13T14:10:26Z","2020-07-13T14:10:35Z","2020-07-13T14:10:48Z","2020-07-13T14:11:02Z","2020-07-13T14:11:15Z","2020-07-13T14:11:27Z","2020-07-13T14:11:37Z","2020-07-13T14:11:47Z","2020-07-13T14:11:56Z","2020-07-13T14:12:07Z","2020-07-13T14:12:15Z","2020-07-13T14:12:23Z","2020-07-13T14:12:30Z","2020-07-13T14:12:37Z","2020-07-13T14:12:44Z","2020-07-13T14:12:51Z","2020-07-13T14:12:58Z","2020-07-13T14:13:05Z","2020-07-13T14:13:12Z","2020-07-13T14:13:20Z","2020-07-13T14:13:33Z","2020-07-13T14:13:40Z","2020-07-13T14:15:20Z","2020-07-13T14:16:34Z","2020-07-13T14:16:42Z","2020-07-13T14:16:51Z","2020-07-13T14:16:57Z","2020-07-13T14:17:05Z","2020-07-13T14:17:12Z","2020-07-13T14:17:20Z","2020-07-13T14:17:27Z","2020-07-13T14:17:34Z","2020-07-13T14:17:41Z","2020-07-13T14:17:48Z","2020-07-13T14:17:56Z","2020-07-13T14:18:13Z","2020-07-13T14:18:21Z","2020-07-13T14:18:39Z","2020-07-13T14:19:02Z","2020-07-13T14:19:29Z","2020-07-13T14:19:53Z","2020-07-13T14:20:08Z","2020-07-13T14:20:22Z","2020-07-13T14:20:37Z","2020-07-13T14:20:56Z","2020-07-13T14:21:11Z","2020-07-13T14:21:22Z","2020-07-13T14:21:34Z","2020-07-13T14:21:45Z","2020-07-13T14:21:58Z","2020-07-13T14:22:08Z","2020-07-13T14:22:21Z","2020-07-13T14:22:40Z","2020-07-13T14:22:51Z","2020-07-13T14:23:00Z","2020-07-13T14:23:11Z","2020-07-13T14:23:18Z","2020-07-13T14:23:25Z","2020-07-13T14:23:32Z","2020-07-13T14:23:39Z","2020-07-13T14:24:00Z","2020-07-13T14:24:10Z","2020-07-13T14:24:19Z","2020-07-13T14:24:27Z","2020-07-13T14:24:35Z","2020-07-13T14:24:42Z","2020-07-13T14:24:50Z","2020-07-13T14:25:01Z","2020-07-13T14:25:09Z","2020-07-13T14:25:21Z","2020-07-13T14:25:49Z","2020-07-13T14:26:03Z","2020-07-13T14:26:19Z","2020-07-13T14:26:30Z","2020-07-13T14:26:41Z","2020-07-13T14:26:49Z","2020-07-13T14:26:59Z","2020-07-13T14:27:14Z","2020-07-13T14:27:35Z","2020-07-13T14:27:51Z","2020-07-13T14:28:03Z","2020-07-13T14:28:18Z","2020-07-13T14:28:28Z","2020-07-13T14:28:38Z","2020-07-13T14:28:52Z","2020-07-13T14:29:03Z","2020-07-13T14:29:14Z","2020-07-13T14:29:32Z","2020-07-13T14:29:44Z","2020-07-13T14:29:54Z","2020-07-13T14:30:03Z","2020-07-13T14:30:11Z","2020-07-13T14:30:19Z","2020-07-13T14:30:32Z","2020-07-13T14:30:44Z","2020-07-13T14:30:57Z","2020-07-13T14:31:10Z","2020-07-13T14:31:30Z","2020-07-13T14:31:45Z","2020-07-13T14:31:59Z","2020-07-13T14:32:10Z","2020-07-13T14:32:29Z","2020-07-13T14:32:58Z","2020-07-13T14:33:43Z","2020-07-13T14:33:53Z","2020-07-13T14:34:03Z","2020-07-13T14:34:13Z","2020-07-13T14:34:28Z","2020-07-13T14:34:43Z","2020-07-13T14:34:50Z","2020-07-13T14:35:01Z","2020-07-13T14:35:13Z","2020-07-13T14:35:24Z","2020-07-13T14:35:36Z","2020-07-13T14:35:48Z","2020-07-13T14:35:58Z","2020-07-13T14:36:11Z","2020-07-13T14:36:24Z","2020-07-13T14:36:36Z","2020-07-13T14:37:02Z","2020-07-13T14:37:12Z","2020-07-13T14:37:25Z","2020-07-13T14:37:35Z","2020-07-13T14:38:01Z","2020-07-13T14:38:19Z","2020-07-13T14:38:32Z","2020-07-13T14:38:45Z","2020-07-13T14:38:53Z","2020-07-13T14:39:02Z","2020-07-13T14:39:15Z","2020-07-13T14:39:25Z","2020-07-13T14:39:39Z","2020-07-13T14:39:50Z","2020-07-13T14:40:00Z","2020-07-13T14:40:07Z","2020-07-13T14:40:15Z","2020-07-13T14:40:30Z","2020-07-13T14:40:38Z","2020-07-13T14:40:47Z","2020-07-13T14:40:58Z","2020-07-13T14:41:09Z","2020-07-13T14:41:20Z","2020-07-13T14:41:31Z","2020-07-13T14:41:44Z","2020-07-13T14:41:57Z","2020-07-13T14:42:09Z","2020-07-13T14:42:23Z","2020-07-13T14:42:31Z","2020-07-13T14:42:45Z","2020-07-13T14:42:56Z","2020-07-13T14:43:09Z","2020-07-13T14:43:27Z","2020-07-13T14:43:56Z","2020-07-13T14:44:06Z","2020-07-13T14:44:17Z","2020-07-13T14:44:27Z","2020-07-13T14:44:36Z","2020-07-13T14:44:46Z","2020-07-13T14:48:26Z","2020-07-13T14:48:26Z","2020-07-13T14:44:46Z","2020-07-13T14:44:36Z","2020-07-13T14:44:27Z","2020-07-13T14:44:17Z","2020-07-13T14:44:06Z","2020-07-13T14:43:56Z","2020-07-13T14:43:27Z","2020-07-13T14:43:09Z","2020-07-13T14:42:56Z","2020-07-13T14:42:45Z","2020-07-13T14:42:31Z","2020-07-13T14:42:23Z","2020-07-13T14:42:09Z","2020-07-13T14:41:57Z","2020-07-13T14:41:44Z","2020-07-13T14:41:31Z","2020-07-13T14:41:20Z","2020-07-13T14:41:09Z","2020-07-13T14:40:58Z","2020-07-13T14:40:47Z","2020-07-13T14:40:38Z","2020-07-13T14:40:30Z","2020-07-13T14:40:15Z","2020-07-13T14:40:07Z","2020-07-13T14:40:00Z","2020-07-13T14:39:50Z","2020-07-13T14:39:39Z","2020-07-13T14:39:25Z","2020-07-13T14:39:15Z","2020-07-13T14:39:02Z","2020-07-13T14:38:53Z","2020-07-13T14:38:45Z","2020-07-13T14:38:32Z","2020-07-13T14:38:19Z","2020-07-13T14:38:01Z","2020-07-13T14:37:35Z","2020-07-13T14:37:25Z","2020-07-13T14:37:12Z","2020-07-13T14:37:02Z","2020-07-13T14:36:36Z","2020-07-13T14:36:24Z","2020-07-13T14:36:11Z","2020-07-13T14:35:58Z","2020-07-13T14:35:48Z","2020-07-13T14:35:36Z","2020-07-13T14:35:24Z","2020-07-13T14:35:13Z","2020-07-13T14:35:01Z","2020-07-13T14:34:50Z","2020-07-13T14:34:43Z","2020-07-13T14:34:28Z","2020-07-13T14:34:13Z","2020-07-13T14:34:03Z","2020-07-13T14:33:53Z","2020-07-13T14:33:43Z","2020-07-13T14:32:58Z","2020-07-13T14:32:29Z","2020-07-13T14:32:10Z","2020-07-13T14:31:59Z","2020-07-13T14:31:45Z","2020-07-13T14:31:30Z","2020-07-13T14:31:10Z","2020-07-13T14:30:57Z","2020-07-13T14:30:44Z","2020-07-13T14:30:32Z","2020-07-13T14:30:19Z","2020-07-13T14:30:11Z","2020-07-13T14:30:03Z","2020-07-13T14:29:54Z","2020-07-13T14:29:44Z","2020-07-13T14:29:32Z","2020-07-13T14:29:14Z","2020-07-13T14:29:03Z","2020-07-13T14:28:52Z","2020-07-13T14:28:38Z","2020-07-13T14:28:28Z","2020-07-13T14:28:18Z","2020-07-13T14:28:03Z","2020-07-13T14:27:51Z","2020-07-13T14:27:35Z","2020-07-13T14:27:14Z","2020-07-13T14:26:59Z","2020-07-13T14:26:49Z","2020-07-13T14:26:41Z","2020-07-13T14:26:30Z","2020-07-13T14:26:19Z","2020-07-13T14:26:03Z","2020-07-13T14:25:49Z","2020-07-13T14:25:21Z","2020-07-13T14:25:09Z","2020-07-13T14:25:01Z","2020-07-13T14:24:50Z","2020-07-13T14:24:42Z","2020-07-13T14:24:35Z","2020-07-13T14:24:27Z","2020-07-13T14:24:19Z","2020-07-13T14:24:10Z","2020-07-13T14:24:00Z","2020-07-13T14:23:39Z","2020-07-13T14:23:32Z","2020-07-13T14:23:25Z","2020-07-13T14:23:18Z","2020-07-13T14:23:11Z","2020-07-13T14:23:00Z","2020-07-13T14:22:51Z","2020-07-13T14:22:40Z","2020-07-13T14:22:21Z","2020-07-13T14:22:08Z","2020-07-13T14:21:58Z","2020-07-13T14:21:45Z","2020-07-13T14:21:34Z","2020-07-13T14:21:22Z","2020-07-13T14:21:11Z","2020-07-13T14:20:56Z","2020-07-13T14:20:37Z","2020-07-13T14:20:22Z","2020-07-13T14:20:08Z","2020-07-13T14:19:53Z","2020-07-13T14:19:29Z","2020-07-13T14:19:02Z","2020-07-13T14:18:39Z","2020-07-13T14:18:21Z","2020-07-13T14:18:13Z","2020-07-13T14:17:56Z","2020-07-13T14:17:48Z","2020-07-13T14:17:41Z","2020-07-13T14:17:34Z","2020-07-13T14:17:27Z","2020-07-13T14:17:20Z","2020-07-13T14:17:12Z","2020-07-13T14:17:05Z","2020-07-13T14:16:57Z","2020-07-13T14:16:51Z","2020-07-13T14:16:42Z","2020-07-13T14:16:34Z","2020-07-13T14:15:20Z","2020-07-13T14:13:40Z","2020-07-13T14:13:33Z","2020-07-13T14:13:20Z","2020-07-13T14:13:12Z","2020-07-13T14:13:05Z","2020-07-13T14:12:58Z","2020-07-13T14:12:51Z","2020-07-13T14:12:44Z","2020-07-13T14:12:37Z","2020-07-13T14:12:30Z","2020-07-13T14:12:23Z","2020-07-13T14:12:15Z","2020-07-13T14:12:07Z","2020-07-13T14:11:56Z","2020-07-13T14:11:47Z","2020-07-13T14:11:37Z","2020-07-13T14:11:27Z","2020-07-13T14:11:15Z","2020-07-13T14:11:02Z","2020-07-13T14:10:48Z","2020-07-13T14:10:35Z","2020-07-13T14:10:26Z","2020-07-13T14:10:17Z","2020-07-13T14:10:06Z","2020-07-13T14:09:58Z","2020-07-13T14:09:51Z","2020-07-13T14:09:43Z","2020-07-13T14:09:35Z","2020-07-13T14:09:27Z","2020-07-13T14:09:19Z","2020-07-13T14:09:10Z","2020-07-13T14:08:59Z","2020-07-13T14:08:49Z","2020-07-13T14:08:39Z","2020-07-13T14:08:29Z","2020-07-13T14:08:17Z","2020-07-13T14:08:07Z","2020-07-13T14:07:57Z","2020-07-13T14:07:49Z","2020-07-13T14:07:40Z","2020-07-13T14:07:32Z","2020-07-13T14:07:22Z","2020-07-13T14:07:14Z","2020-07-13T14:06:49Z","2020-07-13T14:06:37Z","2020-07-13T14:06:16Z","2020-07-13T14:06:02Z","2020-07-13T14:05:53Z","2020-07-13T14:05:45Z","2020-07-13T14:05:38Z","2020-07-13T14:05:29Z","2020-07-13T14:05:21Z","2020-07-13T14:05:12Z","2020-07-13T14:05:05Z","2020-07-13T14:04:58Z","2020-07-13T14:04:51Z","2020-07-13T14:04:41Z","2020-07-13T14:04:31Z","2020-07-13T14:04:22Z","2020-07-13T14:04:15Z","2020-07-13T14:04:07Z","2020-07-13T14:03:59Z","2020-07-13T14:03:52Z","2020-07-13T14:03:45Z","2020-07-13T14:03:38Z","2020-07-13T14:03:30Z","2020-07-13T14:03:23Z","2020-07-13T14:03:14Z","2020-07-13T14:03:08Z","2020-07-13T14:03:02Z","2020-07-13T14:02:53Z","2020-07-13T14:02:45Z","2020-07-13T14:02:37Z","2020-07-13T14:02:29Z","2020-07-13T14:02:21Z","2020-07-13T14:02:14Z","2020-07-13T14:02:06Z","2020-07-13T14:01:54Z","2020-07-13T14:01:41Z","2020-07-13T14:01:32Z","2020-07-13T14:01:24Z","2020-07-13T14:01:16Z","2020-07-13T14:01:06Z","2020-07-13T14:00:54Z","2020-07-13T14:00:44Z","2020-07-13T14:00:27Z","2020-07-13T14:00:15Z","2020-07-13T14:00:04Z","2020-07-13T13:59:56Z","2020-07-13T13:59:49Z","2020-07-13T13:59:38Z","2020-07-13T13:59:31Z","2020-07-13T13:59:23Z","2020-07-13T13:59:14Z","2020-07-13T13:59:06Z","2020-07-13T13:58:58Z","2020-07-13T13:58:49Z","2020-07-13T13:58:39Z","2020-07-13T13:58:29Z","2020-07-13T13:58:21Z","2020-07-13T13:58:12Z","2020-07-13T13:58:01Z","2020-07-13T13:57:51Z","2020-07-13T13:57:40Z","2020-07-13T13:57:31Z","2020-07-13T13:57:22Z","2020-07-13T13:57:13Z","2020-07-13T13:57:03Z","2020-07-13T13:56:40Z","2020-07-13T13:56:31Z","2020-07-13T13:56:20Z","2020-07-13T13:56:10Z","2020-07-13T13:55:59Z","2020-07-13T13:55:49Z","2020-07-13T13:55:41Z","2020-07-13T13:55:31Z","2020-07-13T13:55:20Z","2020-07-13T13:55:10Z","2020-07-13T13:55:01Z","2020-07-13T13:54:49Z","2020-07-13T13:54:37Z","2020-07-13T13:54:26Z","2020-07-13T13:54:16Z","2020-07-13T13:54:02Z","2020-07-13T13:53:52Z","2020-07-13T13:53:44Z","2020-07-13T13:53:34Z","2020-07-13T13:53:24Z","2020-07-13T13:53:14Z","2020-07-13T13:53:04Z","2020-07-13T13:52:52Z","2020-07-13T13:52:42Z","2020-07-13T13:52:32Z","2020-07-13T13:52:21Z","2020-07-13T13:52:11Z","2020-07-13T13:51:59Z","2020-07-13T13:51:50Z","2020-07-13T13:51:41Z","2020-07-13T13:51:26Z","2020-07-13T13:51:17Z","2020-07-13T13:51:08Z","2020-07-13T13:50:57Z","2020-07-13T13:50:46Z","2020-07-13T13:50:37Z","2020-07-13T13:50:24Z","2020-07-13T13:49:46Z","2020-07-13T13:49:39Z","2020-07-13T13:49:31Z","2020-07-13T13:49:17Z","2020-07-13T13:49:06Z","2020-07-13T13:48:52Z","2020-07-13T13:48:41Z","2020-07-13T13:48:33Z","2020-07-13T13:48:26Z","2020-07-13T13:48:18Z","2020-07-13T13:48:10Z","2020-07-13T13:48:00Z","2020-07-13T13:47:52Z","2020-07-13T13:44:56Z","2020-07-13T13:44:33Z","2020-07-13T13:44:17Z","2020-07-13T13:44:08Z","2020-07-13T13:43:57Z","2020-07-13T13:43:50Z","2020-07-13T13:43:40Z","2020-07-13T13:43:28Z","2020-07-13T13:43:15Z","2020-07-13T13:43:03Z","2020-07-13T13:42:53Z","2020-07-13T13:42:45Z","2020-07-13T13:42:35Z","2020-07-13T13:42:25Z","2020-07-13T13:42:16Z","2020-07-13T13:42:07Z","2020-07-13T13:41:58Z","2020-07-13T13:41:49Z","2020-07-13T13:41:36Z","2020-07-13T13:41:27Z","2020-07-13T13:41:15Z","2020-07-13T13:41:02Z","2020-07-13T13:40:50Z","2020-07-13T13:40:38Z","2020-07-13T13:40:23Z","2020-07-13T13:40:11Z","2020-07-13T13:40:01Z","2020-07-13T13:39:50Z","2020-07-13T13:39:39Z","2020-07-13T13:39:30Z","2020-07-13T13:39:20Z","2020-07-13T13:39:09Z","2020-07-13T13:38:49Z","2020-07-13T13:38:40Z","2020-07-13T13:38:31Z","2020-07-13T13:38:19Z","2020-07-13T13:38:08Z","2020-07-13T13:37:59Z","2020-07-13T13:37:30Z","2020-07-13T13:37:20Z","2020-07-13T13:37:07Z","2020-07-13T13:36:52Z","2020-07-13T13:36:45Z","2020-07-13T13:36:31Z","2020-07-13T13:36:16Z","2020-07-13T13:36:01Z","2020-07-13T13:35:53Z","2020-07-13T13:35:34Z","2020-07-13T13:35:25Z","2020-07-13T13:35:07Z","2020-07-13T13:34:59Z","2020-07-13T13:34:51Z","2020-07-13T13:34:42Z","2020-07-13T13:34:32Z","2020-07-13T13:34:23Z","2020-07-13T13:34:14Z","2020-07-13T13:34:05Z","2020-07-13T13:33:58Z","2020-07-13T13:33:49Z","2020-07-13T13:33:37Z","2020-07-13T13:33:29Z","2020-07-13T13:33:20Z","2020-07-13T13:33:12Z","2020-07-13T13:33:03Z","2020-07-13T13:32:56Z","2020-07-13T13:32:48Z","2020-07-13T13:32:39Z","2020-07-13T13:32:31Z","2020-07-13T13:32:21Z","2020-07-13T13:32:09Z","2020-07-13T13:31:59Z","2020-07-13T13:31:50Z","2020-07-13T13:31:41Z","2020-07-13T13:31:34Z","2020-07-13T13:31:25Z","2020-07-13T13:30:59Z","2020-07-13T13:30:51Z","2020-07-13T13:30:42Z","2020-07-13T13:30:34Z","2020-07-13T13:30:24Z","2020-07-13T13:30:16Z","2020-07-13T13:30:01Z","2020-07-13T13:29:51Z","2020-07-13T13:29:42Z","2020-07-13T13:29:34Z","2020-07-13T13:29:25Z","2020-07-13T13:29:17Z","2020-07-13T13:29:09Z","2020-07-13T13:29:01Z","2020-07-13T13:28:53Z","2020-07-13T13:28:44Z","2020-07-13T13:28:34Z","2020-07-13T13:28:23Z","2020-07-13T13:28:07Z","2020-07-13T13:27:57Z","2020-07-13T13:27:46Z","2020-07-13T13:27:35Z","2020-07-13T13:27:24Z","2020-07-13T13:27:14Z","2020-07-13T13:27:07Z","2020-07-13T13:26:58Z","2020-07-13T13:26:49Z","2020-07-13T13:26:42Z","2020-07-13T13:26:35Z","2020-07-13T13:26:27Z","2020-07-13T13:26:18Z","2020-07-13T13:26:08Z","2020-07-13T13:25:57Z","2020-07-13T13:25:48Z","2020-07-13T13:25:36Z","2020-07-13T13:25:23Z","2020-07-13T13:25:14Z","2020-07-13T13:25:05Z","2020-07-13T13:24:57Z","2020-07-13T13:24:47Z","2020-07-13T13:24:38Z","2020-07-13T13:24:30Z","2020-07-13T13:24:20Z","2020-07-13T13:24:12Z","2020-07-13T13:24:05Z","2020-07-13T13:23:57Z","2020-07-13T13:23:25Z","2020-07-13T13:23:14Z","2020-07-13T13:22:37Z","2020-07-13T13:22:24Z","2020-07-13T13:22:11Z","2020-07-13T13:21:57Z","2020-07-13T13:21:39Z","2020-07-13T13:21:20Z","2020-07-13T13:21:08Z","2020-07-13T13:20:56Z","2020-07-13T13:20:45Z","2020-07-13T13:20:36Z","2020-07-13T13:20:28Z","2020-07-13T13:20:19Z","2020-07-13T13:20:10Z","2020-07-13T13:20:01Z","2020-07-13T13:19:54Z","2020-07-13T13:19:46Z","2020-07-13T13:19:39Z","2020-07-13T13:19:30Z","2020-07-13T13:19:22Z","2020-07-13T13:19:12Z","2020-07-13T13:18:44Z","2020-07-13T13:18:33Z","2020-07-13T13:18:24Z","2020-07-13T13:17:54Z","2020-07-13T13:17:28Z","2020-07-13T13:17:17Z","2020-07-13T13:17:06Z","2020-07-13T13:16:55Z","2020-07-13T13:16:42Z","2020-07-13T13:16:31Z","2020-07-13T13:16:20Z","2020-07-13T13:16:04Z","2020-07-13T13:15:52Z","2020-07-13T13:15:36Z","2020-07-13T13:15:21Z","2020-07-13T13:15:05Z","2020-07-13T13:14:53Z","2020-07-13T13:14:43Z","2020-07-13T13:14:30Z","2020-07-13T13:14:11Z","2020-07-13T13:13:57Z","2020-07-13T13:13:34Z","2020-07-13T13:13:16Z","2020-07-13T13:13:00Z","2020-07-13T13:12:41Z","2020-07-13T13:12:27Z","2020-07-13T13:08:59Z","2020-07-13T13:08:26Z","2020-07-13T13:08:11Z","2020-07-13T13:07:49Z","2020-07-13T13:07:33Z","2020-07-13T13:07:17Z","2020-07-13T13:07:07Z","2020-07-13T13:06:55Z","2020-07-13T13:06:43Z","2020-07-13T13:06:34Z","2020-07-13T13:06:24Z","2020-07-13T13:06:16Z","2020-07-13T13:06:07Z","2020-07-13T13:05:56Z","2020-07-13T13:05:47Z","2020-07-13T13:05:09Z","2020-07-13T13:05:01Z","2020-07-13T13:04:36Z","2020-07-13T13:04:26Z","2020-07-13T13:04:16Z","2020-07-13T13:03:59Z","2020-07-13T13:03:39Z","2020-07-13T13:03:26Z","2020-07-13T13:03:11Z","2020-07-13T13:02:52Z","2020-07-13T13:02:10Z","2020-07-13T13:01:51Z","2020-07-13T13:01:29Z","2020-07-13T13:01:08Z","2020-07-13T13:00:49Z","2020-07-13T13:00:29Z","2020-07-13T13:00:18Z","2020-07-13T13:00:04Z","2020-07-13T12:59:52Z","2020-07-13T12:59:39Z","2020-07-13T12:59:24Z","2020-07-13T12:59:08Z","2020-07-13T12:58:51Z","2020-07-13T12:58:39Z","2020-07-13T12:58:29Z","2020-07-13T12:58:19Z","2020-07-13T12:56:11Z","2020-07-13T12:55:38Z","2020-07-13T12:55:25Z","2020-07-13T12:55:03Z","2020-07-13T12:54:46Z","2020-07-13T12:54:21Z","2020-07-13T12:54:10Z","2020-07-13T12:53:56Z","2020-07-13T12:53:44Z","2020-07-13T12:53:34Z","2020-07-13T12:53:23Z","2020-07-13T12:53:02Z","2020-07-13T12:52:14Z","2020-07-13T12:51:34Z","2020-07-13T12:51:05Z","2020-07-13T12:50:26Z","2020-07-13T12:50:02Z","2020-07-13T12:49:36Z","2020-07-13T12:49:15Z","2020-07-13T12:48:46Z","2020-07-13T12:48:25Z","2020-07-13T12:48:11Z","2020-07-13T12:48:02Z","2020-07-13T12:47:39Z","2020-07-13T12:47:20Z","2020-07-13T12:47:06Z","2020-07-13T12:46:55Z","2020-07-13T12:46:46Z","2020-07-13T12:46:38Z","2020-07-13T12:46:26Z","2020-07-13T12:46:16Z","2020-07-13T12:46:05Z","2020-07-13T12:45:50Z","2020-07-13T12:45:31Z","2020-07-13T12:45:07Z","2020-07-13T12:44:49Z","2020-07-13T12:44:26Z","2020-07-13T12:44:08Z","2020-07-13T12:43:50Z","2020-07-13T12:43:33Z","2020-07-13T12:43:17Z","2020-07-13T12:43:02Z","2020-07-13T12:42:49Z","2020-07-13T12:42:38Z","2020-07-13T12:41:53Z","2020-07-13T12:41:30Z","2020-07-13T12:41:15Z","2020-07-13T12:41:02Z","2020-07-13T12:40:49Z","2020-07-13T12:40:38Z","2020-07-13T12:40:28Z","2020-07-13T12:40:19Z","2020-07-13T12:40:11Z","2020-07-13T12:40:03Z","2020-07-13T12:39:55Z","2020-07-13T12:39:44Z","2020-07-13T12:39:35Z","2020-07-13T12:39:26Z","2020-07-13T12:39:17Z","2020-07-13T12:39:09Z","2020-07-13T12:39:02Z","2020-07-13T12:38:55Z","2020-07-13T12:38:44Z","2020-07-13T12:38:31Z","2020-07-13T12:38:24Z","2020-07-13T12:38:16Z","2020-07-13T12:38:08Z","2020-07-13T12:37:54Z","2020-07-13T12:37:45Z","2020-07-13T12:37:37Z","2020-07-13T12:37:29Z","2020-07-13T12:37:22Z","2020-07-13T12:37:13Z","2020-07-13T12:37:05Z","2020-07-13T12:36:57Z","2020-07-13T12:36:49Z","2020-07-13T12:36:39Z","2020-07-13T12:36:24Z","2020-07-13T12:36:13Z","2020-07-13T12:36:00Z","2020-07-13T12:35:50Z","2020-07-13T12:35:37Z","2020-07-13T12:35:29Z","2020-07-13T12:35:15Z","2020-07-13T12:35:04Z","2020-07-13T12:34:52Z","2020-07-13T12:34:43Z","2020-07-13T12:34:30Z","2020-07-13T12:32:17Z","2020-07-13T12:32:06Z","2020-07-13T12:31:54Z","2020-07-13T12:31:41Z","2020-07-13T12:31:32Z","2020-07-13T12:31:23Z","2020-07-13T12:31:08Z","2020-07-13T12:30:58Z","2020-07-13T12:30:50Z","2020-07-13T12:30:42Z","2020-07-13T12:30:33Z","2020-07-13T12:30:24Z","2020-07-13T12:30:14Z","2020-07-13T12:30:04Z","2020-07-13T12:29:46Z","2020-07-13T12:29:33Z","2020-07-13T12:29:17Z","2020-07-13T12:29:03Z","2020-07-13T12:28:49Z","2020-07-13T12:28:35Z","2020-07-13T12:28:19Z","2020-07-13T12:28:11Z","2020-07-13T12:27:55Z","2020-07-13T12:27:45Z","2020-07-13T12:27:33Z","2020-07-13T12:27:18Z","2020-07-13T12:26:57Z","2020-07-13T12:26:47Z","2020-07-13T12:26:27Z","2020-07-13T12:26:11Z","2020-07-13T12:25:59Z","2020-07-13T12:25:50Z","2020-07-13T12:25:40Z","2020-07-13T12:25:29Z","2020-07-13T12:25:17Z","2020-07-13T12:25:09Z","2020-07-13T12:25:03Z","2020-07-13T12:24:57Z","2020-07-13T12:24:51Z","2020-07-13T12:24:45Z","2020-07-13T12:24:39Z","2020-07-13T12:24:33Z","2020-07-13T12:24:27Z","2020-07-13T12:24:21Z","2020-07-13T12:24:14Z","2020-07-13T12:24:07Z","2020-07-13T12:24:01Z","2020-07-13T12:23:55Z","2020-07-13T12:23:49Z","2020-07-13T12:23:43Z","2020-07-13T12:23:21Z"]}},"geometry":{"type":"LineString","coordinates":[[-7.176860254257917,62.245878679677844,46.81],[-7.176903085783124,62.24595964886248,47.79],[-7.176949437707663,62.24604229442775,48.51],[-7.176987072452903,62.24612980149686,49.23],[-7.177027557045221,62.24621873348951,49.22],[-7.177074076607823,62.246308252215385,49.49],[-7.177101988345385,62.24641076289117,49.53],[-7.177129397168756,62.24651855416596,49.22],[-7.177145071327686,62.24662114866078,49.41],[-7.177167870104313,62.24672198295593,48.71],[-7.177214976400137,62.246826170012355,48.4],[-7.177247833460569,62.24692616611719,47.62],[-7.177288820967078,62.24702339619398,47.1],[-7.177325868979096,62.24711920134723,46.74],[-7.177331987768412,62.247212240472436,46.92],[-7.177166193723679,62.24726680666208,45.95],[-7.177006350830197,62.24733025766909,47.98],[-7.176828738301992,62.24739613942802,51.63],[-7.1767040155828,62.24746738560498,54.74],[-7.176641402766109,62.24754265509546,56.59],[-7.176705608144403,62.247618259862065,57.97],[-7.176658669486642,62.247715909034014,61.18],[-7.176588596776128,62.24779746495187,65.02],[-7.176494970917702,62.24788296036422,70.24],[-7.176422467455268,62.247966947034,72.51],[-7.176387934014201,62.24805026315153,74.5],[-7.176460772752762,62.24813902750611,79.03],[-7.176462365314364,62.24823508411646,82.34],[-7.176374020054936,62.24834069609642,84.41],[-7.176445182412863,62.24840180017054,85.32],[-7.176580131053925,62.248450415208936,86.67],[-7.176634529605508,62.24852476269007,89.97],[-7.176686748862267,62.248592991381884,92.63],[-7.176528498530388,62.248603384941816,94.76],[-7.176494551822543,62.24865987896919,97.84],[-7.17631945386529,62.248619729653,101.67],[-7.176154917106032,62.24862257950008,104.39],[-7.176116779446602,62.248695669695735,107.85],[-7.176243849098682,62.24874822422862,108.35],[-7.176381815224886,62.24880714900792,109.08],[-7.176545765250921,62.24883430637419,110.05],[-7.176692867651582,62.248893063515425,111.17],[-7.176836868748069,62.24895341321826,112.09],[-7.176946001127362,62.249015271663666,111.95],[-7.177127050235868,62.24903656169772,111.83],[-7.177321678027511,62.24906782619655,111.85],[-7.177500715479255,62.249112920835614,113.13],[-7.177667934447527,62.24917368963361,114.6],[-7.177683608606458,62.24927636794746,117.72],[-7.177795758470893,62.24934241734445,120.39],[-7.177937580272555,62.24939069710672,121.67],[-7.178046712651849,62.249490190297365,124.42],[-7.178143691271544,62.249584486708045,128.39],[-7.178317364305258,62.24965363740921,129.46],[-7.178479302674532,62.24971725605428,131.8],[-7.178594889119268,62.249790681526065,134.25],[-7.178731765598059,62.24985497072339,136.71],[-7.178864786401391,62.2499149851501,137.55],[-7.179028820246458,62.249977849423885,139.06],[-7.17916083522141,62.25005194544792,140.95],[-7.179239038378,62.25014850497246,143.17],[-7.179334005340934,62.25022469647229,145.2],[-7.179361414164305,62.25033039227128,148.54],[-7.179487645626068,62.25039644166827,150.08],[-7.179658887907863,62.250442542135715,150.86],[-7.179833399131894,62.25050389766693,151.49],[-7.180009922012687,62.25054589100182,151.67],[-7.180180074647069,62.250595008954406,152.22],[-7.180311838164926,62.25066206417978,152.06],[-7.180486684665084,62.250712271779776,152.74],[-7.180618615821004,62.250773878768086,152.97],[-7.180797820910811,62.25083188153803,153.61],[-7.180930757895112,62.25088678300381,154.12],[-7.181112561374903,62.25094637833536,153.7],[-7.18126050196588,62.251017205417156,154.35],[-7.181434342637658,62.251065485179424,154.51],[-7.18159519135952,62.25111527368426,155.2],[-7.181728044524789,62.25118844769895,156.85],[-7.181896436959505,62.25123337469995,156.23],[-7.182077569887042,62.251251731067896,156.31],[-7.18222551047802,62.251309817656875,155.72],[-7.182372780516744,62.251361198723316,157.06],[-7.182555086910725,62.25139749236405,157.38],[-7.18273856677115,62.25143504329026,157.02],[-7.182924812659621,62.251476030796766,157.03],[-7.183095803484321,62.251511653885245,156.53],[-7.183276684954763,62.25157585926354,156.5],[-7.183455722406507,62.25163436494768,155.59],[-7.183629479259253,62.25169722922146,156.54],[-7.183816395699978,62.25174944847822,158.14],[-7.18400121666491,62.25178456865251,161.45],[-7.184182265773416,62.25185011513531,162.88],[-7.18432224355638,62.251921528950334,165.06],[-7.184472950175405,62.2519766818732,167.46],[-7.184604629874229,62.25203954614699,171.04],[-7.184775872156024,62.252093106508255,173.61],[-7.1849100664258,62.252168292179704,175.73],[-7.185058426111937,62.252240711823106,178.52],[-7.185148531571031,62.25232595577836,181.37],[-7.185259675607085,62.25240181200206,184.57],[-7.185426894575357,62.252479093149304,187.67],[-7.185576595366001,62.25254690274596,188.13],[-7.185691175982356,62.25263181142509,191],[-7.185864765197039,62.252693669870496,194.88],[-7.185997953638434,62.25275888107717,198.89],[-7.186096273362637,62.252860721200705,201.45],[-7.186200711876154,62.25293096154928,204.08],[-7.186319567263126,62.25300187245011,207.34],[-7.186489636078477,62.253052834421396,208.77],[-7.186640594154596,62.253122655674815,210.47],[-7.186831366270781,62.25315861403942,210.64],[-7.187016606330872,62.25312693044543,210.66],[-7.187202768400312,62.25315995514393,209.84],[-7.187382392585278,62.25320102646947,209.91],[-7.187588335946202,62.25321519188583,208.91],[-7.187740132212639,62.25326254963875,208.02],[-7.187931071966887,62.25328744389117,210.88],[-7.188112875446677,62.253336645662785,210.55],[-7.18830406665802,62.25337008945644,211.03],[-7.188460556790233,62.253366485238075,211.03],[-7.188395177945495,62.25340940058231,213.46],[-7.188263079151511,62.253465140238404,216.56],[-7.188095608726144,62.2535153478384,220.72],[-7.187938112765551,62.25356278941035,222.63],[-7.187990164384246,62.253575110808015,225.35],[-7.187893269583583,62.2536416631192,230.48],[-7.187968119978905,62.253727577626705,235.79],[-7.187926629558206,62.253811648115516,242.1],[-7.187909279018641,62.25385137833655,244.06],[-7.188057890161872,62.25387937389314,245.63],[-7.188262240961194,62.253910806030035,246.58],[-7.18842719681561,62.25396788679063,249.28],[-7.188605898991227,62.25402890704572,252.01],[-7.188769681379199,62.254096465185285,254.02],[-7.188916532322764,62.25415061227977,257.87],[-7.189078638330102,62.25422512739897,260.43],[-7.18911568634212,62.25428824312985,264.59],[-7.188931033015251,62.25432428531349,268.08],[-7.188887698575854,62.25440005771816,271.13],[-7.188827516511083,62.25452478043735,272.88],[-7.188750822097063,62.254628129303455,274.83],[-7.188652083277702,62.25472720339894,276.25],[-7.188632553443313,62.254828875884414,278.42],[-7.188592068850994,62.25493800826371,282.05],[-7.188617214560509,62.25503440015018,283.92],[-7.188647137954831,62.25514789111912,287.25],[-7.188664823770523,62.25525023415685,289.35],[-7.18863733112812,62.25534704513848,291.27],[-7.18866029754281,62.25544628687203,292.33],[-7.188700111582875,62.25553915835917,293.36],[-7.188702374696732,62.25563085637987,296.9],[-7.18874042853713,62.255723141133785,299.67],[-7.188708493486047,62.25582053884864,302.69],[-7.188729867339134,62.25590259768069,305.37],[-7.188842855393887,62.25597065873444,308.23],[-7.188728861510754,62.25601298734546,310.81],[-7.188596511259675,62.25606646388769,313.54],[-7.188413785770536,62.25612890906632,316.76],[-7.18830892816186,62.256210716441274,319.64],[-7.188154701143503,62.2562594152987,322.95],[-7.187960240989924,62.25630769506097,324.89],[-7.187823196873069,62.256372570991516,326.41],[-7.187704760581255,62.25644884631038,327.48],[-7.187608620151877,62.25653937086463,327.76],[-7.187479035928845,62.25661598145962,328],[-7.187399072572589,62.256710613146424,329.36],[-7.187262279912829,62.256787307560444,329.76],[-7.187054995447397,62.25679895840585,331.02],[-7.186898337677121,62.256867438554764,332.62],[-7.186803789809346,62.25695243105292,333.74],[-7.186648389324546,62.257025269791484,335.6],[-7.186562223359942,62.257092325016856,336.69],[-7.186465663835406,62.25714471191168,337.23],[-7.186305401846767,62.25721159949899,338.52],[-7.186172800138593,62.25727907381952,339.29],[-7.186021003872156,62.25734814070165,341.1],[-7.185885636135936,62.257439168170094,343.82],[-7.185866944491863,62.25754142738879,346.35],[-7.18589074909687,62.257639495655894,349.82],[-7.185814473778009,62.25765542127192,353.53],[-7.185815814882517,62.257767571136355,356.43],[-7.185842553153634,62.25787133909762,358.98],[-7.185888737440109,62.25796412676573,361.9],[-7.185906171798706,62.25805993191898,364.83],[-7.185869039967656,62.258166801184416,368.49],[-7.185820508748293,62.25824827328324,372.45],[-7.185761164873838,62.2583522927016,375.09],[-7.1857148129493,62.25845128297806,378.37],[-7.185743311420083,62.25856192409992,380.27],[-7.185770301148295,62.25866166874766,382.15],[-7.185840541496873,62.258757054805756,383.9],[-7.185873817652464,62.25885093212128,386.72],[-7.185874572023749,62.25896115414798,390.08],[-7.185963336378336,62.259039944037795,392.49],[-7.186005413532257,62.25913901813328,395.1],[-7.185964426025748,62.25923951715231,397.54],[-7.185951685532928,62.25933029316366,399.47],[-7.185923354700208,62.25941637530923,401.67],[-7.185814054682851,62.25950052961707,403.86],[-7.185849761590362,62.2596010286361,404.94],[-7.185924025252461,62.25969976745546,406.22],[-7.185940369963646,62.25978157483041,408.36],[-7.185959480702877,62.25988894701004,412.44],[-7.185910949483514,62.25995541550219,413.8],[-7.185885468497872,62.26004250347614,415.36],[-7.185874152928591,62.260139901190996,417.16],[-7.185758063569665,62.26021399721503,419.29],[-7.185676423832774,62.260315753519535,420.99],[-7.185684470459819,62.26040703244507,421.75],[-7.185663348063827,62.26050493307412,422.37],[-7.185632921755314,62.26059596054256,422.88],[-7.185572991147637,62.260697800666094,422.93],[-7.185442401096225,62.260769214481115,423.05],[-7.18530435115099,62.260826379060745,423.61],[-7.185225477442145,62.260923609137535,424.37],[-7.185204774141312,62.26103039458394,425.57],[-7.185262441635132,62.26112167350948,425.32],[-7.185273254290223,62.26120976731181,426.24],[-7.18535321764648,62.2612982802093,427.52],[-7.185507109388709,62.26137103512883,430.79],[-7.185674663633108,62.26144538260996,432.64],[-7.185790333896875,62.261513443663716,434.92],[-7.185904076322913,62.26159441284835,438.74],[-7.186038522049785,62.26168108172715,441.2],[-7.186106247827411,62.261773869395256,443.62],[-7.186141284182668,62.26187277585268,445.32],[-7.186149833723903,62.26195919327438,447.62],[-7.186245303601027,62.262047873809934,449.95],[-7.186370110139251,62.26211207918823,450.25],[-7.18643506988883,62.26220302283764,450.5],[-7.186501622200012,62.26229438558221,450.76],[-7.186554847285152,62.26239304058254,451.96],[-7.186583848670125,62.26248742081225,452.93],[-7.186624752357602,62.26258557289839,453.03],[-7.186635481193662,62.26268640719354,454.09],[-7.186679653823376,62.26278145797551,455.47],[-7.186681916937232,62.26289050653577,456.3],[-7.186648976057768,62.26298505440354,457.24],[-7.186579657718539,62.26306711323559,458.68],[-7.186451833695173,62.26312846876681,461.72],[-7.186359632760286,62.26322100497782,461.93],[-7.186241950839758,62.26328982040286,462.73],[-7.186105577275157,62.26335955783725,464.57],[-7.186054112389684,62.26345435716212,465.54],[-7.185971550643444,62.26355519145727,466.75],[-7.185903573408723,62.26366306655109,465.99],[-7.185872895643115,62.263758620247245,466.21],[-7.185839535668492,62.26384637877345,466.75],[-7.185788825154305,62.263938495889306,468.11],[-7.185754710808396,62.264037150889635,468.24],[-7.185700898990035,62.26411937735975,469.18],[-7.185639459639788,62.26419028826058,470.78],[-7.185543654486537,62.264274107292295,471.86],[-7.18544315546751,62.26435440592468,473.06],[-7.185353301465511,62.264446187764406,474.26],[-7.185280378907919,62.26453981362283,475.2],[-7.18517099507153,62.26462036371231,476.36],[-7.185046523809433,62.26469764485955,478.43],[-7.184961782768369,62.26478582248092,480.68],[-7.184919370338321,62.26488648913801,481.09],[-7.184884501621127,62.26497860625386,480.29],[-7.184873102232814,62.26507424376905,480],[-7.184797078371048,62.265167785808444,480.33],[-7.184745110571384,62.26526920683682,480.95],[-7.18469406478107,62.26536610163748,481.94],[-7.184624830260873,62.26545847021043,482.62],[-7.184523493051529,62.265538265928626,483.48],[-7.184437997639179,62.26562552154064,485.28],[-7.184344539418817,62.265710765495896,487.13],[-7.184255858883262,62.265785448253155,488.25],[-7.184162819758058,62.26586868055165,489.29],[-7.184071205556393,62.265945710241795,489.43],[-7.184031391516328,62.26602911017835,490.54],[-7.183893173933029,62.26610152982175,491.23],[-7.183826873078942,62.26618945598602,492.48],[-7.183711873367429,62.266262294724584,494.15],[-7.1836200915277,62.26634334772825,494.56],[-7.183501236140728,62.26641358807683,496.24],[-7.183393025770783,62.2664859239012,497.84],[-7.183287162333727,62.266559014096856,499.65],[-7.183183394372463,62.266639061272144,500.84],[-7.183135952800512,62.266731513664126,502.14],[-7.183037381619215,62.26681851781905,502.92],[-7.182961022481322,62.266910886392,503.36],[-7.182950042188168,62.26701373234391,504.2],[-7.182924225926399,62.267108615487814,504.85],[-7.182859014719725,62.267198050394654,505.88],[-7.182838562875986,62.267281701788306,506.56],[-7.18278500251472,62.26737876422703,506.71],[-7.182760275900364,62.267469791695476,507.73],[-7.182745188474655,62.26755905896425,508.88],[-7.182753654196858,62.267662240192294,509.01],[-7.182736387476325,62.267745891585946,509.7],[-7.182666482403874,62.267836164683104,510.06],[-7.182602947577834,62.26791989989579,511.14],[-7.182602612301707,62.268012603744864,511.69],[-7.182581489905715,62.26811544969678,512.85],[-7.182569419965148,62.26821997202933,513.87],[-7.182576293125749,62.268329774960876,513.93],[-7.182527678087354,62.26841468364,515.34],[-7.182502616196871,62.26850286126137,515.86],[-7.182465568184853,62.268605874851346,515.74],[-7.182443272322416,62.26867192424834,516.82],[-7.182418629527092,62.268761191517115,517.69],[-7.182393399998546,62.26885146461427,518.53],[-7.182418378069997,62.2689398098737,518.45],[-7.182439835742116,62.26904047653079,518.79],[-7.182530611753464,62.26912211626768,518.89],[-7.182550728321075,62.269225465133786,520.61],[-7.182572856545448,62.2693319991231,521.72],[-7.182626584544778,62.2694300673902,522.16],[-7.182585932314396,62.26950550451875,525.03],[-7.182632200419903,62.26960533298552,524.22],[-7.182703614234924,62.26970348507166,523.32],[-7.182772597298026,62.26981052197516,523.08],[-7.182802772149444,62.26990783587098,522.67],[-7.182869408279657,62.27000556886196,522.44],[-7.182956915348768,62.2701105941087,522.18],[-7.183056827634573,62.27019558660686,521.49],[-7.183128576725721,62.27028946392238,521.11],[-7.183234104886651,62.270389292389154,520.56],[-7.183245923370123,62.27048669010401,521.05],[-7.183318007737398,62.27057654410601,521.17],[-7.183396127074957,62.27065734565258,521.22],[-7.183455722406507,62.27074728347361,520.47],[-7.183545827865601,62.2708445135504,519.15],[-7.183643560856581,62.27095289155841,519.99],[-7.183763841167092,62.2710398118943,519.54],[-7.183880433440208,62.271136958152056,519.19],[-7.18395528383553,62.271224381402135,518.46],[-7.184049412608147,62.27131054736674,518.49],[-7.18413750641048,62.27140777744353,517.83],[-7.184201627969742,62.271508779376745,517.8],[-7.184280082583427,62.27161346934736,518.14],[-7.184398099780083,62.27169670164585,518.63],[-7.184465155005455,62.271792674437165,519.15],[-7.184607228264213,62.271877164021134,518.3],[-7.184764975681901,62.27195947431028,518.66],[-7.18491543084383,62.27204371243715,519.15],[-7.185077788308263,62.272123005241156,518.21],[-7.185251042246819,62.27218620479107,517.28],[-7.185373585671186,62.27229475043714,518.63],[-7.185463355854154,62.27240161970258,519.23],[-7.18558045104146,62.27248426526785,518.45],[-7.185679776594043,62.2725747898221,518.07],[-7.185666868463159,62.272676043212414,518.56],[-7.185549773275852,62.27274770848453,518.18],[-7.185373920947313,62.27279447950423,516.42],[-7.185313906520605,62.27285231463611,514.15],[-7.185369813814759,62.27293613366783,511.87],[-7.185432091355324,62.27303629741073,510.67],[-7.185432342812419,62.27313822135329,509.09],[-7.1853884216398,62.27323402650654,507.29],[-7.185401413589716,62.273341566324234,506.4],[-7.185361180454493,62.273435946553946,505.41],[-7.185303345322609,62.273524878546596,504.39],[-7.185152135789394,62.27358774282038,502.41],[-7.185039315372706,62.273656222969294,498.99],[-7.184982821345329,62.273734929040074,496.17],[-7.18492423184216,62.27382570505142,495.32],[-7.184848710894585,62.27391094900668,494.06],[-7.184769250452519,62.273997366428375,493.15],[-7.184643689543009,62.274018907919526,490.6],[-7.184500358998776,62.27400055155158,488.26],[-7.18443313613534,62.27408931590617,487.31],[-7.184354094788432,62.27417388930917,485.31],[-7.184182852506638,62.27423407137394,483.01],[-7.184069780632854,62.274319902062416,481.6],[-7.183926114812493,62.274383353069425,480.14],[-7.183782532811165,62.274404894560575,477.97],[-7.183636017143726,62.274472368881106,476.17],[-7.183506181463599,62.27454059757292,474.47],[-7.183332592248917,62.274567587301135,471.82],[-7.183161852881312,62.27461385540664,468.58],[-7.182994382455945,62.27466934360564,465.69],[-7.18284560367465,62.274740003049374,462.91],[-7.182728257030249,62.27480923756957,461.2],[-7.182642761617899,62.27489481680095,461.13],[-7.182547627016902,62.27497888728976,460.22],[-7.182439165189862,62.27505499497056,458.2],[-7.182350233197212,62.27513420395553,458.2],[-7.182210590690374,62.27520301938057,457.54],[-7.182126939296722,62.275282898917794,457.84],[-7.181976567953825,62.27535615675151,457.34],[-7.181886630132794,62.27543913759291,456.09],[-7.181794680655003,62.2755313385278,454.91],[-7.181625701487064,62.27557308040559,452.38],[-7.181470468640328,62.27563418447971,451.12],[-7.181310961022973,62.275695875287056,449.74],[-7.181155728176236,62.27575127966702,448.57],[-7.181026814505458,62.27581875398755,447.7],[-7.180865965783596,62.2758593223989,446.02],[-7.18071810901165,62.27592478506267,445.41],[-7.180563462898135,62.27598446421325,444.2],[-7.180430106818676,62.276063337922096,443.79],[-7.180260960012674,62.276121005415916,441.89],[-7.180091142654419,62.27617741562426,440.7],[-7.179916799068451,62.276225946843624,439.73],[-7.179762655869126,62.27629015222192,438.56],[-7.179665258154273,62.27637665346265,438.57],[-7.179553024470806,62.276470363140106,439.41],[-7.179397707805038,62.27653490379453,438.67],[-7.179239373654127,62.276589553803205,437.81],[-7.17912713997066,62.276665661484,437.56],[-7.179022701457143,62.276747385039926,438.1],[-7.178860260173678,62.27680672891438,437.64],[-7.178764538839459,62.27688048966229,437.51],[-7.178627913817763,62.27693815715611,437.55],[-7.178522637113929,62.27701351046562,436.95],[-7.178406296297908,62.277095736935735,437.2],[-7.178290709853172,62.277177292853594,437.3],[-7.178160706534982,62.277251137420535,436.74],[-7.177984351292253,62.277316180989146,436.1],[-7.177838338539004,62.277391869574785,434.79],[-7.177699534222484,62.277459762990475,433.12],[-7.177539607509971,62.2775274887681,431.87],[-7.177461739629507,62.27761038579047,431.86],[-7.177357552573085,62.27768230251968,431.63],[-7.177211875095964,62.277741646394134,430.93],[-7.177091259509325,62.27781180292368,430.44],[-7.176931919530034,62.27783963084221,428.5],[-7.176749194040895,62.27786125615239,426.13],[-7.176588010042906,62.27789453230798,425.24],[-7.176401764154434,62.27789847180247,423.62],[-7.176274778321385,62.277968879789114,422.77],[-7.176139829680324,62.27803400717676,421.63],[-7.175974119454622,62.27807859890163,421.21],[-7.17580882832408,62.27812897413969,419.62],[-7.175718387588859,62.27820558473468,419.14],[-7.175539769232273,62.27817591279745,417.15],[-7.175352014601231,62.278182450681925,415.42],[-7.175156883895397,62.27819988504052,414.08],[-7.174984635785222,62.27824464440346,413.11],[-7.174826972186565,62.27831019088626,412.36],[-7.174663357436657,62.2783668525517,411.68],[-7.174544669687748,62.27843474596739,411.62],[-7.174432436004281,62.27851655334234,411.49],[-7.174323974177241,62.27859869599342,410.76],[-7.174157509580255,62.278642784804106,409.75],[-7.173975119367242,62.27867170237005,408.48],[-7.173849642276764,62.278740936890244,406.81],[-7.173706311732531,62.27880908176303,405.47],[-7.173610255122185,62.278890050947666,404.42],[-7.173496345058084,62.2789641469717,403.56],[-7.173329964280129,62.279019970446825,402.39],[-7.173147154971957,62.27904654107988,401.14],[-7.172956550493836,62.27907252497971,400.05],[-7.172755468636751,62.279115691781044,398.22],[-7.172576431185007,62.27916916832328,397.47],[-7.172489929944277,62.279258351773024,396.04],[-7.172472914680839,62.27935524657369,396.01],[-7.172330338507891,62.27941551245749,395.43],[-7.172177033498883,62.279480304569006,394.26],[-7.172034876421094,62.2795582562685,393.28],[-7.171839578077197,62.27960418909788,392.79],[-7.171618714928627,62.27961449883878,391.59],[-7.171438252553344,62.27965112775564,391.57],[-7.171293077990413,62.27967333979905,391.09],[-7.171132480725646,62.279721116647124,391.08],[-7.170950844883919,62.27974810637534,390.6],[-7.170775160193443,62.27979035116732,389.5],[-7.170619424432516,62.27985229343176,388.42],[-7.170494450256228,62.279907278716564,387.38],[-7.170395124703646,62.279973244294524,385.97],[-7.170376935973764,62.28005454875529,382.57],[-7.170219775289297,62.2801005654037,381.02],[-7.170070577412844,62.28016443550587,379.17],[-7.169921966269612,62.28022570721805,377.75],[-7.169826496392489,62.2803061734885,374.98],[-7.169762793928385,62.28038798086345,372.98],[-7.16964771039784,62.28046861477196,370.73],[-7.169506810605526,62.280534245073795,368.9],[-7.169337077066302,62.280592834576964,367.27],[-7.169147226959467,62.28061764501035,366.01],[-7.168978247791529,62.28068394586444,364.76],[-7.168865762650967,62.28076105937362,362.88],[-7.168697118759155,62.280813278630376,361.53],[-7.168517746031284,62.280880166217685,360.15],[-7.168328650295734,62.28091201744974,358.62],[-7.168167801573873,62.280970104038715,356.87],[-7.168004270642996,62.28102701716125,355.12],[-7.167827747762203,62.281060544773936,353.51],[-7.167681232094765,62.281122487038374,352.3],[-7.167538739740849,62.28118434548378,351.2],[-7.16737562790513,62.28124771267176,349.18],[-7.167218048125505,62.281304290518165,346.6],[-7.167090140283108,62.2813715133816,344.62],[-7.166931219398975,62.28140965104103,342.21],[-7.166790906339884,62.28147787973285,339.06],[-7.166622765362263,62.28152154944837,337.18],[-7.166520589962602,62.28160553611815,334.42],[-7.166367201134563,62.281666891649365,331.97],[-7.166255218908191,62.281738640740514,329.62],[-7.166094789281488,62.2817996609956,328.65],[-7.165956236422062,62.28186654858291,326.22],[-7.165851797908545,62.281942991539836,323.84],[-7.165689188987017,62.28200510144234,322.32],[-7.165496656671166,62.282046088948846,321.39],[-7.16530529782176,62.28208045475185,320.32],[-7.165153501555324,62.2821453306824,319.5],[-7.164973793551326,62.282197549939156,318.64],[-7.164788721129298,62.282239962369204,317.22],[-7.164621502161026,62.28230123408139,315.79],[-7.164441794157028,62.282359739765525,314.45],[-7.164279604330659,62.28242578916252,313.76],[-7.164236772805452,62.282516146078706,312.01],[-7.164123365655541,62.28259745053947,313.14],[-7.164192600175738,62.28264128789306,312.89],[-7.164089335128665,62.2826717980206,312.95],[-7.164005935192108,62.282758466899395,312.71],[-7.16385455802083,62.282833736389875,311.14],[-7.163745425641537,62.28291227482259,310.17],[-7.16362145729363,62.28298435918987,309.25],[-7.163495477288961,62.28306407108903,307.16],[-7.16334879398346,62.28313070721924,306.1],[-7.163196327164769,62.2831900510937,304.85],[-7.163046961650252,62.28325568139553,303.4],[-7.16291444376111,62.28332793340087,301.57],[-7.162831630557776,62.28340353816748,300.21],[-7.162726353853941,62.28348668664694,298.89],[-7.162605486810207,62.283561704680324,296.43],[-7.162509597837925,62.28365147486329,295.65],[-7.162423683330417,62.28373219259083,292.96],[-7.162342965602875,62.28380586951971,288.7],[-7.162221930921078,62.28384207934141,284.47],[-7.162120677530766,62.283883318305016,280.53],[-7.161991763859987,62.283944338560104,277.57],[-7.161880200728774,62.284026481211185,274.89],[-7.161809876561165,62.28411943651736,272.04],[-7.161786574870348,62.284216079860926,267.61],[-7.161687584593892,62.28429797105491,264.51],[-7.16151843778789,62.2843624278903,261.18],[-7.161361528560519,62.28442009538412,258.27],[-7.161246696487069,62.284490671008825,255.15],[-7.161074448376894,62.28454414755106,253],[-7.160971099510789,62.28461991995573,250.48],[-7.160817375406623,62.28467599488795,246.16],[-7.160639679059386,62.28465914726257,241.69],[-7.160432897508144,62.28463735431433,237.23],[-7.160231648012996,62.284637270495296,234.42],[-7.160056801512837,62.28466040454805,232.55],[-7.159928558394313,62.284731986001134,231.41],[-7.159874998033047,62.284823432564735,229.84],[-7.159729236736894,62.284880597144365,228.7],[-7.159612560644746,62.28495427407324,228.74],[-7.159513235092163,62.28501453995705,228.22],[-7.159389015287161,62.285088300704956,226.65],[-7.159245014190674,62.28514504618943,225.67],[-7.159079052507877,62.28519978001714,224.31],[-7.158908396959305,62.28526398539543,222.86],[-7.158771185204387,62.28533338755369,221.77],[-7.158584268763661,62.285381918773055,221.13],[-7.158428113907576,62.285458613187075,219.02],[-7.1582524292171,62.28551116771996,217.88],[-7.158085713163018,62.28555517271161,216.17],[-7.157964343205094,62.28560948744416,213.74],[-7.158033158630133,62.28568945080042,210.22],[-7.158092334866524,62.285734210163355,206.97],[-7.157907849177718,62.285770336166024,203.88],[-7.157805003225803,62.28586211800575,200.76],[-7.157677346840501,62.28581031784415,198.9],[-7.157553965225816,62.28573940694332,197.1],[-7.157425889745355,62.28567226789892,193.86],[-7.157307621091604,62.28565810248256,189.21],[-7.157184239476919,62.28567059151828,185.63],[-7.157077873125672,62.285586185753345,182.51],[-7.156886430457234,62.28560001589358,178.62],[-7.156765982508659,62.28567427955568,176.24],[-7.15657789260149,62.2856954857707,173.46],[-7.156395334750414,62.28573798201978,170.46],[-7.156200706958771,62.28577058762312,167.67],[-7.156076319515705,62.285818699747324,165.06],[-7.155999457463622,62.28588441386819,160.83],[-7.155839111655951,62.285844599828124,157.52],[-7.155729727819562,62.28586438111961,155.07],[-7.155569549649954,62.28586580604315,151.95],[-7.155401995405555,62.285923808813095,150.56],[-7.155245002359152,62.285979045554996,149],[-7.15508951805532,62.28594744578004,145.51],[-7.155006034299731,62.285909140482545,142.53],[-7.154887262731791,62.28585205972195,139.31],[-7.154898326843977,62.285759104415774,136.25],[-7.154785003513098,62.28570252656937,132.14],[-7.154676709324122,62.28561183437705,129.46],[-7.154543101787567,62.285638907924294,127.15],[-7.154522817581892,62.28572431951761,125.26],[-7.154394071549177,62.285789363086224,122.15],[-7.154290722683072,62.285776203498244,119.27],[-7.154194917529821,62.28582205250859,116.53],[-7.154158959165216,62.285910062491894,113.57],[-7.154142530634999,62.286002514883876,111.72],[-7.154110847041011,62.28608809411526,108.96],[-7.154023759067059,62.28617585264146,106.06],[-7.15379904024303,62.28617669083178,103.42],[-7.153605753555894,62.28617174550891,103.16],[-7.153504500165582,62.2862396389246,100.85],[-7.153302496299148,62.28623226284981,97.58],[-7.153196968138218,62.28630325756967,95.16],[-7.153092529624701,62.28638380765915,91.45],[-7.152949031442404,62.286439295858145,88.77],[-7.152897315099835,62.286526719108224,85.91],[-7.152738645672798,62.286584889516234,82.39],[-7.152580982074142,62.28662000969052,79.47],[-7.15250613167882,62.28669594973326,76.93],[-7.152356179431081,62.286727046594024,73.56],[-7.152273450046778,62.28676191531122,71.38],[-7.152223661541939,62.28682368993759,68.54],[-7.152046384289861,62.286776499822736,67.14],[-7.151994416490197,62.28681086562574,63.61],[-7.151951501145959,62.28687792085111,59.54],[-7.151838513091207,62.286930475384,56.48],[-7.151834489777684,62.28699954226613,54.02],[-7.151906657963991,62.287080427631736,53.6],[-7.152000702917576,62.287166425958276,52.01],[-7.151998104527593,62.28726231493056,50.2],[-7.152077732607722,62.2873464692384,48.75],[-7.152155349031091,62.2874328866601,46.86],[-7.152165742591023,62.28752139955759,46.22],[-7.152208406478167,62.28763757273555,44.62],[-7.152253752574325,62.28774963878095,43.81],[-7.152226511389017,62.28784427046776,42.59],[-7.15224863961339,62.287935549393296,41.55],[-7.152260290458798,62.28804619051516,40.33],[-7.152227768674493,62.2881337814033,39.69],[-7.152195330709219,62.28823729790747,38.66],[-7.152179153636098,62.28833880275488,39.08],[-7.152077564969659,62.288425639271736,39.06],[-7.152048479765654,62.28851582854986,37.44],[-7.151923421770334,62.28857626207173,34.8],[-7.151723429560661,62.288605347275734,30.77],[-7.151584457606077,62.28865748271346,28.52],[-7.151444312185049,62.288726633414626,25.83],[-7.151273405179381,62.28877600282431,23.48],[-7.151121608912945,62.28883191011846,20.42],[-7.150993868708611,62.288893684744835,17.42],[-7.150845760479569,62.28896300308406,14.27],[-7.150713661685586,62.28903718292713,12.23],[-7.150563793256879,62.28909283876419,9.24],[-7.150400094687939,62.28914933279157,7.23],[-7.150249052792788,62.289203479886055,5.71],[-7.15013287961483,62.28928000666201,4.4],[-7.14998091571033,62.28934597223997,3.09],[-7.149805314838886,62.28939685039222,2.28],[-7.149667767807841,62.28946155868471,2.45],[-7.149667767807841,62.28946155868471,2.45],[-7.149805314838886,62.28939685039222,2.28],[-7.14998091571033,62.28934597223997,3.09],[-7.15013287961483,62.28928000666201,4.4],[-7.150249052792788,62.289203479886055,5.71],[-7.150400094687939,62.28914933279157,7.23],[-7.150563793256879,62.28909283876419,9.24],[-7.150713661685586,62.28903718292713,12.23],[-7.150845760479569,62.28896300308406,14.27],[-7.150993868708611,62.288893684744835,17.42],[-7.151121608912945,62.28883191011846,20.42],[-7.151273405179381,62.28877600282431,23.48],[-7.151444312185049,62.288726633414626,25.83],[-7.151584457606077,62.28865748271346,28.52],[-7.151723429560661,62.288605347275734,30.77],[-7.151923421770334,62.28857626207173,34.8],[-7.152048479765654,62.28851582854986,37.44],[-7.152077564969659,62.288425639271736,39.06],[-7.152179153636098,62.28833880275488,39.08],[-7.152195330709219,62.28823729790747,38.66],[-7.152227768674493,62.2881337814033,39.69],[-7.152260290458798,62.28804619051516,40.33],[-7.15224863961339,62.287935549393296,41.55],[-7.152226511389017,62.28784427046776,42.59],[-7.152253752574325,62.28774963878095,43.81],[-7.152208406478167,62.28763757273555,44.62],[-7.152165742591023,62.28752139955759,46.22],[-7.152155349031091,62.2874328866601,46.86],[-7.152077732607722,62.2873464692384,48.75],[-7.151998104527593,62.28726231493056,50.2],[-7.152000702917576,62.287166425958276,52.01],[-7.151906657963991,62.287080427631736,53.6],[-7.151834489777684,62.28699954226613,54.02],[-7.151838513091207,62.286930475384,56.48],[-7.151951501145959,62.28687792085111,59.54],[-7.151994416490197,62.28681086562574,63.61],[-7.152046384289861,62.286776499822736,67.14],[-7.152223661541939,62.28682368993759,68.54],[-7.152273450046778,62.28676191531122,71.38],[-7.152356179431081,62.286727046594024,73.56],[-7.15250613167882,62.28669594973326,76.93],[-7.152580982074142,62.28662000969052,79.47],[-7.152738645672798,62.286584889516234,82.39],[-7.152897315099835,62.286526719108224,85.91],[-7.152949031442404,62.286439295858145,88.77],[-7.153092529624701,62.28638380765915,91.45],[-7.153196968138218,62.28630325756967,95.16],[-7.153302496299148,62.28623226284981,97.58],[-7.153504500165582,62.2862396389246,100.85],[-7.153605753555894,62.28617174550891,103.16],[-7.15379904024303,62.28617669083178,103.42],[-7.154023759067059,62.28617585264146,106.06],[-7.154110847041011,62.28608809411526,108.96],[-7.154142530634999,62.286002514883876,111.72],[-7.154158959165216,62.285910062491894,113.57],[-7.154194917529821,62.28582205250859,116.53],[-7.154290722683072,62.285776203498244,119.27],[-7.154394071549177,62.285789363086224,122.15],[-7.154522817581892,62.28572431951761,125.26],[-7.154543101787567,62.285638907924294,127.15],[-7.154676709324122,62.28561183437705,129.46],[-7.154785003513098,62.28570252656937,132.14],[-7.154898326843977,62.285759104415774,136.25],[-7.154887262731791,62.28585205972195,139.31],[-7.155006034299731,62.285909140482545,142.53],[-7.15508951805532,62.28594744578004,145.51],[-7.155245002359152,62.285979045554996,149],[-7.155401995405555,62.285923808813095,150.56],[-7.155569549649954,62.28586580604315,151.95],[-7.155729727819562,62.28586438111961,155.07],[-7.155839111655951,62.285844599828124,157.52],[-7.155999457463622,62.28588441386819,160.83],[-7.156076319515705,62.285818699747324,165.06],[-7.156200706958771,62.28577058762312,167.67],[-7.156395334750414,62.28573798201978,170.46],[-7.15657789260149,62.2856954857707,173.46],[-7.156765982508659,62.28567427955568,176.24],[-7.156886430457234,62.28560001589358,178.62],[-7.157077873125672,62.285586185753345,182.51],[-7.157184239476919,62.28567059151828,185.63],[-7.157307621091604,62.28565810248256,189.21],[-7.157425889745355,62.28567226789892,193.86],[-7.157553965225816,62.28573940694332,197.1],[-7.157677346840501,62.28581031784415,198.9],[-7.157805003225803,62.28586211800575,200.76],[-7.157907849177718,62.285770336166024,203.88],[-7.158092334866524,62.285734210163355,206.97],[-7.158033158630133,62.28568945080042,210.22],[-7.157964343205094,62.28560948744416,213.74],[-7.158085713163018,62.28555517271161,216.17],[-7.1582524292171,62.28551116771996,217.88],[-7.158428113907576,62.285458613187075,219.02],[-7.158584268763661,62.285381918773055,221.13],[-7.158771185204387,62.28533338755369,221.77],[-7.158908396959305,62.28526398539543,222.86],[-7.159079052507877,62.28519978001714,224.31],[-7.159245014190674,62.28514504618943,225.67],[-7.159389015287161,62.285088300704956,226.65],[-7.159513235092163,62.28501453995705,228.22],[-7.159612560644746,62.28495427407324,228.74],[-7.159729236736894,62.284880597144365,228.7],[-7.159874998033047,62.284823432564735,229.84],[-7.159928558394313,62.284731986001134,231.41],[-7.160056801512837,62.28466040454805,232.55],[-7.160231648012996,62.284637270495296,234.42],[-7.160432897508144,62.28463735431433,237.23],[-7.160639679059386,62.28465914726257,241.69],[-7.160817375406623,62.28467599488795,246.16],[-7.160971099510789,62.28461991995573,250.48],[-7.161074448376894,62.28454414755106,253],[-7.161246696487069,62.284490671008825,255.15],[-7.161361528560519,62.28442009538412,258.27],[-7.16151843778789,62.2843624278903,261.18],[-7.161687584593892,62.28429797105491,264.51],[-7.161786574870348,62.284216079860926,267.61],[-7.161809876561165,62.28411943651736,272.04],[-7.161880200728774,62.284026481211185,274.89],[-7.161991763859987,62.283944338560104,277.57],[-7.162120677530766,62.283883318305016,280.53],[-7.162221930921078,62.28384207934141,284.47],[-7.162342965602875,62.28380586951971,288.7],[-7.162423683330417,62.28373219259083,292.96],[-7.162509597837925,62.28365147486329,295.65],[-7.162605486810207,62.283561704680324,296.43],[-7.162726353853941,62.28348668664694,298.89],[-7.162831630557776,62.28340353816748,300.21],[-7.16291444376111,62.28332793340087,301.57],[-7.163046961650252,62.28325568139553,303.4],[-7.163196327164769,62.2831900510937,304.85],[-7.16334879398346,62.28313070721924,306.1],[-7.163495477288961,62.28306407108903,307.16],[-7.16362145729363,62.28298435918987,309.25],[-7.163745425641537,62.28291227482259,310.17],[-7.16385455802083,62.282833736389875,311.14],[-7.164005935192108,62.282758466899395,312.71],[-7.164089335128665,62.2826717980206,312.95],[-7.164192600175738,62.28264128789306,312.89],[-7.164123365655541,62.28259745053947,313.14],[-7.164236772805452,62.282516146078706,312.01],[-7.164279604330659,62.28242578916252,313.76],[-7.164441794157028,62.282359739765525,314.45],[-7.164621502161026,62.28230123408139,315.79],[-7.164788721129298,62.282239962369204,317.22],[-7.164973793551326,62.282197549939156,318.64],[-7.165153501555324,62.2821453306824,319.5],[-7.16530529782176,62.28208045475185,320.32],[-7.165496656671166,62.282046088948846,321.39],[-7.165689188987017,62.28200510144234,322.32],[-7.165851797908545,62.281942991539836,323.84],[-7.165956236422062,62.28186654858291,326.22],[-7.166094789281488,62.2817996609956,328.65],[-7.166255218908191,62.281738640740514,329.62],[-7.166367201134563,62.281666891649365,331.97],[-7.166520589962602,62.28160553611815,334.42],[-7.166622765362263,62.28152154944837,337.18],[-7.166790906339884,62.28147787973285,339.06],[-7.166931219398975,62.28140965104103,342.21],[-7.167090140283108,62.2813715133816,344.62],[-7.167218048125505,62.281304290518165,346.6],[-7.16737562790513,62.28124771267176,349.18],[-7.167538739740849,62.28118434548378,351.2],[-7.167681232094765,62.281122487038374,352.3],[-7.167827747762203,62.281060544773936,353.51],[-7.168004270642996,62.28102701716125,355.12],[-7.168167801573873,62.280970104038715,356.87],[-7.168328650295734,62.28091201744974,358.62],[-7.168517746031284,62.280880166217685,360.15],[-7.168697118759155,62.280813278630376,361.53],[-7.168865762650967,62.28076105937362,362.88],[-7.168978247791529,62.28068394586444,364.76],[-7.169147226959467,62.28061764501035,366.01],[-7.169337077066302,62.280592834576964,367.27],[-7.169506810605526,62.280534245073795,368.9],[-7.16964771039784,62.28046861477196,370.73],[-7.169762793928385,62.28038798086345,372.98],[-7.169826496392489,62.2803061734885,374.98],[-7.169921966269612,62.28022570721805,377.75],[-7.170070577412844,62.28016443550587,379.17],[-7.170219775289297,62.2801005654037,381.02],[-7.170376935973764,62.28005454875529,382.57],[-7.170395124703646,62.279973244294524,385.97],[-7.170494450256228,62.279907278716564,387.38],[-7.170619424432516,62.27985229343176,388.42],[-7.170775160193443,62.27979035116732,389.5],[-7.170950844883919,62.27974810637534,390.6],[-7.171132480725646,62.279721116647124,391.08],[-7.171293077990413,62.27967333979905,391.09],[-7.171438252553344,62.27965112775564,391.57],[-7.171618714928627,62.27961449883878,391.59],[-7.171839578077197,62.27960418909788,392.79],[-7.172034876421094,62.2795582562685,393.28],[-7.172177033498883,62.279480304569006,394.26],[-7.172330338507891,62.27941551245749,395.43],[-7.172472914680839,62.27935524657369,396.01],[-7.172489929944277,62.279258351773024,396.04],[-7.172576431185007,62.27916916832328,397.47],[-7.172755468636751,62.279115691781044,398.22],[-7.172956550493836,62.27907252497971,400.05],[-7.173147154971957,62.27904654107988,401.14],[-7.173329964280129,62.279019970446825,402.39],[-7.173496345058084,62.2789641469717,403.56],[-7.173610255122185,62.278890050947666,404.42],[-7.173706311732531,62.27880908176303,405.47],[-7.173849642276764,62.278740936890244,406.81],[-7.173975119367242,62.27867170237005,408.48],[-7.174157509580255,62.278642784804106,409.75],[-7.174323974177241,62.27859869599342,410.76],[-7.174432436004281,62.27851655334234,411.49],[-7.174544669687748,62.27843474596739,411.62],[-7.174663357436657,62.2783668525517,411.68],[-7.174826972186565,62.27831019088626,412.36],[-7.174984635785222,62.27824464440346,413.11],[-7.175156883895397,62.27819988504052,414.08],[-7.175352014601231,62.278182450681925,415.42],[-7.175539769232273,62.27817591279745,417.15],[-7.175718387588859,62.27820558473468,419.14],[-7.17580882832408,62.27812897413969,419.62],[-7.175974119454622,62.27807859890163,421.21],[-7.176139829680324,62.27803400717676,421.63],[-7.176274778321385,62.277968879789114,422.77],[-7.176401764154434,62.27789847180247,423.62],[-7.176588010042906,62.27789453230798,425.24],[-7.176749194040895,62.27786125615239,426.13],[-7.176931919530034,62.27783963084221,428.5],[-7.177091259509325,62.27781180292368,430.44],[-7.177211875095964,62.277741646394134,430.93],[-7.177357552573085,62.27768230251968,431.63],[-7.177461739629507,62.27761038579047,431.86],[-7.177539607509971,62.2775274887681,431.87],[-7.177699534222484,62.277459762990475,433.12],[-7.177838338539004,62.277391869574785,434.79],[-7.177984351292253,62.277316180989146,436.1],[-7.178160706534982,62.277251137420535,436.74],[-7.178290709853172,62.277177292853594,437.3],[-7.178406296297908,62.277095736935735,437.2],[-7.178522637113929,62.27701351046562,436.95],[-7.178627913817763,62.27693815715611,437.55],[-7.178764538839459,62.27688048966229,437.51],[-7.178860260173678,62.27680672891438,437.64],[-7.179022701457143,62.276747385039926,438.1],[-7.17912713997066,62.276665661484,437.56],[-7.179239373654127,62.276589553803205,437.81],[-7.179397707805038,62.27653490379453,438.67],[-7.179553024470806,62.276470363140106,439.41],[-7.179665258154273,62.27637665346265,438.57],[-7.179762655869126,62.27629015222192,438.56],[-7.179916799068451,62.276225946843624,439.73],[-7.180091142654419,62.27617741562426,440.7],[-7.180260960012674,62.276121005415916,441.89],[-7.180430106818676,62.276063337922096,443.79],[-7.180563462898135,62.27598446421325,444.2],[-7.18071810901165,62.27592478506267,445.41],[-7.180865965783596,62.2758593223989,446.02],[-7.181026814505458,62.27581875398755,447.7],[-7.181155728176236,62.27575127966702,448.57],[-7.181310961022973,62.275695875287056,449.74],[-7.181470468640328,62.27563418447971,451.12],[-7.181625701487064,62.27557308040559,452.38],[-7.181794680655003,62.2755313385278,454.91],[-7.181886630132794,62.27543913759291,456.09],[-7.181976567953825,62.27535615675151,457.34],[-7.182126939296722,62.275282898917794,457.84],[-7.182210590690374,62.27520301938057,457.54],[-7.182350233197212,62.27513420395553,458.2],[-7.182439165189862,62.27505499497056,458.2],[-7.182547627016902,62.27497888728976,460.22],[-7.182642761617899,62.27489481680095,461.13],[-7.182728257030249,62.27480923756957,461.2],[-7.18284560367465,62.274740003049374,462.91],[-7.182994382455945,62.27466934360564,465.69],[-7.183161852881312,62.27461385540664,468.58],[-7.183332592248917,62.274567587301135,471.82],[-7.183506181463599,62.27454059757292,474.47],[-7.183636017143726,62.274472368881106,476.17],[-7.183782532811165,62.274404894560575,477.97],[-7.183926114812493,62.274383353069425,480.14],[-7.184069780632854,62.274319902062416,481.6],[-7.184182852506638,62.27423407137394,483.01],[-7.184354094788432,62.27417388930917,485.31],[-7.18443313613534,62.27408931590617,487.31],[-7.184500358998776,62.27400055155158,488.26],[-7.184643689543009,62.274018907919526,490.6],[-7.184769250452519,62.273997366428375,493.15],[-7.184848710894585,62.27391094900668,494.06],[-7.18492423184216,62.27382570505142,495.32],[-7.184982821345329,62.273734929040074,496.17],[-7.185039315372706,62.273656222969294,498.99],[-7.185152135789394,62.27358774282038,502.41],[-7.185303345322609,62.273524878546596,504.39],[-7.185361180454493,62.273435946553946,505.41],[-7.185401413589716,62.273341566324234,506.4],[-7.1853884216398,62.27323402650654,507.29],[-7.185432342812419,62.27313822135329,509.09],[-7.185432091355324,62.27303629741073,510.67],[-7.185369813814759,62.27293613366783,511.87],[-7.185313906520605,62.27285231463611,514.15],[-7.185373920947313,62.27279447950423,516.42],[-7.185549773275852,62.27274770848453,518.18],[-7.185666868463159,62.272676043212414,518.56],[-7.185679776594043,62.2725747898221,518.07],[-7.18558045104146,62.27248426526785,518.45],[-7.185463355854154,62.27240161970258,519.23],[-7.185373585671186,62.27229475043714,518.63],[-7.185251042246819,62.27218620479107,517.28],[-7.185077788308263,62.272123005241156,518.21],[-7.18491543084383,62.27204371243715,519.15],[-7.184764975681901,62.27195947431028,518.66],[-7.184607228264213,62.271877164021134,518.3],[-7.184465155005455,62.271792674437165,519.15],[-7.184398099780083,62.27169670164585,518.63],[-7.184280082583427,62.27161346934736,518.14],[-7.184201627969742,62.271508779376745,517.8],[-7.18413750641048,62.27140777744353,517.83],[-7.184049412608147,62.27131054736674,518.49],[-7.18395528383553,62.271224381402135,518.46],[-7.183880433440208,62.271136958152056,519.19],[-7.183763841167092,62.2710398118943,519.54],[-7.183643560856581,62.27095289155841,519.99],[-7.183545827865601,62.2708445135504,519.15],[-7.183455722406507,62.27074728347361,520.47],[-7.183396127074957,62.27065734565258,521.22],[-7.183318007737398,62.27057654410601,521.17],[-7.183245923370123,62.27048669010401,521.05],[-7.183234104886651,62.270389292389154,520.56],[-7.183128576725721,62.27028946392238,521.11],[-7.183056827634573,62.27019558660686,521.49],[-7.182956915348768,62.2701105941087,522.18],[-7.182869408279657,62.27000556886196,522.44],[-7.182802772149444,62.26990783587098,522.67],[-7.182772597298026,62.26981052197516,523.08],[-7.182703614234924,62.26970348507166,523.32],[-7.182632200419903,62.26960533298552,524.22],[-7.182585932314396,62.26950550451875,525.03],[-7.182626584544778,62.2694300673902,522.16],[-7.182572856545448,62.2693319991231,521.72],[-7.182550728321075,62.269225465133786,520.61],[-7.182530611753464,62.26912211626768,518.89],[-7.182439835742116,62.26904047653079,518.79],[-7.182418378069997,62.2689398098737,518.45],[-7.182393399998546,62.26885146461427,518.53],[-7.182418629527092,62.268761191517115,517.69],[-7.182443272322416,62.26867192424834,516.82],[-7.182465568184853,62.268605874851346,515.74],[-7.182502616196871,62.26850286126137,515.86],[-7.182527678087354,62.26841468364,515.34],[-7.182576293125749,62.268329774960876,513.93],[-7.182569419965148,62.26821997202933,513.87],[-7.182581489905715,62.26811544969678,512.85],[-7.182602612301707,62.268012603744864,511.69],[-7.182602947577834,62.26791989989579,511.14],[-7.182666482403874,62.267836164683104,510.06],[-7.182736387476325,62.267745891585946,509.7],[-7.182753654196858,62.267662240192294,509.01],[-7.182745188474655,62.26755905896425,508.88],[-7.182760275900364,62.267469791695476,507.73],[-7.18278500251472,62.26737876422703,506.71],[-7.182838562875986,62.267281701788306,506.56],[-7.182859014719725,62.267198050394654,505.88],[-7.182924225926399,62.267108615487814,504.85],[-7.182950042188168,62.26701373234391,504.2],[-7.182961022481322,62.266910886392,503.36],[-7.183037381619215,62.26681851781905,502.92],[-7.183135952800512,62.266731513664126,502.14],[-7.183183394372463,62.266639061272144,500.84],[-7.183287162333727,62.266559014096856,499.65],[-7.183393025770783,62.2664859239012,497.84],[-7.183501236140728,62.26641358807683,496.24],[-7.1836200915277,62.26634334772825,494.56],[-7.183711873367429,62.266262294724584,494.15],[-7.183826873078942,62.26618945598602,492.48],[-7.183893173933029,62.26610152982175,491.23],[-7.184031391516328,62.26602911017835,490.54],[-7.184071205556393,62.265945710241795,489.43],[-7.184162819758058,62.26586868055165,489.29],[-7.184255858883262,62.265785448253155,488.25],[-7.184344539418817,62.265710765495896,487.13],[-7.184437997639179,62.26562552154064,485.28],[-7.184523493051529,62.265538265928626,483.48],[-7.184624830260873,62.26545847021043,482.62],[-7.18469406478107,62.26536610163748,481.94],[-7.184745110571384,62.26526920683682,480.95],[-7.184797078371048,62.265167785808444,480.33],[-7.184873102232814,62.26507424376905,480],[-7.184884501621127,62.26497860625386,480.29],[-7.184919370338321,62.26488648913801,481.09],[-7.184961782768369,62.26478582248092,480.68],[-7.185046523809433,62.26469764485955,478.43],[-7.18517099507153,62.26462036371231,476.36],[-7.185280378907919,62.26453981362283,475.2],[-7.185353301465511,62.264446187764406,474.26],[-7.18544315546751,62.26435440592468,473.06],[-7.185543654486537,62.264274107292295,471.86],[-7.185639459639788,62.26419028826058,470.78],[-7.185700898990035,62.26411937735975,469.18],[-7.185754710808396,62.264037150889635,468.24],[-7.185788825154305,62.263938495889306,468.11],[-7.185839535668492,62.26384637877345,466.75],[-7.185872895643115,62.263758620247245,466.21],[-7.185903573408723,62.26366306655109,465.99],[-7.185971550643444,62.26355519145727,466.75],[-7.186054112389684,62.26345435716212,465.54],[-7.186105577275157,62.26335955783725,464.57],[-7.186241950839758,62.26328982040286,462.73],[-7.186359632760286,62.26322100497782,461.93],[-7.186451833695173,62.26312846876681,461.72],[-7.186579657718539,62.26306711323559,458.68],[-7.186648976057768,62.26298505440354,457.24],[-7.186681916937232,62.26289050653577,456.3],[-7.186679653823376,62.26278145797551,455.47],[-7.186635481193662,62.26268640719354,454.09],[-7.186624752357602,62.26258557289839,453.03],[-7.186583848670125,62.26248742081225,452.93],[-7.186554847285152,62.26239304058254,451.96],[-7.186501622200012,62.26229438558221,450.76],[-7.18643506988883,62.26220302283764,450.5],[-7.186370110139251,62.26211207918823,450.25],[-7.186245303601027,62.262047873809934,449.95],[-7.186149833723903,62.26195919327438,447.62],[-7.186141284182668,62.26187277585268,445.32],[-7.186106247827411,62.261773869395256,443.62],[-7.186038522049785,62.26168108172715,441.2],[-7.185904076322913,62.26159441284835,438.74],[-7.185790333896875,62.261513443663716,434.92],[-7.185674663633108,62.26144538260996,432.64],[-7.185507109388709,62.26137103512883,430.79],[-7.18535321764648,62.2612982802093,427.52],[-7.185273254290223,62.26120976731181,426.24],[-7.185262441635132,62.26112167350948,425.32],[-7.185204774141312,62.26103039458394,425.57],[-7.185225477442145,62.260923609137535,424.37],[-7.18530435115099,62.260826379060745,423.61],[-7.185442401096225,62.260769214481115,423.05],[-7.185572991147637,62.260697800666094,422.93],[-7.185632921755314,62.26059596054256,422.88],[-7.185663348063827,62.26050493307412,422.37],[-7.185684470459819,62.26040703244507,421.75],[-7.185676423832774,62.260315753519535,420.99],[-7.185758063569665,62.26021399721503,419.29],[-7.185874152928591,62.260139901190996,417.16],[-7.185885468497872,62.26004250347614,415.36],[-7.185910949483514,62.25995541550219,413.8],[-7.185959480702877,62.25988894701004,412.44],[-7.185940369963646,62.25978157483041,408.36],[-7.185924025252461,62.25969976745546,406.22],[-7.185849761590362,62.2596010286361,404.94],[-7.185814054682851,62.25950052961707,403.86],[-7.185923354700208,62.25941637530923,401.67],[-7.185951685532928,62.25933029316366,399.47],[-7.185964426025748,62.25923951715231,397.54],[-7.186005413532257,62.25913901813328,395.1],[-7.185963336378336,62.259039944037795,392.49],[-7.185874572023749,62.25896115414798,390.08],[-7.185873817652464,62.25885093212128,386.72],[-7.185840541496873,62.258757054805756,383.9],[-7.185770301148295,62.25866166874766,382.15],[-7.185743311420083,62.25856192409992,380.27],[-7.1857148129493,62.25845128297806,378.37],[-7.185761164873838,62.2583522927016,375.09],[-7.185820508748293,62.25824827328324,372.45],[-7.185869039967656,62.258166801184416,368.49],[-7.185906171798706,62.25805993191898,364.83],[-7.185888737440109,62.25796412676573,361.9],[-7.185842553153634,62.25787133909762,358.98],[-7.185815814882517,62.257767571136355,356.43],[-7.185814473778009,62.25765542127192,353.53],[-7.18589074909687,62.257639495655894,349.82],[-7.185866944491863,62.25754142738879,346.35],[-7.185885636135936,62.257439168170094,343.82],[-7.186021003872156,62.25734814070165,341.1],[-7.186172800138593,62.25727907381952,339.29],[-7.186305401846767,62.25721159949899,338.52],[-7.186465663835406,62.25714471191168,337.23],[-7.186562223359942,62.257092325016856,336.69],[-7.186648389324546,62.257025269791484,335.6],[-7.186803789809346,62.25695243105292,333.74],[-7.186898337677121,62.256867438554764,332.62],[-7.187054995447397,62.25679895840585,331.02],[-7.187262279912829,62.256787307560444,329.76],[-7.187399072572589,62.256710613146424,329.36],[-7.187479035928845,62.25661598145962,328],[-7.187608620151877,62.25653937086463,327.76],[-7.187704760581255,62.25644884631038,327.48],[-7.187823196873069,62.256372570991516,326.41],[-7.187960240989924,62.25630769506097,324.89],[-7.188154701143503,62.2562594152987,322.95],[-7.18830892816186,62.256210716441274,319.64],[-7.188413785770536,62.25612890906632,316.76],[-7.188596511259675,62.25606646388769,313.54],[-7.188728861510754,62.25601298734546,310.81],[-7.188842855393887,62.25597065873444,308.23],[-7.188729867339134,62.25590259768069,305.37],[-7.188708493486047,62.25582053884864,302.69],[-7.18874042853713,62.255723141133785,299.67],[-7.188702374696732,62.25563085637987,296.9],[-7.188700111582875,62.25553915835917,293.36],[-7.18866029754281,62.25544628687203,292.33],[-7.18863733112812,62.25534704513848,291.27],[-7.188664823770523,62.25525023415685,289.35],[-7.188647137954831,62.25514789111912,287.25],[-7.188617214560509,62.25503440015018,283.92],[-7.188592068850994,62.25493800826371,282.05],[-7.188632553443313,62.254828875884414,278.42],[-7.188652083277702,62.25472720339894,276.25],[-7.188750822097063,62.254628129303455,274.83],[-7.188827516511083,62.25452478043735,272.88],[-7.188887698575854,62.25440005771816,271.13],[-7.188931033015251,62.25432428531349,268.08],[-7.18911568634212,62.25428824312985,264.59],[-7.189078638330102,62.25422512739897,260.43],[-7.188916532322764,62.25415061227977,257.87],[-7.188769681379199,62.254096465185285,254.02],[-7.188605898991227,62.25402890704572,252.01],[-7.18842719681561,62.25396788679063,249.28],[-7.188262240961194,62.253910806030035,246.58],[-7.188057890161872,62.25387937389314,245.63],[-7.187909279018641,62.25385137833655,244.06],[-7.187926629558206,62.253811648115516,242.1],[-7.187968119978905,62.253727577626705,235.79],[-7.187893269583583,62.2536416631192,230.48],[-7.187990164384246,62.253575110808015,225.35],[-7.187938112765551,62.25356278941035,222.63],[-7.188095608726144,62.2535153478384,220.72],[-7.188263079151511,62.253465140238404,216.56],[-7.188395177945495,62.25340940058231,213.46],[-7.188460556790233,62.253366485238075,211.03],[-7.18830406665802,62.25337008945644,211.03],[-7.188112875446677,62.253336645662785,210.55],[-7.187931071966887,62.25328744389117,210.88],[-7.187740132212639,62.25326254963875,208.02],[-7.187588335946202,62.25321519188583,208.91],[-7.187382392585278,62.25320102646947,209.91],[-7.187202768400312,62.25315995514393,209.84],[-7.187016606330872,62.25312693044543,210.66],[-7.186831366270781,62.25315861403942,210.64],[-7.186640594154596,62.253122655674815,210.47],[-7.186489636078477,62.253052834421396,208.77],[-7.186319567263126,62.25300187245011,207.34],[-7.186200711876154,62.25293096154928,204.08],[-7.186096273362637,62.252860721200705,201.45],[-7.185997953638434,62.25275888107717,198.89],[-7.185864765197039,62.252693669870496,194.88],[-7.185691175982356,62.25263181142509,191],[-7.185576595366001,62.25254690274596,188.13],[-7.185426894575357,62.252479093149304,187.67],[-7.185259675607085,62.25240181200206,184.57],[-7.185148531571031,62.25232595577836,181.37],[-7.185058426111937,62.252240711823106,178.52],[-7.1849100664258,62.252168292179704,175.73],[-7.184775872156024,62.252093106508255,173.61],[-7.184604629874229,62.25203954614699,171.04],[-7.184472950175405,62.2519766818732,167.46],[-7.18432224355638,62.251921528950334,165.06],[-7.184182265773416,62.25185011513531,162.88],[-7.18400121666491,62.25178456865251,161.45],[-7.183816395699978,62.25174944847822,158.14],[-7.183629479259253,62.25169722922146,156.54],[-7.183455722406507,62.25163436494768,155.59],[-7.183276684954763,62.25157585926354,156.5],[-7.183095803484321,62.251511653885245,156.53],[-7.182924812659621,62.251476030796766,157.03],[-7.18273856677115,62.25143504329026,157.02],[-7.182555086910725,62.25139749236405,157.38],[-7.182372780516744,62.251361198723316,157.06],[-7.18222551047802,62.251309817656875,155.72],[-7.182077569887042,62.251251731067896,156.31],[-7.181896436959505,62.25123337469995,156.23],[-7.181728044524789,62.25118844769895,156.85],[-7.18159519135952,62.25111527368426,155.2],[-7.181434342637658,62.251065485179424,154.51],[-7.18126050196588,62.251017205417156,154.35],[-7.181112561374903,62.25094637833536,153.7],[-7.180930757895112,62.25088678300381,154.12],[-7.180797820910811,62.25083188153803,153.61],[-7.180618615821004,62.250773878768086,152.97],[-7.180486684665084,62.250712271779776,152.74],[-7.180311838164926,62.25066206417978,152.06],[-7.180180074647069,62.250595008954406,152.22],[-7.180009922012687,62.25054589100182,151.67],[-7.179833399131894,62.25050389766693,151.49],[-7.179658887907863,62.250442542135715,150.86],[-7.179487645626068,62.25039644166827,150.08],[-7.179361414164305,62.25033039227128,148.54],[-7.179334005340934,62.25022469647229,145.2],[-7.179239038378,62.25014850497246,143.17],[-7.17916083522141,62.25005194544792,140.95],[-7.179028820246458,62.249977849423885,139.06],[-7.178864786401391,62.2499149851501,137.55],[-7.178731765598059,62.24985497072339,136.71],[-7.178594889119268,62.249790681526065,134.25],[-7.178479302674532,62.24971725605428,131.8],[-7.178317364305258,62.24965363740921,129.46],[-7.178143691271544,62.249584486708045,128.39],[-7.178046712651849,62.249490190297365,124.42],[-7.177937580272555,62.24939069710672,121.67],[-7.177795758470893,62.24934241734445,120.39],[-7.177683608606458,62.24927636794746,117.72],[-7.177667934447527,62.24917368963361,114.6],[-7.177500715479255,62.249112920835614,113.13],[-7.177321678027511,62.24906782619655,111.85],[-7.177127050235868,62.24903656169772,111.83],[-7.176946001127362,62.249015271663666,111.95],[-7.176836868748069,62.24895341321826,112.09],[-7.176692867651582,62.248893063515425,111.17],[-7.176545765250921,62.24883430637419,110.05],[-7.176381815224886,62.24880714900792,109.08],[-7.176243849098682,62.24874822422862,108.35],[-7.176116779446602,62.248695669695735,107.85],[-7.176154917106032,62.24862257950008,104.39],[-7.17631945386529,62.248619729653,101.67],[-7.176494551822543,62.24865987896919,97.84],[-7.176528498530388,62.248603384941816,94.76],[-7.176686748862267,62.248592991381884,92.63],[-7.176634529605508,62.24852476269007,89.97],[-7.176580131053925,62.248450415208936,86.67],[-7.176445182412863,62.24840180017054,85.32],[-7.176374020054936,62.24834069609642,84.41],[-7.176462365314364,62.24823508411646,82.34],[-7.176460772752762,62.24813902750611,79.03],[-7.176387934014201,62.24805026315153,74.5],[-7.176422467455268,62.247966947034,72.51],[-7.176494970917702,62.24788296036422,70.24],[-7.176588596776128,62.24779746495187,65.02],[-7.176658669486642,62.247715909034014,61.18],[-7.176705608144403,62.247618259862065,57.97],[-7.176641402766109,62.24754265509546,56.59],[-7.1767040155828,62.24746738560498,54.74],[-7.176828738301992,62.24739613942802,51.63],[-7.177006350830197,62.24733025766909,47.98],[-7.177166193723679,62.24726680666208,45.95],[-7.177331987768412,62.247212240472436,46.92],[-7.177325868979096,62.24711920134723,46.74],[-7.177288820967078,62.24702339619398,47.1],[-7.177247833460569,62.24692616611719,47.62],[-7.177214976400137,62.246826170012355,48.4],[-7.177167870104313,62.24672198295593,48.71],[-7.177145071327686,62.24662114866078,49.41],[-7.177129397168756,62.24651855416596,49.22],[-7.177101988345385,62.24641076289117,49.53],[-7.177074076607823,62.246308252215385,49.49],[-7.177027557045221,62.24621873348951,49.22],[-7.176987072452903,62.24612980149686,49.23],[-7.176949437707663,62.24604229442775,48.51],[-7.176903085783124,62.24595964886248,47.79],[-7.176860254257917,62.245878679677844,46.81]]}},{"type":"Feature","properties":{"name":"WP1 04_ST","type":"user","time":"2020-07-13T12:55:58Z","gpxx_WaypointExtension":"SymbolAndName","gpxx_DisplayMode":"SymbolAndName","wptx1_WaypointExtension":"SymbolAndName","wptx1_DisplayMode":"SymbolAndName","ctx_CreationTimeExtension":"2020-07-13T12:55:58Z","ctx_CreationTime":"2020-07-13T12:55:58Z","sym":"Flag, Blue"},"geometry":{"type":"Point","coordinates":[-7.188897002488375,62.254393016919494,270.722565]}},{"type":"Feature","properties":{"name":"WP2 07_ST","type":"user","time":"2020-07-13T13:44:53Z","gpxx_WaypointExtension":"SymbolAndName","gpxx_DisplayMode":"SymbolAndName","wptx1_WaypointExtension":"SymbolAndName","wptx1_DisplayMode":"SymbolAndName","ctx_CreationTimeExtension":"2020-07-13T13:44:53Z","ctx_CreationTime":"2020-07-13T13:44:53Z","sym":"Flag, Blue"},"geometry":{"type":"Point","coordinates":[-7.185305021703243,62.272853991016746,514.18573]}},{"type":"Feature","properties":{"name":"WP3 11_ST","type":"user","time":"2020-07-13T14:34:21Z","gpxx_WaypointExtension":"SymbolAndName","gpxx_DisplayMode":"SymbolAndName","wptx1_WaypointExtension":"SymbolAndName","wptx1_DisplayMode":"SymbolAndName","ctx_CreationTimeExtension":"2020-07-13T14:34:21Z","ctx_CreationTime":"2020-07-13T14:34:21Z","sym":"Flag, Blue"},"geometry":{"type":"Point","coordinates":[-7.15403800830245,62.286149030551314,107.356651]}}]}