{"type":"FeatureCollection","features":[{"type":"Feature","properties":{"_gpxType":"trk","name":"11 Wanderung Hosvik Leynarvatn CS","time":"2020-07-21T13:31:09Z","gpxx_TrackExtension":"Blue","gpxx_DisplayColor":"Blue","coordinateProperties":{"times":["2020-07-21T13:31:09Z","2020-07-21T13:31:40Z","2020-07-21T13:31:50Z","2020-07-21T13:31:59Z","2020-07-21T13:32:06Z","2020-07-21T13:32:13Z","2020-07-21T13:32:19Z","2020-07-21T13:32:25Z","2020-07-21T13:32:32Z","2020-07-21T13:32:38Z","2020-07-21T13:32:45Z","2020-07-21T13:32:51Z","2020-07-21T13:32:58Z","2020-07-21T13:33:05Z","2020-07-21T13:33:14Z","2020-07-21T13:33:22Z","2020-07-21T13:33:32Z","2020-07-21T13:33:42Z","2020-07-21T13:33:51Z","2020-07-21T13:33:58Z","2020-07-21T13:34:04Z","2020-07-21T13:34:11Z","2020-07-21T13:34:18Z","2020-07-21T13:34:25Z","2020-07-21T13:34:32Z","2020-07-21T13:34:39Z","2020-07-21T13:34:47Z","2020-07-21T13:34:55Z","2020-07-21T13:35:03Z","2020-07-21T13:35:11Z","2020-07-21T13:35:19Z","2020-07-21T13:35:27Z","2020-07-21T13:35:39Z","2020-07-21T13:36:29Z","2020-07-21T13:36:36Z","2020-07-21T13:36:42Z","2020-07-21T13:36:48Z","2020-07-21T13:36:56Z","2020-07-21T13:37:03Z","2020-07-21T13:37:10Z","2020-07-21T13:37:18Z","2020-07-21T13:37:28Z","2020-07-21T13:37:37Z","2020-07-21T13:37:44Z","2020-07-21T13:37:53Z","2020-07-21T13:38:09Z","2020-07-21T13:38:17Z","2020-07-21T13:38:25Z","2020-07-21T13:38:32Z","2020-07-21T13:38:38Z","2020-07-21T13:38:44Z","2020-07-21T13:38:51Z","2020-07-21T13:38:58Z","2020-07-21T13:39:05Z","2020-07-21T13:39:12Z","2020-07-21T13:39:20Z","2020-07-21T13:39:27Z","2020-07-21T13:39:38Z","2020-07-21T13:39:46Z","2020-07-21T13:39:53Z","2020-07-21T13:40:00Z","2020-07-21T13:40:09Z","2020-07-21T13:40:23Z","2020-07-21T13:40:32Z","2020-07-21T13:40:42Z","2020-07-21T13:40:54Z","2020-07-21T13:41:04Z","2020-07-21T13:41:13Z","2020-07-21T13:41:21Z","2020-07-21T13:41:31Z","2020-07-21T13:41:40Z","2020-07-21T13:41:48Z","2020-07-21T13:41:58Z","2020-07-21T13:42:08Z","2020-07-21T13:42:18Z","2020-07-21T13:42:28Z","2020-07-21T13:42:37Z","2020-07-21T13:42:47Z","2020-07-21T13:43:05Z","2020-07-21T13:43:16Z","2020-07-21T13:43:38Z","2020-07-21T13:46:44Z","2020-07-21T13:47:23Z","2020-07-21T13:50:04Z","2020-07-21T13:50:14Z","2020-07-21T13:50:23Z","2020-07-21T13:50:32Z","2020-07-21T13:50:41Z","2020-07-21T13:50:51Z","2020-07-21T13:51:04Z","2020-07-21T13:51:17Z","2020-07-21T13:51:32Z","2020-07-21T13:51:47Z","2020-07-21T13:52:03Z","2020-07-21T13:52:18Z","2020-07-21T13:52:31Z","2020-07-21T13:52:51Z","2020-07-21T13:53:09Z","2020-07-21T13:53:21Z","2020-07-21T13:53:36Z","2020-07-21T13:53:58Z","2020-07-21T13:54:15Z","2020-07-21T13:55:00Z","2020-07-21T13:55:16Z","2020-07-21T13:55:35Z","2020-07-21T13:55:59Z","2020-07-21T13:56:17Z","2020-07-21T13:56:34Z","2020-07-21T13:56:48Z","2020-07-21T13:57:04Z","2020-07-21T13:57:19Z","2020-07-21T13:57:37Z","2020-07-21T13:57:55Z","2020-07-21T13:58:15Z","2020-07-21T13:58:29Z","2020-07-21T13:58:53Z","2020-07-21T13:59:27Z","2020-07-21T13:59:47Z","2020-07-21T14:00:04Z","2020-07-21T14:00:25Z","2020-07-21T14:00:39Z","2020-07-21T14:01:00Z","2020-07-21T14:01:13Z","2020-07-21T14:01:29Z","2020-07-21T14:01:39Z","2020-07-21T14:01:50Z","2020-07-21T14:02:01Z","2020-07-21T14:02:15Z","2020-07-21T14:02:26Z","2020-07-21T14:02:37Z","2020-07-21T14:02:47Z","2020-07-21T14:02:58Z","2020-07-21T14:03:10Z","2020-07-21T14:03:21Z","2020-07-21T14:03:32Z","2020-07-21T14:03:41Z","2020-07-21T14:03:51Z","2020-07-21T14:04:06Z","2020-07-21T14:04:15Z","2020-07-21T14:04:26Z","2020-07-21T14:04:38Z","2020-07-21T14:06:52Z","2020-07-21T14:15:33Z","2020-07-21T14:15:43Z","2020-07-21T14:15:52Z","2020-07-21T14:16:01Z","2020-07-21T14:16:12Z","2020-07-21T14:16:21Z","2020-07-21T14:17:06Z","2020-07-21T14:17:16Z","2020-07-21T14:17:27Z","2020-07-21T14:17:38Z","2020-07-21T14:17:53Z","2020-07-21T14:18:08Z","2020-07-21T14:18:19Z","2020-07-21T14:18:34Z","2020-07-21T14:18:47Z","2020-07-21T14:19:04Z","2020-07-21T14:19:18Z","2020-07-21T14:19:37Z","2020-07-21T14:19:48Z","2020-07-21T14:20:11Z","2020-07-21T14:20:38Z","2020-07-21T14:21:13Z","2020-07-21T14:21:25Z","2020-07-21T14:21:41Z","2020-07-21T14:22:03Z","2020-07-21T14:22:17Z","2020-07-21T14:22:36Z","2020-07-21T14:23:16Z","2020-07-21T14:23:31Z","2020-07-21T14:23:46Z","2020-07-21T14:24:03Z","2020-07-21T14:24:17Z","2020-07-21T14:24:33Z","2020-07-21T14:24:52Z","2020-07-21T14:25:12Z","2020-07-21T14:25:30Z","2020-07-21T14:25:53Z","2020-07-21T14:26:17Z","2020-07-21T14:26:55Z","2020-07-21T14:27:20Z","2020-07-21T14:27:46Z","2020-07-21T14:28:08Z","2020-07-21T14:28:34Z","2020-07-21T14:29:01Z","2020-07-21T14:29:18Z","2020-07-21T14:30:02Z","2020-07-21T14:30:23Z","2020-07-21T14:30:49Z","2020-07-21T14:31:21Z","2020-07-21T14:31:44Z","2020-07-21T14:32:17Z","2020-07-21T14:32:51Z","2020-07-21T14:33:24Z","2020-07-21T14:33:52Z","2020-07-21T14:34:12Z","2020-07-21T14:34:29Z","2020-07-21T14:34:46Z","2020-07-21T14:35:13Z","2020-07-21T14:35:47Z","2020-07-21T14:36:07Z","2020-07-21T14:36:28Z","2020-07-21T14:36:56Z","2020-07-21T14:37:18Z","2020-07-21T14:37:43Z","2020-07-21T14:38:13Z","2020-07-21T14:38:37Z","2020-07-21T14:39:05Z","2020-07-21T14:39:29Z","2020-07-21T14:40:04Z","2020-07-21T14:40:21Z","2020-07-21T14:40:49Z","2020-07-21T14:41:19Z","2020-07-21T14:41:48Z","2020-07-21T14:42:53Z","2020-07-21T14:43:09Z","2020-07-21T14:43:24Z","2020-07-21T14:43:44Z","2020-07-21T14:43:56Z","2020-07-21T14:44:08Z","2020-07-21T14:44:16Z","2020-07-21T14:44:26Z","2020-07-21T14:44:34Z","2020-07-21T14:44:44Z","2020-07-21T14:44:54Z","2020-07-21T14:45:08Z","2020-07-21T14:45:20Z","2020-07-21T14:45:37Z","2020-07-21T14:45:48Z","2020-07-21T14:45:58Z","2020-07-21T14:46:15Z","2020-07-21T14:46:32Z","2020-07-21T14:46:58Z","2020-07-21T14:47:26Z","2020-07-21T14:47:57Z","2020-07-21T14:48:22Z","2020-07-21T14:48:51Z","2020-07-21T14:49:20Z","2020-07-21T14:49:55Z","2020-07-21T14:50:12Z","2020-07-21T14:50:30Z","2020-07-21T14:51:00Z","2020-07-21T14:51:22Z","2020-07-21T14:51:41Z","2020-07-21T14:51:55Z","2020-07-21T14:52:04Z","2020-07-21T14:52:17Z","2020-07-21T14:52:25Z","2020-07-21T14:52:32Z","2020-07-21T14:52:39Z","2020-07-21T14:52:46Z","2020-07-21T14:52:54Z","2020-07-21T14:53:20Z","2020-07-21T14:54:30Z","2020-07-21T14:54:37Z","2020-07-21T14:54:44Z","2020-07-21T14:54:52Z","2020-07-21T14:55:04Z","2020-07-21T14:55:14Z","2020-07-21T14:55:23Z","2020-07-21T14:55:31Z","2020-07-21T14:55:40Z","2020-07-21T14:55:49Z","2020-07-21T14:56:07Z","2020-07-21T14:59:03Z","2020-07-21T14:59:11Z","2020-07-21T14:59:18Z","2020-07-21T14:59:26Z","2020-07-21T14:59:39Z","2020-07-21T15:00:02Z","2020-07-21T15:00:13Z","2020-07-21T15:00:23Z","2020-07-21T15:00:34Z","2020-07-21T15:00:47Z","2020-07-21T15:00:58Z","2020-07-21T15:01:09Z","2020-07-21T15:01:22Z","2020-07-21T15:01:33Z","2020-07-21T15:01:47Z","2020-07-21T15:01:58Z","2020-07-21T15:02:12Z","2020-07-21T15:02:25Z","2020-07-21T15:02:37Z","2020-07-21T15:02:48Z","2020-07-21T15:02:59Z","2020-07-21T15:03:07Z","2020-07-21T15:03:16Z","2020-07-21T15:03:24Z","2020-07-21T15:03:33Z","2020-07-21T15:03:42Z","2020-07-21T15:03:51Z","2020-07-21T15:04:01Z","2020-07-21T15:04:10Z","2020-07-21T15:04:18Z","2020-07-21T15:04:26Z","2020-07-21T15:04:35Z","2020-07-21T15:04:45Z","2020-07-21T15:04:52Z","2020-07-21T15:05:00Z","2020-07-21T15:05:08Z","2020-07-21T15:05:22Z","2020-07-21T15:06:30Z","2020-07-21T15:06:41Z","2020-07-21T15:06:50Z","2020-07-21T15:07:00Z","2020-07-21T15:07:11Z","2020-07-21T15:07:26Z","2020-07-21T15:07:40Z","2020-07-21T15:07:53Z","2020-07-21T15:08:08Z","2020-07-21T15:08:54Z","2020-07-21T15:09:32Z","2020-07-21T15:09:52Z","2020-07-21T15:10:20Z","2020-07-21T15:10:38Z","2020-07-21T15:11:02Z","2020-07-21T15:11:17Z","2020-07-21T15:11:33Z","2020-07-21T15:11:43Z","2020-07-21T15:11:51Z","2020-07-21T15:11:59Z","2020-07-21T15:12:11Z","2020-07-21T15:12:19Z","2020-07-21T15:15:33Z","2020-07-21T15:15:45Z","2020-07-21T15:15:56Z","2020-07-21T15:16:06Z","2020-07-21T15:16:25Z","2020-07-21T15:16:42Z","2020-07-21T15:16:57Z","2020-07-21T15:17:10Z","2020-07-21T15:17:20Z","2020-07-21T15:17:27Z","2020-07-21T15:17:34Z","2020-07-21T15:17:42Z","2020-07-21T15:17:49Z","2020-07-21T15:28:40Z","2020-07-21T15:28:55Z","2020-07-21T15:29:04Z","2020-07-21T15:29:13Z","2020-07-21T15:29:23Z","2020-07-21T15:29:35Z","2020-07-21T15:29:46Z","2020-07-21T15:30:00Z","2020-07-21T15:30:11Z","2020-07-21T15:30:20Z","2020-07-21T15:30:33Z","2020-07-21T15:30:45Z","2020-07-21T15:30:59Z","2020-07-21T15:31:11Z","2020-07-21T15:31:24Z","2020-07-21T15:31:38Z","2020-07-21T15:31:52Z","2020-07-21T15:32:08Z","2020-07-21T15:32:24Z","2020-07-21T15:32:43Z","2020-07-21T15:32:57Z","2020-07-21T16:05:43Z","2020-07-21T16:05:50Z","2020-07-21T16:05:57Z","2020-07-21T16:06:05Z","2020-07-21T16:06:15Z","2020-07-21T16:06:29Z","2020-07-21T16:06:46Z","2020-07-21T16:07:30Z","2020-07-21T16:07:56Z","2020-07-21T16:08:57Z","2020-07-21T16:09:33Z","2020-07-21T16:09:41Z","2020-07-21T16:09:49Z","2020-07-21T16:10:01Z","2020-07-21T16:10:20Z","2020-07-21T16:10:27Z","2020-07-21T16:10:33Z","2020-07-21T16:10:59Z","2020-07-21T16:11:15Z","2020-07-21T16:11:24Z","2020-07-21T16:11:33Z","2020-07-21T16:11:47Z","2020-07-21T16:12:08Z","2020-07-21T16:12:19Z","2020-07-21T16:12:29Z","2020-07-21T16:12:37Z","2020-07-21T16:12:45Z","2020-07-21T16:12:52Z","2020-07-21T16:12:59Z","2020-07-21T16:13:06Z","2020-07-21T16:13:13Z","2020-07-21T16:13:39Z","2020-07-21T16:13:47Z","2020-07-21T16:13:54Z","2020-07-21T16:14:01Z","2020-07-21T16:14:09Z","2020-07-21T16:14:16Z","2020-07-21T16:14:23Z","2020-07-21T16:14:30Z","2020-07-21T16:14:38Z","2020-07-21T16:14:45Z","2020-07-21T16:14:53Z","2020-07-21T16:15:00Z","2020-07-21T16:15:07Z","2020-07-21T16:15:13Z","2020-07-21T16:15:22Z","2020-07-21T16:15:36Z","2020-07-21T16:15:51Z","2020-07-21T16:16:03Z","2020-07-21T16:16:13Z","2020-07-21T16:16:21Z","2020-07-21T16:16:30Z","2020-07-21T16:16:37Z","2020-07-21T16:16:45Z","2020-07-21T16:16:51Z","2020-07-21T16:16:57Z","2020-07-21T16:17:04Z","2020-07-21T16:17:12Z","2020-07-21T16:17:24Z","2020-07-21T16:17:40Z","2020-07-21T16:17:45Z","2020-07-21T16:17:50Z","2020-07-21T16:17:56Z","2020-07-21T16:18:02Z","2020-07-21T16:18:07Z","2020-07-21T16:18:12Z","2020-07-21T16:18:18Z","2020-07-21T16:18:25Z","2020-07-21T16:18:43Z","2020-07-21T16:18:52Z","2020-07-21T16:18:58Z","2020-07-21T16:19:05Z","2020-07-21T16:19:13Z","2020-07-21T16:19:21Z","2020-07-21T16:19:27Z","2020-07-21T16:19:35Z","2020-07-21T16:19:42Z","2020-07-21T16:19:48Z","2020-07-21T16:19:55Z","2020-07-21T16:20:02Z","2020-07-21T16:20:09Z","2020-07-21T16:20:15Z","2020-07-21T16:20:21Z","2020-07-21T16:20:28Z","2020-07-21T16:20:35Z","2020-07-21T16:20:41Z","2020-07-21T16:20:47Z","2020-07-21T16:20:54Z","2020-07-21T16:21:01Z","2020-07-21T16:21:08Z","2020-07-21T16:21:14Z","2020-07-21T16:21:21Z","2020-07-21T16:21:28Z","2020-07-21T16:21:35Z","2020-07-21T16:21:42Z","2020-07-21T16:21:49Z","2020-07-21T16:21:56Z","2020-07-21T16:22:03Z","2020-07-21T16:22:09Z","2020-07-21T16:22:16Z","2020-07-21T16:22:23Z","2020-07-21T16:22:30Z","2020-07-21T16:22:36Z","2020-07-21T16:22:42Z","2020-07-21T16:22:49Z","2020-07-21T16:22:55Z","2020-07-21T16:23:02Z","2020-07-21T16:23:08Z","2020-07-21T16:23:14Z","2020-07-21T16:23:21Z","2020-07-21T16:23:27Z","2020-07-21T16:23:33Z","2020-07-21T16:23:39Z","2020-07-21T16:23:46Z","2020-07-21T16:23:53Z","2020-07-21T16:24:01Z","2020-07-21T16:24:09Z","2020-07-21T16:24:16Z","2020-07-21T16:24:21Z","2020-07-21T16:24:27Z","2020-07-21T16:24:33Z","2020-07-21T16:24:41Z","2020-07-21T16:24:48Z","2020-07-21T16:24:54Z","2020-07-21T16:25:00Z","2020-07-21T16:25:06Z","2020-07-21T16:25:14Z","2020-07-21T16:25:20Z","2020-07-21T16:25:26Z","2020-07-21T16:25:33Z","2020-07-21T16:25:41Z","2020-07-21T16:25:48Z","2020-07-21T16:25:54Z","2020-07-21T16:26:00Z","2020-07-21T16:26:06Z","2020-07-21T16:26:13Z","2020-07-21T16:26:20Z","2020-07-21T16:26:28Z","2020-07-21T16:26:34Z","2020-07-21T16:26:41Z","2020-07-21T16:26:59Z","2020-07-21T16:27:24Z"]}},"geometry":{"type":"LineString","coordinates":[[-6.94370822981,62.151818722486496,18.1484375],[-6.943931356072426,62.15178586542606,19.23828125],[-6.944135623052716,62.151784943416715,20.046875],[-6.944265123456717,62.151871947571635,19.828125],[-6.944348691031337,62.15197177603841,19.28515625],[-6.944364532828331,62.152073699980974,18.44921875],[-6.944339219480753,62.15217126533389,17.79296875],[-6.94433611817658,62.15227394364774,17.62109375],[-6.944329077377915,62.15238374657929,17.4296875],[-6.944283144548535,62.15248189866543,17.140625],[-6.944203432649374,62.15258155949414,16.7578125],[-6.944122044369578,62.15266537852585,16.4140625],[-6.944047110155225,62.152757328003645,16.1640625],[-6.944005703553557,62.152846259996295,16.0078125],[-6.944105280563235,62.15293594636023,16.0390625],[-6.944232853129506,62.15303326025605,17.07421875],[-6.944385068491101,62.153146835044026,18.73046875],[-6.944520939141512,62.15325362049043,20.30859375],[-6.9444973859936,62.15337180532515,21.5859375],[-6.944441478699446,62.15348328463733,22.6796875],[-6.944355564191937,62.15360524132848,23.7734375],[-6.944287503138185,62.15370062738657,24.6015625],[-6.944212066009641,62.1537955943495,25.3828125],[-6.944160517305136,62.15389274060726,27.296875],[-6.944095976650715,62.153993574902415,29.21875],[-6.944032609462738,62.15409365482628,31.01953125],[-6.943984245881438,62.154202703386545,33.06640625],[-6.943893302232027,62.15429096482694,34.37890625],[-6.943939737975597,62.154379058629274,36.53125],[-6.944136377424002,62.15439649298787,38.140625],[-6.944333519786596,62.154379645362496,38.81640625],[-6.944546336308122,62.15437931008637,39.93359375],[-6.944755716249347,62.154412753880024,41.82421875],[-6.94496501237154,62.15440822765231,42.7890625],[-6.945183696225286,62.15437344275415,42.7421875],[-6.945371115580201,62.15434075333178,42.6328125],[-6.945567252114415,62.15431300923228,42.671875],[-6.945795239880681,62.154283253476024,42.76171875],[-6.946035632863641,62.15426213108003,42.95703125],[-6.946245934814215,62.15423924848437,43.0390625],[-6.946450285613537,62.15422851964831,43.3984375],[-6.946683386340737,62.154212929308414,43.83984375],[-6.946953032165766,62.154193902388215,44.52734375],[-6.947169452905655,62.15417445637286,44.97265625],[-6.947401883080602,62.15415911749005,45.5703125],[-6.947625009343028,62.1541550103575,45.86328125],[-6.947848638519645,62.154168421402574,46.4765625],[-6.948132952675223,62.15418577194214,47.234375],[-6.948370998725295,62.154209576547146,48.046875],[-6.948590269312263,62.1542274300009,48.68359375],[-6.948796212673187,62.15425098314881,49.39453125],[-6.949010705575347,62.15427814051509,50.15625],[-6.949207093566656,62.15430932119489,50.81640625],[-6.949410522356629,62.1543310303241,51.15625],[-6.949646892026067,62.15434695594013,51.359375],[-6.949875969439745,62.15435726568103,51.4453125],[-6.950092641636729,62.15438576415181,52.0703125],[-6.950327586382628,62.15440965257585,52.67578125],[-6.950565464794636,62.15441660955548,53.00390625],[-6.950773168355227,62.15443178080022,53.39453125],[-6.950986068695784,62.15444292873144,53.7734375],[-6.951194945722818,62.15446723625064,54.2578125],[-6.951403906568885,62.15444594621658,54.25],[-6.951618315652013,62.154432786628604,54.3828125],[-6.951848901808262,62.15442096814513,54.69921875],[-6.952068926766515,62.15439833700657,54.9375],[-6.952288951724768,62.15435944497585,55.09765625],[-6.952483076602221,62.15433773584664,55.375],[-6.952672759070993,62.15429339557886,55.625],[-6.952861603349447,62.154231453314424,55.8671875],[-6.953070899471641,62.15419750660658,56.37109375],[-6.953270388767123,62.15415610000491,56.875],[-6.953485803678632,62.154117207974195,57.19921875],[-6.953651513904333,62.154089380055666,57.47265625],[-6.95384337566793,62.1540530025959,57.79296875],[-6.954038757830858,62.15402458794415,58.15234375],[-6.95423330180347,62.154003381729126,58.82421875],[-6.954433126375079,62.15396851301193,59.65625],[-6.954638734459877,62.15393515303731,60.5546875],[-6.954853478819132,62.15393163263798,61.50390625],[-6.954973340034485,62.15385803952813,62.18359375],[-6.955037042498589,62.15383197180927,62.59375],[-6.955200070515275,62.15382224880159,63.578125],[-6.955253882333636,62.15376868844032,64.4375],[-6.955445576459169,62.15372962877154,66.28125],[-6.955631906166673,62.153680343180895,68.296875],[-6.955810356885195,62.15364329516888,70.09375],[-6.95600557141006,62.15360624715686,72.0546875],[-6.956215789541602,62.153568025678396,74.08984375],[-6.95640329271555,62.153507340699434,76.30078125],[-6.956609152257443,62.15346802957356,78.23828125],[-6.956838816404343,62.153422851115465,80.625],[-6.957063116133213,62.1534002199769,82.59375],[-6.957182977348566,62.15331321582198,84.671875],[-6.957356063649058,62.15325077064335,86.72265625],[-6.957561504095793,62.153198551386595,88.75],[-6.957758143544197,62.153183883056045,90.1875],[-6.95800306275487,62.15313828550279,92.296875],[-6.958165168762207,62.15309134684503,93.8828125],[-6.958388043567538,62.15305572375655,95.97265625],[-6.95859138853848,62.15302940458059,97.99609375],[-6.958814933896065,62.153031500056386,99.8515625],[-6.959004113450646,62.1530257165432,101.51171875],[-6.959190191701055,62.15298665687442,103.30859375],[-6.959389932453632,62.15295287780464,104.9296875],[-6.959589589387178,62.152907866984606,106.72265625],[-6.959802992641926,62.15289009734988,108.23828125],[-6.959952525794506,62.15285397134721,109.6484375],[-6.959949675947428,62.15276587754488,110.79296875],[-6.960084876045585,62.15271441265941,112.5],[-6.96018235757947,62.1526319347322,114.35546875],[-6.96032552048564,62.15255725197494,116.484375],[-6.960507491603494,62.15250981040299,118.5703125],[-6.96071594953537,62.15243353508413,121.30078125],[-6.960928598418832,62.15240688063204,123.046875],[-6.96111517958343,62.152354661375284,124.91796875],[-6.961244344711304,62.15229598805308,126.5390625],[-6.961330426856875,62.15221585705876,128.2109375],[-6.961553217843175,62.15218333527446,130.01953125],[-6.961764274165034,62.1521379891783,131.93359375],[-6.961956219747663,62.15209448710084,133.73828125],[-6.96218035183847,62.15205039829016,135.765625],[-6.962412279099226,62.151996502652764,138.02734375],[-6.962567092850804,62.15191804803908,140.484375],[-6.96273104287684,62.15184135362506,143.1171875],[-6.962885018438101,62.151768766343594,145.6953125],[-6.963002029806376,62.151692658662796,148.1015625],[-6.963126584887505,62.15161110274494,150.75390625],[-6.963231023401022,62.15151781216264,153.5234375],[-6.963338814675808,62.15142955072224,156.23046875],[-6.963518606498838,62.15137959457934,158.88671875],[-6.963707786053419,62.15133609250188,161.5546875],[-6.963786575943232,62.1512486692518,163.9609375],[-6.964002242311835,62.15121053159237,166.65234375],[-6.964084720239043,62.1511191688478,168.9609375],[-6.96413098834455,62.15101841837168,171.03125],[-6.964170634746552,62.15092286467552,172.9453125],[-6.964333327487111,62.15085530653596,175.3359375],[-6.964512029662728,62.150813061743975,177.41015625],[-6.964598782360554,62.15072111226618,179.5546875],[-6.964640691876411,62.15062530711293,181.40625],[-6.964488476514816,62.15056135319173,181.3125],[-6.964531810954213,62.150448113679886,183.41015625],[-6.964626526460052,62.15036898851395,185.07421875],[-6.964867422357202,62.150295060127974,187.49609375],[-6.965027935802937,62.150215851143,189.2890625],[-6.96517369709909,62.15011510066688,191.1640625],[-6.96529733017087,62.14996405877173,193.39453125],[-6.965450718998909,62.149917203933,194.67578125],[-6.965556666254997,62.149918880313635,195.2109375],[-6.965827234089375,62.14994201436639,196.68359375],[-6.965976767241955,62.14986816979945,198.78515625],[-6.965976767241955,62.14986992999911,198.76953125],[-6.966027896851301,62.14984838850796,199.45703125],[-6.966262171044946,62.14969055727124,203.265625],[-6.966437269002199,62.14960950426757,206.0390625],[-6.966772964224219,62.14948704466224,212.03125],[-6.966951498761773,62.149346731603146,216.59765625],[-6.967155430465937,62.149161491543055,221.8828125],[-6.967377550899983,62.14895999059081,227.14453125],[-6.967530436813831,62.14880894869566,230.38671875],[-6.967489952221513,62.14874608442187,232.57421875],[-6.967438571155071,62.14869763702154,234.37109375],[-6.967485928907991,62.148656314238906,236.3046875],[-6.967712324112654,62.14861289598048,239.01953125],[-6.967807291075587,62.148580541834235,240.70703125],[-6.967893959954381,62.14851432479918,243.6875],[-6.967966631054878,62.14839748106897,248.58203125],[-6.968065202236176,62.14837225154042,249.87109375],[-6.968240635469556,62.14837023988366,250.46875],[-6.968617402017117,62.148452550172806,248.36328125],[-6.968767354264855,62.14847928844392,247.83203125],[-6.968990312889218,62.14847727678716,248.5625],[-6.969202123582363,62.14843939058483,250.4921875],[-6.969476127997041,62.14840938337147,252.33984375],[-6.969922045245767,62.148414328694344,253.58203125],[-6.970385983586311,62.14835272170603,256.76171875],[-6.970657808706164,62.14825373142958,260.1953125],[-6.970814969390631,62.14824459515512,260.84375],[-6.971166003495455,62.14828373864293,260.88671875],[-6.97137052193284,62.14824224822223,262.453125],[-6.971541931852698,62.1481575910002,264.78125],[-6.971644274890423,62.14816647581756,264.9140625],[-6.971914507448673,62.148099755868316,267.23828125],[-6.972067561000586,62.14798643253744,269.8046875],[-6.972414320334792,62.14788006618619,274.64453125],[-6.972839701920748,62.14776632376015,281.703125],[-6.973212361335754,62.14772558771074,285.515625],[-6.973639922216535,62.14771972037852,289.203125],[-6.973837399855256,62.147735729813576,290.0859375],[-6.97399104014039,62.147773280739784,289.55859375],[-6.97415029630065,62.147827008739114,288.296875],[-6.974254483357072,62.14784041978419,288.546875],[-6.974457241594791,62.147824075073004,291.08203125],[-6.974572408944368,62.14782390743494,292.08203125],[-6.974654803052545,62.147858859971166,291.08203125],[-6.974726216867566,62.14788844808936,290.24609375],[-6.97504447773099,62.147966315969825,289.4140625],[-6.975217228755355,62.14801015332341,290.29296875],[-6.975390398874879,62.14805122464895,291.16796875],[-6.975553678348661,62.14808198623359,292.11328125],[-6.975743025541306,62.14811056852341,293.31640625],[-6.975956344977021,62.14813579805195,294.77734375],[-6.976164048537612,62.148136887699366,296.7890625],[-6.976372422650456,62.148162787780166,298.08984375],[-6.976570570841432,62.14818944223225,299.2109375],[-6.976743070408702,62.14823436923325,299.39453125],[-6.976940967142582,62.14827284216881,299.94921875],[-6.977115646004677,62.148320535197854,299.96875],[-6.977209439501166,62.14840041473508,298.23046875],[-6.977381184697151,62.14846193790436,297.67578125],[-6.977565586566925,62.14851373806596,297.7265625],[-6.977760633453727,62.14853863231838,298.76171875],[-6.977847469970584,62.148609291762114,297.16796875],[-6.977993985638022,62.14861800894141,298.21484375],[-6.978225242346525,62.14861750602722,300.359375],[-6.978423641994596,62.14862027205527,302.03515625],[-6.978608798235655,62.1485894266516,304.83203125],[-6.978822452947497,62.14859311468899,306.6171875],[-6.979032084345818,62.14859596453607,308.39453125],[-6.979235345497727,62.14860862120986,310.47265625],[-6.979370210319758,62.14859747327864,312.765625],[-6.979566514492035,62.14855288155377,317.25],[-6.979774804785848,62.148520862683654,321.44140625],[-6.979941017925739,62.14846093207598,326.22265625],[-6.98003732599318,62.14841399341822,329.5234375],[-6.980220722034574,62.14834903366864,334.859375],[-6.980410320684314,62.148321541026235,338.76953125],[-6.980561194941402,62.14824786409736,344.1171875],[-6.980684828013182,62.14818097651005,348.82421875],[-6.980837378650904,62.148116854950786,354.1484375],[-6.980949863791466,62.14806488715112,358.33203125],[-6.981057403609157,62.14797478169203,363.90625],[-6.981212636455894,62.147882329300046,370.47265625],[-6.981302574276924,62.14780177921057,375.35546875],[-6.981419837102294,62.14770890772343,381.09375],[-6.981495525687933,62.1476239990443,385.76171875],[-6.981619745492935,62.14754135347903,390.984375],[-6.98169912211597,62.147440519183874,396.2734375],[-6.981781013309956,62.147338427603245,401.625],[-6.981906490400434,62.147288136184216,405.5],[-6.982047138735652,62.147244131192565,409.32421875],[-6.982117462903261,62.1471593901515,413.7421875],[-6.982191475108266,62.14710608124733,417.3984375],[-6.982357269152999,62.14704346843064,423.3203125],[-6.982554579153657,62.14700005017221,429.10546875],[-6.982648624107242,62.14696400798857,432.8046875],[-6.982778543606401,62.14690005406737,438.6875],[-6.982931094244123,62.14686585590243,443.2890625],[-6.983043411746621,62.14684548787773,446.3984375],[-6.983117843046784,62.14676049537957,452.41796875],[-6.98309663683176,62.1466688811779,457.12890625],[-6.983185987919569,62.14659067802131,463.00390625],[-6.983234938234091,62.146493531763554,469.21484375],[-6.983290677890182,62.14642211794853,474.18359375],[-6.983237117528915,62.1463527996093,477.02734375],[-6.983173079788685,62.14626386761665,480.48828125],[-6.983181545510888,62.14615322649479,485.62109375],[-6.983371647074819,62.14607259258628,492.02734375],[-6.983533836901188,62.14600528590381,497.125],[-6.983657386153936,62.145933117717505,501.59765625],[-6.983681190758944,62.14586262591183,504.58984375],[-6.983667947351933,62.14578961953521,507.234375],[-6.983619248494506,62.145702950656414,510.09765625],[-6.983565269038081,62.14565039612353,511.68359375],[-6.983645232394338,62.1455689240247,515.5234375],[-6.98370348662138,62.145494828000665,518.7578125],[-6.983816139400005,62.145413774996996,522.00390625],[-6.983860731124878,62.14533230289817,524.5859375],[-6.98394488543272,62.14525133371353,527.32421875],[-6.984112607315183,62.145214872434735,529.1484375],[-6.984251830726862,62.14515351690352,531.37890625],[-6.984407231211662,62.145114624872804,533.01953125],[-6.984584592282772,62.1450908202678,534.3125],[-6.984783243387938,62.14503767900169,536.41015625],[-6.984867481514812,62.14497372508049,538.33203125],[-6.985077615827322,62.14487356133759,541.77734375],[-6.985235195606947,62.144799465313554,544.26953125],[-6.985430074855685,62.14473584666848,546.5703125],[-6.985593773424625,62.14468295685947,548.41015625],[-6.985776918008924,62.14464247226715,549.9765625],[-6.985964337363839,62.144628055393696,551],[-6.986224092543125,62.14461447671056,552.2734375],[-6.986408578231931,62.14459025301039,553.51953125],[-6.986583760008216,62.14452613145113,555.640625],[-6.98679213412106,62.144479444250464,556.8828125],[-6.986956670880318,62.14444759301841,557.60546875],[-6.987000759691,62.14437559247017,558.9921875],[-6.987126991152763,62.14429210871458,560.390625],[-6.987255988642573,62.14422178454697,561.328125],[-6.987415831536055,62.144163278862834,561.77734375],[-6.987516414374113,62.14407317340374,562.49609375],[-6.987637868151069,62.14400921948254,562.51171875],[-6.987818665802479,62.14395607821643,561.765625],[-6.987996362149715,62.14388642460108,560.86328125],[-6.988068614155054,62.14386077597737,560.3828125],[-6.988127119839191,62.14380377903581,560.1015625],[-6.988263744860888,62.143775783479214,558.12890625],[-6.988435238599777,62.14372029528022,555.1796875],[-6.988577814772725,62.14364158920944,551.71875],[-6.988772274926305,62.143587777391076,548.296875],[-6.988968411460519,62.143517788499594,544.2109375],[-6.989114759489894,62.143469927832484,541.23046875],[-6.989294299855828,62.14338468387723,536.8359375],[-6.989450789988041,62.14329826645553,532.5390625],[-6.989591186866164,62.14322056621313,528.61328125],[-6.989726135507226,62.143151331692934,524.9609375],[-6.989851612597704,62.143076062202454,521.15234375],[-6.989907938987017,62.14299140498042,517.71484375],[-6.99006786569953,62.14293264783919,514.015625],[-6.990211112424731,62.14286877773702,510.4609375],[-6.990313036367297,62.142797112464905,507.203125],[-6.990377577021718,62.142709102481604,503.89453125],[-6.99044949375093,62.142632994800806,500.98828125],[-6.990471873432398,62.14252713136375,497.640625],[-6.990377996116877,62.142449766397476,495.91796875],[-6.990430383011699,62.14237223379314,493.23828125],[-6.990514872595668,62.142274752259254,489.87890625],[-6.990565750747919,62.14217861182988,486.83203125],[-6.99061805382371,62.14209286496043,484.69921875],[-6.990735651925206,62.14199370704591,482.76953125],[-6.991169080138207,62.14200376532972,483],[-6.991359852254391,62.14201902039349,483.2578125],[-6.991553641855717,62.14201415888965,483.22265625],[-6.991750784218311,62.14200871065259,483.75390625],[-6.991941053420305,62.142001586034894,484.296875],[-6.992169795557857,62.14200175367296,485.078125],[-6.992392502725124,62.14200284332037,485.85546875],[-6.992579000070691,62.14197903871536,485.90625],[-6.992782428860664,62.141976775601506,486.3125],[-6.992989210411906,62.14196185581386,486.515625],[-6.993145952001214,62.14190016500652,485.8203125],[-6.993266819044948,62.14183679781854,484.90234375],[-6.993340328335762,62.141747027635574,483.26171875],[-6.993448790162802,62.141679637134075,481.91796875],[-6.993591031059623,62.14161450974643,480.5234375],[-6.993752047419548,62.14157125912607,479.44921875],[-6.993923960253596,62.14152356609702,478.25390625],[-6.994124706834555,62.14150009676814,477.23828125],[-6.994339367374778,62.141467994078994,475.46484375],[-6.994517482817173,62.141409404575825,473.3515625],[-6.994717055931687,62.141362046822906,471.26953125],[-6.99489064514637,62.14132374152541,469.4765625],[-6.99509340338409,62.1412951592356,468.10546875],[-6.995276212692261,62.14124880731106,466.36328125],[-6.995462290942669,62.14121519587934,464.8828125],[-6.995640490204096,62.141167586669326,463.08203125],[-6.99579169973731,62.141122072935104,461.359375],[-6.995886750519276,62.14103054255247,458.70703125],[-6.99602672830224,62.14097178541124,456.62109375],[-6.996126640588045,62.14088930748403,454.16015625],[-6.996188163757324,62.14079836383462,451.68359375],[-6.99621724896133,62.14071488007903,449.5390625],[-6.996266953647137,62.14062795974314,447.2109375],[-6.996448338031769,62.1405612397939,444.73828125],[-6.996580269187689,62.140494184568524,442.51953125],[-6.996754696592689,62.14043685235083,440.84765625],[-6.996937086805701,62.140396451577544,439.5859375],[-6.997065497562289,62.14040592312813,439.46875],[-6.997272027656436,62.14040567167103,438.96875],[-6.997456345707178,62.140392092987895,438.2734375],[-6.997625660151243,62.140347165986896,437.0859375],[-6.997761530801654,62.14028966613114,435.80078125],[-6.99789572507143,62.14022227562964,434.4375],[-6.998054897412658,62.140175588428974,433.50390625],[-6.998141314834356,62.14009378105402,432.125],[-6.998177776113153,62.14001792483032,430.90625],[-6.998252710327506,62.13997450657189,430.19140625],[-6.99821968562901,62.139928825199604,429.515625],[-6.99815271422267,62.139869313687086,428.5078125],[-6.998336361721158,62.13981281965971,427.44921875],[-6.998519003391266,62.1397805493325,426.4765625],[-6.998707512393594,62.139763282611966,425.7265625],[-6.99887590482831,62.13973185047507,424.828125],[-6.999031556770206,62.139690862968564,423.84375],[-6.999156698584557,62.13961735367775,422.1640625],[-6.999204475432634,62.13952272199094,420.1171875],[-6.999191483482719,62.13942691683769,418.33984375],[-6.999366665259004,62.13935064151883,416.03515625],[-6.99956439435482,62.13930672034621,414.23828125],[-6.999650727957487,62.139186188578606,411.5078125],[-6.999863795936108,62.1390188857913,407.2734375],[-7.0001370459795,62.13880573399365,401.86328125],[-7.000241065397859,62.138773296028376,400.6953125],[-7.000476596876979,62.13871378451586,398.3984375],[-7.000838108360767,62.13862988166511,394.94921875],[-7.000985881313682,62.138581182807684,393.11328125],[-7.001235662028194,62.138443468138576,389.2109375],[-7.001472618430853,62.13829418644309,385.484375],[-7.00159658677876,62.13822218589485,383.7734375],[-7.001746203750372,62.13816728442907,382.3984375],[-7.001859275624156,62.13810609653592,381.1484375],[-7.001948207616806,62.1380328387022,379.88671875],[-7.002078462392092,62.137971483170986,378.7421875],[-7.002253979444504,62.137917252257466,377.33203125],[-7.002449948340654,62.137891771271825,376.359375],[-7.002608869224787,62.13788372464478,375.6640625],[-7.002610294148326,62.13780451565981,374.2578125],[-7.002679361030459,62.13771943934262,372.52734375],[-7.002742812037468,62.1376393083483,370.91796875],[-7.002829564735293,62.1375423297286,368.9609375],[-7.002861080691218,62.13745121844113,367.28515625],[-7.002966441214085,62.13735952042043,365.41015625],[-7.003142293542624,62.13730285875499,363.97265625],[-7.003099378198385,62.13708350434899,360.140625],[-7.003306914120913,62.136886613443494,355.78515625],[-7.003508917987347,62.13667622767389,351.5625],[-7.003749310970306,62.13648461736739,347.97265625],[-7.004153653979302,62.13615546002984,341.29296875],[-7.004465712234378,62.13605001568794,339.13671875],[-7.00518311932683,62.135855220258236,335.16796875],[-7.005769181996584,62.13571993634105,332.2109375],[-7.006656657904387,62.13556269183755,326.76953125],[-7.007231907919049,62.13545707985759,323.5859375],[-7.007785364985466,62.13538910262287,320.18359375],[-7.008059285581112,62.1353511326015,318.34375],[-7.008202113211155,62.135302517563105,316.47265625],[-7.008296325802803,62.13524107821286,314.15234375],[-7.008489612489939,62.135213082656264,312.46875],[-7.008690694347024,62.13520587421954,311.4296875],[-7.008877275511622,62.13518751785159,310.1171875],[-7.009015241637826,62.13513940572739,308.1171875],[-7.009217999875546,62.13513672351837,307.48046875],[-7.009339286014438,62.13506229221821,304.95703125],[-7.009484209120274,62.13500244542956,302.8125],[-7.00962083414197,62.13493488729,300.45703125],[-7.009708676487207,62.134856432676315,297.890625],[-7.009880756959319,62.13480941019952,296.06640625],[-7.010033056139946,62.13473791256547,293.37109375],[-7.010160461068153,62.13467638939619,291.0703125],[-7.010260038077831,62.13460891507566,288.47265625],[-7.010368416085839,62.134535908699036,285.44140625],[-7.010522224009037,62.13448201306164,283.03515625],[-7.010500766336918,62.13439115323126,279.84375],[-7.010540999472141,62.13429509662092,276.3203125],[-7.010503113269806,62.13421010412276,273.35546875],[-7.010568324476481,62.13413659483194,270.6328125],[-7.01051794923842,62.133923107758164,263.078125],[-7.010654155164957,62.13372889906168,255.6171875],[-7.010927405208349,62.133504934608936,244.35546875],[-7.011282462626696,62.13320813141763,229.97265625],[-7.011451860889792,62.133059771731496,223.515625],[-7.011692589148879,62.1329490467906,217.30078125],[-7.012043036520481,62.13285164907575,209.16015625],[-7.012491971254349,62.132686860859394,197.32421875],[-7.012710906565189,62.132600359618664,191.03515625],[-7.012907629832625,62.13245736435056,182.9921875],[-7.013131678104401,62.132271118462086,173.6015625],[-7.013284731656313,62.13216324336827,168.3359375],[-7.013580445200205,62.1320874709636,162.98828125],[-7.013809941709042,62.131895860657096,153.12890625],[-7.013908177614212,62.13178798556328,147.921875],[-7.014005910605192,62.13165513239801,141.75390625],[-7.014142703264952,62.13158489204943,137.69921875],[-7.014417042955756,62.13153946213424,133.14453125],[-7.014701776206493,62.131456565111876,127.19921875],[-7.014800095930696,62.13136838749051,122.9609375],[-7.014887183904648,62.131226398050785,116.70703125],[-7.014915850013495,62.13108977302909,111.0078125],[-7.014944767579436,62.130998158827424,107.11328125],[-7.015101425349712,62.13089196011424,101.53515625],[-7.015429744496942,62.130740750581026,93.1796875],[-7.015688745304942,62.13061829097569,86.984375],[-7.015871135517955,62.13051569648087,82.15625],[-7.015962079167366,62.130411425605416,80.1328125],[-7.016001809388399,62.130305394530296,79.66015625],[-7.015961073338985,62.13018687441945,79.59765625],[-7.015876835212112,62.1300979424268,79.6640625],[-7.015803325921297,62.13000641204417,79.546875],[-7.015821095556021,62.1298698708415,78.9765625],[-7.016007257625461,62.12981756776571,78.67578125],[-7.01620071195066,62.12975629605353,78.5703125],[-7.016262486577034,62.129696952179074,78.61328125],[-7.016256786882877,62.12963408790529,79.00390625],[-7.016435489058495,62.12959226220846,80.5859375],[-7.016621315851808,62.12956351228058,81.6171875],[-7.01682616956532,62.12952897883952,82.625],[-7.016985761001706,62.129482040181756,83.9765625],[-7.017148956656456,62.12943250313401,85.34375],[-7.017291951924563,62.12949888780713,83.26953125],[-7.017437126487494,62.129486901685596,83.30078125],[-7.017524298280478,62.129489835351706,82.73828125],[-7.017667964100838,62.129441387951374,83.2890625],[-7.01766855083406,62.129425294697285,83.73046875],[-7.017569560557604,62.12940886616707,84.76171875],[-7.017480880022049,62.12931850925088,87.84765625],[-7.017418183386326,62.12922270409763,90.98828125],[-7.017315421253443,62.129235276952386,90.9375],[-7.017300166189671,62.1292276494205,91.1875],[-7.017309973016381,62.129137543961406,93.796875],[-7.017276613041759,62.129052467644215,96.3671875],[-7.017288766801357,62.12898817844689,98.21484375],[-7.017281223088503,62.12886907160282,101.7265625],[-7.017305111512542,62.128758849576116,105.9375],[-7.017293209210038,62.12865994311869,110.86328125],[-7.01728549785912,62.12854561395943,116.5390625],[-7.017333190888166,62.12844746187329,121.1875],[-7.017567716538906,62.12834461592138,124.41015625],[-7.017808947712183,62.12823950685561,127.328125],[-7.017991421744227,62.12818116880953,128.46484375],[-7.018170040100813,62.12813020683825,129.25390625],[-7.018374726176262,62.12806910276413,129.9296875],[-7.018585363402963,62.12803138419986,129.23828125],[-7.018764652311802,62.1279844455421,129.26953125],[-7.018918544054031,62.127939853817225,129.69140625],[-7.019208306446672,62.12794203311205,125.74609375],[-7.019420452415943,62.127936920151114,122.96484375],[-7.019620276987553,62.127908170223236,121.60546875],[-7.019800236448646,62.12786332704127,121.39453125],[-7.019974496215582,62.12779400870204,122.515625],[-7.020146073773503,62.1277201641351,123.80078125],[-7.0202861353755,62.1276546176523,125.0625],[-7.02043566852808,62.12759334594011,125.91015625],[-7.020647311583161,62.12754632346332,125.0078125],[-7.020844537764788,62.127465941011906,125.671875],[-7.021067831665278,62.12739075534046,125.234375],[-7.02124041505158,62.12732654996216,125.01171875],[-7.021422553807497,62.127280198037624,123.63671875],[-7.021645847707987,62.127230828627944,121.48828125],[-7.021865285933018,62.12718615308404,119.046875],[-7.022067289799452,62.127122953534126,117.60546875],[-7.022341294214129,62.1270586643368,114.94921875],[-7.022561822086573,62.12698238901794,114.8984375],[-7.022756449878216,62.126856576651335,117.609375],[-7.022934146225452,62.12676353752613,118.99609375],[-7.023111423477531,62.12665884755552,120.8046875],[-7.023275457322598,62.12657980620861,121.69921875],[-7.023491794243455,62.126508224755526,121.48828125],[-7.023659013211727,62.1264198794961,122.44140625],[-7.023844588547945,62.12633262388408,122.79296875],[-7.024107612669468,62.12626221589744,120.94921875],[-7.024328140541911,62.126206727698445,119.4765625],[-7.024653274565935,62.12618049234152,115.390625],[-7.024854607880116,62.126182252541184,112.22265625],[-7.025058791041374,62.12616691365838,109.8359375],[-7.025249060243368,62.12613011710346,108.48046875],[-7.02547344379127,62.12609080597758,106.75390625],[-7.025665389373899,62.12603934109211,105.96484375],[-7.025879714637995,62.12600514292717,105.0625],[-7.026084316894412,62.12596784345806,104.62109375],[-7.026308448985219,62.125923335552216,104.2421875],[-7.026516487821937,62.12587773799896,104.0234375],[-7.026644982397556,62.125798277556896,105.953125],[-7.02687531709671,62.125754188746214,105.9453125],[-7.027050666511059,62.12571915239096,105.90625],[-7.027241606265307,62.125678081065416,105.8828125],[-7.027426930144429,62.12565092369914,105.5078125],[-7.027654414996505,62.125630639493465,105.14453125],[-7.027842421084642,62.125611025840044,104.90625],[-7.02807929366827,62.12560406886041,104.0625],[-7.028315076604486,62.12559652514756,103.328125],[-7.02859427779913,62.12557598948479,102.953125],[-7.02883224003017,62.125525530427694,103.53515625],[-7.029025694355369,62.125483034178615,104.02734375],[-7.02921386808157,62.1254750713706,103.3671875],[-7.029385026544333,62.12543626315892,103.5703125],[-7.029549647122622,62.12539351545274,103.90625],[-7.029777634888887,62.12540701031685,102.45703125],[-7.029997240751982,62.12540499866009,101.71484375],[-7.030190695077181,62.1254010591656,101.33203125],[-7.030396806076169,62.1253992151469,100.859375],[-7.030605096369982,62.125403825193644,100.21875],[-7.030828474089503,62.12540013715625,99.62890625],[-7.031041877344251,62.12541723623872,98.4296875],[-7.031279252842069,62.12541790679097,97.55859375],[-7.031490979716182,62.12540868669748,97.02734375],[-7.031704550608993,62.12541648186743,95.88671875],[-7.031937902793288,62.12542109191418,94.671875],[-7.032171674072743,62.125413129106164,93.77734375],[-7.032373091205955,62.12541732005775,92.71875],[-7.03258641064167,62.12541329674423,91.8203125],[-7.032790761440992,62.12540013715625,91.21484375],[-7.03299829736352,62.125385804101825,90.6328125],[-7.033211030066013,62.12539670057595,89.33984375],[-7.033436251804233,62.12539091706276,88.15234375],[-7.033712519332767,62.125364765524864,87.21484375],[-7.033948553726077,62.12533517740667,86.61328125],[-7.034146785736084,62.12531187571585,85.90234375],[-7.034376617521048,62.12530558928847,84.30078125],[-7.034593960270286,62.12529360316694,82.9375],[-7.034808872267604,62.125255297869444,82.24609375],[-7.035019677132368,62.125214310362935,81.609375],[-7.03520692884922,62.12518656626344,80.7890625],[-7.03542779199779,62.125169802457094,79.40625],[-7.035625437274575,62.12512403726578,78.859375],[-7.035824172198772,62.125078942626715,78.109375],[-7.036019135266542,62.125034937635064,77.1796875],[-7.036219462752342,62.124999314546585,75.9296875],[-7.036439571529627,62.124963607639074,74.3984375],[-7.036637216806412,62.12490225210786,73.3046875],[-7.03684969805181,62.1248431596905,71.62109375],[-7.037088666111231,62.12479010224342,69.2890625],[-7.037262171506882,62.124742325395346,67.56640625],[-7.037422684952617,62.12468574754894,66.01953125],[-7.037583785131574,62.12462665513158,64.6640625],[-7.037806157022715,62.12456764653325,62.6015625],[-7.038052333518863,62.124515511095524,59.87890625],[-7.038236651569605,62.12445524521172,57.9609375],[-7.038379814475775,62.12439606897533,56.62109375],[-7.038547033444047,62.12432633154094,54.96484375],[-7.038738140836358,62.12426455691457,52.77734375],[-7.038906617090106,62.124208649620414,50.7734375],[-7.039070734754205,62.12415089830756,48.85546875],[-7.039235271513462,62.12408032268286,47.3984375],[-7.039448004215956,62.12403003126383,45.11328125],[-7.039682026952505,62.123980075120926,42.49609375],[-7.039842959493399,62.123910170048475,40.875],[-7.03996860422194,62.12384060025215,39.65234375],[-7.040100786834955,62.123769940808415,38.34375],[-7.040262641385198,62.12370556779206,36.578125],[-7.040526838973165,62.12366566993296,33.21875],[-7.040706211701036,62.12360406294465,31.06640625],[-7.040872927755117,62.123535415157676,29.58203125],[-7.040941407904029,62.12345494888723,29.1484375],[-7.041038051247597,62.123378003016114,28.328125],[-7.041127905249596,62.12332360446453,27.4609375],[-7.041431581601501,62.12318672798574,24.12890625],[-7.041732408106327,62.123120008036494,22.19140625],[-7.041999874636531,62.12306007742882,21.3125],[-7.042242782190442,62.122950023040175,20.484375],[-7.042529443278909,62.12280803360045,20],[-7.042748630046845,62.12266688235104,20],[-7.043033195659518,62.122474601492286,20],[-7.043261099606752,62.12227050215006,19.9921875],[-7.043465534225106,62.12204142473638,20],[-7.043602494522929,62.12193623185158,20],[-7.0437076035887,62.12179474532604,20],[-7.043779939413071,62.12167790159583,20],[-7.043866943567991,62.12156357243657,20],[-7.043915558606386,62.12145511060953,20],[-7.04398806206882,62.12134103290737,20]]}},{"type":"Feature","properties":{"name":"WP1 03_HL","type":"user","time":"2020-07-21T14:01:25Z","gpxx_WaypointExtension":"SymbolAndName","gpxx_DisplayMode":"SymbolAndName","wptx1_WaypointExtension":"SymbolAndName","wptx1_DisplayMode":"SymbolAndName","ctx_CreationTimeExtension":"2020-07-21T14:01:25Z","ctx_CreationTime":"2020-07-21T14:01:25Z","sym":"Flag, Blue"},"geometry":{"type":"Point","coordinates":[-6.96254001930356,62.151930034160614,149.307297]}},{"type":"Feature","properties":{"name":"WP2 12_HL","type":"user","time":"2020-07-21T14:52:12Z","gpxx_WaypointExtension":"SymbolAndName","gpxx_DisplayMode":"SymbolAndName","wptx1_WaypointExtension":"SymbolAndName","wptx1_DisplayMode":"SymbolAndName","ctx_CreationTimeExtension":"2020-07-21T14:52:12Z","ctx_CreationTime":"2020-07-21T14:52:12Z","sym":"Flag, Blue"},"geometry":{"type":"Point","coordinates":[-6.989232022315264,62.14341997168958,504.637512]}},{"type":"Feature","properties":{"name":"WP3 29_HL","type":"user","time":"2020-07-21T16:06:45Z","gpxx_WaypointExtension":"SymbolAndName","gpxx_DisplayMode":"SymbolAndName","wptx1_WaypointExtension":"SymbolAndName","wptx1_DisplayMode":"SymbolAndName","ctx_CreationTimeExtension":"2020-07-21T16:06:45Z","ctx_CreationTime":"2020-07-21T16:06:45Z","sym":"Flag, Blue"},"geometry":{"type":"Point","coordinates":[-7.017432013526559,62.12949100881815,60.819565]}}]}