{"type":"FeatureCollection","features":[{"type":"Feature","properties":{"_gpxType":"trk","name":"13 Wanderung Skeidskarð Norðradalur","time":"2020-07-21T07:58:06Z","gpxx_TrackExtension":"Black","gpxx_DisplayColor":"Black","coordinateProperties":{"times":["2020-07-21T07:58:06Z","2020-07-21T07:58:37Z","2020-07-21T07:58:44Z","2020-07-21T07:58:51Z","2020-07-21T07:58:58Z","2020-07-21T07:59:05Z","2020-07-21T07:59:12Z","2020-07-21T07:59:19Z","2020-07-21T07:59:25Z","2020-07-21T07:59:32Z","2020-07-21T07:59:38Z","2020-07-21T07:59:45Z","2020-07-21T07:59:57Z","2020-07-21T08:00:03Z","2020-07-21T08:00:09Z","2020-07-21T08:00:15Z","2020-07-21T08:00:21Z","2020-07-21T08:00:27Z","2020-07-21T08:00:33Z","2020-07-21T08:00:40Z","2020-07-21T08:01:35Z","2020-07-21T08:01:41Z","2020-07-21T08:01:47Z","2020-07-21T08:01:58Z","2020-07-21T08:02:04Z","2020-07-21T08:02:10Z","2020-07-21T08:02:16Z","2020-07-21T08:02:22Z","2020-07-21T08:02:28Z","2020-07-21T08:02:34Z","2020-07-21T08:02:41Z","2020-07-21T08:02:47Z","2020-07-21T08:02:54Z","2020-07-21T08:03:01Z","2020-07-21T08:03:07Z","2020-07-21T08:03:14Z","2020-07-21T08:03:22Z","2020-07-21T08:03:50Z","2020-07-21T08:03:58Z","2020-07-21T08:04:11Z","2020-07-21T08:04:18Z","2020-07-21T08:04:24Z","2020-07-21T08:04:32Z","2020-07-21T08:04:39Z","2020-07-21T08:04:57Z","2020-07-21T08:05:05Z","2020-07-21T08:05:13Z","2020-07-21T08:05:19Z","2020-07-21T08:05:27Z","2020-07-21T08:05:36Z","2020-07-21T08:05:44Z","2020-07-21T08:06:01Z","2020-07-21T08:06:10Z","2020-07-21T08:06:18Z","2020-07-21T08:06:25Z","2020-07-21T08:06:31Z","2020-07-21T08:06:37Z","2020-07-21T08:06:44Z","2020-07-21T08:06:51Z","2020-07-21T08:06:57Z","2020-07-21T08:07:03Z","2020-07-21T08:07:10Z","2020-07-21T08:07:16Z","2020-07-21T08:07:23Z","2020-07-21T08:07:31Z","2020-07-21T08:07:38Z","2020-07-21T08:07:45Z","2020-07-21T08:07:52Z","2020-07-21T08:07:59Z","2020-07-21T08:08:05Z","2020-07-21T08:08:12Z","2020-07-21T08:08:18Z","2020-07-21T08:08:24Z","2020-07-21T08:08:30Z","2020-07-21T08:08:36Z","2020-07-21T08:08:43Z","2020-07-21T08:08:50Z","2020-07-21T08:08:56Z","2020-07-21T08:09:02Z","2020-07-21T08:09:09Z","2020-07-21T08:09:16Z","2020-07-21T08:09:23Z","2020-07-21T08:09:29Z","2020-07-21T08:09:35Z","2020-07-21T08:09:42Z","2020-07-21T08:09:49Z","2020-07-21T08:09:55Z","2020-07-21T08:10:00Z","2020-07-21T08:10:07Z","2020-07-21T08:10:13Z","2020-07-21T08:10:20Z","2020-07-21T08:10:26Z","2020-07-21T08:10:32Z","2020-07-21T08:10:39Z","2020-07-21T08:10:46Z","2020-07-21T08:10:52Z","2020-07-21T08:10:58Z","2020-07-21T08:11:05Z","2020-07-21T08:11:12Z","2020-07-21T08:11:18Z","2020-07-21T08:11:24Z","2020-07-21T08:11:30Z","2020-07-21T08:11:37Z","2020-07-21T08:11:44Z","2020-07-21T08:11:51Z","2020-07-21T08:11:57Z","2020-07-21T08:12:03Z","2020-07-21T08:12:09Z","2020-07-21T08:12:15Z","2020-07-21T08:12:22Z","2020-07-21T08:12:29Z","2020-07-21T08:12:35Z","2020-07-21T08:12:41Z","2020-07-21T08:12:47Z","2020-07-21T08:12:54Z","2020-07-21T08:13:15Z","2020-07-21T08:13:23Z","2020-07-21T08:13:30Z","2020-07-21T08:13:36Z","2020-07-21T08:13:42Z","2020-07-21T08:13:48Z","2020-07-21T08:13:54Z","2020-07-21T08:14:01Z","2020-07-21T08:14:08Z","2020-07-21T08:14:16Z","2020-07-21T08:14:23Z","2020-07-21T08:14:30Z","2020-07-21T08:14:37Z","2020-07-21T08:14:43Z","2020-07-21T08:14:49Z","2020-07-21T08:14:56Z","2020-07-21T08:15:03Z","2020-07-21T08:15:09Z","2020-07-21T08:15:15Z","2020-07-21T08:15:22Z","2020-07-21T08:15:29Z","2020-07-21T08:15:36Z","2020-07-21T08:15:56Z","2020-07-21T08:16:03Z","2020-07-21T08:16:10Z","2020-07-21T08:16:16Z","2020-07-21T08:16:21Z","2020-07-21T08:16:27Z","2020-07-21T08:16:33Z","2020-07-21T08:16:40Z","2020-07-21T08:16:47Z","2020-07-21T08:16:54Z","2020-07-21T08:17:00Z","2020-07-21T08:17:07Z","2020-07-21T08:17:14Z","2020-07-21T08:17:21Z","2020-07-21T08:17:29Z","2020-07-21T08:17:36Z","2020-07-21T08:17:44Z","2020-07-21T08:17:51Z","2020-07-21T08:17:59Z","2020-07-21T08:18:06Z","2020-07-21T08:18:13Z","2020-07-21T08:18:21Z","2020-07-21T08:41:11Z","2020-07-21T08:41:28Z","2020-07-21T08:41:37Z","2020-07-21T08:41:45Z","2020-07-21T08:41:52Z","2020-07-21T08:41:59Z","2020-07-21T08:42:07Z","2020-07-21T08:42:14Z","2020-07-21T08:42:22Z","2020-07-21T08:42:30Z","2020-07-21T08:42:40Z","2020-07-21T08:42:48Z","2020-07-21T08:42:55Z","2020-07-21T08:43:02Z","2020-07-21T08:43:09Z","2020-07-21T08:43:16Z","2020-07-21T08:43:25Z","2020-07-21T08:43:34Z","2020-07-21T08:43:42Z","2020-07-21T08:44:18Z","2020-07-21T08:45:04Z","2020-07-21T08:45:21Z","2020-07-21T08:45:35Z","2020-07-21T08:45:44Z","2020-07-21T08:45:53Z","2020-07-21T08:46:06Z","2020-07-21T08:46:25Z","2020-07-21T08:46:37Z","2020-07-21T08:46:46Z","2020-07-21T08:46:56Z","2020-07-21T08:47:04Z","2020-07-21T08:47:12Z","2020-07-21T08:47:24Z","2020-07-21T08:47:34Z","2020-07-21T08:47:43Z","2020-07-21T08:47:51Z","2020-07-21T08:47:59Z","2020-07-21T08:48:08Z","2020-07-21T08:48:18Z","2020-07-21T08:48:27Z","2020-07-21T08:48:37Z","2020-07-21T08:48:47Z","2020-07-21T08:49:14Z","2020-07-21T08:49:21Z","2020-07-21T08:49:28Z","2020-07-21T08:49:36Z","2020-07-21T08:49:44Z","2020-07-21T08:49:53Z","2020-07-21T08:50:03Z","2020-07-21T08:50:13Z","2020-07-21T08:50:29Z","2020-07-21T08:51:06Z","2020-07-21T08:51:15Z","2020-07-21T08:51:31Z","2020-07-21T08:51:43Z","2020-07-21T08:52:09Z","2020-07-21T08:52:19Z","2020-07-21T08:52:29Z","2020-07-21T08:52:50Z","2020-07-21T08:53:16Z","2020-07-21T08:53:42Z","2020-07-21T08:54:23Z","2020-07-21T08:55:36Z","2020-07-21T08:59:22Z","2020-07-21T08:59:29Z","2020-07-21T08:59:37Z","2020-07-21T08:59:46Z","2020-07-21T08:59:53Z","2020-07-21T09:00:01Z","2020-07-21T09:00:21Z","2020-07-21T09:00:37Z","2020-07-21T09:00:56Z","2020-07-21T09:01:05Z","2020-07-21T09:01:12Z","2020-07-21T09:01:20Z","2020-07-21T09:01:29Z","2020-07-21T09:01:39Z","2020-07-21T09:01:52Z","2020-07-21T09:02:05Z","2020-07-21T09:02:20Z","2020-07-21T09:02:35Z","2020-07-21T09:02:54Z","2020-07-21T09:03:03Z","2020-07-21T09:03:12Z","2020-07-21T09:03:25Z","2020-07-21T09:03:36Z","2020-07-21T09:03:47Z","2020-07-21T09:03:57Z","2020-07-21T09:04:06Z","2020-07-21T09:04:15Z","2020-07-21T09:04:24Z","2020-07-21T09:04:37Z","2020-07-21T09:04:47Z","2020-07-21T09:04:56Z","2020-07-21T09:05:04Z","2020-07-21T09:05:16Z","2020-07-21T09:05:52Z","2020-07-21T09:06:27Z","2020-07-21T09:06:49Z","2020-07-21T09:07:00Z","2020-07-21T09:07:08Z","2020-07-21T09:07:15Z","2020-07-21T09:07:22Z","2020-07-21T09:07:29Z","2020-07-21T09:07:36Z","2020-07-21T09:07:43Z","2020-07-21T09:07:51Z","2020-07-21T09:07:59Z","2020-07-21T09:08:06Z","2020-07-21T09:08:13Z","2020-07-21T09:08:20Z","2020-07-21T09:08:27Z","2020-07-21T09:08:36Z","2020-07-21T09:08:45Z","2020-07-21T09:08:54Z","2020-07-21T09:09:02Z","2020-07-21T09:09:11Z","2020-07-21T09:09:22Z","2020-07-21T09:09:32Z","2020-07-21T09:09:40Z","2020-07-21T09:09:49Z","2020-07-21T09:10:01Z","2020-07-21T09:10:09Z","2020-07-21T09:10:18Z","2020-07-21T09:10:48Z","2020-07-21T09:10:57Z","2020-07-21T09:11:05Z","2020-07-21T09:11:12Z","2020-07-21T09:11:20Z","2020-07-21T09:11:29Z","2020-07-21T09:11:38Z","2020-07-21T09:11:47Z","2020-07-21T09:11:56Z","2020-07-21T09:12:03Z","2020-07-21T09:12:11Z","2020-07-21T09:12:22Z","2020-07-21T09:12:30Z","2020-07-21T09:12:38Z","2020-07-21T09:12:46Z","2020-07-21T09:12:55Z","2020-07-21T09:13:05Z","2020-07-21T09:13:15Z","2020-07-21T09:13:24Z","2020-07-21T09:13:34Z","2020-07-21T09:13:44Z","2020-07-21T09:13:57Z","2020-07-21T09:14:07Z","2020-07-21T09:14:14Z","2020-07-21T09:14:22Z","2020-07-21T09:14:30Z","2020-07-21T09:14:39Z","2020-07-21T09:15:13Z","2020-07-21T09:15:27Z","2020-07-21T09:15:36Z","2020-07-21T09:15:47Z","2020-07-21T09:15:56Z","2020-07-21T09:16:12Z","2020-07-21T09:16:23Z","2020-07-21T09:16:39Z","2020-07-21T09:17:02Z","2020-07-21T09:17:16Z","2020-07-21T09:17:35Z","2020-07-21T09:17:51Z","2020-07-21T09:18:08Z","2020-07-21T09:18:28Z","2020-07-21T09:18:41Z","2020-07-21T09:19:09Z","2020-07-21T09:19:26Z","2020-07-21T09:19:45Z","2020-07-21T09:20:03Z","2020-07-21T09:20:19Z","2020-07-21T09:20:31Z","2020-07-21T09:20:47Z","2020-07-21T09:21:11Z","2020-07-21T09:21:22Z","2020-07-21T09:25:58Z","2020-07-21T09:26:10Z","2020-07-21T09:26:25Z","2020-07-21T09:26:53Z","2020-07-21T09:27:05Z","2020-07-21T09:27:13Z","2020-07-21T09:27:19Z","2020-07-21T09:27:27Z","2020-07-21T09:27:34Z","2020-07-21T09:27:45Z","2020-07-21T09:28:25Z","2020-07-21T09:28:45Z","2020-07-21T09:29:06Z","2020-07-21T09:29:15Z","2020-07-21T09:29:23Z","2020-07-21T09:29:31Z","2020-07-21T09:29:39Z","2020-07-21T09:29:54Z","2020-07-21T09:30:02Z","2020-07-21T09:30:10Z","2020-07-21T09:30:18Z","2020-07-21T09:30:34Z","2020-07-21T09:30:42Z","2020-07-21T09:30:52Z","2020-07-21T09:31:01Z","2020-07-21T09:31:09Z","2020-07-21T09:31:17Z","2020-07-21T09:31:27Z","2020-07-21T09:31:43Z","2020-07-21T09:31:51Z","2020-07-21T09:32:02Z","2020-07-21T09:32:20Z","2020-07-21T09:32:30Z","2020-07-21T09:32:38Z","2020-07-21T09:32:47Z","2020-07-21T09:32:58Z","2020-07-21T09:33:07Z","2020-07-21T09:33:16Z","2020-07-21T09:33:24Z","2020-07-21T09:33:31Z","2020-07-21T09:33:40Z","2020-07-21T09:33:51Z","2020-07-21T09:33:59Z","2020-07-21T09:34:08Z","2020-07-21T09:34:16Z","2020-07-21T09:34:23Z","2020-07-21T09:34:31Z","2020-07-21T09:34:39Z","2020-07-21T09:34:48Z","2020-07-21T09:34:57Z","2020-07-21T09:35:07Z","2020-07-21T09:35:17Z","2020-07-21T09:35:26Z","2020-07-21T09:35:35Z","2020-07-21T09:35:44Z","2020-07-21T09:35:52Z","2020-07-21T09:36:03Z","2020-07-21T09:36:14Z","2020-07-21T09:36:25Z","2020-07-21T09:36:37Z","2020-07-21T09:36:47Z","2020-07-21T09:37:00Z","2020-07-21T09:37:09Z","2020-07-21T09:37:19Z","2020-07-21T09:37:27Z","2020-07-21T09:37:35Z","2020-07-21T09:37:44Z","2020-07-21T09:38:51Z","2020-07-21T09:39:01Z","2020-07-21T09:39:11Z","2020-07-21T09:39:24Z","2020-07-21T09:39:33Z","2020-07-21T09:39:51Z","2020-07-21T09:40:01Z","2020-07-21T09:40:09Z","2020-07-21T09:40:20Z","2020-07-21T09:40:28Z","2020-07-21T09:40:43Z","2020-07-21T09:40:53Z","2020-07-21T09:41:02Z","2020-07-21T09:41:11Z","2020-07-21T09:41:20Z","2020-07-21T09:41:28Z","2020-07-21T09:41:35Z","2020-07-21T09:41:42Z","2020-07-21T09:41:50Z","2020-07-21T09:41:58Z","2020-07-21T09:42:06Z","2020-07-21T09:42:32Z","2020-07-21T09:43:11Z","2020-07-21T09:43:29Z","2020-07-21T09:43:47Z","2020-07-21T09:44:01Z","2020-07-21T09:44:18Z","2020-07-21T09:44:30Z","2020-07-21T09:44:38Z","2020-07-21T09:44:48Z","2020-07-21T09:45:03Z","2020-07-21T09:45:17Z","2020-07-21T09:45:31Z","2020-07-21T09:45:47Z","2020-07-21T09:46:01Z","2020-07-21T09:46:18Z","2020-07-21T09:46:50Z","2020-07-21T09:48:26Z","2020-07-21T09:48:44Z","2020-07-21T09:48:59Z","2020-07-21T09:49:09Z","2020-07-21T09:49:20Z","2020-07-21T09:49:28Z","2020-07-21T09:49:37Z","2020-07-21T09:49:48Z","2020-07-21T09:49:57Z","2020-07-21T09:50:07Z","2020-07-21T09:50:19Z","2020-07-21T09:50:29Z","2020-07-21T09:50:41Z","2020-07-21T09:51:17Z","2020-07-21T09:51:34Z","2020-07-21T09:51:53Z","2020-07-21T09:52:16Z","2020-07-21T09:52:36Z","2020-07-21T09:52:50Z","2020-07-21T09:53:05Z","2020-07-21T09:53:21Z","2020-07-21T09:53:40Z","2020-07-21T09:53:56Z","2020-07-21T09:54:13Z","2020-07-21T09:54:25Z","2020-07-21T09:54:36Z","2020-07-21T09:54:45Z","2020-07-21T09:54:56Z","2020-07-21T09:55:11Z","2020-07-21T09:55:21Z","2020-07-21T09:55:34Z","2020-07-21T09:55:48Z","2020-07-21T09:56:02Z","2020-07-21T09:56:13Z","2020-07-21T09:56:22Z","2020-07-21T09:56:32Z","2020-07-21T09:56:41Z","2020-07-21T09:56:49Z","2020-07-21T09:56:58Z","2020-07-21T09:57:07Z","2020-07-21T09:57:16Z","2020-07-21T09:57:24Z","2020-07-21T09:57:33Z","2020-07-21T09:57:42Z","2020-07-21T09:57:52Z","2020-07-21T09:58:01Z","2020-07-21T09:58:09Z","2020-07-21T09:58:17Z","2020-07-21T09:58:26Z","2020-07-21T09:58:34Z","2020-07-21T09:58:41Z","2020-07-21T09:58:49Z","2020-07-21T09:58:56Z","2020-07-21T09:59:06Z","2020-07-21T09:59:14Z","2020-07-21T09:59:24Z","2020-07-21T09:59:37Z","2020-07-21T09:59:46Z","2020-07-21T09:59:55Z","2020-07-21T10:00:06Z","2020-07-21T10:00:18Z","2020-07-21T10:00:54Z","2020-07-21T10:01:02Z","2020-07-21T10:01:11Z","2020-07-21T10:01:20Z","2020-07-21T10:01:28Z","2020-07-21T10:01:40Z","2020-07-21T10:06:00Z","2020-07-21T10:06:08Z","2020-07-21T10:06:19Z","2020-07-21T10:06:27Z","2020-07-21T10:06:37Z","2020-07-21T10:06:48Z","2020-07-21T10:06:57Z","2020-07-21T10:07:09Z","2020-07-21T10:07:19Z","2020-07-21T10:07:27Z","2020-07-21T10:07:39Z","2020-07-21T10:07:46Z","2020-07-21T10:07:56Z","2020-07-21T10:08:06Z","2020-07-21T10:08:14Z","2020-07-21T10:08:23Z","2020-07-21T10:08:32Z","2020-07-21T10:08:40Z","2020-07-21T10:08:48Z","2020-07-21T10:08:56Z","2020-07-21T10:09:10Z","2020-07-21T10:09:25Z","2020-07-21T10:09:33Z","2020-07-21T10:09:45Z","2020-07-21T10:09:54Z","2020-07-21T10:10:02Z","2020-07-21T10:10:10Z","2020-07-21T10:10:19Z","2020-07-21T10:10:43Z","2020-07-21T10:10:52Z","2020-07-21T10:11:03Z","2020-07-21T10:11:12Z","2020-07-21T10:11:20Z","2020-07-21T10:11:28Z","2020-07-21T10:11:36Z","2020-07-21T10:11:43Z","2020-07-21T10:11:55Z","2020-07-21T10:12:02Z","2020-07-21T10:12:09Z","2020-07-21T10:12:17Z","2020-07-21T10:12:25Z","2020-07-21T10:12:33Z","2020-07-21T10:12:40Z","2020-07-21T10:12:48Z","2020-07-21T10:12:57Z","2020-07-21T10:13:10Z","2020-07-21T10:13:20Z","2020-07-21T10:13:32Z","2020-07-21T10:13:41Z","2020-07-21T10:13:48Z","2020-07-21T10:13:57Z","2020-07-21T10:14:30Z","2020-07-21T10:14:37Z","2020-07-21T10:14:45Z","2020-07-21T10:15:06Z","2020-07-21T10:15:56Z","2020-07-21T10:16:04Z","2020-07-21T10:16:14Z","2020-07-21T10:16:21Z","2020-07-21T10:17:05Z","2020-07-21T10:17:43Z","2020-07-21T10:20:08Z","2020-07-21T10:20:52Z","2020-07-21T10:21:00Z","2020-07-21T10:21:08Z","2020-07-21T10:21:16Z","2020-07-21T10:21:24Z","2020-07-21T10:21:32Z","2020-07-21T10:21:40Z","2020-07-21T10:21:49Z","2020-07-21T10:22:02Z","2020-07-21T10:22:13Z","2020-07-21T10:22:27Z","2020-07-21T10:22:47Z","2020-07-21T10:23:07Z","2020-07-21T10:23:19Z","2020-07-21T10:23:33Z","2020-07-21T10:23:47Z","2020-07-21T10:24:05Z","2020-07-21T10:24:22Z","2020-07-21T10:24:37Z","2020-07-21T10:24:56Z","2020-07-21T10:25:14Z","2020-07-21T10:25:32Z","2020-07-21T10:25:46Z","2020-07-21T10:25:59Z","2020-07-21T10:26:15Z","2020-07-21T10:26:27Z","2020-07-21T10:26:42Z","2020-07-21T10:26:59Z","2020-07-21T10:27:13Z","2020-07-21T10:27:23Z","2020-07-21T10:27:32Z","2020-07-21T10:27:49Z","2020-07-21T10:29:14Z","2020-07-21T10:29:28Z","2020-07-21T10:29:42Z","2020-07-21T10:30:54Z","2020-07-21T10:31:32Z","2020-07-21T10:31:44Z","2020-07-21T10:31:54Z","2020-07-21T10:32:07Z","2020-07-21T10:32:24Z","2020-07-21T10:32:34Z","2020-07-21T10:32:43Z","2020-07-21T10:32:51Z","2020-07-21T10:32:59Z","2020-07-21T10:33:08Z","2020-07-21T10:33:17Z","2020-07-21T10:33:28Z","2020-07-21T10:33:38Z","2020-07-21T10:33:48Z","2020-07-21T10:33:56Z","2020-07-21T10:34:06Z","2020-07-21T10:34:14Z","2020-07-21T10:34:24Z","2020-07-21T10:34:33Z","2020-07-21T10:34:44Z","2020-07-21T10:34:53Z","2020-07-21T10:35:01Z","2020-07-21T10:35:12Z","2020-07-21T10:35:26Z","2020-07-21T10:35:36Z","2020-07-21T10:35:44Z","2020-07-21T10:35:54Z","2020-07-21T10:36:02Z","2020-07-21T10:36:10Z","2020-07-21T10:36:18Z","2020-07-21T10:36:26Z","2020-07-21T10:36:34Z","2020-07-21T10:36:43Z","2020-07-21T10:36:51Z","2020-07-21T10:36:59Z","2020-07-21T10:37:07Z","2020-07-21T10:37:15Z","2020-07-21T10:37:23Z","2020-07-21T10:37:32Z","2020-07-21T10:37:41Z","2020-07-21T10:37:49Z","2020-07-21T10:37:57Z","2020-07-21T10:38:05Z","2020-07-21T10:38:14Z","2020-07-21T10:38:36Z","2020-07-21T10:38:43Z","2020-07-21T10:38:50Z","2020-07-21T10:38:58Z","2020-07-21T10:39:07Z","2020-07-21T10:39:16Z","2020-07-21T10:39:28Z","2020-07-21T10:39:38Z","2020-07-21T10:39:47Z","2020-07-21T10:39:56Z","2020-07-21T10:40:05Z","2020-07-21T10:40:14Z","2020-07-21T10:40:29Z","2020-07-21T10:40:39Z","2020-07-21T10:40:48Z","2020-07-21T10:41:00Z","2020-07-21T10:41:09Z","2020-07-21T10:41:19Z","2020-07-21T10:41:28Z","2020-07-21T10:41:38Z","2020-07-21T10:41:48Z","2020-07-21T10:41:58Z","2020-07-21T10:42:07Z","2020-07-21T10:42:16Z","2020-07-21T10:42:23Z","2020-07-21T10:42:33Z","2020-07-21T10:42:43Z","2020-07-21T10:42:51Z","2020-07-21T10:42:59Z","2020-07-21T10:43:07Z","2020-07-21T10:43:15Z","2020-07-21T10:43:24Z","2020-07-21T10:43:32Z","2020-07-21T10:43:39Z","2020-07-21T10:43:47Z","2020-07-21T10:43:54Z","2020-07-21T10:44:01Z","2020-07-21T10:44:08Z","2020-07-21T10:44:16Z","2020-07-21T10:44:23Z","2020-07-21T10:44:30Z","2020-07-21T10:44:37Z","2020-07-21T10:44:37Z","2020-07-21T10:44:30Z","2020-07-21T10:44:23Z","2020-07-21T10:44:16Z","2020-07-21T10:44:08Z","2020-07-21T10:44:01Z","2020-07-21T10:43:54Z","2020-07-21T10:43:47Z","2020-07-21T10:43:39Z","2020-07-21T10:43:32Z","2020-07-21T10:43:24Z","2020-07-21T10:43:15Z","2020-07-21T10:43:07Z","2020-07-21T10:42:59Z","2020-07-21T10:42:51Z","2020-07-21T10:42:43Z","2020-07-21T10:42:33Z","2020-07-21T10:42:23Z","2020-07-21T10:42:16Z","2020-07-21T10:42:07Z","2020-07-21T10:41:58Z","2020-07-21T10:41:48Z","2020-07-21T10:41:38Z","2020-07-21T10:41:28Z","2020-07-21T10:41:19Z","2020-07-21T10:41:09Z","2020-07-21T10:41:00Z","2020-07-21T10:40:48Z","2020-07-21T10:40:39Z","2020-07-21T10:40:29Z","2020-07-21T10:40:14Z","2020-07-21T10:40:05Z","2020-07-21T10:39:56Z","2020-07-21T10:39:47Z","2020-07-21T10:39:38Z","2020-07-21T10:39:28Z","2020-07-21T10:39:16Z","2020-07-21T10:39:07Z","2020-07-21T10:38:58Z","2020-07-21T10:38:50Z","2020-07-21T10:38:43Z","2020-07-21T10:38:36Z","2020-07-21T10:38:14Z","2020-07-21T10:38:05Z","2020-07-21T10:37:57Z","2020-07-21T10:37:49Z","2020-07-21T10:37:41Z","2020-07-21T10:37:32Z","2020-07-21T10:37:23Z","2020-07-21T10:37:15Z","2020-07-21T10:37:07Z","2020-07-21T10:36:59Z","2020-07-21T10:36:51Z","2020-07-21T10:36:43Z","2020-07-21T10:36:34Z","2020-07-21T10:36:26Z","2020-07-21T10:36:18Z","2020-07-21T10:36:10Z","2020-07-21T10:36:02Z","2020-07-21T10:35:54Z","2020-07-21T10:35:44Z","2020-07-21T10:35:36Z","2020-07-21T10:35:26Z","2020-07-21T10:35:12Z","2020-07-21T10:35:01Z","2020-07-21T10:34:53Z","2020-07-21T10:34:44Z","2020-07-21T10:34:33Z","2020-07-21T10:34:24Z","2020-07-21T10:34:14Z","2020-07-21T10:34:06Z","2020-07-21T10:33:56Z","2020-07-21T10:33:48Z","2020-07-21T10:33:38Z","2020-07-21T10:33:28Z","2020-07-21T10:33:17Z","2020-07-21T10:33:08Z","2020-07-21T10:32:59Z","2020-07-21T10:32:51Z","2020-07-21T10:32:43Z","2020-07-21T10:32:34Z","2020-07-21T10:32:24Z","2020-07-21T10:32:07Z","2020-07-21T10:31:54Z","2020-07-21T10:31:44Z","2020-07-21T10:31:32Z","2020-07-21T10:30:54Z","2020-07-21T10:29:42Z","2020-07-21T10:29:28Z","2020-07-21T10:29:14Z","2020-07-21T10:27:49Z","2020-07-21T10:27:32Z","2020-07-21T10:27:23Z","2020-07-21T10:27:13Z","2020-07-21T10:26:59Z","2020-07-21T10:26:42Z","2020-07-21T10:26:27Z","2020-07-21T10:26:15Z","2020-07-21T10:25:59Z","2020-07-21T10:25:46Z","2020-07-21T10:25:32Z","2020-07-21T10:25:14Z","2020-07-21T10:24:56Z","2020-07-21T10:24:37Z","2020-07-21T10:24:22Z","2020-07-21T10:24:05Z","2020-07-21T10:23:47Z","2020-07-21T10:23:33Z","2020-07-21T10:23:19Z","2020-07-21T10:23:07Z","2020-07-21T10:22:47Z","2020-07-21T10:22:27Z","2020-07-21T10:22:13Z","2020-07-21T10:22:02Z","2020-07-21T10:21:49Z","2020-07-21T10:21:40Z","2020-07-21T10:21:32Z","2020-07-21T10:21:24Z","2020-07-21T10:21:16Z","2020-07-21T10:21:08Z","2020-07-21T10:21:00Z","2020-07-21T10:20:52Z","2020-07-21T10:20:08Z","2020-07-21T10:17:43Z","2020-07-21T10:17:05Z","2020-07-21T10:16:21Z","2020-07-21T10:16:14Z","2020-07-21T10:16:04Z","2020-07-21T10:15:56Z","2020-07-21T10:15:06Z","2020-07-21T10:14:45Z","2020-07-21T10:14:37Z","2020-07-21T10:14:30Z","2020-07-21T10:13:57Z","2020-07-21T10:13:48Z","2020-07-21T10:13:41Z","2020-07-21T10:13:32Z","2020-07-21T10:13:20Z","2020-07-21T10:13:10Z","2020-07-21T10:12:57Z","2020-07-21T10:12:48Z","2020-07-21T10:12:40Z","2020-07-21T10:12:33Z","2020-07-21T10:12:25Z","2020-07-21T10:12:17Z","2020-07-21T10:12:09Z","2020-07-21T10:12:02Z","2020-07-21T10:11:55Z","2020-07-21T10:11:43Z","2020-07-21T10:11:36Z","2020-07-21T10:11:28Z","2020-07-21T10:11:20Z","2020-07-21T10:11:12Z","2020-07-21T10:11:03Z","2020-07-21T10:10:52Z","2020-07-21T10:10:43Z","2020-07-21T10:10:19Z","2020-07-21T10:10:10Z","2020-07-21T10:10:02Z","2020-07-21T10:09:54Z","2020-07-21T10:09:45Z","2020-07-21T10:09:33Z","2020-07-21T10:09:25Z","2020-07-21T10:09:10Z","2020-07-21T10:08:56Z","2020-07-21T10:08:48Z","2020-07-21T10:08:40Z","2020-07-21T10:08:32Z","2020-07-21T10:08:23Z","2020-07-21T10:08:14Z","2020-07-21T10:08:06Z","2020-07-21T10:07:56Z","2020-07-21T10:07:46Z","2020-07-21T10:07:39Z","2020-07-21T10:07:27Z","2020-07-21T10:07:19Z","2020-07-21T10:07:09Z","2020-07-21T10:06:57Z","2020-07-21T10:06:48Z","2020-07-21T10:06:37Z","2020-07-21T10:06:27Z","2020-07-21T10:06:19Z","2020-07-21T10:06:08Z","2020-07-21T10:06:00Z","2020-07-21T10:01:40Z","2020-07-21T10:01:28Z","2020-07-21T10:01:20Z","2020-07-21T10:01:11Z","2020-07-21T10:01:02Z","2020-07-21T10:00:54Z","2020-07-21T10:00:18Z","2020-07-21T10:00:06Z","2020-07-21T09:59:55Z","2020-07-21T09:59:46Z","2020-07-21T09:59:37Z","2020-07-21T09:59:24Z","2020-07-21T09:59:14Z","2020-07-21T09:59:06Z","2020-07-21T09:58:56Z","2020-07-21T09:58:49Z","2020-07-21T09:58:41Z","2020-07-21T09:58:34Z","2020-07-21T09:58:26Z","2020-07-21T09:58:17Z","2020-07-21T09:58:09Z","2020-07-21T09:58:01Z","2020-07-21T09:57:52Z","2020-07-21T09:57:42Z","2020-07-21T09:57:33Z","2020-07-21T09:57:24Z","2020-07-21T09:57:16Z","2020-07-21T09:57:07Z","2020-07-21T09:56:58Z","2020-07-21T09:56:49Z","2020-07-21T09:56:41Z","2020-07-21T09:56:32Z","2020-07-21T09:56:22Z","2020-07-21T09:56:13Z","2020-07-21T09:56:02Z","2020-07-21T09:55:48Z","2020-07-21T09:55:34Z","2020-07-21T09:55:21Z","2020-07-21T09:55:11Z","2020-07-21T09:54:56Z","2020-07-21T09:54:45Z","2020-07-21T09:54:36Z","2020-07-21T09:54:25Z","2020-07-21T09:54:13Z","2020-07-21T09:53:56Z","2020-07-21T09:53:40Z","2020-07-21T09:53:21Z","2020-07-21T09:53:05Z","2020-07-21T09:52:50Z","2020-07-21T09:52:36Z","2020-07-21T09:52:16Z","2020-07-21T09:51:53Z","2020-07-21T09:51:34Z","2020-07-21T09:51:17Z","2020-07-21T09:50:41Z","2020-07-21T09:50:29Z","2020-07-21T09:50:19Z","2020-07-21T09:50:07Z","2020-07-21T09:49:57Z","2020-07-21T09:49:48Z","2020-07-21T09:49:37Z","2020-07-21T09:49:28Z","2020-07-21T09:49:20Z","2020-07-21T09:49:09Z","2020-07-21T09:48:59Z","2020-07-21T09:48:44Z","2020-07-21T09:48:26Z","2020-07-21T09:46:50Z","2020-07-21T09:46:18Z","2020-07-21T09:46:01Z","2020-07-21T09:45:47Z","2020-07-21T09:45:31Z","2020-07-21T09:45:17Z","2020-07-21T09:45:03Z","2020-07-21T09:44:48Z","2020-07-21T09:44:38Z","2020-07-21T09:44:30Z","2020-07-21T09:44:18Z","2020-07-21T09:44:01Z","2020-07-21T09:43:47Z","2020-07-21T09:43:29Z","2020-07-21T09:43:11Z","2020-07-21T09:42:32Z","2020-07-21T09:42:06Z","2020-07-21T09:41:58Z","2020-07-21T09:41:50Z","2020-07-21T09:41:42Z","2020-07-21T09:41:35Z","2020-07-21T09:41:28Z","2020-07-21T09:41:20Z","2020-07-21T09:41:11Z","2020-07-21T09:41:02Z","2020-07-21T09:40:53Z","2020-07-21T09:40:43Z","2020-07-21T09:40:28Z","2020-07-21T09:40:20Z","2020-07-21T09:40:09Z","2020-07-21T09:40:01Z","2020-07-21T09:39:51Z","2020-07-21T09:39:33Z","2020-07-21T09:39:24Z","2020-07-21T09:39:11Z","2020-07-21T09:39:01Z","2020-07-21T09:38:51Z","2020-07-21T09:37:44Z","2020-07-21T09:37:35Z","2020-07-21T09:37:27Z","2020-07-21T09:37:19Z","2020-07-21T09:37:09Z","2020-07-21T09:37:00Z","2020-07-21T09:36:47Z","2020-07-21T09:36:37Z","2020-07-21T09:36:25Z","2020-07-21T09:36:14Z","2020-07-21T09:36:03Z","2020-07-21T09:35:52Z","2020-07-21T09:35:44Z","2020-07-21T09:35:35Z","2020-07-21T09:35:26Z","2020-07-21T09:35:17Z","2020-07-21T09:35:07Z","2020-07-21T09:34:57Z","2020-07-21T09:34:48Z","2020-07-21T09:34:39Z","2020-07-21T09:34:31Z","2020-07-21T09:34:23Z","2020-07-21T09:34:16Z","2020-07-21T09:34:08Z","2020-07-21T09:33:59Z","2020-07-21T09:33:51Z","2020-07-21T09:33:40Z","2020-07-21T09:33:31Z","2020-07-21T09:33:24Z","2020-07-21T09:33:16Z","2020-07-21T09:33:07Z","2020-07-21T09:32:58Z","2020-07-21T09:32:47Z","2020-07-21T09:32:38Z","2020-07-21T09:32:30Z","2020-07-21T09:32:20Z","2020-07-21T09:32:02Z","2020-07-21T09:31:51Z","2020-07-21T09:31:43Z","2020-07-21T09:31:27Z","2020-07-21T09:31:17Z","2020-07-21T09:31:09Z","2020-07-21T09:31:01Z","2020-07-21T09:30:52Z","2020-07-21T09:30:42Z","2020-07-21T09:30:34Z","2020-07-21T09:30:18Z","2020-07-21T09:30:10Z","2020-07-21T09:30:02Z","2020-07-21T09:29:54Z","2020-07-21T09:29:39Z","2020-07-21T09:29:31Z","2020-07-21T09:29:23Z","2020-07-21T09:29:15Z","2020-07-21T09:29:06Z","2020-07-21T09:28:45Z","2020-07-21T09:28:25Z","2020-07-21T09:27:45Z","2020-07-21T09:27:34Z","2020-07-21T09:27:27Z","2020-07-21T09:27:19Z","2020-07-21T09:27:13Z","2020-07-21T09:27:05Z","2020-07-21T09:26:53Z","2020-07-21T09:26:25Z","2020-07-21T09:26:10Z","2020-07-21T09:25:58Z","2020-07-21T09:21:22Z","2020-07-21T09:21:11Z","2020-07-21T09:20:47Z","2020-07-21T09:20:31Z","2020-07-21T09:20:19Z","2020-07-21T09:20:03Z","2020-07-21T09:19:45Z","2020-07-21T09:19:26Z","2020-07-21T09:19:09Z","2020-07-21T09:18:41Z","2020-07-21T09:18:28Z","2020-07-21T09:18:08Z","2020-07-21T09:17:51Z","2020-07-21T09:17:35Z","2020-07-21T09:17:16Z","2020-07-21T09:17:02Z","2020-07-21T09:16:39Z","2020-07-21T09:16:23Z","2020-07-21T09:16:12Z","2020-07-21T09:15:56Z","2020-07-21T09:15:47Z","2020-07-21T09:15:36Z","2020-07-21T09:15:27Z","2020-07-21T09:15:13Z","2020-07-21T09:14:39Z","2020-07-21T09:14:30Z","2020-07-21T09:14:22Z","2020-07-21T09:14:14Z","2020-07-21T09:14:07Z","2020-07-21T09:13:57Z","2020-07-21T09:13:44Z","2020-07-21T09:13:34Z","2020-07-21T09:13:24Z","2020-07-21T09:13:15Z","2020-07-21T09:13:05Z","2020-07-21T09:12:55Z","2020-07-21T09:12:46Z","2020-07-21T09:12:38Z","2020-07-21T09:12:30Z","2020-07-21T09:12:22Z","2020-07-21T09:12:11Z","2020-07-21T09:12:03Z","2020-07-21T09:11:56Z","2020-07-21T09:11:47Z","2020-07-21T09:11:38Z","2020-07-21T09:11:29Z","2020-07-21T09:11:20Z","2020-07-21T09:11:12Z","2020-07-21T09:11:05Z","2020-07-21T09:10:57Z","2020-07-21T09:10:48Z","2020-07-21T09:10:18Z","2020-07-21T09:10:09Z","2020-07-21T09:10:01Z","2020-07-21T09:09:49Z","2020-07-21T09:09:40Z","2020-07-21T09:09:32Z","2020-07-21T09:09:22Z","2020-07-21T09:09:11Z","2020-07-21T09:09:02Z","2020-07-21T09:08:54Z","2020-07-21T09:08:45Z","2020-07-21T09:08:36Z","2020-07-21T09:08:27Z","2020-07-21T09:08:20Z","2020-07-21T09:08:13Z","2020-07-21T09:08:06Z","2020-07-21T09:07:59Z","2020-07-21T09:07:51Z","2020-07-21T09:07:43Z","2020-07-21T09:07:36Z","2020-07-21T09:07:29Z","2020-07-21T09:07:22Z","2020-07-21T09:07:15Z","2020-07-21T09:07:08Z","2020-07-21T09:07:00Z","2020-07-21T09:06:49Z","2020-07-21T09:06:27Z","2020-07-21T09:05:52Z","2020-07-21T09:05:16Z","2020-07-21T09:05:04Z","2020-07-21T09:04:56Z","2020-07-21T09:04:47Z","2020-07-21T09:04:37Z","2020-07-21T09:04:24Z","2020-07-21T09:04:15Z","2020-07-21T09:04:06Z","2020-07-21T09:03:57Z","2020-07-21T09:03:47Z","2020-07-21T09:03:36Z","2020-07-21T09:03:25Z","2020-07-21T09:03:12Z","2020-07-21T09:03:03Z","2020-07-21T09:02:54Z","2020-07-21T09:02:35Z","2020-07-21T09:02:20Z","2020-07-21T09:02:05Z","2020-07-21T09:01:52Z","2020-07-21T09:01:39Z","2020-07-21T09:01:29Z","2020-07-21T09:01:20Z","2020-07-21T09:01:12Z","2020-07-21T09:01:05Z","2020-07-21T09:00:56Z","2020-07-21T09:00:37Z","2020-07-21T09:00:21Z","2020-07-21T09:00:01Z","2020-07-21T08:59:53Z","2020-07-21T08:59:46Z","2020-07-21T08:59:37Z","2020-07-21T08:59:29Z","2020-07-21T08:59:22Z","2020-07-21T08:55:36Z","2020-07-21T08:54:23Z","2020-07-21T08:53:42Z","2020-07-21T08:53:16Z","2020-07-21T08:52:50Z","2020-07-21T08:52:29Z","2020-07-21T08:52:19Z","2020-07-21T08:52:09Z","2020-07-21T08:51:43Z","2020-07-21T08:51:31Z","2020-07-21T08:51:15Z","2020-07-21T08:51:06Z","2020-07-21T08:50:29Z","2020-07-21T08:50:13Z","2020-07-21T08:50:03Z","2020-07-21T08:49:53Z","2020-07-21T08:49:44Z","2020-07-21T08:49:36Z","2020-07-21T08:49:28Z","2020-07-21T08:49:21Z","2020-07-21T08:49:14Z","2020-07-21T08:48:47Z","2020-07-21T08:48:37Z","2020-07-21T08:48:27Z","2020-07-21T08:48:18Z","2020-07-21T08:48:08Z","2020-07-21T08:47:59Z","2020-07-21T08:47:51Z","2020-07-21T08:47:43Z","2020-07-21T08:47:34Z","2020-07-21T08:47:24Z","2020-07-21T08:47:12Z","2020-07-21T08:47:04Z","2020-07-21T08:46:56Z","2020-07-21T08:46:46Z","2020-07-21T08:46:37Z","2020-07-21T08:46:25Z","2020-07-21T08:46:06Z","2020-07-21T08:45:53Z","2020-07-21T08:45:44Z","2020-07-21T08:45:35Z","2020-07-21T08:45:21Z","2020-07-21T08:45:04Z","2020-07-21T08:44:18Z","2020-07-21T08:43:42Z","2020-07-21T08:43:34Z","2020-07-21T08:43:25Z","2020-07-21T08:43:16Z","2020-07-21T08:43:09Z","2020-07-21T08:43:02Z","2020-07-21T08:42:55Z","2020-07-21T08:42:48Z","2020-07-21T08:42:40Z","2020-07-21T08:42:30Z","2020-07-21T08:42:22Z","2020-07-21T08:42:14Z","2020-07-21T08:42:07Z","2020-07-21T08:41:59Z","2020-07-21T08:41:52Z","2020-07-21T08:41:45Z","2020-07-21T08:41:37Z","2020-07-21T08:41:28Z","2020-07-21T08:41:11Z","2020-07-21T08:18:21Z","2020-07-21T08:18:13Z","2020-07-21T08:18:06Z","2020-07-21T08:17:59Z","2020-07-21T08:17:51Z","2020-07-21T08:17:44Z","2020-07-21T08:17:36Z","2020-07-21T08:17:29Z","2020-07-21T08:17:21Z","2020-07-21T08:17:14Z","2020-07-21T08:17:07Z","2020-07-21T08:17:00Z","2020-07-21T08:16:54Z","2020-07-21T08:16:47Z","2020-07-21T08:16:40Z","2020-07-21T08:16:33Z","2020-07-21T08:16:27Z","2020-07-21T08:16:21Z","2020-07-21T08:16:16Z","2020-07-21T08:16:10Z","2020-07-21T08:16:03Z","2020-07-21T08:15:56Z","2020-07-21T08:15:36Z","2020-07-21T08:15:29Z","2020-07-21T08:15:22Z","2020-07-21T08:15:15Z","2020-07-21T08:15:09Z","2020-07-21T08:15:03Z","2020-07-21T08:14:56Z","2020-07-21T08:14:49Z","2020-07-21T08:14:43Z","2020-07-21T08:14:37Z","2020-07-21T08:14:30Z","2020-07-21T08:14:23Z","2020-07-21T08:14:16Z","2020-07-21T08:14:08Z","2020-07-21T08:14:01Z","2020-07-21T08:13:54Z","2020-07-21T08:13:48Z","2020-07-21T08:13:42Z","2020-07-21T08:13:36Z","2020-07-21T08:13:30Z","2020-07-21T08:13:23Z","2020-07-21T08:13:15Z","2020-07-21T08:12:54Z","2020-07-21T08:12:47Z","2020-07-21T08:12:41Z","2020-07-21T08:12:35Z","2020-07-21T08:12:29Z","2020-07-21T08:12:22Z","2020-07-21T08:12:15Z","2020-07-21T08:12:09Z","2020-07-21T08:12:03Z","2020-07-21T08:11:57Z","2020-07-21T08:11:51Z","2020-07-21T08:11:44Z","2020-07-21T08:11:37Z","2020-07-21T08:11:30Z","2020-07-21T08:11:24Z","2020-07-21T08:11:18Z","2020-07-21T08:11:12Z","2020-07-21T08:11:05Z","2020-07-21T08:10:58Z","2020-07-21T08:10:52Z","2020-07-21T08:10:46Z","2020-07-21T08:10:39Z","2020-07-21T08:10:32Z","2020-07-21T08:10:26Z","2020-07-21T08:10:20Z","2020-07-21T08:10:13Z","2020-07-21T08:10:07Z","2020-07-21T08:10:00Z","2020-07-21T08:09:55Z","2020-07-21T08:09:49Z","2020-07-21T08:09:42Z","2020-07-21T08:09:35Z","2020-07-21T08:09:29Z","2020-07-21T08:09:23Z","2020-07-21T08:09:16Z","2020-07-21T08:09:09Z","2020-07-21T08:09:02Z","2020-07-21T08:08:56Z","2020-07-21T08:08:50Z","2020-07-21T08:08:43Z","2020-07-21T08:08:36Z","2020-07-21T08:08:30Z","2020-07-21T08:08:24Z","2020-07-21T08:08:18Z","2020-07-21T08:08:12Z","2020-07-21T08:08:05Z","2020-07-21T08:07:59Z","2020-07-21T08:07:52Z","2020-07-21T08:07:45Z","2020-07-21T08:07:38Z","2020-07-21T08:07:31Z","2020-07-21T08:07:23Z","2020-07-21T08:07:16Z","2020-07-21T08:07:10Z","2020-07-21T08:07:03Z","2020-07-21T08:06:57Z","2020-07-21T08:06:51Z","2020-07-21T08:06:44Z","2020-07-21T08:06:37Z","2020-07-21T08:06:31Z","2020-07-21T08:06:25Z","2020-07-21T08:06:18Z","2020-07-21T08:06:10Z","2020-07-21T08:06:01Z","2020-07-21T08:05:44Z","2020-07-21T08:05:36Z","2020-07-21T08:05:27Z","2020-07-21T08:05:19Z","2020-07-21T08:05:13Z","2020-07-21T08:05:05Z","2020-07-21T08:04:57Z","2020-07-21T08:04:39Z","2020-07-21T08:04:32Z","2020-07-21T08:04:24Z","2020-07-21T08:04:18Z","2020-07-21T08:04:11Z","2020-07-21T08:03:58Z","2020-07-21T08:03:50Z","2020-07-21T08:03:22Z","2020-07-21T08:03:14Z","2020-07-21T08:03:07Z","2020-07-21T08:03:01Z","2020-07-21T08:02:54Z","2020-07-21T08:02:47Z","2020-07-21T08:02:41Z","2020-07-21T08:02:34Z","2020-07-21T08:02:28Z","2020-07-21T08:02:22Z","2020-07-21T08:02:16Z","2020-07-21T08:02:10Z","2020-07-21T08:02:04Z","2020-07-21T08:01:58Z","2020-07-21T08:01:47Z","2020-07-21T08:01:41Z","2020-07-21T08:01:35Z","2020-07-21T08:00:40Z","2020-07-21T08:00:33Z","2020-07-21T08:00:27Z","2020-07-21T08:00:21Z","2020-07-21T08:00:15Z","2020-07-21T08:00:09Z","2020-07-21T08:00:03Z","2020-07-21T07:59:57Z","2020-07-21T07:59:45Z","2020-07-21T07:59:38Z","2020-07-21T07:59:32Z","2020-07-21T07:59:25Z","2020-07-21T07:59:19Z","2020-07-21T07:59:12Z","2020-07-21T07:59:05Z","2020-07-21T07:58:58Z","2020-07-21T07:58:51Z","2020-07-21T07:58:44Z","2020-07-21T07:58:37Z","2020-07-21T07:58:06Z"]}},"geometry":{"type":"LineString","coordinates":[[-6.952524902299047,62.081780629232526,503.83],[-6.952627329155803,62.081712232902646,492.7],[-6.952580893412232,62.081616343930364,492.04],[-6.952649373561144,62.08152984268963,491.45],[-6.952852969989181,62.08148759789765,491.35],[-6.953061260282993,62.08147385157645,491.42],[-6.953256642445922,62.08150193095207,490.8],[-6.95346518419683,62.081533782184124,490.21],[-6.953662997111678,62.081559179350734,489.76],[-6.95388930849731,62.08156957291067,489.09],[-6.954085947945714,62.08154979161918,489.28],[-6.954291807487607,62.081517186015844,488.85],[-6.954528177157044,62.08148474805057,488.55],[-6.954735210165381,62.08146060816944,488.37],[-6.954947775229812,62.08146798424423,487.89],[-6.955139134079218,62.08147745579481,487.06],[-6.955340215936303,62.08149639889598,485.96],[-6.95552914403379,62.08152908831835,485.08],[-6.955702565610409,62.081573344767094,484.7],[-6.955917729064822,62.08159471862018,484],[-6.956128617748618,62.08158248104155,483.13],[-6.956324921920896,62.08157015964389,483.28],[-6.956519884988666,62.08154677413404,483.31],[-6.956730606034398,62.0815435051918,482.81],[-6.956895645707846,62.08158742636442,483.79],[-6.957075102254748,62.08162707276642,482.99],[-6.957273920997977,62.08164978772402,483.24],[-6.95746217854321,62.081682812422514,482.67],[-6.95764247328043,62.081737127155066,481.8],[-6.957797203212977,62.08180041052401,481.08],[-6.957930056378245,62.08188297227025,479.98],[-6.958088474348187,62.081937873736024,479.24],[-6.958292070776224,62.081961845979095,478.7],[-6.958494074642658,62.08198715932667,477.35],[-6.958686942234635,62.08198556676507,476.58],[-6.958887604996562,62.081989673897624,475.48],[-6.959069324657321,62.081975508481264,475.15],[-6.959198489785194,62.082020519301295,473.79],[-6.959368977695704,62.081984812393785,472.23],[-6.959538124501705,62.08192974328995,470.26],[-6.959702242165804,62.081870986148715,469.11],[-6.959845656529069,62.08179730921984,467.77],[-6.959940204396844,62.081705862656236,466.05],[-6.960042044520378,62.08162154071033,464.43],[-6.960186464712024,62.08155993372202,463.35],[-6.96034069173038,62.081482484936714,461.8],[-6.960487877950072,62.0813917927444,459.89],[-6.960567757487297,62.081301687285304,458.25],[-6.96071008220315,62.08122834563255,456.45],[-6.960897082462907,62.081177132204175,453.97],[-6.961049130186439,62.08112524822354,451.38],[-6.961196735501289,62.08106841892004,449.73],[-6.961353309452534,62.081012427806854,447.92],[-6.961513487622142,62.0809409301728,446.84],[-6.961656734347343,62.08086155354977,445.69],[-6.961772991344333,62.0807820931077,444.14],[-6.961870389059186,62.08070992492139,443],[-6.961949933320284,62.08062082529068,442.63],[-6.961995949968696,62.080522924661636,442.24],[-6.96210952475667,62.080433908849955,440.91],[-6.96225319057703,62.08036442287266,440.05],[-6.962436670437455,62.0803055819124,438],[-6.962571619078517,62.080230647698045,436.52],[-6.962688295170665,62.080157389864326,435.12],[-6.962799606844783,62.08006728440523,432.64],[-6.962869595736265,62.07997743040323,431.5],[-6.962957438081503,62.07988237962127,430.59],[-6.963079059496522,62.079797219485044,429.28],[-6.963227251544595,62.07971457391977,428.07],[-6.963360356166959,62.07963226363063,427.11],[-6.963480804115534,62.07954442128539,425.84],[-6.963626397773624,62.07947099581361,425.13],[-6.963774086907506,62.07940008491278,423.68],[-6.963904174044728,62.079320373013616,422.74],[-6.964020179584622,62.07924719899893,422.09],[-6.964160576462746,62.079179640859365,420.83],[-6.964290747419,62.07908978685737,419.98],[-6.964402226731181,62.07899549044669,418.88],[-6.964519573375583,62.078918712213635,417.71],[-6.964681930840015,62.078846879303455,416.45],[-6.964851329103112,62.078783763572574,415.31],[-6.965000610798597,62.078702710568905,413.85],[-6.965119382366538,62.07862425595522,411.65],[-6.965238908305764,62.07855083048344,411.1],[-6.965380311012268,62.07848226651549,410.2],[-6.965516181662679,62.07840892486274,408.77],[-6.965626906603575,62.07833256572485,407.69],[-6.965734865516424,62.07825796678662,406.96],[-6.965852631255984,62.078177416697145,406.39],[-6.965982466936112,62.078110529109836,405.62],[-6.966115068644285,62.07804288715124,405.04],[-6.966226380318403,62.07795982249081,403.76],[-6.966316234320402,62.07788069732487,403.02],[-6.966408602893353,62.07779738120735,401.89],[-6.966545060276985,62.07770367152989,401.83],[-6.966661065816879,62.0776201877743,400.96],[-6.96678327396512,62.077533937990665,400.13],[-6.966876061633229,62.07745539955795,399.1],[-6.966972872614861,62.07737434655428,397.86],[-6.96707496419549,62.07728650420904,396.53],[-6.967184180393815,62.07720276899636,395.71],[-6.967307897284627,62.07712314091623,395.1],[-6.967422813177109,62.07704275846481,393.21],[-6.967527586966753,62.07695474848151,392.4],[-6.967673934996128,62.076864559203386,391.6],[-6.967810643836856,62.07678962498903,390.53],[-6.967948107048869,62.076717875897884,390.12],[-6.968071321025491,62.076640259474516,389.79],[-6.968160672113299,62.076556105166674,388.68],[-6.968259494751692,62.076473627239466,387.86],[-6.968402406200767,62.07640196196735,386.92],[-6.968510868027806,62.076324597001076,386.43],[-6.968623185530305,62.07624756731093,385.28],[-6.968777077272534,62.076177997514606,384.8],[-6.968927532434464,62.076116390526295,384.18],[-6.969079663977027,62.07606056705117,383.43],[-6.969255935400724,62.07599502056837,382.72],[-6.969368504360318,62.075914051383734,382.13],[-6.969471098855138,62.075833920389414,381.82],[-6.96958995424211,62.075755298137665,380.91],[-6.969736972823739,62.075694194063544,380.63],[-6.969873597845435,62.07563233561814,379.53],[-6.969990525394678,62.07555228844285,378.95],[-6.970135448500514,62.075482215732336,378.81],[-6.970230331644416,62.0753906853497,378.35],[-6.970297889783979,62.075287755578756,378.16],[-6.970358239486814,62.07518591545522,377.86],[-6.970420265570283,62.075079968199134,377.56],[-6.970466617494822,62.07498642615974,377.75],[-6.970474580302835,62.074893303215504,377.23],[-6.970484303310514,62.0748002640903,377.3],[-6.970503414049745,62.074702782556415,377.17],[-6.970525290817022,62.074600690975785,376.8],[-6.970600476488471,62.074504969641566,376.99],[-6.970673650503159,62.074408577755094,376.81],[-6.970757720991969,62.074319729581475,376.74],[-6.97083743289113,62.07422719337046,376.19],[-6.97093902155757,62.07412593998015,375.82],[-6.971003478392959,62.07403499633074,375.65],[-6.971072209998965,62.07392754033208,375.06],[-6.97114915587008,62.073833495378494,374.95],[-6.971240937709808,62.073752945289016,374.69],[-6.971306400373578,62.07366216927767,374.29],[-6.971335066482425,62.07357365638018,374.2],[-6.971367169171572,62.07347500137985,373.52],[-6.971409833058715,62.07336310297251,373.07],[-6.971446629613638,62.07325145602226,372.89],[-6.971535561606288,62.07315833307803,372.79],[-6.971624996513128,62.07307141274214,372.22],[-6.97171937674284,62.07298709079623,371.46],[-6.971823982894421,62.07290486432612,370.78],[-6.971904281526804,62.07281023263931,370.12],[-6.971971839666367,62.07270939834416,369.7],[-6.972038727253676,62.0726053789258,368.98],[-6.972153726965189,62.07250814884901,368.58],[-6.972285155206919,62.07242097705603,367.96],[-6.972401663661003,62.07233573310077,367.59],[-6.972501408308744,62.072254344820976,366.93],[-6.972607355564833,62.07217111252248,366.96],[-6.972495708614588,62.072159545496106,368.06],[-6.972385235130787,62.07210933789611,370.84],[-6.972533762454987,62.07203800790012,369.95],[-6.972629567608237,62.07194832153618,369.94],[-6.972777592018247,62.07185662351549,369.36],[-6.972887981683016,62.07177649252117,368.42],[-6.973061822354794,62.07169787026942,367.36],[-6.973218228667975,62.0716193318367,366.63],[-6.973325433209539,62.07153718918562,366.82],[-6.973447306081653,62.071455884724855,366.96],[-6.973614525049925,62.0713846385479,366.33],[-6.973744193091989,62.07130744121969,365.74],[-6.973841926082969,62.0712205208838,365.72],[-6.973989950492978,62.07113837823272,365.76],[-6.974078882485628,62.07105598412454,365.66],[-6.974193966016173,62.070978451520205,365.32],[-6.974334195256233,62.07088868133724,364.02],[-6.974423546344042,62.070797150954604,363.51],[-6.974532175809145,62.07071375101805,362.93],[-6.974548939615488,62.07061652094126,363.85],[-6.974872229620814,62.070497665554285,359.89],[-6.974952528253198,62.070415019989014,359.32],[-6.975098960101605,62.070355005562305,359.59],[-6.975230555981398,62.07028082571924,359.74],[-6.975390734151006,62.07021662034094,359.83],[-6.975457705557346,62.070134058594704,362.11],[-6.975454688072205,62.07002090290189,365.22],[-6.975505482405424,62.06991981714964,367.16],[-6.975604137405753,62.069840440526605,367.75],[-6.975683178752661,62.06974379718304,369.25],[-6.975752329453826,62.0696559548378,370.15],[-6.975782085210085,62.06957004033029,371.6],[-6.975799100473523,62.06947507336736,373.82],[-6.975917788222432,62.069391421973705,374.1],[-6.976019712164998,62.069299975410104,375.03],[-6.976104620844126,62.06920358352363,376.2],[-6.976156253367662,62.06910392269492,377.73],[-6.976257674396038,62.06901893019676,378.02],[-6.976437047123909,62.06895874813199,378.4],[-6.976603679358959,62.068902840837836,378.98],[-6.976739717647433,62.06882681697607,380.07],[-6.976915569975972,62.06878230907023,380.23],[-6.977153616026044,62.06875682808459,381.69],[-6.977334246039391,62.06870821304619,380.73],[-6.977496016770601,62.06866052001715,381.8],[-6.977687543258071,62.068643253296614,382.12],[-6.97787269949913,62.06860310398042,383.09],[-6.978032123297453,62.068555830046535,384.6],[-6.978179644793272,62.0684920437634,386.97],[-6.978359017521143,62.068439070135355,389.5],[-6.978519530966878,62.06837570294738,392.76],[-6.978736370801926,62.068372098729014,393.67],[-6.978937620297074,62.06834318116307,394.49],[-6.979110538959503,62.06832398660481,396.69],[-6.979315644130111,62.06831971183419,398.03],[-6.979507757350802,62.06834787502885,397.65],[-6.979709677398205,62.06832122057676,398.19],[-6.979895839467645,62.06831560470164,400.5],[-6.980051659047604,62.06831334158778,402.45],[-6.98023128323257,62.06836589612067,403.11],[-6.980428760871291,62.06834980286658,405.16],[-6.980580976232886,62.06829657778144,407.33],[-6.980638559907675,62.068195743486285,407.01],[-6.98064811527729,62.068107817322016,406.56],[-6.980563625693321,62.06801963970065,405.98],[-6.980514172464609,62.06792492419481,405.13],[-6.980420965701342,62.06783196888864,404.2],[-6.980324909090996,62.06774102523923,404.48],[-6.980196665972471,62.06766005605459,403.81],[-6.980222817510366,62.06756601110101,402.83],[-6.980393473058939,62.067511612549424,398.83],[-6.980496821925044,62.067442713305354,394.85],[-6.980492295697331,62.067344561219215,392.77],[-6.980445859953761,62.06725529395044,391.49],[-6.980392299592495,62.067170133814216,390.21],[-6.980371261015534,62.06707893870771,389.12],[-6.980310995131731,62.06698900088668,387.95],[-6.980276042595506,62.06689386628568,385.98],[-6.980292135849595,62.06679512746632,383.18],[-6.980284592136741,62.06670946441591,380.39],[-6.98029138147831,62.06662162207067,377.84],[-6.980354161933065,62.06652288325131,374.18],[-6.980350222438574,62.06642288714647,371.8],[-6.980323819443584,62.06632314249873,370.14],[-6.980344774201512,62.066227504983544,366.65],[-6.980332285165787,62.06612717360258,364.03],[-6.980318622663617,62.066025752574205,361.63],[-6.980328178033233,62.06592483446002,360.33],[-6.980360615998507,62.06582324579358,358.38],[-6.980395065620542,62.06573339179158,356.1],[-6.980445021763444,62.06563297659159,354.18],[-6.980489445850253,62.06554127857089,351.5],[-6.980518531054258,62.06543910317123,349.54],[-6.980561362579465,62.06534321419895,347.51],[-6.980504365637898,62.06524623557925,346.46],[-6.980382660403848,62.06518563441932,344.75],[-6.98041551746428,62.06509913317859,342.41],[-6.980620203539729,62.0650571398437,342.05],[-6.980628669261932,62.064989414066076,342.59],[-6.980507047846913,62.06492017954588,342.51],[-6.980520207434893,62.06482102163136,341.2],[-6.980608385056257,62.064740136265755,340.58],[-6.980688013136387,62.064641397446394,340.26],[-6.980736209079623,62.064552465453744,339.42],[-6.980769401416183,62.06446076743305,338.61],[-6.980783315375447,62.06436747685075,338.48],[-6.980791864916682,62.064273012802005,338.72],[-6.980779459699988,62.064171424135566,338.3],[-6.980731599032879,62.0640816539526,337.9],[-6.980674266815186,62.06398542970419,337.58],[-6.980593213811517,62.06390085630119,337.93],[-6.980505455285311,62.063817624002695,338.14],[-6.980379726737738,62.06373757682741,338.8],[-6.980238659307361,62.063672533258796,339.15],[-6.980114439502358,62.0635877083987,339.14],[-6.980005307123065,62.06349986605346,339.08],[-6.979885697364807,62.06341462209821,339.75],[-6.979814702644944,62.063318733125925,339.88],[-6.979709174484015,62.063226364552975,340.07],[-6.979644969105721,62.063134582713246,341.13],[-6.979604568332434,62.06303860992193,341.69],[-6.979503482580185,62.06294305622578,342.08],[-6.979429051280022,62.06285345368087,342.14],[-6.979303993284702,62.06277617253363,342],[-6.979298293590546,62.0626724883914,341.66],[-6.97926577180624,62.06257198937237,341.82],[-6.979194860905409,62.062484649941325,342.72],[-6.97919393889606,62.06239555031061,342.89],[-6.979178683832288,62.06231206655502,342.86],[-6.979162925854325,62.062212992459536,342.84],[-6.979178600013256,62.06211735494435,342.6],[-6.979162925854325,62.06202222034335,342.34],[-6.97910500690341,62.06192582845688,341.62],[-6.979135600849986,62.06183454953134,341.12],[-6.979120345786214,62.061742348596454,341.88],[-6.979133589193225,62.0616465434432,342.15],[-6.979123782366514,62.0615516602993,343.16],[-6.979152616113424,62.06145878881216,343.04],[-6.979124872013927,62.06136893481016,343.54],[-6.97910257615149,62.06127447076142,343.81],[-6.979096876457334,62.061177492141724,344.3],[-6.97916317731142,62.061078837141395,344.21],[-6.979167200624943,62.06097926013172,344.84],[-6.979155885055661,62.060881946235895,346.08],[-6.979167954996228,62.06078429706395,347.07],[-6.979168374091387,62.06069016829133,347.54],[-6.979315308853984,62.06060383468866,347.38],[-6.979413460940123,62.06051632761955,347.77],[-6.979451850056648,62.060418259352446,347.94],[-6.979446234181523,62.06032178364694,348.73],[-6.97942947037518,62.06022698432207,348.84],[-6.979510020464659,62.06015515141189,349.99],[-6.979597192257643,62.060064962133765,352.03],[-6.979658966884017,62.059978041797876,352.39],[-6.97963273152709,62.05987670458853,353.73],[-6.979681933298707,62.05978475511074,355.13],[-6.979741025716066,62.059692554175854,357.71],[-6.979851247742772,62.059610998257995,359.45],[-6.979930121451616,62.05951653420925,361.89],[-6.979964319616556,62.059446293860674,364.95],[-6.979771116748452,62.059455681592226,368.22],[-6.979806153103709,62.05936582759023,372.34],[-6.979857115074992,62.05927069298923,374.72],[-6.979918638244271,62.05918997526169,377.09],[-6.979827275499702,62.05916063860059,381.43],[-6.97964446619153,62.05920129083097,383.08],[-6.979521084576845,62.05917262472212,386.7],[-6.979415807873011,62.059133648872375,389.82],[-6.979497531428933,62.05904656089842,392.55],[-6.979402648285031,62.058988055214286,396.03],[-6.979498034343123,62.05891689285636,398.65],[-6.979304077103734,62.058910857886076,400.96],[-6.979085644707084,62.058923933655024,403.96],[-6.978897890076041,62.05890993587673,407.47],[-6.978792864829302,62.058831145986915,408.31],[-6.979007693007588,62.058845311403275,408.31],[-6.97891884483397,62.05876400694251,407.74],[-6.978965029120445,62.05866484902799,407.23],[-6.979028061032295,62.05857868306339,408.07],[-6.979097295552492,62.05848497338593,406.99],[-6.979177594184876,62.05838346853852,406.52],[-6.979246074333787,62.05830082297325,406.91],[-6.97933416813612,62.058220440521836,407.4],[-6.979440869763494,62.058153469115496,407.48],[-6.979509349912405,62.0580652076751,407.11],[-6.979617727920413,62.0579978171736,407.41],[-6.979746725410223,62.057915925979614,406.66],[-6.979883350431919,62.05783814191818,406.97],[-6.980020478367806,62.05775499343872,406.86],[-6.980215776711702,62.05769673921168,406.47],[-6.980394814163446,62.05764594487846,407.06],[-6.980564715340734,62.05759330652654,407.12],[-6.98075020685792,62.057548966258764,407.12],[-6.980946930125356,62.05747394822538,407.42],[-6.981140719726682,62.0574140176177,408.09],[-6.981279440224171,62.057343274354935,407.92],[-6.981436684727669,62.05726196989417,407.61],[-6.981570795178413,62.05718829296529,407.53],[-6.981705157086253,62.057110760360956,407.39],[-6.981854103505611,62.05703389830887,408.13],[-6.981979412958026,62.05695209093392,408.25],[-6.982097681611776,62.05687137320638,408.66],[-6.982205221429467,62.05679224804044,408.8],[-6.982328267768025,62.05669015645981,408.68],[-6.982464473694563,62.056620670482516,409.25],[-6.982607217505574,62.056545820087194,410.7],[-6.982747027650476,62.05646149814129,410.99],[-6.982866888865829,62.05638346262276,410.58],[-6.98301600292325,62.05632168799639,411.35],[-6.983179952949286,62.05626376904547,412.26],[-6.983337700366974,62.0561967138201,412.3],[-6.983494777232409,62.05613845959306,413.08],[-6.983667863532901,62.05606805160642,414.5],[-6.983827454969287,62.05598775297403,415.02],[-6.983972042798996,62.05591315403581,415.38],[-6.984126018360257,62.055844673886895,416.34],[-6.984270438551903,62.05576781183481,417.18],[-6.984418630599976,62.05569782294333,417.58],[-6.984570678323507,62.055627750232816,418.07],[-6.984732197597623,62.05556069500744,418.76],[-6.984857507050037,62.05548475496471,418.67],[-6.984964376315475,62.055397499352694,418.9],[-6.985078454017639,62.05531049519777,419.43],[-6.985182305797935,62.05523396842182,420.44],[-6.985293198376894,62.05515241250396,421.27],[-6.985387410968542,62.05507035367191,422.79],[-6.985464356839657,62.05498678609729,422.44],[-6.985469218343496,62.05488712526858,422.02],[-6.985440300777555,62.054796013981104,421.27],[-6.985422195866704,62.05469568260014,420.51],[-6.98541465215385,62.054612282663584,420.04],[-6.98545471765101,62.05452519468963,420.15],[-6.985491765663028,62.054426120594144,419.71],[-6.985531328245997,62.05433031544089,418.72],[-6.985593270510435,62.054245406761765,417.93],[-6.985661163926125,62.0541519485414,417.25],[-6.985721765086055,62.054064525291324,416.43],[-6.98580214753747,62.053979029878974,415.42],[-6.985883787274361,62.05389236100018,415.08],[-6.985956709831953,62.05380979925394,414.38],[-6.9860406126827,62.053726986050606,413.73],[-6.98613197542727,62.053651213645935,412.89],[-6.98621554300189,62.05357359722257,412.48],[-6.986292991787195,62.05349120311439,411.52],[-6.986357448622584,62.05339062027633,410.96],[-6.986424755305052,62.05330369994044,409.77],[-6.986478483304381,62.05321568995714,408.81],[-6.986520560458303,62.0531349722296,408.06],[-6.986582167446613,62.05305400304496,407.06],[-6.986622316762805,62.05296590924263,405.83],[-6.986679146066308,62.05287194810808,404.54],[-6.986746871843934,62.0527842734009,404.24],[-6.98682582937181,62.052682265639305,402.97],[-6.986901685595512,62.05258671194315,401.76],[-6.986974021419883,62.05249794758856,400.74],[-6.987035544589162,62.05240658484399,399.26],[-6.987058930099011,62.05231077969074,397.77],[-6.987053649500012,62.052209274843335,396.8],[-6.987049793824554,62.052119420841336,396.21],[-6.987044429406524,62.052029985934496,395.57],[-6.987034371122718,62.05193082801998,395.17],[-6.987013500183821,62.05183477140963,394.56],[-6.987008051946759,62.051739720627666,394.12],[-6.986998245120049,62.051644921302795,393.08],[-6.987031353637576,62.05155096016824,391.66],[-6.986985253170133,62.05146580003202,389.95],[-6.986946361139417,62.05138122662902,387.35],[-6.986931608989835,62.05129330046475,384.56],[-6.986910235136747,62.051199339330196,381.96],[-6.986906882375479,62.05109749920666,378.53],[-6.986874025315046,62.05100554972887,376.65],[-6.98684242554009,62.05091812647879,375.79],[-6.98676866479218,62.05083296634257,374.15],[-6.986714936792851,62.0507431961596,372],[-6.986683839932084,62.05064504407346,369.22],[-6.986666740849614,62.05055208876729,366.23],[-6.986616868525744,62.050453601405025,363.33],[-6.986535480245948,62.05036919564009,361.43],[-6.986514609307051,62.05028663389385,357.79],[-6.986500862985849,62.050227876752615,355.44],[-6.986506981775165,62.050142381340265,354.13],[-6.986535647884011,62.05004833638668,350.72],[-6.986589962616563,62.04996124841273,349.16],[-6.986586693674326,62.04987097531557,347.91],[-6.986419977620244,62.04985932447016,346.37],[-6.986246556043625,62.049890253692865,344.27],[-6.986068356782198,62.04993886873126,341.3],[-6.985900467261672,62.04998572356999,338.69],[-6.98570248670876,62.050005504861474,336.14],[-6.985525125637651,62.05006409436464,332.9],[-6.985351955518127,62.05011899583042,330.6],[-6.98517526499927,62.050146320834756,327.63],[-6.984982648864389,62.050186302512884,323.42],[-6.984791792929173,62.05021547153592,319.64],[-6.984573025256395,62.05023491755128,314.59],[-6.9843880366534,62.050252771005034,309.97],[-6.984211010858417,62.050295853987336,305.35],[-6.983988471329212,62.05035033635795,301.71],[-6.983797531574965,62.05039576627314,297.32],[-6.983615225180984,62.05042703077197,293],[-6.983403163030744,62.05044647678733,288.49],[-6.983222113922238,62.05047145485878,284.59],[-6.98305799625814,62.05051361583173,281.4],[-6.982878958806396,62.050549909472466,278.42],[-6.98272867128253,62.05061419866979,276.4],[-6.98256547562778,62.050681840628386,274.95],[-6.982409404590726,62.05070262774825,272.16],[-6.982240341603756,62.05073908902705,268.07],[-6.982091562822461,62.050794744864106,265.87],[-6.981955356895924,62.050857190042734,263.65],[-6.981778247281909,62.05088912509382,261.22],[-6.981575740501285,62.05088920891285,257.49],[-6.981385555118322,62.050873870030046,254.1],[-6.981181455776095,62.050892477855086,251.82],[-6.981001412495971,62.0509350579232,251.56],[-6.980834947898984,62.05099775455892,251.52],[-6.98065934702754,62.05105206929147,251.73],[-6.980476956814528,62.051083417609334,249.97],[-6.980263385921717,62.051115185022354,248.95],[-6.980078062042594,62.05118039622903,248.1],[-6.979910591617227,62.05124887637794,247.82],[-6.979726357385516,62.0512942224741,247.25],[-6.979567352682352,62.05136991105974,247.07],[-6.979424776509404,62.05144928768277,246.44],[-6.979266526177526,62.05153193324804,246.07],[-6.979112047702074,62.05159488134086,245.48],[-6.978969806805253,62.05167140811682,244.94],[-6.978827314451337,62.051745001226664,244.66],[-6.978648779913783,62.0517863240093,245.04],[-6.97847418487072,62.05182504840195,244.95],[-6.978267654776573,62.051870226860046,245.03],[-6.978090545162559,62.05189688131213,245.24],[-6.977899689227343,62.05194306559861,245.23],[-6.977751413360238,62.051982125267386,245.32],[-6.977577991783619,62.05203509889543,245.46],[-6.977372383698821,62.05206820741296,245.92],[-6.977191334590316,62.05211925320327,245.98],[-6.977045489475131,62.05217935144901,245.84],[-6.976850777864456,62.052228804677725,247.23],[-6.976673416793346,62.05228856764734,248.03],[-6.976482309401035,62.052332824096084,247.72],[-6.976363370195031,62.05239795148373,247.52],[-6.976252729073167,62.05247590318322,248.36],[-6.97608576156199,62.05254027619958,248.32],[-6.975904628634453,62.05256852321327,247.97],[-6.975800022482872,62.0526394341141,248.37],[-6.975118070840836,62.052623089402914,249.71],[-6.974998712539673,62.052546897903085,249.25],[-6.974946074187756,62.0524512603879,249.15],[-6.974883796647191,62.05237129703164,249.35],[-6.975024193525314,62.052300218492746,249.52],[-6.975061325356364,62.052207849919796,248.51],[-6.975036514922977,62.05211229622364,248.62],[-6.974981194362044,62.052020179107785,247.86],[-6.975104324519634,62.05195060931146,248.92],[-6.975202728062868,62.051862180233,248.64],[-6.975255031138659,62.051767967641354,248.64],[-6.975336587056518,62.05168708227575,248.7],[-6.97542660869658,62.051621871069074,248.23],[-6.975488131865859,62.051523299887776,248.02],[-6.97540121152997,62.05143646337092,248.12],[-6.975346645340323,62.05134266987443,248.19],[-6.97531420737505,62.05124988220632,247.81],[-6.975318901240826,62.051164135336876,247.79],[-6.975314626470208,62.05107310786843,247.63],[-6.975220665335655,62.050997922196984,247.22],[-6.975076328963041,62.05096154473722,248.72],[-6.974922018125653,62.05092550255358,249.87],[-6.974772233515978,62.05086431466043,249.43],[-6.97461498901248,62.05080572515726,250.44],[-6.974451709538698,62.05079248175025,249.64],[-6.974349701777101,62.05071922391653,250.05],[-6.974279712885618,62.05063238739967,250.32],[-6.974177956581116,62.05055644735694,249.71],[-6.97406530380249,62.050489224493504,249.36],[-6.973985508084297,62.05039970576763,248.68],[-6.973914513364434,62.05032502301037,248.45],[-6.973769087344408,62.050247909501195,247.34],[-6.973684681579471,62.05015738494694,246.66],[-6.973599940538406,62.05007432028651,247.42],[-6.973556103184819,62.04997876659036,247.54],[-6.973553001880646,62.049887739121914,247.56],[-6.973637575283647,62.049847254529595,245.49],[-6.973814936354756,62.04980676993728,244.43],[-6.973887858912349,62.049732422456145,244.39],[-6.973985843360424,62.0496517047286,244.32],[-6.974017526954413,62.04956461675465,244.42],[-6.974010234698653,62.04947233200073,244.56],[-6.973957009613514,62.04938365146518,244.19],[-6.973890624940395,62.049299413338304,244.01],[-6.973741762340069,62.049242835491896,243.72],[-6.973593737930059,62.04917376860976,245.12],[-6.973630785942078,62.0490768738091,244.31],[-6.973600024357438,62.048985762521625,244.18],[-6.973758693784475,62.048895908519626,244.31],[-6.973876962438226,62.048822650685906,244.32],[-6.973985424265266,62.048738077282906,243.98],[-6.974020712077618,62.048643194139004,243.71],[-6.974043846130371,62.04855116084218,244.23],[-6.97407117113471,62.04845879226923,244.13],[-6.974088437855244,62.04839274287224,244.07],[-6.974013084545732,62.04839542508125,244.28],[-6.973845111206174,62.048366256058216,243.89],[-6.973756346851587,62.0482824370265,243.64],[-6.973595917224884,62.048228960484266,243.69],[-6.973525173962116,62.048168778419495,244.04],[-6.97365777567029,62.04814036376774,243.75],[-6.973682837560773,62.048064675182104,245.87],[-6.973622236400843,62.04801890999079,245.73],[-6.973471697419882,62.04795897938311,246.08],[-6.973339095711708,62.04788471572101,247.19],[-6.973184449598193,62.04782461747527,247.62],[-6.973075736314058,62.04775404185057,247.43],[-6.973033994436264,62.04766913317144,247.54],[-6.973003400489688,62.04757886007428,247.17],[-6.972881443798542,62.04750099219382,246.82],[-6.972737107425928,62.04743703827262,246.28],[-6.972682625055313,62.04735095612705,244.18],[-6.972713889554143,62.04726118594408,242.22],[-6.972729312255979,62.04718189314008,238.33],[-6.972871804609895,62.04713210463524,236],[-6.973062828183174,62.047152472659945,231.86],[-6.973237590864301,62.0471409894526,228.75],[-6.973419561982155,62.047136798501015,225.65],[-6.973608238622546,62.047087932005525,222.47],[-6.973453341051936,62.04703772440553,219.05],[-6.973274638876319,62.04700126312673,216.06],[-6.973096188157797,62.046959437429905,213.6],[-6.972941542044282,62.04692515544593,209.85],[-6.972764683887363,62.04688584432006,205.92],[-6.972588999196887,62.04683655872941,202.4],[-6.972449440509081,62.04677302390337,198.79],[-6.972256489098072,62.046739999204874,196.12],[-6.972050713375211,62.04672256484628,194.3],[-6.971902186051011,62.04666498117149,191.96],[-6.971754413098097,62.0466332975775,189.86],[-6.971572190523148,62.046610582619905,187.48],[-6.971388291567564,62.04656875692308,185.12],[-6.971211517229676,62.04654545523226,183.67],[-6.971046729013324,62.04650639556348,182.79],[-6.970885880291462,62.046484518796206,181.31],[-6.970714638009667,62.04644604586065,178.65],[-6.970520513132215,62.046436071395874,176.44],[-6.970457229763269,62.04644470475614,175.55],[-6.970360586419702,62.04638200812042,175.48],[-6.970233852043748,62.046318389475346,172.57],[-6.970063950866461,62.046277821063995,170.71],[-6.969863455742598,62.0462601352483,170.03],[-6.969837807118893,62.046177154406905,167.41],[-6.969808302819729,62.04608545638621,164.89],[-6.969835376366973,62.04599367454648,163.83],[-6.969816349446774,62.04590365290642,162.39],[-6.969738062471151,62.04582754522562,160.83],[-6.969686597585678,62.045741798356175,159.49],[-6.969674192368984,62.04565261490643,157.55],[-6.969623984768987,62.045558989048004,156.1],[-6.969634545966983,62.04546343535185,154.14],[-6.969654075801373,62.04537123441696,152.92],[-6.969621134921908,62.045276183634996,151.72],[-6.969656674191356,62.04517409205437,151.5],[-6.969696991145611,62.045078286901116,150.69],[-6.969729512929916,62.04499396495521,150.49],[-6.969688944518566,62.044908720999956,149.61],[-6.96965005248785,62.04481752589345,147.35],[-6.969506219029427,62.04474309459329,145.27],[-6.969376550987363,62.04467637464404,144.73],[-6.969267083331943,62.04459582455456,143.36],[-6.969165410846472,62.044513430446386,142.15],[-6.969044459983707,62.04445023089647,140.42],[-6.968853268772364,62.044470431283116,139.8],[-6.968712452799082,62.044404465705156,139.19],[-6.968633159995079,62.044313019141555,138.57],[-6.968568954616785,62.04421469941735,137.88],[-6.968506425619125,62.044132305309176,138.14],[-6.968416152521968,62.044047731906176,137.61],[-6.968377428129315,62.0439497474581,137.19],[-6.968332249671221,62.04385352320969,137.42],[-6.968304002657533,62.043753108009696,136.75],[-6.96827357634902,62.04365361481905,135.84],[-6.968221105635166,62.04356074333191,135.05],[-6.968141812831163,62.043473068624735,133.46],[-6.968143573030829,62.04337952658534,134.24],[-6.968201659619808,62.04328573308885,134.01],[-6.968196798115969,62.0431949570775,133.51],[-6.968147093430162,62.04310937784612,133.44],[-6.96805514395237,62.04302178695798,133.31],[-6.967983730137348,62.04293981194496,132.78],[-6.967884236946702,62.04284358769655,133.31],[-6.96776831522584,62.04279757104814,132.65],[-6.967698745429516,62.04271727241576,131.58],[-6.967610735446215,62.042638063430786,131.67],[-6.967630768194795,62.04254879616201,130.69],[-6.967593217268586,62.042465480044484,130.57],[-6.967630852013826,62.042372189462185,129.75],[-6.967658177018166,62.04227780923247,129.09],[-6.967697069048882,62.04218099825084,127.54],[-6.967652393504977,62.04208871349692,126.2],[-6.967634707689285,62.04199458472431,125.08],[-6.967576537281275,62.04191160388291,124.32],[-6.967589613050222,62.04181294888258,124.15],[-6.967498669400811,62.04172946512699,123.84],[-6.967367911711335,62.041652938351035,123.56],[-6.967337150126696,62.041566437110305,122.73],[-6.967377802357078,62.04147641547024,120.54],[-6.967286858707666,62.04139427281916,119.79],[-6.967105893418193,62.04136342741549,120.71],[-6.967076221480966,62.041274243965745,120.29],[-6.967066079378128,62.04118447378278,119.03],[-6.967133805155754,62.041109120473266,117.54],[-6.967095080763102,62.041019601747394,116.46],[-6.967027774080634,62.040934609249234,116.31],[-6.96698846295476,62.04084115102887,114.75],[-6.966958288103342,62.040754901245236,114.16],[-6.967018721625209,62.04066756181419,113.78],[-6.966923419386149,62.0405893586576,112.98],[-6.966842701658607,62.04051174223423,112.17],[-6.96674756705761,62.04042582772672,110.94],[-6.966588646173477,62.04037880524993,110.31],[-6.966397287324071,62.040357096120715,109.4],[-6.96623015217483,62.04029423184693,109.21],[-6.966098137199879,62.0402317866683,107.89],[-6.965984394773841,62.04015986993909,107.41],[-6.965796640142798,62.04015978612006,107.78],[-6.965591283515096,62.040181243792176,107.8],[-6.965383160859346,62.04020194709301,107.79],[-6.965193394571543,62.04022164456546,107.79],[-6.964987786486745,62.0402439404279,107.78],[-6.964788129553199,62.04026171006262,107.77],[-6.964595345780253,62.0402819942683,107.76],[-6.964402310550213,62.04030353575945,107.75],[-6.964402310550213,62.04030353575945,107.75],[-6.964595345780253,62.0402819942683,107.76],[-6.964788129553199,62.04026171006262,107.77],[-6.964987786486745,62.0402439404279,107.78],[-6.965193394571543,62.04022164456546,107.79],[-6.965383160859346,62.04020194709301,107.79],[-6.965591283515096,62.040181243792176,107.8],[-6.965796640142798,62.04015978612006,107.78],[-6.965984394773841,62.04015986993909,107.41],[-6.966098137199879,62.0402317866683,107.89],[-6.96623015217483,62.04029423184693,109.21],[-6.966397287324071,62.040357096120715,109.4],[-6.966588646173477,62.04037880524993,110.31],[-6.96674756705761,62.04042582772672,110.94],[-6.966842701658607,62.04051174223423,112.17],[-6.966923419386149,62.0405893586576,112.98],[-6.967018721625209,62.04066756181419,113.78],[-6.966958288103342,62.040754901245236,114.16],[-6.96698846295476,62.04084115102887,114.75],[-6.967027774080634,62.040934609249234,116.31],[-6.967095080763102,62.041019601747394,116.46],[-6.967133805155754,62.041109120473266,117.54],[-6.967066079378128,62.04118447378278,119.03],[-6.967076221480966,62.041274243965745,120.29],[-6.967105893418193,62.04136342741549,120.71],[-6.967286858707666,62.04139427281916,119.79],[-6.967377802357078,62.04147641547024,120.54],[-6.967337150126696,62.041566437110305,122.73],[-6.967367911711335,62.041652938351035,123.56],[-6.967498669400811,62.04172946512699,123.84],[-6.967589613050222,62.04181294888258,124.15],[-6.967576537281275,62.04191160388291,124.32],[-6.967634707689285,62.04199458472431,125.08],[-6.967652393504977,62.04208871349692,126.2],[-6.967697069048882,62.04218099825084,127.54],[-6.967658177018166,62.04227780923247,129.09],[-6.967630852013826,62.042372189462185,129.75],[-6.967593217268586,62.042465480044484,130.57],[-6.967630768194795,62.04254879616201,130.69],[-6.967610735446215,62.042638063430786,131.67],[-6.967698745429516,62.04271727241576,131.58],[-6.96776831522584,62.04279757104814,132.65],[-6.967884236946702,62.04284358769655,133.31],[-6.967983730137348,62.04293981194496,132.78],[-6.96805514395237,62.04302178695798,133.31],[-6.968147093430162,62.04310937784612,133.44],[-6.968196798115969,62.0431949570775,133.51],[-6.968201659619808,62.04328573308885,134.01],[-6.968143573030829,62.04337952658534,134.24],[-6.968141812831163,62.043473068624735,133.46],[-6.968221105635166,62.04356074333191,135.05],[-6.96827357634902,62.04365361481905,135.84],[-6.968304002657533,62.043753108009696,136.75],[-6.968332249671221,62.04385352320969,137.42],[-6.968377428129315,62.0439497474581,137.19],[-6.968416152521968,62.044047731906176,137.61],[-6.968506425619125,62.044132305309176,138.14],[-6.968568954616785,62.04421469941735,137.88],[-6.968633159995079,62.044313019141555,138.57],[-6.968712452799082,62.044404465705156,139.19],[-6.968853268772364,62.044470431283116,139.8],[-6.969044459983707,62.04445023089647,140.42],[-6.969165410846472,62.044513430446386,142.15],[-6.969267083331943,62.04459582455456,143.36],[-6.969376550987363,62.04467637464404,144.73],[-6.969506219029427,62.04474309459329,145.27],[-6.96965005248785,62.04481752589345,147.35],[-6.969688944518566,62.044908720999956,149.61],[-6.969729512929916,62.04499396495521,150.49],[-6.969696991145611,62.045078286901116,150.69],[-6.969656674191356,62.04517409205437,151.5],[-6.969621134921908,62.045276183634996,151.72],[-6.969654075801373,62.04537123441696,152.92],[-6.969634545966983,62.04546343535185,154.14],[-6.969623984768987,62.045558989048004,156.1],[-6.969674192368984,62.04565261490643,157.55],[-6.969686597585678,62.045741798356175,159.49],[-6.969738062471151,62.04582754522562,160.83],[-6.969816349446774,62.04590365290642,162.39],[-6.969835376366973,62.04599367454648,163.83],[-6.969808302819729,62.04608545638621,164.89],[-6.969837807118893,62.046177154406905,167.41],[-6.969863455742598,62.0462601352483,170.03],[-6.970063950866461,62.046277821063995,170.71],[-6.970233852043748,62.046318389475346,172.57],[-6.970360586419702,62.04638200812042,175.48],[-6.970457229763269,62.04644470475614,175.55],[-6.970520513132215,62.046436071395874,176.44],[-6.970714638009667,62.04644604586065,178.65],[-6.970885880291462,62.046484518796206,181.31],[-6.971046729013324,62.04650639556348,182.79],[-6.971211517229676,62.04654545523226,183.67],[-6.971388291567564,62.04656875692308,185.12],[-6.971572190523148,62.046610582619905,187.48],[-6.971754413098097,62.0466332975775,189.86],[-6.971902186051011,62.04666498117149,191.96],[-6.972050713375211,62.04672256484628,194.3],[-6.972256489098072,62.046739999204874,196.12],[-6.972449440509081,62.04677302390337,198.79],[-6.972588999196887,62.04683655872941,202.4],[-6.972764683887363,62.04688584432006,205.92],[-6.972941542044282,62.04692515544593,209.85],[-6.973096188157797,62.046959437429905,213.6],[-6.973274638876319,62.04700126312673,216.06],[-6.973453341051936,62.04703772440553,219.05],[-6.973608238622546,62.047087932005525,222.47],[-6.973419561982155,62.047136798501015,225.65],[-6.973237590864301,62.0471409894526,228.75],[-6.973062828183174,62.047152472659945,231.86],[-6.972871804609895,62.04713210463524,236],[-6.972729312255979,62.04718189314008,238.33],[-6.972713889554143,62.04726118594408,242.22],[-6.972682625055313,62.04735095612705,244.18],[-6.972737107425928,62.04743703827262,246.28],[-6.972881443798542,62.04750099219382,246.82],[-6.973003400489688,62.04757886007428,247.17],[-6.973033994436264,62.04766913317144,247.54],[-6.973075736314058,62.04775404185057,247.43],[-6.973184449598193,62.04782461747527,247.62],[-6.973339095711708,62.04788471572101,247.19],[-6.973471697419882,62.04795897938311,246.08],[-6.973622236400843,62.04801890999079,245.73],[-6.973682837560773,62.048064675182104,245.87],[-6.97365777567029,62.04814036376774,243.75],[-6.973525173962116,62.048168778419495,244.04],[-6.973595917224884,62.048228960484266,243.69],[-6.973756346851587,62.0482824370265,243.64],[-6.973845111206174,62.048366256058216,243.89],[-6.974013084545732,62.04839542508125,244.28],[-6.974088437855244,62.04839274287224,244.07],[-6.97407117113471,62.04845879226923,244.13],[-6.974043846130371,62.04855116084218,244.23],[-6.974020712077618,62.048643194139004,243.71],[-6.973985424265266,62.048738077282906,243.98],[-6.973876962438226,62.048822650685906,244.32],[-6.973758693784475,62.048895908519626,244.31],[-6.973600024357438,62.048985762521625,244.18],[-6.973630785942078,62.0490768738091,244.31],[-6.973593737930059,62.04917376860976,245.12],[-6.973741762340069,62.049242835491896,243.72],[-6.973890624940395,62.049299413338304,244.01],[-6.973957009613514,62.04938365146518,244.19],[-6.974010234698653,62.04947233200073,244.56],[-6.974017526954413,62.04956461675465,244.42],[-6.973985843360424,62.0496517047286,244.32],[-6.973887858912349,62.049732422456145,244.39],[-6.973814936354756,62.04980676993728,244.43],[-6.973637575283647,62.049847254529595,245.49],[-6.973553001880646,62.049887739121914,247.56],[-6.973556103184819,62.04997876659036,247.54],[-6.973599940538406,62.05007432028651,247.42],[-6.973684681579471,62.05015738494694,246.66],[-6.973769087344408,62.050247909501195,247.34],[-6.973914513364434,62.05032502301037,248.45],[-6.973985508084297,62.05039970576763,248.68],[-6.97406530380249,62.050489224493504,249.36],[-6.974177956581116,62.05055644735694,249.71],[-6.974279712885618,62.05063238739967,250.32],[-6.974349701777101,62.05071922391653,250.05],[-6.974451709538698,62.05079248175025,249.64],[-6.97461498901248,62.05080572515726,250.44],[-6.974772233515978,62.05086431466043,249.43],[-6.974922018125653,62.05092550255358,249.87],[-6.975076328963041,62.05096154473722,248.72],[-6.975220665335655,62.050997922196984,247.22],[-6.975314626470208,62.05107310786843,247.63],[-6.975318901240826,62.051164135336876,247.79],[-6.97531420737505,62.05124988220632,247.81],[-6.975346645340323,62.05134266987443,248.19],[-6.97540121152997,62.05143646337092,248.12],[-6.975488131865859,62.051523299887776,248.02],[-6.97542660869658,62.051621871069074,248.23],[-6.975336587056518,62.05168708227575,248.7],[-6.975255031138659,62.051767967641354,248.64],[-6.975202728062868,62.051862180233,248.64],[-6.975104324519634,62.05195060931146,248.92],[-6.974981194362044,62.052020179107785,247.86],[-6.975036514922977,62.05211229622364,248.62],[-6.975061325356364,62.052207849919796,248.51],[-6.975024193525314,62.052300218492746,249.52],[-6.974883796647191,62.05237129703164,249.35],[-6.974946074187756,62.0524512603879,249.15],[-6.974998712539673,62.052546897903085,249.25],[-6.975118070840836,62.052623089402914,249.71],[-6.975800022482872,62.0526394341141,248.37],[-6.975904628634453,62.05256852321327,247.97],[-6.97608576156199,62.05254027619958,248.32],[-6.976252729073167,62.05247590318322,248.36],[-6.976363370195031,62.05239795148373,247.52],[-6.976482309401035,62.052332824096084,247.72],[-6.976673416793346,62.05228856764734,248.03],[-6.976850777864456,62.052228804677725,247.23],[-6.977045489475131,62.05217935144901,245.84],[-6.977191334590316,62.05211925320327,245.98],[-6.977372383698821,62.05206820741296,245.92],[-6.977577991783619,62.05203509889543,245.46],[-6.977751413360238,62.051982125267386,245.32],[-6.977899689227343,62.05194306559861,245.23],[-6.978090545162559,62.05189688131213,245.24],[-6.978267654776573,62.051870226860046,245.03],[-6.97847418487072,62.05182504840195,244.95],[-6.978648779913783,62.0517863240093,245.04],[-6.978827314451337,62.051745001226664,244.66],[-6.978969806805253,62.05167140811682,244.94],[-6.979112047702074,62.05159488134086,245.48],[-6.979266526177526,62.05153193324804,246.07],[-6.979424776509404,62.05144928768277,246.44],[-6.979567352682352,62.05136991105974,247.07],[-6.979726357385516,62.0512942224741,247.25],[-6.979910591617227,62.05124887637794,247.82],[-6.980078062042594,62.05118039622903,248.1],[-6.980263385921717,62.051115185022354,248.95],[-6.980476956814528,62.051083417609334,249.97],[-6.98065934702754,62.05105206929147,251.73],[-6.980834947898984,62.05099775455892,251.52],[-6.981001412495971,62.0509350579232,251.56],[-6.981181455776095,62.050892477855086,251.82],[-6.981385555118322,62.050873870030046,254.1],[-6.981575740501285,62.05088920891285,257.49],[-6.981778247281909,62.05088912509382,261.22],[-6.981955356895924,62.050857190042734,263.65],[-6.982091562822461,62.050794744864106,265.87],[-6.982240341603756,62.05073908902705,268.07],[-6.982409404590726,62.05070262774825,272.16],[-6.98256547562778,62.050681840628386,274.95],[-6.98272867128253,62.05061419866979,276.4],[-6.982878958806396,62.050549909472466,278.42],[-6.98305799625814,62.05051361583173,281.4],[-6.983222113922238,62.05047145485878,284.59],[-6.983403163030744,62.05044647678733,288.49],[-6.983615225180984,62.05042703077197,293],[-6.983797531574965,62.05039576627314,297.32],[-6.983988471329212,62.05035033635795,301.71],[-6.984211010858417,62.050295853987336,305.35],[-6.9843880366534,62.050252771005034,309.97],[-6.984573025256395,62.05023491755128,314.59],[-6.984791792929173,62.05021547153592,319.64],[-6.984982648864389,62.050186302512884,323.42],[-6.98517526499927,62.050146320834756,327.63],[-6.985351955518127,62.05011899583042,330.6],[-6.985525125637651,62.05006409436464,332.9],[-6.98570248670876,62.050005504861474,336.14],[-6.985900467261672,62.04998572356999,338.69],[-6.986068356782198,62.04993886873126,341.3],[-6.986246556043625,62.049890253692865,344.27],[-6.986419977620244,62.04985932447016,346.37],[-6.986586693674326,62.04987097531557,347.91],[-6.986589962616563,62.04996124841273,349.16],[-6.986535647884011,62.05004833638668,350.72],[-6.986506981775165,62.050142381340265,354.13],[-6.986500862985849,62.050227876752615,355.44],[-6.986514609307051,62.05028663389385,357.79],[-6.986535480245948,62.05036919564009,361.43],[-6.986616868525744,62.050453601405025,363.33],[-6.986666740849614,62.05055208876729,366.23],[-6.986683839932084,62.05064504407346,369.22],[-6.986714936792851,62.0507431961596,372],[-6.98676866479218,62.05083296634257,374.15],[-6.98684242554009,62.05091812647879,375.79],[-6.986874025315046,62.05100554972887,376.65],[-6.986906882375479,62.05109749920666,378.53],[-6.986910235136747,62.051199339330196,381.96],[-6.986931608989835,62.05129330046475,384.56],[-6.986946361139417,62.05138122662902,387.35],[-6.986985253170133,62.05146580003202,389.95],[-6.987031353637576,62.05155096016824,391.66],[-6.986998245120049,62.051644921302795,393.08],[-6.987008051946759,62.051739720627666,394.12],[-6.987013500183821,62.05183477140963,394.56],[-6.987034371122718,62.05193082801998,395.17],[-6.987044429406524,62.052029985934496,395.57],[-6.987049793824554,62.052119420841336,396.21],[-6.987053649500012,62.052209274843335,396.8],[-6.987058930099011,62.05231077969074,397.77],[-6.987035544589162,62.05240658484399,399.26],[-6.986974021419883,62.05249794758856,400.74],[-6.986901685595512,62.05258671194315,401.76],[-6.98682582937181,62.052682265639305,402.97],[-6.986746871843934,62.0527842734009,404.24],[-6.986679146066308,62.05287194810808,404.54],[-6.986622316762805,62.05296590924263,405.83],[-6.986582167446613,62.05305400304496,407.06],[-6.986520560458303,62.0531349722296,408.06],[-6.986478483304381,62.05321568995714,408.81],[-6.986424755305052,62.05330369994044,409.77],[-6.986357448622584,62.05339062027633,410.96],[-6.986292991787195,62.05349120311439,411.52],[-6.98621554300189,62.05357359722257,412.48],[-6.98613197542727,62.053651213645935,412.89],[-6.9860406126827,62.053726986050606,413.73],[-6.985956709831953,62.05380979925394,414.38],[-6.985883787274361,62.05389236100018,415.08],[-6.98580214753747,62.053979029878974,415.42],[-6.985721765086055,62.054064525291324,416.43],[-6.985661163926125,62.0541519485414,417.25],[-6.985593270510435,62.054245406761765,417.93],[-6.985531328245997,62.05433031544089,418.72],[-6.985491765663028,62.054426120594144,419.71],[-6.98545471765101,62.05452519468963,420.15],[-6.98541465215385,62.054612282663584,420.04],[-6.985422195866704,62.05469568260014,420.51],[-6.985440300777555,62.054796013981104,421.27],[-6.985469218343496,62.05488712526858,422.02],[-6.985464356839657,62.05498678609729,422.44],[-6.985387410968542,62.05507035367191,422.79],[-6.985293198376894,62.05515241250396,421.27],[-6.985182305797935,62.05523396842182,420.44],[-6.985078454017639,62.05531049519777,419.43],[-6.984964376315475,62.055397499352694,418.9],[-6.984857507050037,62.05548475496471,418.67],[-6.984732197597623,62.05556069500744,418.76],[-6.984570678323507,62.055627750232816,418.07],[-6.984418630599976,62.05569782294333,417.58],[-6.984270438551903,62.05576781183481,417.18],[-6.984126018360257,62.055844673886895,416.34],[-6.983972042798996,62.05591315403581,415.38],[-6.983827454969287,62.05598775297403,415.02],[-6.983667863532901,62.05606805160642,414.5],[-6.983494777232409,62.05613845959306,413.08],[-6.983337700366974,62.0561967138201,412.3],[-6.983179952949286,62.05626376904547,412.26],[-6.98301600292325,62.05632168799639,411.35],[-6.982866888865829,62.05638346262276,410.58],[-6.982747027650476,62.05646149814129,410.99],[-6.982607217505574,62.056545820087194,410.7],[-6.982464473694563,62.056620670482516,409.25],[-6.982328267768025,62.05669015645981,408.68],[-6.982205221429467,62.05679224804044,408.8],[-6.982097681611776,62.05687137320638,408.66],[-6.981979412958026,62.05695209093392,408.25],[-6.981854103505611,62.05703389830887,408.13],[-6.981705157086253,62.057110760360956,407.39],[-6.981570795178413,62.05718829296529,407.53],[-6.981436684727669,62.05726196989417,407.61],[-6.981279440224171,62.057343274354935,407.92],[-6.981140719726682,62.0574140176177,408.09],[-6.980946930125356,62.05747394822538,407.42],[-6.98075020685792,62.057548966258764,407.12],[-6.980564715340734,62.05759330652654,407.12],[-6.980394814163446,62.05764594487846,407.06],[-6.980215776711702,62.05769673921168,406.47],[-6.980020478367806,62.05775499343872,406.86],[-6.979883350431919,62.05783814191818,406.97],[-6.979746725410223,62.057915925979614,406.66],[-6.979617727920413,62.0579978171736,407.41],[-6.979509349912405,62.0580652076751,407.11],[-6.979440869763494,62.058153469115496,407.48],[-6.97933416813612,62.058220440521836,407.4],[-6.979246074333787,62.05830082297325,406.91],[-6.979177594184876,62.05838346853852,406.52],[-6.979097295552492,62.05848497338593,406.99],[-6.979028061032295,62.05857868306339,408.07],[-6.978965029120445,62.05866484902799,407.23],[-6.97891884483397,62.05876400694251,407.74],[-6.979007693007588,62.058845311403275,408.31],[-6.978792864829302,62.058831145986915,408.31],[-6.978897890076041,62.05890993587673,407.47],[-6.979085644707084,62.058923933655024,403.96],[-6.979304077103734,62.058910857886076,400.96],[-6.979498034343123,62.05891689285636,398.65],[-6.979402648285031,62.058988055214286,396.03],[-6.979497531428933,62.05904656089842,392.55],[-6.979415807873011,62.059133648872375,389.82],[-6.979521084576845,62.05917262472212,386.7],[-6.97964446619153,62.05920129083097,383.08],[-6.979827275499702,62.05916063860059,381.43],[-6.979918638244271,62.05918997526169,377.09],[-6.979857115074992,62.05927069298923,374.72],[-6.979806153103709,62.05936582759023,372.34],[-6.979771116748452,62.059455681592226,368.22],[-6.979964319616556,62.059446293860674,364.95],[-6.979930121451616,62.05951653420925,361.89],[-6.979851247742772,62.059610998257995,359.45],[-6.979741025716066,62.059692554175854,357.71],[-6.979681933298707,62.05978475511074,355.13],[-6.97963273152709,62.05987670458853,353.73],[-6.979658966884017,62.059978041797876,352.39],[-6.979597192257643,62.060064962133765,352.03],[-6.979510020464659,62.06015515141189,349.99],[-6.97942947037518,62.06022698432207,348.84],[-6.979446234181523,62.06032178364694,348.73],[-6.979451850056648,62.060418259352446,347.94],[-6.979413460940123,62.06051632761955,347.77],[-6.979315308853984,62.06060383468866,347.38],[-6.979168374091387,62.06069016829133,347.54],[-6.979167954996228,62.06078429706395,347.07],[-6.979155885055661,62.060881946235895,346.08],[-6.979167200624943,62.06097926013172,344.84],[-6.97916317731142,62.061078837141395,344.21],[-6.979096876457334,62.061177492141724,344.3],[-6.97910257615149,62.06127447076142,343.81],[-6.979124872013927,62.06136893481016,343.54],[-6.979152616113424,62.06145878881216,343.04],[-6.979123782366514,62.0615516602993,343.16],[-6.979133589193225,62.0616465434432,342.15],[-6.979120345786214,62.061742348596454,341.88],[-6.979135600849986,62.06183454953134,341.12],[-6.97910500690341,62.06192582845688,341.62],[-6.979162925854325,62.06202222034335,342.34],[-6.979178600013256,62.06211735494435,342.6],[-6.979162925854325,62.062212992459536,342.84],[-6.979178683832288,62.06231206655502,342.86],[-6.97919393889606,62.06239555031061,342.89],[-6.979194860905409,62.062484649941325,342.72],[-6.97926577180624,62.06257198937237,341.82],[-6.979298293590546,62.0626724883914,341.66],[-6.979303993284702,62.06277617253363,342],[-6.979429051280022,62.06285345368087,342.14],[-6.979503482580185,62.06294305622578,342.08],[-6.979604568332434,62.06303860992193,341.69],[-6.979644969105721,62.063134582713246,341.13],[-6.979709174484015,62.063226364552975,340.07],[-6.979814702644944,62.063318733125925,339.88],[-6.979885697364807,62.06341462209821,339.75],[-6.980005307123065,62.06349986605346,339.08],[-6.980114439502358,62.0635877083987,339.14],[-6.980238659307361,62.063672533258796,339.15],[-6.980379726737738,62.06373757682741,338.8],[-6.980505455285311,62.063817624002695,338.14],[-6.980593213811517,62.06390085630119,337.93],[-6.980674266815186,62.06398542970419,337.58],[-6.980731599032879,62.0640816539526,337.9],[-6.980779459699988,62.064171424135566,338.3],[-6.980791864916682,62.064273012802005,338.72],[-6.980783315375447,62.06436747685075,338.48],[-6.980769401416183,62.06446076743305,338.61],[-6.980736209079623,62.064552465453744,339.42],[-6.980688013136387,62.064641397446394,340.26],[-6.980608385056257,62.064740136265755,340.58],[-6.980520207434893,62.06482102163136,341.2],[-6.980507047846913,62.06492017954588,342.51],[-6.980628669261932,62.064989414066076,342.59],[-6.980620203539729,62.0650571398437,342.05],[-6.98041551746428,62.06509913317859,342.41],[-6.980382660403848,62.06518563441932,344.75],[-6.980504365637898,62.06524623557925,346.46],[-6.980561362579465,62.06534321419895,347.51],[-6.980518531054258,62.06543910317123,349.54],[-6.980489445850253,62.06554127857089,351.5],[-6.980445021763444,62.06563297659159,354.18],[-6.980395065620542,62.06573339179158,356.1],[-6.980360615998507,62.06582324579358,358.38],[-6.980328178033233,62.06592483446002,360.33],[-6.980318622663617,62.066025752574205,361.63],[-6.980332285165787,62.06612717360258,364.03],[-6.980344774201512,62.066227504983544,366.65],[-6.980323819443584,62.06632314249873,370.14],[-6.980350222438574,62.06642288714647,371.8],[-6.980354161933065,62.06652288325131,374.18],[-6.98029138147831,62.06662162207067,377.84],[-6.980284592136741,62.06670946441591,380.39],[-6.980292135849595,62.06679512746632,383.18],[-6.980276042595506,62.06689386628568,385.98],[-6.980310995131731,62.06698900088668,387.95],[-6.980371261015534,62.06707893870771,389.12],[-6.980392299592495,62.067170133814216,390.21],[-6.980445859953761,62.06725529395044,391.49],[-6.980492295697331,62.067344561219215,392.77],[-6.980496821925044,62.067442713305354,394.85],[-6.980393473058939,62.067511612549424,398.83],[-6.980222817510366,62.06756601110101,402.83],[-6.980196665972471,62.06766005605459,403.81],[-6.980324909090996,62.06774102523923,404.48],[-6.980420965701342,62.06783196888864,404.2],[-6.980514172464609,62.06792492419481,405.13],[-6.980563625693321,62.06801963970065,405.98],[-6.98064811527729,62.068107817322016,406.56],[-6.980638559907675,62.068195743486285,407.01],[-6.980580976232886,62.06829657778144,407.33],[-6.980428760871291,62.06834980286658,405.16],[-6.98023128323257,62.06836589612067,403.11],[-6.980051659047604,62.06831334158778,402.45],[-6.979895839467645,62.06831560470164,400.5],[-6.979709677398205,62.06832122057676,398.19],[-6.979507757350802,62.06834787502885,397.65],[-6.979315644130111,62.06831971183419,398.03],[-6.979110538959503,62.06832398660481,396.69],[-6.978937620297074,62.06834318116307,394.49],[-6.978736370801926,62.068372098729014,393.67],[-6.978519530966878,62.06837570294738,392.76],[-6.978359017521143,62.068439070135355,389.5],[-6.978179644793272,62.0684920437634,386.97],[-6.978032123297453,62.068555830046535,384.6],[-6.97787269949913,62.06860310398042,383.09],[-6.977687543258071,62.068643253296614,382.12],[-6.977496016770601,62.06866052001715,381.8],[-6.977334246039391,62.06870821304619,380.73],[-6.977153616026044,62.06875682808459,381.69],[-6.976915569975972,62.06878230907023,380.23],[-6.976739717647433,62.06882681697607,380.07],[-6.976603679358959,62.068902840837836,378.98],[-6.976437047123909,62.06895874813199,378.4],[-6.976257674396038,62.06901893019676,378.02],[-6.976156253367662,62.06910392269492,377.73],[-6.976104620844126,62.06920358352363,376.2],[-6.976019712164998,62.069299975410104,375.03],[-6.975917788222432,62.069391421973705,374.1],[-6.975799100473523,62.06947507336736,373.82],[-6.975782085210085,62.06957004033029,371.6],[-6.975752329453826,62.0696559548378,370.15],[-6.975683178752661,62.06974379718304,369.25],[-6.975604137405753,62.069840440526605,367.75],[-6.975505482405424,62.06991981714964,367.16],[-6.975454688072205,62.07002090290189,365.22],[-6.975457705557346,62.070134058594704,362.11],[-6.975390734151006,62.07021662034094,359.83],[-6.975230555981398,62.07028082571924,359.74],[-6.975098960101605,62.070355005562305,359.59],[-6.974952528253198,62.070415019989014,359.32],[-6.974872229620814,62.070497665554285,359.89],[-6.974548939615488,62.07061652094126,363.85],[-6.974532175809145,62.07071375101805,362.93],[-6.974423546344042,62.070797150954604,363.51],[-6.974334195256233,62.07088868133724,364.02],[-6.974193966016173,62.070978451520205,365.32],[-6.974078882485628,62.07105598412454,365.66],[-6.973989950492978,62.07113837823272,365.76],[-6.973841926082969,62.0712205208838,365.72],[-6.973744193091989,62.07130744121969,365.74],[-6.973614525049925,62.0713846385479,366.33],[-6.973447306081653,62.071455884724855,366.96],[-6.973325433209539,62.07153718918562,366.82],[-6.973218228667975,62.0716193318367,366.63],[-6.973061822354794,62.07169787026942,367.36],[-6.972887981683016,62.07177649252117,368.42],[-6.972777592018247,62.07185662351549,369.36],[-6.972629567608237,62.07194832153618,369.94],[-6.972533762454987,62.07203800790012,369.95],[-6.972385235130787,62.07210933789611,370.84],[-6.972495708614588,62.072159545496106,368.06],[-6.972607355564833,62.07217111252248,366.96],[-6.972501408308744,62.072254344820976,366.93],[-6.972401663661003,62.07233573310077,367.59],[-6.972285155206919,62.07242097705603,367.96],[-6.972153726965189,62.07250814884901,368.58],[-6.972038727253676,62.0726053789258,368.98],[-6.971971839666367,62.07270939834416,369.7],[-6.971904281526804,62.07281023263931,370.12],[-6.971823982894421,62.07290486432612,370.78],[-6.97171937674284,62.07298709079623,371.46],[-6.971624996513128,62.07307141274214,372.22],[-6.971535561606288,62.07315833307803,372.79],[-6.971446629613638,62.07325145602226,372.89],[-6.971409833058715,62.07336310297251,373.07],[-6.971367169171572,62.07347500137985,373.52],[-6.971335066482425,62.07357365638018,374.2],[-6.971306400373578,62.07366216927767,374.29],[-6.971240937709808,62.073752945289016,374.69],[-6.97114915587008,62.073833495378494,374.95],[-6.971072209998965,62.07392754033208,375.06],[-6.971003478392959,62.07403499633074,375.65],[-6.97093902155757,62.07412593998015,375.82],[-6.97083743289113,62.07422719337046,376.19],[-6.970757720991969,62.074319729581475,376.74],[-6.970673650503159,62.074408577755094,376.81],[-6.970600476488471,62.074504969641566,376.99],[-6.970525290817022,62.074600690975785,376.8],[-6.970503414049745,62.074702782556415,377.17],[-6.970484303310514,62.0748002640903,377.3],[-6.970474580302835,62.074893303215504,377.23],[-6.970466617494822,62.07498642615974,377.75],[-6.970420265570283,62.075079968199134,377.56],[-6.970358239486814,62.07518591545522,377.86],[-6.970297889783979,62.075287755578756,378.16],[-6.970230331644416,62.0753906853497,378.35],[-6.970135448500514,62.075482215732336,378.81],[-6.969990525394678,62.07555228844285,378.95],[-6.969873597845435,62.07563233561814,379.53],[-6.969736972823739,62.075694194063544,380.63],[-6.96958995424211,62.075755298137665,380.91],[-6.969471098855138,62.075833920389414,381.82],[-6.969368504360318,62.075914051383734,382.13],[-6.969255935400724,62.07599502056837,382.72],[-6.969079663977027,62.07606056705117,383.43],[-6.968927532434464,62.076116390526295,384.18],[-6.968777077272534,62.076177997514606,384.8],[-6.968623185530305,62.07624756731093,385.28],[-6.968510868027806,62.076324597001076,386.43],[-6.968402406200767,62.07640196196735,386.92],[-6.968259494751692,62.076473627239466,387.86],[-6.968160672113299,62.076556105166674,388.68],[-6.968071321025491,62.076640259474516,389.79],[-6.967948107048869,62.076717875897884,390.12],[-6.967810643836856,62.07678962498903,390.53],[-6.967673934996128,62.076864559203386,391.6],[-6.967527586966753,62.07695474848151,392.4],[-6.967422813177109,62.07704275846481,393.21],[-6.967307897284627,62.07712314091623,395.1],[-6.967184180393815,62.07720276899636,395.71],[-6.96707496419549,62.07728650420904,396.53],[-6.966972872614861,62.07737434655428,397.86],[-6.966876061633229,62.07745539955795,399.1],[-6.96678327396512,62.077533937990665,400.13],[-6.966661065816879,62.0776201877743,400.96],[-6.966545060276985,62.07770367152989,401.83],[-6.966408602893353,62.07779738120735,401.89],[-6.966316234320402,62.07788069732487,403.02],[-6.966226380318403,62.07795982249081,403.76],[-6.966115068644285,62.07804288715124,405.04],[-6.965982466936112,62.078110529109836,405.62],[-6.965852631255984,62.078177416697145,406.39],[-6.965734865516424,62.07825796678662,406.96],[-6.965626906603575,62.07833256572485,407.69],[-6.965516181662679,62.07840892486274,408.77],[-6.965380311012268,62.07848226651549,410.2],[-6.965238908305764,62.07855083048344,411.1],[-6.965119382366538,62.07862425595522,411.65],[-6.965000610798597,62.078702710568905,413.85],[-6.964851329103112,62.078783763572574,415.31],[-6.964681930840015,62.078846879303455,416.45],[-6.964519573375583,62.078918712213635,417.71],[-6.964402226731181,62.07899549044669,418.88],[-6.964290747419,62.07908978685737,419.98],[-6.964160576462746,62.079179640859365,420.83],[-6.964020179584622,62.07924719899893,422.09],[-6.963904174044728,62.079320373013616,422.74],[-6.963774086907506,62.07940008491278,423.68],[-6.963626397773624,62.07947099581361,425.13],[-6.963480804115534,62.07954442128539,425.84],[-6.963360356166959,62.07963226363063,427.11],[-6.963227251544595,62.07971457391977,428.07],[-6.963079059496522,62.079797219485044,429.28],[-6.962957438081503,62.07988237962127,430.59],[-6.962869595736265,62.07997743040323,431.5],[-6.962799606844783,62.08006728440523,432.64],[-6.962688295170665,62.080157389864326,435.12],[-6.962571619078517,62.080230647698045,436.52],[-6.962436670437455,62.0803055819124,438],[-6.96225319057703,62.08036442287266,440.05],[-6.96210952475667,62.080433908849955,440.91],[-6.961995949968696,62.080522924661636,442.24],[-6.961949933320284,62.08062082529068,442.63],[-6.961870389059186,62.08070992492139,443],[-6.961772991344333,62.0807820931077,444.14],[-6.961656734347343,62.08086155354977,445.69],[-6.961513487622142,62.0809409301728,446.84],[-6.961353309452534,62.081012427806854,447.92],[-6.961196735501289,62.08106841892004,449.73],[-6.961049130186439,62.08112524822354,451.38],[-6.960897082462907,62.081177132204175,453.97],[-6.96071008220315,62.08122834563255,456.45],[-6.960567757487297,62.081301687285304,458.25],[-6.960487877950072,62.0813917927444,459.89],[-6.96034069173038,62.081482484936714,461.8],[-6.960186464712024,62.08155993372202,463.35],[-6.960042044520378,62.08162154071033,464.43],[-6.959940204396844,62.081705862656236,466.05],[-6.959845656529069,62.08179730921984,467.77],[-6.959702242165804,62.081870986148715,469.11],[-6.959538124501705,62.08192974328995,470.26],[-6.959368977695704,62.081984812393785,472.23],[-6.959198489785194,62.082020519301295,473.79],[-6.959069324657321,62.081975508481264,475.15],[-6.958887604996562,62.081989673897624,475.48],[-6.958686942234635,62.08198556676507,476.58],[-6.958494074642658,62.08198715932667,477.35],[-6.958292070776224,62.081961845979095,478.7],[-6.958088474348187,62.081937873736024,479.24],[-6.957930056378245,62.08188297227025,479.98],[-6.957797203212977,62.08180041052401,481.08],[-6.95764247328043,62.081737127155066,481.8],[-6.95746217854321,62.081682812422514,482.67],[-6.957273920997977,62.08164978772402,483.24],[-6.957075102254748,62.08162707276642,482.99],[-6.956895645707846,62.08158742636442,483.79],[-6.956730606034398,62.0815435051918,482.81],[-6.956519884988666,62.08154677413404,483.31],[-6.956324921920896,62.08157015964389,483.28],[-6.956128617748618,62.08158248104155,483.13],[-6.955917729064822,62.08159471862018,484],[-6.955702565610409,62.081573344767094,484.7],[-6.95552914403379,62.08152908831835,485.08],[-6.955340215936303,62.08149639889598,485.96],[-6.955139134079218,62.08147745579481,487.06],[-6.954947775229812,62.08146798424423,487.89],[-6.954735210165381,62.08146060816944,488.37],[-6.954528177157044,62.08148474805057,488.55],[-6.954291807487607,62.081517186015844,488.85],[-6.954085947945714,62.08154979161918,489.28],[-6.95388930849731,62.08156957291067,489.09],[-6.953662997111678,62.081559179350734,489.76],[-6.95346518419683,62.081533782184124,490.21],[-6.953256642445922,62.08150193095207,490.8],[-6.953061260282993,62.08147385157645,491.42],[-6.952852969989181,62.08148759789765,491.35],[-6.952649373561144,62.08152984268963,491.45],[-6.952580893412232,62.081616343930364,492.04],[-6.952627329155803,62.081712232902646,492.7],[-6.952524902299047,62.081780629232526,503.83]]}},{"type":"Feature","properties":{"name":"WP1 02_SN","type":"user","time":"2020-07-21T08:41:03Z","gpxx_WaypointExtension":"SymbolAndName","gpxx_DisplayMode":"SymbolAndName","wptx1_WaypointExtension":"SymbolAndName","wptx1_DisplayMode":"SymbolAndName","ctx_CreationTimeExtension":"2020-07-21T08:41:03Z","ctx_CreationTime":"2020-07-21T08:41:03Z","sym":"Flag, Blue"},"geometry":{"type":"Point","coordinates":[-6.972593022510409,62.07214001566172,368.171478]}},{"type":"Feature","properties":{"name":"WP2 09_SN","type":"user","time":"2020-07-21T09:49:12Z","gpxx_WaypointExtension":"SymbolAndName","gpxx_DisplayMode":"SymbolAndName","wptx1_WaypointExtension":"SymbolAndName","wptx1_DisplayMode":"SymbolAndName","ctx_CreationTimeExtension":"2020-07-21T09:49:12Z","ctx_CreationTime":"2020-07-21T09:49:12Z","sym":"Flag, Blue"},"geometry":{"type":"Point","coordinates":[-6.980230780318379,62.05774082802236,406.67578125]}},{"type":"Feature","properties":{"name":"WP3 12_SN","type":"user","time":"2020-07-21T10:16:08Z","gpxx_WaypointExtension":"SymbolAndName","gpxx_DisplayMode":"SymbolAndName","wptx1_WaypointExtension":"SymbolAndName","wptx1_DisplayMode":"SymbolAndName","ctx_CreationTimeExtension":"2020-07-21T10:16:08Z","ctx_CreationTime":"2020-07-21T10:16:08Z","sym":"Flag, Blue"},"geometry":{"type":"Point","coordinates":[-6.973814014345408,62.04832300543785,243.815811]}}]}