{"type":"FeatureCollection","features":[{"type":"Feature","properties":{"_gpxType":"trk","name":"14 Torshavn","time":"2024-09-29T15:43:27Z","gpxx_TrackExtension":"Cyan","gpxx_DisplayColor":"Cyan","coordinateProperties":{"times":["2024-09-29T15:43:27Z","2024-09-29T15:43:36Z","2024-09-29T15:43:42Z","2024-09-29T15:43:48Z","2024-09-29T15:43:54Z","2024-09-29T15:44:00Z","2024-09-29T15:44:06Z","2024-09-29T15:44:14Z","2024-09-29T15:44:36Z","2024-09-29T15:44:41Z","2024-09-29T15:44:52Z","2024-09-29T15:44:58Z","2024-09-29T15:45:04Z","2024-09-29T15:45:09Z","2024-09-29T15:45:14Z","2024-09-29T15:45:21Z","2024-09-29T15:45:28Z","2024-09-29T15:45:35Z","2024-09-29T15:45:42Z","2024-09-29T15:45:49Z","2024-09-29T15:45:56Z","2024-09-29T15:46:03Z","2024-09-29T15:46:10Z","2024-09-29T15:46:17Z","2024-09-29T15:46:24Z","2024-09-29T15:46:31Z","2024-09-29T15:46:39Z","2024-09-29T15:46:48Z","2024-09-29T15:46:58Z","2024-09-29T15:47:13Z","2024-09-29T15:47:20Z","2024-09-29T15:47:29Z","2024-09-29T15:47:39Z","2024-09-29T15:47:48Z","2024-09-29T15:48:06Z","2024-09-29T15:48:16Z","2024-09-29T15:48:24Z","2024-09-29T15:48:30Z","2024-09-29T15:48:37Z","2024-09-29T15:48:44Z","2024-09-29T15:48:52Z","2024-09-29T15:49:00Z","2024-09-29T15:49:07Z","2024-09-29T15:49:15Z","2024-09-29T15:49:23Z","2024-09-29T15:49:36Z","2024-09-29T15:49:43Z","2024-09-29T15:49:49Z","2024-09-29T15:49:55Z","2024-09-29T15:50:02Z","2024-09-29T15:50:11Z","2024-09-29T15:50:19Z","2024-09-29T15:50:27Z","2024-09-29T15:50:37Z","2024-09-29T15:50:44Z","2024-09-29T15:50:51Z","2024-09-29T15:51:00Z","2024-09-29T15:51:17Z","2024-09-29T15:51:28Z","2024-09-29T15:52:28Z","2024-09-29T15:52:34Z","2024-09-29T15:52:39Z","2024-09-29T15:52:45Z","2024-09-29T15:52:51Z","2024-09-29T15:52:57Z","2024-09-29T15:53:03Z","2024-09-29T15:53:09Z","2024-09-29T15:53:15Z","2024-09-29T15:53:21Z","2024-09-29T15:53:27Z","2024-09-29T15:53:33Z","2024-09-29T15:53:39Z","2024-09-29T15:53:45Z","2024-09-29T15:53:52Z","2024-09-29T15:53:59Z","2024-09-29T15:54:05Z","2024-09-29T15:54:11Z","2024-09-29T15:54:17Z","2024-09-29T15:54:23Z","2024-09-29T15:54:29Z","2024-09-29T15:54:35Z","2024-09-29T15:54:40Z","2024-09-29T15:54:46Z","2024-09-29T15:54:52Z","2024-09-29T15:54:58Z","2024-09-29T15:55:04Z","2024-09-29T15:55:10Z","2024-09-29T15:55:15Z","2024-09-29T15:55:21Z","2024-09-29T15:55:27Z","2024-09-29T15:55:32Z","2024-09-29T15:55:38Z","2024-09-29T15:55:44Z","2024-09-29T15:55:50Z","2024-09-29T15:55:56Z","2024-09-29T15:56:03Z","2024-09-29T15:56:09Z","2024-09-29T15:56:15Z","2024-09-29T15:56:21Z","2024-09-29T15:56:27Z","2024-09-29T15:56:33Z","2024-09-29T15:56:40Z","2024-09-29T15:56:46Z","2024-09-29T15:56:52Z","2024-09-29T15:56:58Z","2024-09-29T15:57:05Z","2024-09-29T15:57:12Z","2024-09-29T15:57:18Z","2024-09-29T15:57:24Z","2024-09-29T15:57:30Z","2024-09-29T15:57:37Z","2024-09-29T15:57:45Z","2024-09-29T15:57:51Z","2024-09-29T15:57:57Z","2024-09-29T15:58:04Z","2024-09-29T15:58:10Z","2024-09-29T15:58:16Z","2024-09-29T15:58:23Z","2024-09-29T15:59:19Z","2024-09-29T15:59:25Z","2024-09-29T15:59:31Z","2024-09-29T15:59:37Z","2024-09-29T15:59:43Z","2024-09-29T15:59:49Z","2024-09-29T15:59:55Z","2024-09-29T16:00:02Z","2024-09-29T16:00:08Z","2024-09-29T16:00:14Z","2024-09-29T16:00:20Z","2024-09-29T16:00:27Z","2024-09-29T16:00:34Z","2024-09-29T16:00:41Z","2024-09-29T16:00:47Z","2024-09-29T16:00:53Z","2024-09-29T16:00:59Z","2024-09-29T16:01:05Z","2024-09-29T16:01:12Z","2024-09-29T16:01:19Z","2024-09-29T16:01:25Z","2024-09-29T16:01:32Z","2024-09-29T16:01:40Z","2024-09-29T16:01:49Z","2024-09-29T16:01:59Z","2024-09-29T16:02:07Z","2024-09-29T16:02:14Z","2024-09-29T16:02:21Z","2024-09-29T16:02:28Z","2024-09-29T16:02:36Z","2024-09-29T16:02:45Z","2024-09-29T16:02:52Z","2024-09-29T16:03:00Z","2024-09-29T16:03:08Z","2024-09-29T16:03:15Z","2024-09-29T16:03:22Z","2024-09-29T16:03:29Z","2024-09-29T16:03:37Z","2024-09-29T16:03:45Z","2024-09-29T16:03:52Z","2024-09-29T16:03:59Z","2024-09-29T16:04:06Z","2024-09-29T16:04:13Z","2024-09-29T16:04:21Z","2024-09-29T16:04:27Z","2024-09-29T16:04:34Z","2024-09-29T16:04:41Z","2024-09-29T16:04:48Z","2024-09-29T16:04:55Z","2024-09-29T16:05:01Z","2024-09-29T16:05:07Z","2024-09-29T16:05:14Z","2024-09-29T16:05:20Z","2024-09-29T16:05:27Z","2024-09-29T16:05:34Z","2024-09-29T16:05:40Z","2024-09-29T16:05:46Z","2024-09-29T16:05:54Z","2024-09-29T16:06:00Z","2024-09-29T16:06:06Z","2024-09-29T16:06:12Z","2024-09-29T16:06:18Z","2024-09-29T16:06:24Z","2024-09-29T16:06:30Z","2024-09-29T16:06:36Z","2024-09-29T16:06:42Z","2024-09-29T16:06:48Z","2024-09-29T16:06:55Z","2024-09-29T16:07:02Z","2024-09-29T16:07:09Z","2024-09-29T16:07:14Z","2024-09-29T16:07:20Z","2024-09-29T16:07:26Z","2024-09-29T16:07:32Z","2024-09-29T16:07:38Z","2024-09-29T16:07:43Z","2024-09-29T16:07:48Z","2024-09-29T16:07:54Z","2024-09-29T16:08:00Z","2024-09-29T16:08:06Z","2024-09-29T16:08:12Z","2024-09-29T16:08:18Z","2024-09-29T16:08:24Z","2024-09-29T16:08:31Z","2024-09-29T16:08:38Z","2024-09-29T16:08:45Z","2024-09-29T16:08:51Z","2024-09-29T16:08:57Z","2024-09-29T16:09:03Z","2024-09-29T16:09:09Z","2024-09-29T16:09:15Z","2024-09-29T16:09:20Z","2024-09-29T16:09:26Z","2024-09-29T16:09:32Z","2024-09-29T16:09:38Z","2024-09-29T16:09:44Z","2024-09-29T16:09:51Z","2024-09-29T16:09:57Z","2024-09-29T16:10:03Z","2024-09-29T16:10:09Z","2024-09-29T16:10:15Z","2024-09-29T16:10:21Z","2024-09-29T16:10:27Z","2024-09-29T16:11:28Z","2024-09-29T16:11:37Z","2024-09-29T16:11:43Z","2024-09-29T16:11:49Z","2024-09-29T16:11:55Z","2024-09-29T16:12:01Z","2024-09-29T16:12:07Z","2024-09-29T16:12:12Z","2024-09-29T16:12:17Z","2024-09-29T16:12:23Z","2024-09-29T16:12:28Z","2024-09-29T16:12:33Z","2024-09-29T16:12:39Z","2024-09-29T16:12:45Z","2024-09-29T16:12:51Z","2024-09-29T16:12:57Z","2024-09-29T16:13:02Z","2024-09-29T16:13:08Z","2024-09-29T16:13:14Z","2024-09-29T16:13:20Z","2024-09-29T16:13:26Z","2024-09-29T16:13:31Z","2024-09-29T16:13:37Z","2024-09-29T16:13:43Z","2024-09-29T16:13:49Z","2024-09-29T16:13:55Z","2024-09-29T16:14:01Z","2024-09-29T16:14:07Z","2024-09-29T16:14:13Z","2024-09-29T16:14:19Z","2024-09-29T16:14:25Z","2024-09-29T16:14:31Z","2024-09-29T16:14:37Z","2024-09-29T16:14:43Z","2024-09-29T16:14:49Z","2024-09-29T16:14:55Z","2024-09-29T16:15:01Z","2024-09-29T16:15:07Z","2024-09-29T16:15:13Z","2024-09-29T16:15:19Z","2024-09-29T16:15:25Z","2024-09-29T16:15:31Z","2024-09-29T16:15:37Z","2024-09-29T16:15:43Z","2024-09-29T16:15:49Z","2024-09-29T16:15:55Z","2024-09-29T16:16:01Z","2024-09-29T16:16:07Z","2024-09-29T16:16:13Z","2024-09-29T16:16:19Z","2024-09-29T16:16:25Z","2024-09-29T16:16:31Z","2024-09-29T16:16:37Z","2024-09-29T16:16:43Z","2024-09-29T16:16:51Z","2024-09-29T16:16:57Z","2024-09-29T16:17:03Z","2024-09-29T16:17:09Z","2024-09-29T16:17:15Z","2024-09-29T16:17:22Z","2024-09-29T16:17:28Z","2024-09-29T16:17:34Z","2024-09-29T16:17:40Z","2024-09-29T16:17:46Z","2024-09-29T16:17:51Z","2024-09-29T16:17:57Z","2024-09-29T16:18:03Z","2024-09-29T16:18:26Z","2024-09-29T16:18:44Z","2024-09-29T16:18:49Z","2024-09-29T16:18:55Z","2024-09-29T16:19:01Z","2024-09-29T16:19:06Z","2024-09-29T16:19:12Z","2024-09-29T16:19:18Z","2024-09-29T16:19:24Z","2024-09-29T16:19:30Z","2024-09-29T16:19:35Z","2024-09-29T16:19:40Z","2024-09-29T16:19:46Z","2024-09-29T16:19:53Z","2024-09-29T16:19:59Z","2024-09-29T16:20:05Z","2024-09-29T16:20:10Z","2024-09-29T16:20:16Z","2024-09-29T16:20:22Z","2024-09-29T16:20:27Z","2024-09-29T16:20:32Z","2024-09-29T16:20:38Z","2024-09-29T16:20:43Z","2024-09-29T16:20:49Z","2024-09-29T16:20:55Z","2024-09-29T16:21:01Z","2024-09-29T16:21:06Z","2024-09-29T16:21:11Z","2024-09-29T16:21:16Z","2024-09-29T16:21:22Z","2024-09-29T16:21:28Z","2024-09-29T16:21:34Z","2024-09-29T16:21:40Z","2024-09-29T16:21:46Z","2024-09-29T16:21:52Z","2024-09-29T16:21:57Z","2024-09-29T16:22:03Z","2024-09-29T16:22:09Z","2024-09-29T16:22:15Z","2024-09-29T16:22:21Z","2024-09-29T16:22:27Z","2024-09-29T16:22:33Z","2024-09-29T16:22:39Z","2024-09-29T16:22:45Z","2024-09-29T16:22:51Z","2024-09-29T16:22:57Z","2024-09-29T16:23:03Z","2024-09-29T16:23:09Z","2024-09-29T16:23:15Z","2024-09-29T16:23:21Z","2024-09-29T16:23:27Z","2024-09-29T16:23:33Z","2024-09-29T16:23:39Z","2024-09-29T16:23:45Z","2024-09-29T16:23:51Z","2024-09-29T16:23:58Z","2024-09-29T16:24:04Z","2024-09-29T16:24:10Z","2024-09-29T16:24:16Z","2024-09-29T16:24:22Z","2024-09-29T16:24:28Z","2024-09-29T16:24:34Z","2024-09-29T16:24:40Z","2024-09-29T16:24:46Z","2024-09-29T16:24:52Z","2024-09-29T16:24:58Z","2024-09-29T16:25:04Z","2024-09-29T16:25:10Z","2024-09-29T16:25:16Z","2024-09-29T16:25:22Z","2024-09-29T16:25:28Z","2024-09-29T16:25:34Z","2024-09-29T16:25:40Z","2024-09-29T16:25:47Z","2024-09-29T16:25:53Z","2024-09-29T16:25:59Z","2024-09-29T16:26:05Z","2024-09-29T16:26:11Z","2024-09-29T16:26:17Z","2024-09-29T16:26:23Z","2024-09-29T16:26:29Z","2024-09-29T16:26:35Z","2024-09-29T16:26:41Z","2024-09-29T16:26:47Z","2024-09-29T16:26:53Z","2024-09-29T16:26:59Z","2024-09-29T16:27:05Z","2024-09-29T16:27:10Z","2024-09-29T16:27:16Z","2024-09-29T16:27:22Z","2024-09-29T16:27:28Z","2024-09-29T16:27:34Z","2024-09-29T16:27:40Z","2024-09-29T16:27:46Z","2024-09-29T16:27:53Z","2024-09-29T16:28:33Z","2024-09-29T16:28:39Z","2024-09-29T16:28:45Z","2024-09-29T16:28:51Z","2024-09-29T16:28:57Z","2024-09-29T16:29:03Z","2024-09-29T16:29:08Z","2024-09-29T16:29:14Z","2024-09-29T16:29:20Z","2024-09-29T16:29:26Z","2024-09-29T16:29:32Z","2024-09-29T16:29:38Z","2024-09-29T16:29:43Z","2024-09-29T16:29:49Z","2024-09-29T16:29:55Z","2024-09-29T16:30:01Z","2024-09-29T16:30:07Z","2024-09-29T16:30:13Z","2024-09-29T16:30:19Z","2024-09-29T16:30:25Z","2024-09-29T16:30:31Z","2024-09-29T16:30:37Z","2024-09-29T16:30:43Z","2024-09-29T16:30:49Z","2024-09-29T16:30:55Z","2024-09-29T16:31:01Z","2024-09-29T16:31:07Z","2024-09-29T16:31:14Z","2024-09-29T16:31:20Z","2024-09-29T16:31:26Z","2024-09-29T16:31:33Z","2024-09-29T16:31:39Z","2024-09-29T16:31:45Z","2024-09-29T16:31:51Z","2024-09-29T16:31:57Z","2024-09-29T16:32:03Z","2024-09-29T16:32:09Z","2024-09-29T16:32:15Z","2024-09-29T16:32:21Z","2024-09-29T16:32:29Z","2024-09-29T16:32:35Z","2024-09-29T16:32:41Z","2024-09-29T16:32:47Z","2024-09-29T16:32:53Z","2024-09-29T16:33:00Z","2024-09-29T16:33:06Z","2024-09-29T16:33:12Z","2024-09-29T16:33:18Z","2024-09-29T16:33:25Z","2024-09-29T16:33:36Z","2024-09-29T16:33:43Z","2024-09-29T16:33:50Z","2024-09-29T16:33:57Z","2024-09-29T16:34:03Z","2024-09-29T16:34:11Z","2024-09-29T16:34:20Z","2024-09-29T16:34:28Z","2024-09-29T16:34:34Z","2024-09-29T16:34:40Z","2024-09-29T16:34:46Z","2024-09-29T16:34:52Z","2024-09-29T16:34:58Z","2024-09-29T16:35:04Z","2024-09-29T16:35:10Z","2024-09-29T16:35:16Z","2024-09-29T16:35:22Z","2024-09-29T16:35:28Z","2024-09-29T16:35:34Z","2024-09-29T16:35:40Z","2024-09-29T16:35:46Z","2024-09-29T16:35:52Z","2024-09-29T16:35:58Z","2024-09-29T16:36:03Z","2024-09-29T16:36:09Z","2024-09-29T16:36:15Z","2024-09-29T16:36:21Z","2024-09-29T16:36:27Z","2024-09-29T16:36:33Z","2024-09-29T16:36:39Z"]}},"geometry":{"type":"LineString","coordinates":[[-6.800495199859142,62.00674960389733,106.83203125],[-6.800690330564976,62.00674750842154,108.00390625],[-6.800902979448438,62.00672948732972,109.28125],[-6.801104061305523,62.006728649139404,110.48828125],[-6.801299778744578,62.00674499385059,111.6640625],[-6.801496502012014,62.00677097775042,112.84375],[-6.80169465020299,62.00677483342588,114.02734375],[-6.801801770925522,62.00669872574508,114.54296875],[-6.802023639902473,62.00673183426261,115.60546875],[-6.802185159176588,62.00668799690902,116.3828125],[-6.802209550514817,62.006756560876966,116.5],[-6.802180632948875,62.00686041265726,116.359375],[-6.802128413692117,62.006964683532715,116.109375],[-6.802072422578931,62.00705579482019,115.83984375],[-6.802016096189618,62.00714229606092,115.5703125],[-6.802022131159902,62.00722536072135,115.58984375],[-6.802207455039024,62.00727221556008,116.40234375],[-6.802397724241018,62.0073074195534,117.28125],[-6.802582377567887,62.00734036043286,118.375],[-6.802796870470047,62.00736206956208,120.1953125],[-6.803024355322123,62.00739576481283,122.140625],[-6.803227532655001,62.007441530004144,123.890625],[-6.803456274792552,62.007507495582104,125.9765625],[-6.803720723837614,62.0075767301023,128.515625],[-6.803940497338772,62.007642360404134,130.625],[-6.804155157878995,62.0076993573457,132.6875],[-6.804351629689336,62.00774663127959,134.7734375],[-6.80455656722188,62.007780242711306,136.98828125],[-6.804780699312687,62.0077651552856,139.41015625],[-6.805050177499652,62.00779709033668,142.296875],[-6.805230136960745,62.00785165652633,144.07421875],[-6.805434403941035,62.00790546834469,146.0625],[-6.805615117773414,62.00795735232532,147.79296875],[-6.80580647662282,62.00799289159477,149.6171875],[-6.806003702804446,62.00800663791597,151.16015625],[-6.806195648387075,62.00797311030328,152.640625],[-6.806376781314611,62.00789675116539,154.1953125],[-6.806526314467192,62.007837826386094,155.5234375],[-6.806710800155997,62.007788456976414,157.17578125],[-6.806844491511583,62.0077096670866,158.72265625],[-6.807039622217417,62.00769005343318,160.64453125],[-6.807164428755641,62.00761151500046,162.21484375],[-6.807358972728252,62.00755778700113,164.3984375],[-6.807519821450114,62.00749986805022,166.328125],[-6.807662229984999,62.007429376244545,168.2890625],[-6.807743450626731,62.00733734294772,169.71875],[-6.807846715673804,62.00724589638412,171.3828125],[-6.807928187772632,62.00715444982052,172.5390625],[-6.808028183877468,62.00706669129431,173.7578125],[-6.80801410228014,62.00696870684624,173.7734375],[-6.808078140020371,62.0068824570626,174.58203125],[-6.80808886885643,62.00678614899516,174.84375],[-6.808119714260101,62.006689170375466,175.30859375],[-6.80819246917963,62.006620187312365,176.13671875],[-6.80828869342804,62.00669570825994,176.99609375],[-6.808425150811672,62.0067669544369,178.2890625],[-6.808552807196975,62.00685270130634,179.5078125],[-6.808689264580607,62.00688480399549,180.88671875],[-6.808665376156569,62.00697901658714,180.5703125],[-6.808620449155569,62.00706711038947,180.02734375],[-6.808547778055072,62.00715905986726,179.17578125],[-6.808487679809332,62.00724648311734,178.30859375],[-6.808426156640053,62.00734572485089,177.046875],[-6.808407129719853,62.00744681060314,176.234375],[-6.80842992849648,62.00754638761282,175.8828125],[-6.808446357026696,62.00764646753669,175.4609375],[-6.808475190773606,62.00775157660246,175.140625],[-6.80849639698863,62.00785165652633,174.76953125],[-6.808475777506828,62.00795584358275,173.91796875],[-6.808439148589969,62.008055755868554,172.921875],[-6.808429006487131,62.008158350363374,172.17578125],[-6.808410817757249,62.008259100839496,171.36328125],[-6.808409141376615,62.00835591182113,170.74609375],[-6.808458510786295,62.00847376137972,170.4921875],[-6.808488266542554,62.00859538279474,170],[-6.808512825518847,62.00868976302445,169.6171875],[-6.808533109724522,62.008785819634795,169.171875],[-6.808601506054401,62.00888363644481,169.109375],[-6.808711979538202,62.00897474773228,169.59765625],[-6.808737376704812,62.009071726351976,169.34375],[-6.808705944567919,62.00917239300907,168.59765625],[-6.808646013960242,62.00926182791591,167.6640625],[-6.808577617630363,62.009355118498206,166.640625],[-6.808527326211333,62.00944388285279,165.79296875],[-6.808422636240721,62.009529964998364,164.5],[-6.808304283767939,62.00961244292557,163.20703125],[-6.808185009285808,62.00969357974827,162.10546875],[-6.808064728975296,62.009763568639755,161.38671875],[-6.807961044833064,62.00985417701304,160.98046875],[-6.80789046920836,62.009959956631064,160.8125],[-6.807854678481817,62.010050900280476,160.81640625],[-6.807820564135909,62.010157937183976,160.8671875],[-6.807786282151938,62.01025818474591,160.90234375],[-6.807784102857113,62.01035466045141,161.12109375],[-6.807763567194343,62.01045415364206,161.23828125],[-6.807726854458451,62.01056286692619,161.2734375],[-6.80778787471354,62.01065414585173,161.82421875],[-6.807889044284821,62.01074559241533,162.5859375],[-6.808044612407684,62.01080636121333,163.578125],[-6.808212669566274,62.01086855493486,164.609375],[-6.808393551036716,62.01092387549579,165.7265625],[-6.808588095009327,62.01097693294287,167.0703125],[-6.808713991194964,62.0110475923866,167.9453125],[-6.808817340061069,62.01113325543702,168.6640625],[-6.808928567916155,62.011212296783924,169.3984375],[-6.809040382504463,62.01130013912916,170.1171875],[-6.809131661430001,62.01139636337757,170.71484375],[-6.80920634418726,62.01149099506438,171.35546875],[-6.809276584535837,62.011584201827645,171.87109375],[-6.809320505708456,62.01167564839125,172.23828125],[-6.809303155168891,62.01178478077054,172.39453125],[-6.809286559000611,62.011883687227964,172.54296875],[-6.809291504323483,62.01197572052479,172.75390625],[-6.809300137683749,62.012070352211595,172.9765625],[-6.809327295050025,62.012169091030955,173.25],[-6.809322349727154,62.01226447708905,173.859375],[-6.809323020279408,62.01235734857619,174.8828125],[-6.80937104858458,62.01245558448136,176.09765625],[-6.809468362480402,62.01245114207268,176.3125],[-6.809649663046002,62.012393893674016,176.15234375],[-6.80983473546803,62.01234569773078,176.078125],[-6.810018382966518,62.01229498721659,175.94921875],[-6.810143105685711,62.0122151914984,175.60546875],[-6.810267912223935,62.01213154010475,176.234375],[-6.810400765389204,62.012044955044985,176.9375],[-6.810535797849298,62.011983431875706,177.6640625],[-6.81072405539453,62.011960968375206,178.65625],[-6.810917342081666,62.01193490065634,179.6328125],[-6.811102917417884,62.01191562227905,180.4921875],[-6.811292348429561,62.011863738298416,181.46484375],[-6.811412377282977,62.011781595647335,182.25390625],[-6.811592420563102,62.01173943467438,183.265625],[-6.811769278720021,62.01169081963599,184.26953125],[-6.811969522386789,62.011659387499094,185.26953125],[-6.812176136299968,62.01165519654751,186.1953125],[-6.812388114631176,62.01166324317455,187.09375],[-6.812615431845188,62.01167346909642,188.12109375],[-6.812822045758367,62.011705320328474,189.0078125],[-6.813002172857523,62.011740524321795,189.703125],[-6.813195291906595,62.01179450377822,190.30078125],[-6.813384471461177,62.011853931471705,190.765625],[-6.813573902472854,62.0118991099298,191.265625],[-6.813783282414079,62.01191411353648,192.07421875],[-6.813989644870162,62.01186298392713,193.296875],[-6.8142104241997,62.0118473097682,194.3046875],[-6.814438495784998,62.01185527257621,194.9609375],[-6.814638907089829,62.01189290732145,195.375],[-6.814807718619704,62.01195518486202,195.58984375],[-6.814981391653419,62.01199969276786,195.93359375],[-6.815191777423024,62.01201310381293,196.77734375],[-6.815409874543548,62.01204034499824,197.64453125],[-6.815619925037026,62.0120682567358,198.4921875],[-6.815821006894112,62.01208761893213,199.34375],[-6.81601588614285,62.01209885068238,200.5234375],[-6.816196935251355,62.012084098532796,201.73046875],[-6.816413272172213,62.012070352211595,203.12890625],[-6.816608654335141,62.01209960505366,204.39453125],[-6.816806718707085,62.01207789592445,205.4921875],[-6.8169872649014,62.01203112490475,206.29296875],[-6.817153813317418,62.01198066584766,206.91796875],[-6.817317511886358,62.011933978646994,207.44921875],[-6.817516749724746,62.01189332641661,208.07421875],[-6.817701989784837,62.01187857426703,208.6484375],[-6.817909190431237,62.011876814067364,209.37109375],[-6.818094262853265,62.01189366169274,210.19921875],[-6.818297104910016,62.01188972219825,210.8984375],[-6.818494498729706,62.01187605969608,211.41015625],[-6.818689880892634,62.011874467134476,212.0390625],[-6.818877216428518,62.01184974052012,212.30859375],[-6.819051979109645,62.0117870438844,211.92578125],[-6.819216096773744,62.011742033064365,211.66015625],[-6.819415502250195,62.011728789657354,211.7890625],[-6.819628151133657,62.011731807142496,212.19921875],[-6.819808445870876,62.01175510883331,212.89453125],[-6.819995194673538,62.01177597977221,213.56640625],[-6.820193929597735,62.011800119653344,213.78125],[-6.820366596803069,62.011762987822294,212.94921875],[-6.820415547117591,62.011668272316456,211.30078125],[-6.820377912372351,62.011561654508114,209.55078125],[-6.820456869900227,62.011465514078736,207.83984375],[-6.820612521842122,62.01139032840729,206.390625],[-6.820771945640445,62.01131505891681,205.43359375],[-6.820892477408052,62.01122864149511,204.359375],[-6.820999765768647,62.01113794930279,203.19140625],[-6.821072520688176,62.011045245453715,202.1484375],[-6.821153238415718,62.01095757074654,201.171875],[-6.821142425760627,62.01086084358394,200.3515625],[-6.821111161261797,62.0107595063746,199.5234375],[-6.82105902582407,62.01066713780165,198.7890625],[-6.820979146286845,62.010567896068096,197.99609375],[-6.820872109383345,62.010468151420355,197.9609375],[-6.820735232904553,62.010377710685134,198.2890625],[-6.820606151595712,62.01029984280467,198.65625],[-6.82048830203712,62.01021627523005,199.02734375],[-6.820361148566008,62.01013907790184,199.4453125],[-6.820218153297901,62.01006808318198,199.9375],[-6.820070380344987,62.01001536101103,200.45703125],[-6.819891761988401,62.00996213592589,201.44140625],[-6.81968305259943,62.00992760248482,202.81640625],[-6.819499572739005,62.00987798161805,204.140625],[-6.81930779479444,62.009831042960286,205.58984375],[-6.819180138409138,62.0097628980875,206.7734375],[-6.819082489237189,62.00968670658767,207.76953125],[-6.818996826186776,62.00960204936564,208.6171875],[-6.818956844508648,62.00951806269586,209.140625],[-6.818959023803473,62.00943072326481,209.36328125],[-6.818990958854556,62.00933324173093,209.37890625],[-6.819030689075589,62.00922922231257,209.34375],[-6.819084165617824,62.00913509353995,209.16015625],[-6.819090871140361,62.00903685763478,209.3515625],[-6.819065809249878,62.008941639214754,209.80078125],[-6.819012500345707,62.00884868390858,210.16796875],[-6.81897503323853,62.008752543479204,209.875],[-6.818967405706644,62.00865807943046,209.33984375],[-6.818905547261238,62.00855783186853,209.19921875],[-6.818833127617836,62.00846395455301,209.1640625],[-6.818754002451897,62.00836043804884,209.09765625],[-6.818697089329362,62.008268907666206,208.91796875],[-6.818608995527029,62.00817754492164,208.95703125],[-6.81846977211535,62.008102275431156,209.45703125],[-6.818397855386138,62.008003955706954,209.1015625],[-6.818283693864942,62.00797788798809,209.703125],[-6.818318143486977,62.00786464847624,208.1875],[-6.818311857059598,62.0077527500689,207.015625],[-6.81833884678781,62.00763624161482,205.55078125],[-6.818330213427544,62.00752878561616,204.44921875],[-6.818340858444572,62.007418647408485,203.18359375],[-6.818383522331715,62.00730607844889,201.6640625],[-6.818427611142397,62.007211949676275,200.3203125],[-6.818469855934382,62.00712167657912,198.96484375],[-6.818512938916683,62.00701832771301,197.4765625],[-6.818497851490974,62.00692746788263,196.5234375],[-6.818446638062596,62.006841218099,195.83984375],[-6.818398106843233,62.00674507766962,194.99609375],[-6.818413781002164,62.00664097443223,193.67578125],[-6.818493157625198,62.00654776766896,192.15625],[-6.818599356338382,62.006474593654275,190.7734375],[-6.818694239482284,62.00639521703124,189.41796875],[-6.818699100986123,62.006294801831245,188.6875],[-6.818671524524689,62.006186340004206,188.0859375],[-6.818677559494972,62.006080308929086,187.34375],[-6.818760540336371,62.00598475523293,186.3515625],[-6.818796833977103,62.005891716107726,185.58984375],[-6.818782249465585,62.005785098299384,184.94921875],[-6.818760540336371,62.00568870641291,184.39453125],[-6.818769844248891,62.00558602809906,183.68359375],[-6.818810664117336,62.00548829510808,183.17578125],[-6.81892910040915,62.005400117486715,182.6015625],[-6.819059941917658,62.005320405587554,182.06640625],[-6.819202098995447,62.005242705345154,181.55078125],[-6.819381387904286,62.00519174337387,180.94140625],[-6.819587834179401,62.005149498581886,180.27734375],[-6.819784557446837,62.00510281138122,179.66796875],[-6.819977341219783,62.00505335815251,179.09765625],[-6.820160653442144,62.004996025934815,178.8203125],[-6.820354191586375,62.00494305230677,178.58984375],[-6.820544041693211,62.00488580390811,178.359375],[-6.820728359743953,62.00483098626137,178.140625],[-6.820914437994361,62.00478421524167,177.84375],[-6.821128344163299,62.004756135866046,177.34765625],[-6.82135364972055,62.004735097289085,176.796875],[-6.821551127359271,62.00469134375453,176.23046875],[-6.821729578077793,62.00463526882231,175.72265625],[-6.821910543367267,62.00458866544068,175.35546875],[-6.822114055976272,62.004549941048026,174.95703125],[-6.822335505858064,62.00452756136656,174.5625],[-6.822554022073746,62.00452730990946,174.20703125],[-6.822758289054036,62.00452236458659,173.7578125],[-6.822939673438668,62.00446804985404,173.21484375],[-6.823092559352517,62.004399234429,172.7109375],[-6.823256509378552,62.004328491166234,172.21484375],[-6.823383495211601,62.00425531715155,171.8828125],[-6.823517354205251,62.004169235005975,171.67578125],[-6.82364291511476,62.00408382341266,171.46875],[-6.823773924261332,62.0040088891983,171.2890625],[-6.823795633390546,62.00391677208245,171.0703125],[-6.823661606758833,62.00384242460132,170.7578125],[-6.823524814099073,62.00376966968179,170.3984375],[-6.82342791929841,62.00368149206042,169.98046875],[-6.823350302875042,62.00359599664807,169.59375],[-6.823324654251337,62.00349289923906,169.12109375],[-6.823361534625292,62.003399608656764,168.640625],[-6.823391793295741,62.003301875665784,168.140625],[-6.823413167148829,62.003203723579645,167.64453125],[-6.823425823822618,62.003105487674475,167.1484375],[-6.823432948440313,62.00301471166313,166.65234375],[-6.823478545993567,62.00292309746146,166.0703125],[-6.823574267327786,62.002838272601366,165.4921875],[-6.823657667264342,62.00279636308551,165.18359375],[-6.823554486036301,62.00272025540471,164.8359375],[-6.823401600122452,62.00265320017934,164.55078125],[-6.823218706995249,62.002585055306554,164.32421875],[-6.82303162291646,62.00251154601574,164.109375],[-6.822877479717135,62.00244658626616,163.90234375],[-6.822717720642686,62.002375507727265,163.66796875],[-6.822545221075416,62.00231524184346,163.515625],[-6.822338774800301,62.00228439643979,163.59375],[-6.822120174765587,62.00227450579405,163.80859375],[-6.821936862543225,62.002240139991045,163.80859375],[-6.82175531052053,62.002204935997725,163.80078125],[-6.821540482342243,62.00218222104013,163.7734375],[-6.821333281695843,62.00213980861008,163.5859375],[-6.821157429367304,62.00209270231426,163.4140625],[-6.820972440764308,62.00204526074231,163.296875],[-6.820800276473165,62.00200888328254,163.2421875],[-6.820594919845462,62.001963118091226,163.0859375],[-6.820432562381029,62.001886926591396,162.6875],[-6.820303983986378,62.00181903317571,162.25390625],[-6.82016484439373,62.00175616890192,161.765625],[-6.819980945438147,62.00169959105551,161.234375],[-6.819821773096919,62.00165265239775,160.89453125],[-6.819629492238164,62.00159724801779,160.49609375],[-6.819489598274231,62.00150839984417,159.85546875],[-6.819328917190433,62.00142935849726,159.28515625],[-6.819214671850205,62.00135023333132,158.76171875],[-6.819110065698624,62.00127420946956,158.37890625],[-6.818949971348047,62.001216961070895,158.1796875],[-6.818741848692298,62.00120095163584,158.2734375],[-6.818542359396815,62.00123003683984,158.66015625],[-6.818351252004504,62.00127127580345,159.140625],[-6.818144638091326,62.00131058692932,159.1640625],[-6.817931737750769,62.001344952732325,159.15234375],[-6.8176987208426,62.00135258026421,158.921875],[-6.81750719435513,62.00136037543416,158.73828125],[-6.817289097234607,62.00135584920645,158.15625],[-6.817079298198223,62.00134017504752,157.48046875],[-6.816874528303742,62.001343024894595,156.98828125],[-6.816676128655672,62.00136532075703,156.72265625],[-6.816484602168202,62.00141066685319,156.56640625],[-6.816291818395257,62.00147671625018,156.79296875],[-6.816126527264714,62.00155047699809,157.3203125],[-6.815963247790933,62.00161686167121,157.8515625],[-6.815776331350207,62.001658687368035,157.85546875],[-6.815563095733523,62.00166522525251,156.93359375],[-6.815365198999643,62.00166874565184,156.04296875],[-6.815160429105163,62.00165072456002,154.7265625],[-6.814935626462102,62.00165298767388,153.484375],[-6.814715769141913,62.00163220055401,151.4609375],[-6.814510077238083,62.0015914645046,149.078125],[-6.814309079200029,62.00157050974667,147.09765625],[-6.814096681773663,62.00154687277973,144.84765625],[-6.813912279903889,62.00161166489124,144.8203125],[-6.813733913004398,62.0016726013273,144.8828125],[-6.813532076776028,62.00171543285251,144.4140625],[-6.813336024060845,62.00174778699875,143.78125],[-6.813129996880889,62.00176840648055,142.59765625],[-6.812914498150349,62.00176161713898,140.56640625],[-6.812705034390092,62.001760359853506,138.7421875],[-6.812523230910301,62.00180218555033,138.4453125],[-6.812376128509641,62.001879969611764,139.9765625],[-6.812244616448879,62.001960100606084,141.71875],[-6.81212492287159,62.00204626657069,143.73046875],[-6.811954351142049,62.00211239978671,144.90625],[-6.811771206557751,62.00216646306217,145.6796875],[-6.811601640656591,62.00222471728921,146.76953125],[-6.811430314555764,62.002281714230776,147.796875],[-6.81123954243958,62.002315912395716,148.09375],[-6.811029156669974,62.00230434536934,147.00390625],[-6.8108188547194,62.002316918224096,146.59765625],[-6.810631770640612,62.00237022712827,147.375],[-6.810505371540785,62.00244843028486,149.04296875],[-6.810344271361828,62.00251531787217,150.1875],[-6.810140172019601,62.00254775583744,150.1484375],[-6.809941856190562,62.002592012286186,150.35546875],[-6.809791987761855,62.00266309082508,151.4140625],[-6.809657961130142,62.00273961760104,152.6640625],[-6.809544302523136,62.002826957032084,154.28125],[-6.80944531224668,62.002924690023065,156.22265625],[-6.809319667518139,62.00301881879568,157.8828125],[-6.809219336137176,62.00311127118766,159.21484375],[-6.809125794097781,62.00320506468415,160.3203125],[-6.80902655236423,62.003296092152596,161.27734375],[-6.808919012546539,62.00339198112488,162.2109375],[-6.808823877945542,62.00348485261202,163.125],[-6.808663364499807,62.00355760753155,163.1640625],[-6.808541491627693,62.00362768024206,163.38671875],[-6.808451805263758,62.00371300801635,164.0546875],[-6.80836689658463,62.00380487367511,164.82421875],[-6.808301266282797,62.00390285812318,165.54296875],[-6.808228762820363,62.00399799272418,165.3125],[-6.808165479451418,62.004090026021004,165.14453125],[-6.808106638491154,62.00418164022267,165.0078125],[-6.808026507496834,62.004264034330845,164.56640625],[-6.807977305725217,62.00435011647642,164.4765625],[-6.807907149195671,62.004443323239684,164.171875],[-6.807907735928893,62.00453996658325,164.69921875],[-6.807941514998674,62.004628563299775,165.57421875],[-6.807956770062447,62.00472545810044,166.27734375],[-6.808011420071125,62.00482520274818,167.390625],[-6.808041008189321,62.00491547584534,168.14453125],[-6.808061040937901,62.005014549940825,168.8125],[-6.808082666248083,62.00511219911277,169.48046875],[-6.808078475296497,62.005214877426624,169.88671875],[-6.808058777824044,62.00532007031143,170.1484375],[-6.808075457811356,62.005422078073025,170.765625],[-6.808067075908184,62.00551335699856,171.0859375],[-6.808123737573624,62.00561544857919,172.10546875],[-6.808137986809015,62.00571829453111,172.73828125],[-6.80810060352087,62.00582164339721,172.875],[-6.808093059808016,62.00592742301524,173.30859375],[-6.808123234659433,62.006027922034264,174.08203125],[-6.808150475844741,62.00612439773977,174.80859375],[-6.808200348168612,62.006212742999196,175.7109375],[-6.808302272111177,62.00629069469869,177.0625],[-6.808425821363926,62.00637426227331,178.65234375],[-6.808497318997979,62.00647576712072,179.30859375],[-6.808528918772936,62.006571656093,179.52734375],[-6.808551969006658,62.006676932796836,179.66015625],[-6.808585245162249,62.006781036034226,179.90234375],[-6.808629166334868,62.00687633827329,180.2734375],[-6.808511065319181,62.00683451257646,179.09765625],[-6.808376954868436,62.00675714761019,177.8125],[-6.808236725628376,62.00667173601687,176.50390625],[-6.808107141405344,62.006610380485654,175.3046875],[-6.80804586969316,62.00669922865927,174.55078125],[-6.808019215241075,62.00680718757212,174.09765625],[-6.807996416464448,62.00690131634474,173.70703125],[-6.807958697900176,62.007000893354416,173.140625],[-6.807949896901846,62.007105834782124,172.859375],[-6.807843614369631,62.00719619169831,171.5546875],[-6.807763567194343,62.00729174539447,170.2109375],[-6.807681089267135,62.00737405568361,168.82421875],[-6.807593163102865,62.00744773261249,167.43359375],[-6.807426111772656,62.007520319893956,165.2734375],[-6.807245397940278,62.00758192688227,163.15234375],[-6.807072227820754,62.007628278806806,161.24609375],[-6.806968040764332,62.007710337638855,159.87890625],[-6.806777687743306,62.00772726908326,158.02734375],[-6.806616587564349,62.00779625214636,156.37109375],[-6.806436879560351,62.007846711203456,154.796875],[-6.806255830451846,62.007905719801784,153.24609375],[-6.806106464937329,62.00797302648425,151.9765625],[-6.80591057986021,62.00795626267791,150.54296875],[-6.805710420012474,62.00791443698108,148.765625],[-6.805515540763736,62.00786020606756,146.89453125],[-6.805330384522677,62.00779130682349,145.09375],[-6.80517808534205,62.00772433541715,143.58984375],[-6.804997120052576,62.007691226899624,141.75],[-6.804790087044239,62.00765401124954,139.51171875],[-6.804553968831897,62.00764311477542,136.9609375],[-6.804328830912709,62.00761084444821,134.52734375],[-6.804127497598529,62.00757094658911,132.421875],[-6.803930941969156,62.00753188692033,130.53515625],[-6.803723573684692,62.00749785639346,128.54296875],[-6.80352408438921,62.00746416114271,126.625],[-6.803312441334128,62.00742828659713,124.6328125],[-6.803109012544155,62.00738922692835,122.875],[-6.802920419722796,62.00735687278211,121.26171875],[-6.802741214632988,62.00732074677944,119.75390625],[-6.80255513638258,62.0072796754539,118.2109375],[-6.802372746169567,62.00725176371634,117.23828125],[-6.802183650434017,62.00721622444689,116.375],[-6.802020957693458,62.0071779191494,115.59375],[-6.80201374925673,62.00708127580583,115.55859375],[-6.801902521401644,62.007006257772446,115.0234375],[-6.801725244149566,62.006960324943066,114.171875],[-6.801612842828035,62.0068824570626,113.54296875],[-6.801416119560599,62.00685295276344,112.359375],[-6.801198776811361,62.00682043097913,111.0546875],[-6.800988893955946,62.00679478235543,109.796875],[-6.800785213708878,62.00677583925426,108.57421875],[-6.800585808232427,62.006748681887984,107.375]]}},{"type":"Feature","properties":{"name":"WP1 Bank","type":"user","time":"2025-04-30T08:24:42Z","gpxx_WaypointExtension":"SymbolAndName","gpxx_DisplayMode":"SymbolAndName","wptx1_WaypointExtension":"SymbolAndName","wptx1_DisplayMode":"SymbolAndName","ctx_CreationTimeExtension":"2025-04-30T08:24:42Z","ctx_CreationTime":"2025-04-30T08:24:42Z","sym":"Flag, Blue"},"geometry":{"type":"Point","coordinates":[-6.809443300589919,62.0124826580286,176.59765625]}},{"type":"Feature","properties":{"name":"WP2 T-Kreuzung","type":"user","time":"2020-07-24T14:54:01Z","gpxx_WaypointExtension":"SymbolAndName","gpxx_DisplayMode":"SymbolAndName","wptx1_WaypointExtension":"SymbolAndName","wptx1_DisplayMode":"SymbolAndName","ctx_CreationTimeExtension":"2020-07-24T14:54:01Z","ctx_CreationTime":"2020-07-24T14:54:01Z","sym":"Flag, Blue"},"geometry":{"type":"Point","coordinates":[-6.820268025621772,62.0117349922657,217.169678]}},{"type":"Feature","properties":{"name":"WP3 Abzweig Variante","type":"user","time":"2020-07-24T15:20:07Z","gpxx_WaypointExtension":"SymbolAndName","gpxx_DisplayMode":"SymbolAndName","wptx1_WaypointExtension":"SymbolAndName","wptx1_DisplayMode":"SymbolAndName","ctx_CreationTimeExtension":"2020-07-24T15:20:07Z","ctx_CreationTime":"2020-07-24T15:20:07Z","sym":"Flag, Blue"},"geometry":{"type":"Point","coordinates":[-6.808118959888816,62.004225980490446,158.289612]}}]}