{"type":"FeatureCollection","features":[{"type":"Feature","properties":{"_gpxType":"trk","name":"15 Wanderung Tórshavn Kirkjubøur","time":"2020-07-25T09:40:13Z","gpxx_TrackExtension":"Black","gpxx_DisplayColor":"Black","coordinateProperties":{"times":["2020-07-25T09:40:13Z","2020-07-25T09:40:45Z","2020-07-25T09:41:29Z","2020-07-25T09:41:35Z","2020-07-25T09:41:42Z","2020-07-25T09:41:50Z","2020-07-25T09:41:58Z","2020-07-25T09:42:05Z","2020-07-25T09:42:12Z","2020-07-25T09:42:19Z","2020-07-25T09:42:25Z","2020-07-25T09:42:33Z","2020-07-25T09:42:40Z","2020-07-25T09:42:46Z","2020-07-25T09:42:52Z","2020-07-25T09:42:59Z","2020-07-25T09:43:05Z","2020-07-25T09:43:11Z","2020-07-25T09:43:18Z","2020-07-25T09:43:25Z","2020-07-25T09:43:31Z","2020-07-25T09:43:38Z","2020-07-25T09:43:44Z","2020-07-25T09:43:51Z","2020-07-25T09:43:57Z","2020-07-25T09:44:04Z","2020-07-25T09:44:11Z","2020-07-25T09:44:19Z","2020-07-25T09:44:25Z","2020-07-25T09:44:32Z","2020-07-25T09:44:39Z","2020-07-25T09:44:45Z","2020-07-25T09:44:51Z","2020-07-25T09:44:59Z","2020-07-25T09:45:07Z","2020-07-25T09:45:15Z","2020-07-25T09:45:22Z","2020-07-25T09:45:28Z","2020-07-25T09:45:34Z","2020-07-25T09:45:40Z","2020-07-25T09:45:47Z","2020-07-25T09:45:55Z","2020-07-25T09:46:02Z","2020-07-25T09:46:09Z","2020-07-25T09:46:16Z","2020-07-25T09:46:23Z","2020-07-25T09:46:32Z","2020-07-25T09:46:39Z","2020-07-25T09:46:46Z","2020-07-25T09:47:08Z","2020-07-25T09:47:45Z","2020-07-25T09:47:55Z","2020-07-25T09:48:03Z","2020-07-25T09:48:12Z","2020-07-25T09:48:23Z","2020-07-25T09:48:34Z","2020-07-25T09:48:44Z","2020-07-25T09:48:56Z","2020-07-25T09:49:07Z","2020-07-25T09:49:18Z","2020-07-25T09:49:28Z","2020-07-25T09:49:38Z","2020-07-25T09:49:51Z","2020-07-25T09:50:02Z","2020-07-25T09:50:14Z","2020-07-25T09:50:26Z","2020-07-25T09:50:39Z","2020-07-25T09:50:57Z","2020-07-25T09:51:18Z","2020-07-25T09:51:32Z","2020-07-25T09:51:49Z","2020-07-25T09:52:07Z","2020-07-25T09:52:19Z","2020-07-25T09:52:34Z","2020-07-25T09:52:45Z","2020-07-25T09:52:55Z","2020-07-25T09:53:06Z","2020-07-25T09:53:18Z","2020-07-25T09:53:33Z","2020-07-25T09:53:48Z","2020-07-25T09:54:03Z","2020-07-25T09:54:18Z","2020-07-25T09:55:09Z","2020-07-25T09:55:19Z","2020-07-25T09:55:30Z","2020-07-25T09:55:42Z","2020-07-25T09:55:57Z","2020-07-25T09:56:09Z","2020-07-25T09:56:29Z","2020-07-25T09:56:45Z","2020-07-25T09:57:02Z","2020-07-25T09:57:14Z","2020-07-25T09:57:25Z","2020-07-25T09:57:40Z","2020-07-25T09:57:51Z","2020-07-25T09:58:06Z","2020-07-25T09:58:22Z","2020-07-25T09:58:56Z","2020-07-25T09:59:12Z","2020-07-25T09:59:35Z","2020-07-25T09:59:58Z","2020-07-25T10:00:20Z","2020-07-25T10:00:38Z","2020-07-25T10:02:03Z","2020-07-25T10:02:18Z","2020-07-25T10:02:30Z","2020-07-25T10:02:40Z","2020-07-25T10:02:51Z","2020-07-25T10:03:06Z","2020-07-25T10:03:17Z","2020-07-25T10:03:32Z","2020-07-25T10:03:44Z","2020-07-25T10:03:59Z","2020-07-25T10:04:13Z","2020-07-25T10:04:23Z","2020-07-25T10:04:34Z","2020-07-25T10:04:47Z","2020-07-25T10:05:00Z","2020-07-25T10:05:11Z","2020-07-25T10:05:23Z","2020-07-25T10:05:35Z","2020-07-25T10:05:53Z","2020-07-25T10:06:06Z","2020-07-25T10:06:15Z","2020-07-25T10:06:24Z","2020-07-25T10:06:32Z","2020-07-25T10:06:40Z","2020-07-25T10:06:51Z","2020-07-25T10:07:03Z","2020-07-25T10:07:12Z","2020-07-25T10:07:20Z","2020-07-25T10:07:28Z","2020-07-25T10:07:37Z","2020-07-25T10:07:45Z","2020-07-25T10:07:53Z","2020-07-25T10:08:00Z","2020-07-25T10:08:08Z","2020-07-25T10:09:11Z","2020-07-25T10:09:19Z","2020-07-25T10:09:27Z","2020-07-25T10:09:35Z","2020-07-25T10:09:43Z","2020-07-25T10:09:51Z","2020-07-25T10:09:58Z","2020-07-25T10:10:05Z","2020-07-25T10:10:13Z","2020-07-25T10:10:22Z","2020-07-25T10:10:32Z","2020-07-25T10:10:42Z","2020-07-25T10:10:52Z","2020-07-25T10:11:00Z","2020-07-25T10:11:09Z","2020-07-25T10:11:19Z","2020-07-25T10:11:31Z","2020-07-25T10:11:41Z","2020-07-25T10:13:54Z","2020-07-25T10:14:10Z","2020-07-25T10:14:18Z","2020-07-25T10:14:25Z","2020-07-25T10:14:31Z","2020-07-25T10:14:37Z","2020-07-25T10:14:44Z","2020-07-25T10:14:51Z","2020-07-25T10:14:57Z","2020-07-25T10:15:04Z","2020-07-25T10:15:11Z","2020-07-25T10:15:18Z","2020-07-25T10:15:26Z","2020-07-25T10:15:34Z","2020-07-25T10:15:41Z","2020-07-25T10:15:49Z","2020-07-25T10:15:57Z","2020-07-25T10:16:04Z","2020-07-25T10:16:12Z","2020-07-25T10:16:20Z","2020-07-25T10:16:27Z","2020-07-25T10:16:37Z","2020-07-25T10:16:46Z","2020-07-25T10:16:55Z","2020-07-25T10:17:04Z","2020-07-25T10:17:13Z","2020-07-25T10:17:22Z","2020-07-25T10:17:31Z","2020-07-25T10:17:38Z","2020-07-25T10:17:45Z","2020-07-25T10:17:51Z","2020-07-25T10:17:58Z","2020-07-25T10:18:05Z","2020-07-25T10:18:12Z","2020-07-25T10:18:18Z","2020-07-25T10:18:24Z","2020-07-25T10:18:31Z","2020-07-25T10:18:39Z","2020-07-25T10:18:47Z","2020-07-25T10:18:54Z","2020-07-25T10:19:01Z","2020-07-25T10:19:09Z","2020-07-25T10:19:16Z","2020-07-25T10:19:23Z","2020-07-25T10:19:30Z","2020-07-25T10:19:36Z","2020-07-25T10:19:43Z","2020-07-25T10:19:50Z","2020-07-25T10:19:57Z","2020-07-25T10:20:04Z","2020-07-25T10:20:11Z","2020-07-25T10:20:18Z","2020-07-25T10:20:25Z","2020-07-25T10:20:32Z","2020-07-25T10:20:39Z","2020-07-25T10:20:46Z","2020-07-25T10:20:53Z","2020-07-25T10:21:00Z","2020-07-25T10:21:07Z","2020-07-25T10:21:14Z","2020-07-25T10:21:20Z","2020-07-25T10:21:27Z","2020-07-25T10:21:34Z","2020-07-25T10:21:43Z","2020-07-25T10:21:52Z","2020-07-25T10:21:59Z","2020-07-25T10:22:07Z","2020-07-25T10:22:16Z","2020-07-25T10:22:23Z","2020-07-25T10:22:30Z","2020-07-25T10:22:38Z","2020-07-25T10:22:47Z","2020-07-25T10:22:54Z","2020-07-25T10:23:02Z","2020-07-25T10:23:11Z","2020-07-25T10:23:20Z","2020-07-25T10:23:28Z","2020-07-25T10:23:35Z","2020-07-25T10:23:43Z","2020-07-25T10:23:51Z","2020-07-25T10:24:00Z","2020-07-25T10:24:07Z","2020-07-25T10:24:14Z","2020-07-25T10:24:23Z","2020-07-25T10:24:32Z","2020-07-25T10:24:39Z","2020-07-25T10:24:47Z","2020-07-25T10:24:59Z","2020-07-25T10:25:11Z","2020-07-25T10:25:23Z","2020-07-25T10:25:32Z","2020-07-25T10:25:41Z","2020-07-25T10:25:49Z","2020-07-25T10:25:57Z","2020-07-25T10:26:05Z","2020-07-25T10:26:13Z","2020-07-25T10:26:20Z","2020-07-25T10:26:27Z","2020-07-25T10:26:34Z","2020-07-25T10:26:41Z","2020-07-25T10:26:48Z","2020-07-25T10:26:56Z","2020-07-25T10:27:03Z","2020-07-25T10:27:10Z","2020-07-25T10:27:17Z","2020-07-25T10:27:24Z","2020-07-25T10:27:32Z","2020-07-25T10:27:39Z","2020-07-25T10:27:46Z","2020-07-25T10:27:54Z","2020-07-25T10:28:01Z","2020-07-25T10:28:09Z","2020-07-25T10:28:17Z","2020-07-25T10:28:24Z","2020-07-25T10:28:31Z","2020-07-25T10:28:38Z","2020-07-25T10:28:45Z","2020-07-25T10:28:53Z","2020-07-25T10:29:00Z","2020-07-25T10:29:08Z","2020-07-25T10:29:15Z","2020-07-25T10:29:22Z","2020-07-25T10:29:29Z","2020-07-25T10:29:36Z","2020-07-25T10:29:43Z","2020-07-25T10:29:50Z","2020-07-25T10:29:57Z","2020-07-25T10:30:04Z","2020-07-25T10:30:11Z","2020-07-25T10:30:19Z","2020-07-25T10:30:26Z","2020-07-25T10:30:33Z","2020-07-25T10:30:40Z","2020-07-25T10:30:47Z","2020-07-25T10:30:54Z","2020-07-25T10:31:02Z","2020-07-25T10:31:09Z","2020-07-25T10:31:17Z","2020-07-25T10:31:25Z","2020-07-25T10:31:33Z","2020-07-25T10:31:41Z","2020-07-25T10:31:49Z","2020-07-25T10:31:57Z","2020-07-25T10:32:05Z","2020-07-25T10:32:13Z","2020-07-25T10:32:20Z","2020-07-25T10:32:27Z","2020-07-25T10:32:34Z","2020-07-25T10:32:41Z","2020-07-25T10:32:49Z","2020-07-25T10:33:12Z","2020-07-25T10:34:12Z","2020-07-25T10:34:20Z","2020-07-25T10:34:27Z","2020-07-25T10:34:34Z","2020-07-25T10:34:41Z","2020-07-25T10:34:49Z","2020-07-25T10:34:56Z","2020-07-25T10:35:03Z","2020-07-25T10:35:09Z","2020-07-25T10:35:15Z","2020-07-25T10:35:24Z","2020-07-25T10:35:31Z","2020-07-25T10:35:40Z","2020-07-25T10:35:47Z","2020-07-25T10:35:54Z","2020-07-25T10:36:02Z","2020-07-25T10:36:09Z","2020-07-25T10:36:17Z","2020-07-25T10:36:25Z","2020-07-25T10:36:33Z","2020-07-25T10:36:41Z","2020-07-25T10:36:49Z","2020-07-25T10:36:59Z","2020-07-25T10:37:07Z","2020-07-25T10:37:14Z","2020-07-25T10:37:21Z","2020-07-25T10:37:29Z","2020-07-25T10:37:37Z","2020-07-25T10:37:45Z","2020-07-25T10:37:53Z","2020-07-25T10:38:00Z","2020-07-25T10:38:08Z","2020-07-25T10:38:15Z","2020-07-25T10:38:22Z","2020-07-25T10:38:29Z","2020-07-25T10:38:38Z","2020-07-25T10:38:46Z","2020-07-25T10:38:53Z","2020-07-25T10:39:01Z","2020-07-25T10:39:08Z","2020-07-25T10:39:15Z","2020-07-25T10:39:23Z","2020-07-25T10:39:33Z","2020-07-25T10:39:40Z","2020-07-25T10:39:47Z","2020-07-25T10:39:54Z","2020-07-25T10:40:02Z","2020-07-25T10:40:09Z","2020-07-25T10:40:16Z","2020-07-25T10:40:23Z","2020-07-25T10:40:30Z","2020-07-25T10:40:37Z","2020-07-25T10:40:45Z","2020-07-25T10:40:53Z","2020-07-25T10:41:00Z","2020-07-25T10:41:07Z","2020-07-25T10:41:14Z","2020-07-25T10:41:22Z","2020-07-25T10:41:38Z","2020-07-25T10:41:47Z","2020-07-25T10:42:01Z","2020-07-25T10:42:36Z","2020-07-25T10:42:46Z","2020-07-25T10:42:59Z","2020-07-25T10:43:10Z","2020-07-25T10:43:17Z","2020-07-25T10:43:24Z","2020-07-25T10:43:32Z","2020-07-25T10:43:40Z","2020-07-25T10:44:08Z","2020-07-25T10:44:23Z","2020-07-25T10:45:22Z","2020-07-25T10:45:45Z","2020-07-25T10:45:53Z","2020-07-25T10:45:59Z","2020-07-25T10:46:07Z","2020-07-25T10:46:19Z","2020-07-25T10:46:30Z","2020-07-25T10:46:38Z","2020-07-25T10:46:47Z","2020-07-25T10:46:54Z","2020-07-25T10:47:01Z","2020-07-25T10:47:09Z","2020-07-25T10:47:41Z","2020-07-25T10:47:49Z","2020-07-25T10:47:57Z","2020-07-25T10:48:06Z","2020-07-25T10:48:15Z","2020-07-25T10:48:23Z","2020-07-25T10:48:31Z","2020-07-25T10:48:40Z","2020-07-25T10:48:48Z","2020-07-25T10:49:02Z","2020-07-25T10:49:10Z","2020-07-25T10:49:20Z","2020-07-25T10:49:30Z","2020-07-25T10:49:39Z","2020-07-25T10:49:47Z","2020-07-25T10:49:55Z","2020-07-25T10:50:09Z","2020-07-25T10:50:17Z","2020-07-25T10:50:25Z","2020-07-25T10:50:40Z","2020-07-25T10:50:49Z","2020-07-25T10:53:35Z","2020-07-25T10:53:44Z","2020-07-25T10:53:51Z","2020-07-25T10:53:59Z","2020-07-25T10:54:09Z","2020-07-25T10:54:20Z","2020-07-25T10:54:28Z","2020-07-25T10:54:36Z","2020-07-25T10:54:47Z","2020-07-25T10:54:57Z","2020-07-25T10:55:11Z","2020-07-25T10:55:21Z","2020-07-25T10:55:32Z","2020-07-25T10:55:43Z","2020-07-25T10:55:52Z","2020-07-25T10:56:02Z","2020-07-25T10:56:09Z","2020-07-25T10:56:19Z","2020-07-25T10:56:28Z","2020-07-25T10:56:37Z","2020-07-25T10:56:44Z","2020-07-25T10:56:56Z","2020-07-25T10:57:03Z","2020-07-25T10:57:10Z","2020-07-25T10:57:18Z","2020-07-25T10:57:27Z","2020-07-25T10:57:35Z","2020-07-25T10:57:43Z","2020-07-25T10:57:50Z","2020-07-25T10:58:01Z","2020-07-25T10:58:12Z","2020-07-25T10:58:24Z","2020-07-25T10:58:35Z","2020-07-25T10:58:47Z","2020-07-25T10:58:58Z","2020-07-25T10:59:12Z","2020-07-25T10:59:23Z","2020-07-25T10:59:39Z","2020-07-25T10:59:54Z","2020-07-25T11:00:11Z","2020-07-25T11:00:23Z","2020-07-25T11:00:34Z","2020-07-25T11:00:45Z","2020-07-25T11:00:56Z","2020-07-25T11:01:33Z","2020-07-25T11:02:17Z","2020-07-25T11:02:34Z","2020-07-25T11:02:49Z","2020-07-25T11:03:04Z","2020-07-25T11:03:21Z","2020-07-25T11:03:36Z","2020-07-25T11:03:54Z","2020-07-25T11:04:14Z","2020-07-25T11:04:38Z","2020-07-25T11:04:50Z","2020-07-25T11:05:02Z","2020-07-25T11:05:22Z","2020-07-25T11:05:40Z","2020-07-25T11:05:50Z","2020-07-25T11:06:01Z","2020-07-25T11:06:15Z","2020-07-25T11:06:27Z","2020-07-25T11:06:48Z","2020-07-25T11:07:42Z","2020-07-25T11:10:02Z","2020-07-25T11:10:18Z","2020-07-25T11:10:26Z","2020-07-25T11:10:36Z","2020-07-25T11:10:47Z","2020-07-25T11:10:58Z","2020-07-25T11:11:06Z","2020-07-25T11:11:16Z","2020-07-25T11:11:26Z","2020-07-25T11:11:37Z","2020-07-25T11:11:53Z","2020-07-25T11:12:06Z","2020-07-25T11:12:18Z","2020-07-25T11:12:32Z","2020-07-25T11:12:49Z","2020-07-25T11:13:08Z","2020-07-25T11:13:38Z","2020-07-25T11:14:05Z","2020-07-25T11:15:03Z","2020-07-25T11:15:10Z","2020-07-25T11:15:17Z","2020-07-25T11:15:24Z","2020-07-25T11:15:31Z","2020-07-25T11:15:38Z","2020-07-25T11:15:47Z","2020-07-25T11:15:57Z","2020-07-25T11:16:06Z","2020-07-25T11:16:24Z","2020-07-25T11:16:31Z","2020-07-25T11:16:38Z","2020-07-25T11:16:44Z","2020-07-25T11:16:51Z","2020-07-25T11:16:58Z","2020-07-25T11:17:05Z","2020-07-25T11:17:12Z","2020-07-25T11:17:20Z","2020-07-25T11:17:27Z","2020-07-25T11:17:34Z","2020-07-25T11:17:42Z","2020-07-25T11:17:49Z","2020-07-25T11:17:57Z","2020-07-25T11:18:04Z","2020-07-25T11:18:10Z","2020-07-25T11:18:17Z","2020-07-25T11:18:25Z","2020-07-25T11:21:20Z","2020-07-25T11:21:27Z","2020-07-25T11:21:34Z","2020-07-25T11:21:40Z","2020-07-25T11:21:47Z","2020-07-25T11:21:58Z","2020-07-25T11:22:04Z","2020-07-25T11:22:11Z","2020-07-25T11:22:17Z","2020-07-25T11:22:23Z","2020-07-25T11:22:29Z","2020-07-25T11:22:35Z","2020-07-25T11:22:42Z","2020-07-25T11:22:48Z","2020-07-25T11:22:54Z","2020-07-25T11:23:00Z","2020-07-25T11:23:07Z","2020-07-25T11:23:13Z","2020-07-25T11:23:19Z","2020-07-25T11:23:26Z","2020-07-25T11:23:32Z","2020-07-25T11:23:38Z","2020-07-25T11:23:44Z","2020-07-25T11:23:50Z","2020-07-25T11:23:56Z","2020-07-25T11:24:02Z","2020-07-25T11:24:08Z","2020-07-25T11:24:16Z","2020-07-25T11:24:27Z","2020-07-25T11:24:33Z","2020-07-25T11:24:39Z","2020-07-25T11:24:45Z","2020-07-25T11:24:51Z","2020-07-25T11:24:57Z","2020-07-25T11:25:03Z","2020-07-25T11:25:09Z","2020-07-25T11:25:15Z","2020-07-25T11:25:22Z","2020-07-25T11:25:28Z","2020-07-25T11:25:34Z","2020-07-25T11:25:40Z","2020-07-25T11:25:47Z","2020-07-25T11:25:53Z","2020-07-25T11:25:59Z","2020-07-25T11:26:05Z","2020-07-25T11:26:12Z","2020-07-25T11:26:18Z","2020-07-25T11:26:24Z","2020-07-25T11:26:30Z","2020-07-25T11:26:37Z","2020-07-25T11:26:43Z","2020-07-25T11:26:49Z","2020-07-25T11:26:56Z","2020-07-25T11:27:03Z","2020-07-25T11:27:10Z","2020-07-25T11:27:17Z","2020-07-25T11:27:23Z","2020-07-25T11:27:44Z","2020-07-25T11:28:33Z","2020-07-25T11:28:33Z","2020-07-25T11:27:44Z","2020-07-25T11:27:23Z","2020-07-25T11:27:17Z","2020-07-25T11:27:10Z","2020-07-25T11:27:03Z","2020-07-25T11:26:56Z","2020-07-25T11:26:49Z","2020-07-25T11:26:43Z","2020-07-25T11:26:37Z","2020-07-25T11:26:30Z","2020-07-25T11:26:24Z","2020-07-25T11:26:18Z","2020-07-25T11:26:12Z","2020-07-25T11:26:05Z","2020-07-25T11:25:59Z","2020-07-25T11:25:53Z","2020-07-25T11:25:47Z","2020-07-25T11:25:40Z","2020-07-25T11:25:34Z","2020-07-25T11:25:28Z","2020-07-25T11:25:22Z","2020-07-25T11:25:15Z","2020-07-25T11:25:09Z","2020-07-25T11:25:03Z","2020-07-25T11:24:57Z","2020-07-25T11:24:51Z","2020-07-25T11:24:45Z","2020-07-25T11:24:39Z","2020-07-25T11:24:33Z","2020-07-25T11:24:27Z","2020-07-25T11:24:16Z","2020-07-25T11:24:08Z","2020-07-25T11:24:02Z","2020-07-25T11:23:56Z","2020-07-25T11:23:50Z","2020-07-25T11:23:44Z","2020-07-25T11:23:38Z","2020-07-25T11:23:32Z","2020-07-25T11:23:26Z","2020-07-25T11:23:19Z","2020-07-25T11:23:13Z","2020-07-25T11:23:07Z","2020-07-25T11:23:00Z","2020-07-25T11:22:54Z","2020-07-25T11:22:48Z","2020-07-25T11:22:42Z","2020-07-25T11:22:35Z","2020-07-25T11:22:29Z","2020-07-25T11:22:23Z","2020-07-25T11:22:17Z","2020-07-25T11:22:11Z","2020-07-25T11:22:04Z","2020-07-25T11:21:58Z","2020-07-25T11:21:47Z","2020-07-25T11:21:40Z","2020-07-25T11:21:34Z","2020-07-25T11:21:27Z","2020-07-25T11:21:20Z","2020-07-25T11:18:25Z","2020-07-25T11:18:17Z","2020-07-25T11:18:10Z","2020-07-25T11:18:04Z","2020-07-25T11:17:57Z","2020-07-25T11:17:49Z","2020-07-25T11:17:42Z","2020-07-25T11:17:34Z","2020-07-25T11:17:27Z","2020-07-25T11:17:20Z","2020-07-25T11:17:12Z","2020-07-25T11:17:05Z","2020-07-25T11:16:58Z","2020-07-25T11:16:51Z","2020-07-25T11:16:44Z","2020-07-25T11:16:38Z","2020-07-25T11:16:31Z","2020-07-25T11:16:24Z","2020-07-25T11:16:06Z","2020-07-25T11:15:57Z","2020-07-25T11:15:47Z","2020-07-25T11:15:38Z","2020-07-25T11:15:31Z","2020-07-25T11:15:24Z","2020-07-25T11:15:17Z","2020-07-25T11:15:10Z","2020-07-25T11:15:03Z","2020-07-25T11:14:05Z","2020-07-25T11:13:38Z","2020-07-25T11:13:08Z","2020-07-25T11:12:49Z","2020-07-25T11:12:32Z","2020-07-25T11:12:18Z","2020-07-25T11:12:06Z","2020-07-25T11:11:53Z","2020-07-25T11:11:37Z","2020-07-25T11:11:26Z","2020-07-25T11:11:16Z","2020-07-25T11:11:06Z","2020-07-25T11:10:58Z","2020-07-25T11:10:47Z","2020-07-25T11:10:36Z","2020-07-25T11:10:26Z","2020-07-25T11:10:18Z","2020-07-25T11:10:02Z","2020-07-25T11:07:42Z","2020-07-25T11:06:48Z","2020-07-25T11:06:27Z","2020-07-25T11:06:15Z","2020-07-25T11:06:01Z","2020-07-25T11:05:50Z","2020-07-25T11:05:40Z","2020-07-25T11:05:22Z","2020-07-25T11:05:02Z","2020-07-25T11:04:50Z","2020-07-25T11:04:38Z","2020-07-25T11:04:14Z","2020-07-25T11:03:54Z","2020-07-25T11:03:36Z","2020-07-25T11:03:21Z","2020-07-25T11:03:04Z","2020-07-25T11:02:49Z","2020-07-25T11:02:34Z","2020-07-25T11:02:17Z","2020-07-25T11:01:33Z","2020-07-25T11:00:56Z","2020-07-25T11:00:45Z","2020-07-25T11:00:34Z","2020-07-25T11:00:23Z","2020-07-25T11:00:11Z","2020-07-25T10:59:54Z","2020-07-25T10:59:39Z","2020-07-25T10:59:23Z","2020-07-25T10:59:12Z","2020-07-25T10:58:58Z","2020-07-25T10:58:47Z","2020-07-25T10:58:35Z","2020-07-25T10:58:24Z","2020-07-25T10:58:12Z","2020-07-25T10:58:01Z","2020-07-25T10:57:50Z","2020-07-25T10:57:43Z","2020-07-25T10:57:35Z","2020-07-25T10:57:27Z","2020-07-25T10:57:18Z","2020-07-25T10:57:10Z","2020-07-25T10:57:03Z","2020-07-25T10:56:56Z","2020-07-25T10:56:44Z","2020-07-25T10:56:37Z","2020-07-25T10:56:28Z","2020-07-25T10:56:19Z","2020-07-25T10:56:09Z","2020-07-25T10:56:02Z","2020-07-25T10:55:52Z","2020-07-25T10:55:43Z","2020-07-25T10:55:32Z","2020-07-25T10:55:21Z","2020-07-25T10:55:11Z","2020-07-25T10:54:57Z","2020-07-25T10:54:47Z","2020-07-25T10:54:36Z","2020-07-25T10:54:28Z","2020-07-25T10:54:20Z","2020-07-25T10:54:09Z","2020-07-25T10:53:59Z","2020-07-25T10:53:51Z","2020-07-25T10:53:44Z","2020-07-25T10:53:35Z","2020-07-25T10:50:49Z","2020-07-25T10:50:40Z","2020-07-25T10:50:25Z","2020-07-25T10:50:17Z","2020-07-25T10:50:09Z","2020-07-25T10:49:55Z","2020-07-25T10:49:47Z","2020-07-25T10:49:39Z","2020-07-25T10:49:30Z","2020-07-25T10:49:20Z","2020-07-25T10:49:10Z","2020-07-25T10:49:02Z","2020-07-25T10:48:48Z","2020-07-25T10:48:40Z","2020-07-25T10:48:31Z","2020-07-25T10:48:23Z","2020-07-25T10:48:15Z","2020-07-25T10:48:06Z","2020-07-25T10:47:57Z","2020-07-25T10:47:49Z","2020-07-25T10:47:41Z","2020-07-25T10:47:09Z","2020-07-25T10:47:01Z","2020-07-25T10:46:54Z","2020-07-25T10:46:47Z","2020-07-25T10:46:38Z","2020-07-25T10:46:30Z","2020-07-25T10:46:19Z","2020-07-25T10:46:07Z","2020-07-25T10:45:59Z","2020-07-25T10:45:53Z","2020-07-25T10:45:45Z","2020-07-25T10:45:22Z","2020-07-25T10:44:23Z","2020-07-25T10:44:08Z","2020-07-25T10:43:40Z","2020-07-25T10:43:32Z","2020-07-25T10:43:24Z","2020-07-25T10:43:17Z","2020-07-25T10:43:10Z","2020-07-25T10:42:59Z","2020-07-25T10:42:46Z","2020-07-25T10:42:36Z","2020-07-25T10:42:01Z","2020-07-25T10:41:47Z","2020-07-25T10:41:38Z","2020-07-25T10:41:22Z","2020-07-25T10:41:14Z","2020-07-25T10:41:07Z","2020-07-25T10:41:00Z","2020-07-25T10:40:53Z","2020-07-25T10:40:45Z","2020-07-25T10:40:37Z","2020-07-25T10:40:30Z","2020-07-25T10:40:23Z","2020-07-25T10:40:16Z","2020-07-25T10:40:09Z","2020-07-25T10:40:02Z","2020-07-25T10:39:54Z","2020-07-25T10:39:47Z","2020-07-25T10:39:40Z","2020-07-25T10:39:33Z","2020-07-25T10:39:23Z","2020-07-25T10:39:15Z","2020-07-25T10:39:08Z","2020-07-25T10:39:01Z","2020-07-25T10:38:53Z","2020-07-25T10:38:46Z","2020-07-25T10:38:38Z","2020-07-25T10:38:29Z","2020-07-25T10:38:22Z","2020-07-25T10:38:15Z","2020-07-25T10:38:08Z","2020-07-25T10:38:00Z","2020-07-25T10:37:53Z","2020-07-25T10:37:45Z","2020-07-25T10:37:37Z","2020-07-25T10:37:29Z","2020-07-25T10:37:21Z","2020-07-25T10:37:14Z","2020-07-25T10:37:07Z","2020-07-25T10:36:59Z","2020-07-25T10:36:49Z","2020-07-25T10:36:41Z","2020-07-25T10:36:33Z","2020-07-25T10:36:25Z","2020-07-25T10:36:17Z","2020-07-25T10:36:09Z","2020-07-25T10:36:02Z","2020-07-25T10:35:54Z","2020-07-25T10:35:47Z","2020-07-25T10:35:40Z","2020-07-25T10:35:31Z","2020-07-25T10:35:24Z","2020-07-25T10:35:15Z","2020-07-25T10:35:09Z","2020-07-25T10:35:03Z","2020-07-25T10:34:56Z","2020-07-25T10:34:49Z","2020-07-25T10:34:41Z","2020-07-25T10:34:34Z","2020-07-25T10:34:27Z","2020-07-25T10:34:20Z","2020-07-25T10:34:12Z","2020-07-25T10:33:12Z","2020-07-25T10:32:49Z","2020-07-25T10:32:41Z","2020-07-25T10:32:34Z","2020-07-25T10:32:27Z","2020-07-25T10:32:20Z","2020-07-25T10:32:13Z","2020-07-25T10:32:05Z","2020-07-25T10:31:57Z","2020-07-25T10:31:49Z","2020-07-25T10:31:41Z","2020-07-25T10:31:33Z","2020-07-25T10:31:25Z","2020-07-25T10:31:17Z","2020-07-25T10:31:09Z","2020-07-25T10:31:02Z","2020-07-25T10:30:54Z","2020-07-25T10:30:47Z","2020-07-25T10:30:40Z","2020-07-25T10:30:33Z","2020-07-25T10:30:26Z","2020-07-25T10:30:19Z","2020-07-25T10:30:11Z","2020-07-25T10:30:04Z","2020-07-25T10:29:57Z","2020-07-25T10:29:50Z","2020-07-25T10:29:43Z","2020-07-25T10:29:36Z","2020-07-25T10:29:29Z","2020-07-25T10:29:22Z","2020-07-25T10:29:15Z","2020-07-25T10:29:08Z","2020-07-25T10:29:00Z","2020-07-25T10:28:53Z","2020-07-25T10:28:45Z","2020-07-25T10:28:38Z","2020-07-25T10:28:31Z","2020-07-25T10:28:24Z","2020-07-25T10:28:17Z","2020-07-25T10:28:09Z","2020-07-25T10:28:01Z","2020-07-25T10:27:54Z","2020-07-25T10:27:46Z","2020-07-25T10:27:39Z","2020-07-25T10:27:32Z","2020-07-25T10:27:24Z","2020-07-25T10:27:17Z","2020-07-25T10:27:10Z","2020-07-25T10:27:03Z","2020-07-25T10:26:56Z","2020-07-25T10:26:48Z","2020-07-25T10:26:41Z","2020-07-25T10:26:34Z","2020-07-25T10:26:27Z","2020-07-25T10:26:20Z","2020-07-25T10:26:13Z","2020-07-25T10:26:05Z","2020-07-25T10:25:57Z","2020-07-25T10:25:49Z","2020-07-25T10:25:41Z","2020-07-25T10:25:32Z","2020-07-25T10:25:23Z","2020-07-25T10:25:11Z","2020-07-25T10:24:59Z","2020-07-25T10:24:47Z","2020-07-25T10:24:39Z","2020-07-25T10:24:32Z","2020-07-25T10:24:23Z","2020-07-25T10:24:14Z","2020-07-25T10:24:07Z","2020-07-25T10:24:00Z","2020-07-25T10:23:51Z","2020-07-25T10:23:43Z","2020-07-25T10:23:35Z","2020-07-25T10:23:28Z","2020-07-25T10:23:20Z","2020-07-25T10:23:11Z","2020-07-25T10:23:02Z","2020-07-25T10:22:54Z","2020-07-25T10:22:47Z","2020-07-25T10:22:38Z","2020-07-25T10:22:30Z","2020-07-25T10:22:23Z","2020-07-25T10:22:16Z","2020-07-25T10:22:07Z","2020-07-25T10:21:59Z","2020-07-25T10:21:52Z","2020-07-25T10:21:43Z","2020-07-25T10:21:34Z","2020-07-25T10:21:27Z","2020-07-25T10:21:20Z","2020-07-25T10:21:14Z","2020-07-25T10:21:07Z","2020-07-25T10:21:00Z","2020-07-25T10:20:53Z","2020-07-25T10:20:46Z","2020-07-25T10:20:39Z","2020-07-25T10:20:32Z","2020-07-25T10:20:25Z","2020-07-25T10:20:18Z","2020-07-25T10:20:11Z","2020-07-25T10:20:04Z","2020-07-25T10:19:57Z","2020-07-25T10:19:50Z","2020-07-25T10:19:43Z","2020-07-25T10:19:36Z","2020-07-25T10:19:30Z","2020-07-25T10:19:23Z","2020-07-25T10:19:16Z","2020-07-25T10:19:09Z","2020-07-25T10:19:01Z","2020-07-25T10:18:54Z","2020-07-25T10:18:47Z","2020-07-25T10:18:39Z","2020-07-25T10:18:31Z","2020-07-25T10:18:24Z","2020-07-25T10:18:18Z","2020-07-25T10:18:12Z","2020-07-25T10:18:05Z","2020-07-25T10:17:58Z","2020-07-25T10:17:51Z","2020-07-25T10:17:45Z","2020-07-25T10:17:38Z","2020-07-25T10:17:31Z","2020-07-25T10:17:22Z","2020-07-25T10:17:13Z","2020-07-25T10:17:04Z","2020-07-25T10:16:55Z","2020-07-25T10:16:46Z","2020-07-25T10:16:37Z","2020-07-25T10:16:27Z","2020-07-25T10:16:20Z","2020-07-25T10:16:12Z","2020-07-25T10:16:04Z","2020-07-25T10:15:57Z","2020-07-25T10:15:49Z","2020-07-25T10:15:41Z","2020-07-25T10:15:34Z","2020-07-25T10:15:26Z","2020-07-25T10:15:18Z","2020-07-25T10:15:11Z","2020-07-25T10:15:04Z","2020-07-25T10:14:57Z","2020-07-25T10:14:51Z","2020-07-25T10:14:44Z","2020-07-25T10:14:37Z","2020-07-25T10:14:31Z","2020-07-25T10:14:25Z","2020-07-25T10:14:18Z","2020-07-25T10:14:10Z","2020-07-25T10:13:54Z","2020-07-25T10:11:41Z","2020-07-25T10:11:31Z","2020-07-25T10:11:19Z","2020-07-25T10:11:09Z","2020-07-25T10:11:00Z","2020-07-25T10:10:52Z","2020-07-25T10:10:42Z","2020-07-25T10:10:32Z","2020-07-25T10:10:22Z","2020-07-25T10:10:13Z","2020-07-25T10:10:05Z","2020-07-25T10:09:58Z","2020-07-25T10:09:51Z","2020-07-25T10:09:43Z","2020-07-25T10:09:35Z","2020-07-25T10:09:27Z","2020-07-25T10:09:19Z","2020-07-25T10:09:11Z","2020-07-25T10:08:08Z","2020-07-25T10:08:00Z","2020-07-25T10:07:53Z","2020-07-25T10:07:45Z","2020-07-25T10:07:37Z","2020-07-25T10:07:28Z","2020-07-25T10:07:20Z","2020-07-25T10:07:12Z","2020-07-25T10:07:03Z","2020-07-25T10:06:51Z","2020-07-25T10:06:40Z","2020-07-25T10:06:32Z","2020-07-25T10:06:24Z","2020-07-25T10:06:15Z","2020-07-25T10:06:06Z","2020-07-25T10:05:53Z","2020-07-25T10:05:35Z","2020-07-25T10:05:23Z","2020-07-25T10:05:11Z","2020-07-25T10:05:00Z","2020-07-25T10:04:47Z","2020-07-25T10:04:34Z","2020-07-25T10:04:23Z","2020-07-25T10:04:13Z","2020-07-25T10:03:59Z","2020-07-25T10:03:44Z","2020-07-25T10:03:32Z","2020-07-25T10:03:17Z","2020-07-25T10:03:06Z","2020-07-25T10:02:51Z","2020-07-25T10:02:40Z","2020-07-25T10:02:30Z","2020-07-25T10:02:18Z","2020-07-25T10:02:03Z","2020-07-25T10:00:38Z","2020-07-25T10:00:20Z","2020-07-25T09:59:58Z","2020-07-25T09:59:35Z","2020-07-25T09:59:12Z","2020-07-25T09:58:56Z","2020-07-25T09:58:22Z","2020-07-25T09:58:06Z","2020-07-25T09:57:51Z","2020-07-25T09:57:40Z","2020-07-25T09:57:25Z","2020-07-25T09:57:14Z","2020-07-25T09:57:02Z","2020-07-25T09:56:45Z","2020-07-25T09:56:29Z","2020-07-25T09:56:09Z","2020-07-25T09:55:57Z","2020-07-25T09:55:42Z","2020-07-25T09:55:30Z","2020-07-25T09:55:19Z","2020-07-25T09:55:09Z","2020-07-25T09:54:18Z","2020-07-25T09:54:03Z","2020-07-25T09:53:48Z","2020-07-25T09:53:33Z","2020-07-25T09:53:18Z","2020-07-25T09:53:06Z","2020-07-25T09:52:55Z","2020-07-25T09:52:45Z","2020-07-25T09:52:34Z","2020-07-25T09:52:19Z","2020-07-25T09:52:07Z","2020-07-25T09:51:49Z","2020-07-25T09:51:32Z","2020-07-25T09:51:18Z","2020-07-25T09:50:57Z","2020-07-25T09:50:39Z","2020-07-25T09:50:26Z","2020-07-25T09:50:14Z","2020-07-25T09:50:02Z","2020-07-25T09:49:51Z","2020-07-25T09:49:38Z","2020-07-25T09:49:28Z","2020-07-25T09:49:18Z","2020-07-25T09:49:07Z","2020-07-25T09:48:56Z","2020-07-25T09:48:44Z","2020-07-25T09:48:34Z","2020-07-25T09:48:23Z","2020-07-25T09:48:12Z","2020-07-25T09:48:03Z","2020-07-25T09:47:55Z","2020-07-25T09:47:45Z","2020-07-25T09:47:08Z","2020-07-25T09:46:46Z","2020-07-25T09:46:39Z","2020-07-25T09:46:32Z","2020-07-25T09:46:23Z","2020-07-25T09:46:16Z","2020-07-25T09:46:09Z","2020-07-25T09:46:02Z","2020-07-25T09:45:55Z","2020-07-25T09:45:47Z","2020-07-25T09:45:40Z","2020-07-25T09:45:34Z","2020-07-25T09:45:28Z","2020-07-25T09:45:22Z","2020-07-25T09:45:15Z","2020-07-25T09:45:07Z","2020-07-25T09:44:59Z","2020-07-25T09:44:51Z","2020-07-25T09:44:45Z","2020-07-25T09:44:39Z","2020-07-25T09:44:32Z","2020-07-25T09:44:25Z","2020-07-25T09:44:19Z","2020-07-25T09:44:11Z","2020-07-25T09:44:04Z","2020-07-25T09:43:57Z","2020-07-25T09:43:51Z","2020-07-25T09:43:44Z","2020-07-25T09:43:38Z","2020-07-25T09:43:31Z","2020-07-25T09:43:25Z","2020-07-25T09:43:18Z","2020-07-25T09:43:11Z","2020-07-25T09:43:05Z","2020-07-25T09:42:59Z","2020-07-25T09:42:52Z","2020-07-25T09:42:46Z","2020-07-25T09:42:40Z","2020-07-25T09:42:33Z","2020-07-25T09:42:25Z","2020-07-25T09:42:19Z","2020-07-25T09:42:12Z","2020-07-25T09:42:05Z","2020-07-25T09:41:58Z","2020-07-25T09:41:50Z","2020-07-25T09:41:42Z","2020-07-25T09:41:35Z","2020-07-25T09:41:29Z","2020-07-25T09:40:45Z","2020-07-25T09:40:13Z"]}},"geometry":{"type":"LineString","coordinates":[[-6.807438265532255,62.0000908523798,111.58],[-6.807244308292866,62.0000631082803,112.23],[-6.807218911126256,61.999949449673295,109.58],[-6.807326786220074,61.99987535364926,108.64],[-6.807471793144941,61.99980058707297,107.53],[-6.807613112032414,61.99971500784159,105.71],[-6.807731967419386,61.99964049272239,105.24],[-6.807877561077476,61.999558098614216,105.37],[-6.808043103665113,61.99947511777282,105.28],[-6.808157600462437,61.99938694015145,104.43],[-6.808281904086471,61.99930312111974,104.17],[-6.808410901576281,61.999200358986855,103.87],[-6.808543251827359,61.99910581111908,103.62],[-6.808646013960242,61.99902484193444,102.42],[-6.808763612061739,61.99894404038787,101.83],[-6.808884060010314,61.99885259382427,100.67],[-6.80902311578393,61.99876684695482,99.37],[-6.809152951464057,61.99868562631309,99.06],[-6.809278512373567,61.998595520853996,97.63],[-6.80941111408174,61.998510444536805,96.73],[-6.809531729668379,61.99842318892479,95.84],[-6.809660559520125,61.998336017131805,94.86],[-6.809795508161187,61.998250437900424,94.19],[-6.8099260982126,61.99816863052547,92.89],[-6.810070350766182,61.99809595942497,92.62],[-6.810221476480365,61.99800753034651,92.68],[-6.810377966612577,61.99793267995119,92.1],[-6.810540491715074,61.99785246513784,92.43],[-6.81063168682158,61.997758923098445,92.4],[-6.810632608830929,61.997649455443025,92.71],[-6.810722965747118,61.99755289591849,93.85],[-6.810863865539432,61.997466227039695,94.34],[-6.811000406742096,61.99739749543369,94.31],[-6.811152873560786,61.997313844040036,95.25],[-6.811309112235904,61.997235054150224,96.14],[-6.811472559347749,61.997154923155904,96.19],[-6.811622008681297,61.99707353487611,95.87],[-6.811776319518685,61.996994661167264,96.37],[-6.811926942318678,61.99692467227578,96.74],[-6.812059795483947,61.99685879051685,97.45],[-6.812198851257563,61.99678293429315,98.15],[-6.812342684715986,61.99671210721135,99.19],[-6.812486937269568,61.996634155511856,99.84],[-6.812641667202115,61.9965557847172,99.72],[-6.812765384092927,61.99647272005677,100.27],[-6.812889771535993,61.99638596735895,100.71],[-6.8130171764642,61.99630239978433,100.85],[-6.813147515058518,61.996217239648104,101.37],[-6.813273327425122,61.99613886885345,102.28],[-6.813415065407753,61.995996879413724,103.39],[-6.813516905531287,61.995933428406715,104.07],[-6.813655206933618,61.99587249197066,104.98],[-6.813783450052142,61.99580744840205,105.57],[-6.813897443935275,61.99573787860572,106.65],[-6.814030632376671,61.99566839262843,108.1],[-6.814144710078836,61.99558566324413,108.89],[-6.814252249896526,61.995498994365335,109.21],[-6.814418211579323,61.99541073292494,110.65],[-6.814575036987662,61.995328925549984,111.2],[-6.814707219600678,61.99523395858705,112.93],[-6.814839905127883,61.995151061564684,114.85],[-6.814982146024704,61.99506724253297,116.45],[-6.815142827108502,61.994974706321955,118],[-6.8152931984514,61.99489424005151,119.5],[-6.815449018031359,61.9948067329824,121.85],[-6.815607352182269,61.99472433887422,123.9],[-6.815738445147872,61.99463079683483,125.53],[-6.815901724621654,61.9945596344769,127.52],[-6.815999876707792,61.99447707273066,128.41],[-6.81616785004735,61.9943955168128,130.41],[-6.816333224996924,61.9943075068295,132.58],[-6.816545119509101,61.99420491233468,135.83],[-6.816751733422279,61.994151854887605,137.46],[-6.816946445032954,61.99410416185856,138.68],[-6.817109556868672,61.994061414152384,140.79],[-6.81728532537818,61.9940173253417,143.22],[-6.817462434992194,61.99397457763553,144.6],[-6.817638706415892,61.99392034672201,146.04],[-6.81784288957715,61.99388287961483,149.06],[-6.818033242598176,61.99384281411767,152.01],[-6.818230133503676,61.99381163343787,154.94],[-6.818419480696321,61.99377626180649,156.49],[-6.818595333024859,61.99373661540449,157.42],[-6.818761210888624,61.99368942528963,158.14],[-6.818936727941036,61.99363695457578,160.1],[-6.819125069305301,61.99359328486025,162.6],[-6.819290360435844,61.99353695847094,164.14],[-6.819411898031831,61.99345842003822,165.72],[-6.819604011252523,61.99342195875943,167.33],[-6.819776678457856,61.99335624463856,168.62],[-6.819913303479552,61.99327393434942,170.64],[-6.820077588781714,61.99319799430668,170.82],[-6.8202596437186,61.99315105564892,171.99],[-6.820395095273852,61.99305726215243,173.85],[-6.820578575134277,61.99298811145127,174.88],[-6.820773035287857,61.9929242413491,177.15],[-6.820907145738602,61.9928621314466,179.53],[-6.820985600352287,61.99278552085161,180.96],[-6.821151729673147,61.992722656577826,184.08],[-6.821174947544932,61.99264897964895,187.45],[-6.821296904236078,61.99259248562157,190.79],[-6.821442497894168,61.9925304595381,195.97],[-6.821634108200669,61.99248285032809,197.83],[-6.821705186739564,61.99239048175514,200.81],[-6.821872154250741,61.99230900965631,203.28],[-6.821967624127865,61.99223030358553,204.68],[-6.822042223066092,61.99214229360223,206.68],[-6.822098968550563,61.99204942211509,208.35],[-6.822183877229691,61.99195604771376,210.28],[-6.82229720056057,61.99188404716551,209.71],[-6.822287226095796,61.991817159578204,208.35],[-6.822356125339866,61.99172805994749,209.54],[-6.822411613538861,61.991648683324456,210.48],[-6.822504065930843,61.991538209840655,211.45],[-6.822600457817316,61.991442488506436,213.05],[-6.822709003463388,61.99134341441095,215.35],[-6.822771532461047,61.99123939499259,217.42],[-6.8228430300951,61.991132693365216,219.55],[-6.822932967916131,61.9910229742527,221.56],[-6.823095828294754,61.99091048911214,222.64],[-6.823196662589908,61.99082348495722,224.44],[-6.823258185759187,61.99072742834687,227.37],[-6.823248127475381,61.990629360079765,230.67],[-6.823356002569199,61.99054663069546,229.7],[-6.823457591235638,61.99045560322702,229.85],[-6.823550630360842,61.99036583304405,230.55],[-6.82367954403162,61.99028310365975,231.53],[-6.823781384155154,61.99019953608513,232],[-6.823892276734114,61.99011177755892,231.69],[-6.823994116857648,61.99001697823405,230.85],[-6.82406997308135,61.98991488665342,231.29],[-6.824097884818912,61.98980097658932,231.68],[-6.824110206216574,61.98969787918031,231.23],[-6.824219170957804,61.98961825110018,231.44],[-6.824342049658299,61.98954381980002,231.4],[-6.824498623609543,61.989461006596684,230.35],[-6.824600463733077,61.98935363441706,230.27],[-6.824646145105362,61.98926042765379,229.52],[-6.824621083214879,61.98916856199503,227.76],[-6.824575318023562,61.989076528698206,226.17],[-6.824530977755785,61.98898910544813,224.87],[-6.824485044926405,61.9888954795897,223.69],[-6.82444280013442,61.98879229836166,222.68],[-6.824396112933755,61.98869414627552,222.58],[-6.824365351349115,61.988592222332954,222.89],[-6.824285890907049,61.9884966686368,224.4],[-6.824213303625584,61.988403210416436,226.17],[-6.824147589504719,61.98830212466419,227.07],[-6.824049688875675,61.98822006583214,229.28],[-6.823940724134445,61.988130547106266,230.13],[-6.823836620897055,61.98805737309158,231.12],[-6.823804685845971,61.98797062039375,231.07],[-6.823768727481365,61.98787909001112,230.95],[-6.823805021122098,61.98778806254268,230.78],[-6.823729919269681,61.987697118893266,231.18],[-6.823792615905404,61.98766250163317,231.34],[-6.823753891512752,61.98758589103818,231.31],[-6.823725393041968,61.98748463764787,231.74],[-6.823695637285709,61.98738346807659,231.96],[-6.823627073317766,61.98729160241783,231.88],[-6.823535794392228,61.98721784166992,231.74],[-6.823447197675705,61.98712840676308,232.05],[-6.82338978163898,61.987035032361746,232.32],[-6.823388021439314,61.98694207705557,232.64],[-6.823374191299081,61.98684115894139,232.76],[-6.823321301490068,61.98674099519849,232.86],[-6.823229184374213,61.98665114119649,233.09],[-6.823135726153851,61.98656380176544,233.39],[-6.823086440563202,61.986476043239236,233.94],[-6.823093146085739,61.986380657181144,234.38],[-6.823041597381234,61.98628367856145,235.14],[-6.82299105450511,61.986185275018215,235.87],[-6.822987198829651,61.986090894788504,236.54],[-6.822936153039336,61.9859925750643,236.6],[-6.822914863005281,61.985884280875325,236.99],[-6.822964902967215,61.98579266667366,237.23],[-6.822937242686749,61.98568613268435,238.2],[-6.822871528565884,61.985582280904055,239.06],[-6.822749823331833,61.98549645021558,239.92],[-6.822685785591602,61.985404919832945,241.69],[-6.822666004300118,61.98531431145966,243.32],[-6.822666674852371,61.985220685601234,245.73],[-6.822754852473736,61.98512420989573,246.89],[-6.822749152779579,61.98502681218088,246.87],[-6.82277119718492,61.98492941446602,246.14],[-6.822801539674401,61.984833693131804,245.59],[-6.82274772785604,61.98473394848406,245.1],[-6.822722163051367,61.984637724235654,245.28],[-6.822707243263722,61.984529765322804,245.13],[-6.82271939702332,61.984431529417634,244.45],[-6.822706237435341,61.98434276506305,244.41],[-6.822691401466727,61.984248887747526,244.3],[-6.82267933152616,61.98415853083134,244.58],[-6.822677487507463,61.98406130075455,244.7],[-6.822718977928162,61.98396616615355,243.64],[-6.822681678459048,61.98387832380831,243.4],[-6.822659131139517,61.983784111216664,243.31],[-6.822683857753873,61.98368411511183,243.37],[-6.822740016505122,61.98358747176826,243.57],[-6.822733897715807,61.98348739184439,243.59],[-6.822716547176242,61.983395190909505,242.8],[-6.822716379538178,61.9832918420434,242.94],[-6.822728449478746,61.983193354681134,243.01],[-6.822765748947859,61.98309008963406,242.66],[-6.822813944891095,61.98298590257764,242.89],[-6.822844874113798,61.98289076797664,243.27],[-6.82287672534585,61.98279035277665,244.11],[-6.822909498587251,61.98269865475595,243.96],[-6.822927435860038,61.982601173222065,242.81],[-6.822891896590591,61.98250310495496,241.81],[-6.822843533009291,61.98240059427917,242.86],[-6.822837749496102,61.982298167422414,243.28],[-6.822800533846021,61.98219406418502,243.18],[-6.822779830545187,61.98209993541241,243.3],[-6.822795839980245,61.98199633508921,243.32],[-6.822759043425322,61.98190371505916,241.83],[-6.822706907987595,61.98180589824915,240.07],[-6.822623340412974,61.98171076364815,239.52],[-6.822549914941192,61.98162954300642,240.11],[-6.822494929656386,61.98153189383447,239.01],[-6.822462659329176,61.98143457993865,238.9],[-6.82241446338594,61.981341959908605,239.01],[-6.822336930781603,61.98124531656504,238.97],[-6.822295775637031,61.98114976286888,239],[-6.822224110364914,61.981055634096265,238.79],[-6.822142889723182,61.98095580562949,238.17],[-6.822099052369595,61.98085497133434,238.7],[-6.822063596919179,61.980762016028166,238.83],[-6.822010204195976,61.980658415704966,238.6],[-6.821981454268098,61.98056026361883,238.5],[-6.821975167840719,61.98046370409429,238.94],[-6.822032164782286,61.980364713817835,238.43],[-6.82204314507544,61.98026773519814,237.94],[-6.822075750678778,61.980169583112,237.01],[-6.822111122310162,61.980069587007165,237.01],[-6.822147751227021,61.979965567588806,237.23],[-6.822191840037704,61.9798693433404,237.99],[-6.822218662127852,61.979772532358766,238.7],[-6.822281442582607,61.979687036946416,237.35],[-6.822350090369582,61.979579497128725,238.19],[-6.822343468666077,61.979480255395174,238.22],[-6.822361992672086,61.979384534060955,237.98],[-6.822443129494786,61.979298535734415,236.32],[-6.822626693174243,61.97925629094243,237.38],[-6.822721911594272,61.979171466082335,239.05],[-6.822746470570564,61.97907440364361,239.7],[-6.822767676785588,61.978967199102044,239.83],[-6.822762563824654,61.9788727350533,240.38],[-6.822751751169562,61.978769889101386,239.88],[-6.822795001789928,61.978670647367835,240.4],[-6.822829619050026,61.9785703998059,239.17],[-6.822849316522479,61.97847870178521,240.79],[-6.822943780571222,61.97839295491576,241.03],[-6.823010332882404,61.97830310091376,240.7],[-6.823056265711784,61.978207966312766,240.16],[-6.82312541641295,61.97811190970242,240.55],[-6.823159111663699,61.97801208123565,240.25],[-6.82323144748807,61.977923987433314,240.45],[-6.823266064748168,61.97782005183399,241.35],[-6.82330914773047,61.97771837934852,240.37],[-6.82331308722496,61.977612767368555,240.22],[-6.823269752785564,61.97751092724502,241.62],[-6.823300682008266,61.97741218842566,241.95],[-6.823282744735479,61.97731772437692,241.85],[-6.823248881846666,61.977217895910144,243.48],[-6.82322951965034,61.97711957618594,242.92],[-6.823164811357856,61.977025363594294,242],[-6.823073364794254,61.976930145174265,240.4],[-6.823045201599598,61.9768300652504,239.9],[-6.823016535490751,61.97673015296459,239.15],[-6.822995329275727,61.976626720279455,241.26],[-6.822937577962875,61.97652915492654,240.67],[-6.822870606556535,61.9764344394207,239.81],[-6.822781004011631,61.976350620388985,240.1],[-6.822714870795608,61.976247103884816,239.72],[-6.822648905217648,61.97616085410118,239.82],[-6.822633063420653,61.97606513276696,240.65],[-6.822580089792609,61.97597888298333,239.97],[-6.822471711784601,61.97590411640704,239.41],[-6.822339193895459,61.975840581581,238.2],[-6.822233079001308,61.97576061822474,237.51],[-6.822137776762247,61.97567721828818,238.01],[-6.822027890011668,61.97560287080705,237.54],[-6.82190970517695,61.97552617639303,237.03],[-6.821837117895484,61.97543070651591,236.86],[-6.821719268336892,61.97534831240773,239.62],[-6.82165615260601,61.97525133378804,237.32],[-6.821546852588654,61.97516600601375,237.47],[-6.821446185931563,61.975076319649816,236.74],[-6.821359181776643,61.974988393485546,237.86],[-6.82124326005578,61.974902395159006,235.13],[-6.821126919239759,61.97481480427086,233.67],[-6.821008566766977,61.974727967754006,232.14],[-6.820835648104549,61.97463618591428,235.62],[-6.820708410814405,61.974536860361695,233.27],[-6.820620819926262,61.974441558122635,235.93],[-6.82056650519371,61.97434566915035,232.91],[-6.820523254573345,61.97425480931997,232.65],[-6.820437842980027,61.974156238138676,232.88],[-6.82035100646317,61.97406294755638,230.37],[-6.820271797478199,61.973972925916314,230.77],[-6.820195522159338,61.97387779131532,229.88],[-6.820196276530623,61.973775029182434,230.31],[-6.820167861878872,61.97368157096207,231.09],[-6.820153528824449,61.97357612662017,229.66],[-6.820073733106256,61.973484847694635,229.71],[-6.820032242685556,61.97338082827628,230.22],[-6.819975413382053,61.973293321207166,230.31],[-6.819879356771708,61.9732157047838,232.55],[-6.81976268067956,61.973142782226205,232.95],[-6.819669557735324,61.97306256741285,234.38],[-6.819575596600771,61.97296902537346,233.23],[-6.819470822811127,61.9728771597147,233.63],[-6.819368898868561,61.97278738953173,233.08],[-6.819248786196113,61.9727096054703,230.98],[-6.819130349904299,61.97262796573341,230.98],[-6.819025659933686,61.9725402072072,230.98],[-6.818942595273256,61.97244632989168,231.41],[-6.818834217265248,61.97235790081322,231.51],[-6.818692311644554,61.97228590026498,229.48],[-6.818589298054576,61.97219864465296,229.73],[-6.818464323878288,61.97210166603327,228.77],[-6.818331889808178,61.97201960720122,228.5],[-6.818161150440574,61.97194970212877,226.49],[-6.818030728027225,61.97186437435448,228.24],[-6.817945651710033,61.97176412679255,227.78],[-6.817857306450605,61.97166689671576,227.59],[-6.817762590944767,61.97157704271376,226.48],[-6.817719843238592,61.97147050872445,224.78],[-6.817685896530747,61.971370009705424,224.97],[-6.817664187401533,61.971272276714444,224.12],[-6.817593863233924,61.97118912823498,223.59],[-6.817491855472326,61.97110204026103,224.95],[-6.817424800246954,61.971004558727145,224.77],[-6.817299742251635,61.97092962451279,226.25],[-6.817206870764494,61.970828119665384,226.06],[-6.817149538546801,61.970728039741516,227.07],[-6.817058511078358,61.970642544329166,227.44],[-6.816969746723771,61.970555456355214,224.64],[-6.816825661808252,61.97048504836857,226.43],[-6.816674871370196,61.97040877304971,223.03],[-6.816553920507431,61.97032721713185,222.43],[-6.81649960577488,61.97022587992251,225.27],[-6.81644881144166,61.97013761848211,224.34],[-6.816369602456689,61.97004206478596,225.85],[-6.816282346844673,61.969947684556246,224.51],[-6.816238341853023,61.96984785608947,223.54],[-6.816237084567547,61.96973964571953,224.09],[-6.816208669915795,61.96963604539633,223.99],[-6.816186709329486,61.96953202597797,223.13],[-6.816122923046351,61.96943789720535,222.55],[-6.816105404868722,61.96934158913791,223.5],[-6.816035499796271,61.9692419283092,223.79],[-6.815986130386591,61.969140926375985,223.69],[-6.815948747098446,61.96903992444277,223.36],[-6.815936509519815,61.96894336491823,222.38],[-6.815874734893441,61.96884931996465,222.25],[-6.815838860347867,61.96875812485814,221.75],[-6.815730733796954,61.96867447346449,222.79],[-6.815603161230683,61.96859937161207,220.22],[-6.815458154305816,61.96852435357869,218.28],[-6.815302837640047,61.96844598278403,218.88],[-6.815164620056748,61.96836652234197,218.21],[-6.815021876245737,61.9682923424989,217.72],[-6.814921796321869,61.96821196004748,216.06],[-6.814790368080139,61.96813208051026,215.44],[-6.814681738615036,61.96804381906986,214.86],[-6.814582496881485,61.96794650517404,211.94],[-6.814456265419722,61.96787333115935,211.76],[-6.814354592934251,61.967787835747004,212.96],[-6.814235234633088,61.967705776914954,210.53],[-6.814116546884179,61.96762983687222,211.15],[-6.814000625163317,61.96755951270461,209.46],[-6.8138771597296,61.96748432703316,210.03],[-6.813753861933947,61.96740168146789,208.8],[-6.813599802553654,61.967310067266226,206.93],[-6.813482120633125,61.967240162193775,206.52],[-6.813466865569353,61.96720705367625,203.63],[-6.813340215012431,61.96712809614837,203.48],[-6.813199147582054,61.967050060629845,203.78],[-6.813036287203431,61.967000188305974,202.2],[-6.812919778749347,61.96692667901516,203.09],[-6.812823722139001,61.966840513050556,200.91],[-6.812776615843177,61.966744204983115,200.46],[-6.81271375156939,61.96664806455374,199.67],[-6.812654240056872,61.96655108593404,198.7],[-6.812568744644523,61.96646408177912,197.43],[-6.812485428526998,61.96637741290033,196.53],[-6.812429772689939,61.966279512271285,196.53],[-6.812345366925001,61.96617188863456,195.45],[-6.812269007787108,61.96608681231737,194.19],[-6.81213179603219,61.96601891890168,192.69],[-6.811996260657907,61.9659542106092,192.32],[-6.811904897913337,61.96585765108466,192.4],[-6.811832059174776,61.965760756284,191.96],[-6.811788389459252,61.96566067636013,191.01],[-6.81173843331635,61.96556428447366,190.4],[-6.811676993966103,61.96546822786331,190.01],[-6.811598036438227,61.96537711657584,189.71],[-6.811537770554423,61.965274941176176,189.59],[-6.811483204364777,61.96518391370773,189.19],[-6.811427967622876,61.96509028784931,186.94],[-6.811335096135736,61.96499674580991,185.13],[-6.811327049508691,61.96489532478154,185.63],[-6.811348842456937,61.96479683741927,185.9],[-6.811321433633566,61.96470254100859,185.52],[-6.811270220205188,61.96460472419858,185.94],[-6.811207691207528,61.964503303170204,184.86],[-6.811149185523391,61.9644068274647,184.5],[-6.811117921024561,61.96430800482631,184.44],[-6.811125380918384,61.96418596431613,183.4],[-6.811092607676983,61.96409225463867,182.29],[-6.811056984588504,61.964000556617975,181.35],[-6.810979368165135,61.9639215990901,180.09],[-6.810858333483338,61.963845659047365,178.59],[-6.810754230245948,61.963758654892445,178.06],[-6.810637721791863,61.96367986500263,177.63],[-6.810491541400552,61.96359772235155,175.98],[-6.810413589701057,61.96349110454321,177.3],[-6.81035072542727,61.96339395828545,176],[-6.810253327712417,61.963293543085456,175.18],[-6.810214854776859,61.96320100687444,174.33],[-6.810134723782539,61.963115595281124,173.45],[-6.810061717405915,61.96301970630884,170.53],[-6.809962056577206,61.96293764747679,168.96],[-6.809867676347494,61.96285558864474,169.35],[-6.809760723263025,61.96277730166912,167.94],[-6.809653686359525,61.962693901732564,167.14],[-6.809557378292084,61.96261318400502,165.69],[-6.809434499591589,61.96254805661738,165.04],[-6.809326959773898,61.96247194893658,163.7],[-6.809240374714136,61.96237748488784,164.63],[-6.809139708057046,61.96229450404644,163.66],[-6.80904557928443,61.9622069131583,164.96],[-6.808926220983267,61.96213030256331,161.93],[-6.808814154937863,61.962051931768656,161.62],[-6.808687169104815,61.96196626871824,162.53],[-6.808568984270096,61.961873564869165,162],[-6.808426240459085,61.961790416389704,161.25],[-6.80835516192019,61.96170483715832,159.97],[-6.808231025934219,61.96162361651659,158.37],[-6.80816556327045,61.96153191849589,159.11],[-6.808105716481805,61.96142915636301,158.31],[-6.808028938248754,61.96133737452328,157.07],[-6.807928439229727,61.96125271730125,155.01],[-6.807798855006695,61.961171915754676,154.87],[-6.807708581909537,61.961082983762026,152.93],[-6.807646136730909,61.9609912019223,150.38],[-6.807561060413718,61.960890451446176,148.66],[-6.807506829500198,61.960794646292925,145.81],[-6.807490903884172,61.96069037541747,145.51],[-6.807394009083509,61.960599683225155,144.12],[-6.807296611368656,61.96051242761314,143.38],[-6.807240871712565,61.96041813120246,141.61],[-6.807162668555975,61.96033397689462,139.61],[-6.80713945068419,61.96027404628694,143.1],[-6.807085471227765,61.96019793860614,139.56],[-6.807003663852811,61.96010724641383,137.64],[-6.80697918869555,61.959998700767756,136.09],[-6.806924873962998,61.95989694446325,133.7],[-6.80691909044981,61.959804659709334,131.81],[-6.806875336915255,61.95971212349832,131.01],[-6.80683066137135,61.95961673744023,127.73],[-6.806816663593054,61.95956535637379,123.64],[-6.806803923100233,61.95947667583823,123.11],[-6.806756062433124,61.959386905655265,121.28],[-6.806686660274863,61.95930249989033,118.11],[-6.806581048294902,61.959208622574806,116.39],[-6.806480716913939,61.959123043343425,116.3],[-6.806381810456514,61.95903578773141,114.31],[-6.806294219568372,61.95894593372941,111.31],[-6.806208807975054,61.958855744451284,109.04],[-6.806067489087582,61.95878424681723,105.65],[-6.805921224877238,61.95872942917049,104.27],[-6.805920219048858,61.958648543804884,104.63],[-6.805774876847863,61.95858978666365,101.89],[-6.805615453049541,61.9585336279124,100.57],[-6.805468434467912,61.95846606977284,101.08],[-6.805376401171088,61.95837914943695,98.72],[-6.805278165265918,61.958296252414584,95.61],[-6.805167775601149,61.958219138905406,93.24],[-6.80504908785224,61.9581400975585,92.62],[-6.804937021806836,61.95805435068905,89.98],[-6.804809449240565,61.95798637345433,86.09],[-6.804945236071944,61.957957120612264,82.54],[-6.805145731195808,61.957955276593566,80.25],[-6.805094350129366,61.95786600932479,77.55],[-6.804990749806166,61.95778361521661,75.48],[-6.805127542465925,61.95774137042463,70.78],[-6.805191077291966,61.9576805178076,69.01],[-6.805136930197477,61.957601476460695,65.31],[-6.805111449211836,61.9575354270637,63.39],[-6.804925035685301,61.957479352131486,62],[-6.804762091487646,61.95742252282798,60.75],[-6.804574755951762,61.95736485533416,55.66],[-6.804374931380153,61.95733090862632,58.91],[-6.804180219769478,61.95727692916989,57.99],[-6.803996404632926,61.95723778568208,59.21],[-6.803837483748794,61.95716821588576,59.2],[-6.803717957809568,61.95707199163735,57.27],[-6.803605472669005,61.95697811432183,57.75],[-6.803516959771514,61.95689580403268,56.69],[-6.803377903997898,61.9568170979619,55.95],[-6.803232058882713,61.95673990063369,52.71],[-6.803098702803254,61.956675024703145,53.32],[-6.802976075559855,61.95659019984305,53.5],[-6.802843306213617,61.956507470458746,52.48],[-6.802702490240336,61.95643421262503,50.67],[-6.802530828863382,61.95638014934957,50.44],[-6.802367633208633,61.9563128426671,49.67],[-6.802215501666069,61.95625266060233,48.9],[-6.80208801291883,61.95618560537696,49.87],[-6.801966559141874,61.95610472001135,49.34],[-6.801828676834703,61.95602484047413,46.41],[-6.80166045203805,61.95596189238131,46.22],[-6.801489796489477,61.955909337848425,46.22],[-6.801316123455763,61.955864913761616,45.67],[-6.80112786591053,61.955816969275475,43.74],[-6.800987720489502,61.9557343237102,42.36],[-6.801215624436736,61.9556241016835,41.07],[-6.801414610818029,61.955601554363966,39.57],[-6.801580907776952,61.95554103702307,37.42],[-6.801723735406995,61.95547088049352,36.32],[-6.801851307973266,61.9553941860795,35.42],[-6.801881985738874,61.955328304320574,34.91],[-6.801723735406995,61.955275582149625,32.68],[-6.801571436226368,61.955207185819745,33.06],[-6.801419472321868,61.9551404658705,32.17],[-6.80125686340034,61.95508589968085,31.64],[-6.80107363499701,61.95503636263311,30.98],[-6.800914043560624,61.954982969909906,30.5],[-6.800740286707878,61.9549176748842,28.3],[-6.800571139901876,61.95486696437001,30.27],[-6.800383049994707,61.954819690436125,28.95],[-6.800189344212413,61.95478281006217,27.84],[-6.799987759441137,61.954744420945644,28],[-6.799780307337642,61.9547226279974,28.48],[-6.799577884376049,61.95470418781042,26.47],[-6.799343945458531,61.95466906763613,24.44],[-6.799144539982081,61.95462707430124,24.47],[-6.798968520015478,61.95457963272929,23.1],[-6.798793338239193,61.95452372543514,21.58],[-6.798620838671923,61.95446773432195,22.05],[-6.79845311678946,61.954422891139984,21.45],[-6.798294950276613,61.95436882786453,20.28],[-6.798140304163098,61.95430235937238,19.39],[-6.798049192875624,61.95421736687422,19.31],[-6.797857498750091,61.95416523143649,17.92],[-6.797686088830233,61.95411443710327,17.75],[-6.797509817406535,61.95407244376838,17.03],[-6.797343185171485,61.95401762612164,16.52],[-6.797195663675666,61.953957695513964,15.76],[-6.7970712762326,61.95387890562415,13.17],[-6.796952839940786,61.953795505687594,12.62],[-6.796820741146803,61.95371763780713,12.42],[-6.796681936830282,61.953649912029505,9.7],[-6.796542964875698,61.95358218625188,8.86],[-6.796451937407255,61.95349811576307,10],[-6.796326627954841,61.953412955626845,8.47],[-6.796189332380891,61.953339613974094,3.39],[-6.796052036806941,61.95325227454305,7.59],[-6.795938545837998,61.95316786877811,3.74],[-6.795830419287086,61.95309117436409,4.38],[-6.795701840892434,61.9530180003494,1.97],[-6.795577201992273,61.95292806252837,2.12],[-6.795483157038689,61.95283401757479,1.13],[-6.795369917526841,61.95274810306728,1.61],[-6.795253241434693,61.95266277529299,0.19],[-6.795125333592296,61.95257719606161,0.81],[-6.795011255890131,61.952499747276306,-0.09],[-6.794880582019687,61.95242405869067,-1.81],[-6.794743621721864,61.95233688689768,-3.33],[-6.794589310884476,61.95225281640887,-1.61],[-6.794435000047088,61.952188443392515,-2.12],[-6.794286221265793,61.95211778394878,-3.29],[-6.794205000624061,61.95202901959419,0.31],[-6.794135849922895,61.951965065672994,-0.16],[-6.79409503005445,61.9519645627588,-0.47],[-6.79409503005445,61.9519645627588,-0.47],[-6.794135849922895,61.951965065672994,-0.16],[-6.794205000624061,61.95202901959419,0.31],[-6.794286221265793,61.95211778394878,-3.29],[-6.794435000047088,61.952188443392515,-2.12],[-6.794589310884476,61.95225281640887,-1.61],[-6.794743621721864,61.95233688689768,-3.33],[-6.794880582019687,61.95242405869067,-1.81],[-6.795011255890131,61.952499747276306,-0.09],[-6.795125333592296,61.95257719606161,0.81],[-6.795253241434693,61.95266277529299,0.19],[-6.795369917526841,61.95274810306728,1.61],[-6.795483157038689,61.95283401757479,1.13],[-6.795577201992273,61.95292806252837,2.12],[-6.795701840892434,61.9530180003494,1.97],[-6.795830419287086,61.95309117436409,4.38],[-6.795938545837998,61.95316786877811,3.74],[-6.796052036806941,61.95325227454305,7.59],[-6.796189332380891,61.953339613974094,3.39],[-6.796326627954841,61.953412955626845,8.47],[-6.796451937407255,61.95349811576307,10],[-6.796542964875698,61.95358218625188,8.86],[-6.796681936830282,61.953649912029505,9.7],[-6.796820741146803,61.95371763780713,12.42],[-6.796952839940786,61.953795505687594,12.62],[-6.7970712762326,61.95387890562415,13.17],[-6.797195663675666,61.953957695513964,15.76],[-6.797343185171485,61.95401762612164,16.52],[-6.797509817406535,61.95407244376838,17.03],[-6.797686088830233,61.95411443710327,17.75],[-6.797857498750091,61.95416523143649,17.92],[-6.798049192875624,61.95421736687422,19.31],[-6.798140304163098,61.95430235937238,19.39],[-6.798294950276613,61.95436882786453,20.28],[-6.79845311678946,61.954422891139984,21.45],[-6.798620838671923,61.95446773432195,22.05],[-6.798793338239193,61.95452372543514,21.58],[-6.798968520015478,61.95457963272929,23.1],[-6.799144539982081,61.95462707430124,24.47],[-6.799343945458531,61.95466906763613,24.44],[-6.799577884376049,61.95470418781042,26.47],[-6.799780307337642,61.9547226279974,28.48],[-6.799987759441137,61.954744420945644,28],[-6.800189344212413,61.95478281006217,27.84],[-6.800383049994707,61.954819690436125,28.95],[-6.800571139901876,61.95486696437001,30.27],[-6.800740286707878,61.9549176748842,28.3],[-6.800914043560624,61.954982969909906,30.5],[-6.80107363499701,61.95503636263311,30.98],[-6.80125686340034,61.95508589968085,31.64],[-6.801419472321868,61.9551404658705,32.17],[-6.801571436226368,61.955207185819745,33.06],[-6.801723735406995,61.955275582149625,32.68],[-6.801881985738874,61.955328304320574,34.91],[-6.801851307973266,61.9553941860795,35.42],[-6.801723735406995,61.95547088049352,36.32],[-6.801580907776952,61.95554103702307,37.42],[-6.801414610818029,61.955601554363966,39.57],[-6.801215624436736,61.9556241016835,41.07],[-6.800987720489502,61.9557343237102,42.36],[-6.80112786591053,61.955816969275475,43.74],[-6.801316123455763,61.955864913761616,45.67],[-6.801489796489477,61.955909337848425,46.22],[-6.80166045203805,61.95596189238131,46.22],[-6.801828676834703,61.95602484047413,46.41],[-6.801966559141874,61.95610472001135,49.34],[-6.80208801291883,61.95618560537696,49.87],[-6.802215501666069,61.95625266060233,48.9],[-6.802367633208633,61.9563128426671,49.67],[-6.802530828863382,61.95638014934957,50.44],[-6.802702490240336,61.95643421262503,50.67],[-6.802843306213617,61.956507470458746,52.48],[-6.802976075559855,61.95659019984305,53.5],[-6.803098702803254,61.956675024703145,53.32],[-6.803232058882713,61.95673990063369,52.71],[-6.803377903997898,61.9568170979619,55.95],[-6.803516959771514,61.95689580403268,56.69],[-6.803605472669005,61.95697811432183,57.75],[-6.803717957809568,61.95707199163735,57.27],[-6.803837483748794,61.95716821588576,59.2],[-6.803996404632926,61.95723778568208,59.21],[-6.804180219769478,61.95727692916989,57.99],[-6.804374931380153,61.95733090862632,58.91],[-6.804574755951762,61.95736485533416,55.66],[-6.804762091487646,61.95742252282798,60.75],[-6.804925035685301,61.957479352131486,62],[-6.805111449211836,61.9575354270637,63.39],[-6.805136930197477,61.957601476460695,65.31],[-6.805191077291966,61.9576805178076,69.01],[-6.805127542465925,61.95774137042463,70.78],[-6.804990749806166,61.95778361521661,75.48],[-6.805094350129366,61.95786600932479,77.55],[-6.805145731195808,61.957955276593566,80.25],[-6.804945236071944,61.957957120612264,82.54],[-6.804809449240565,61.95798637345433,86.09],[-6.804937021806836,61.95805435068905,89.98],[-6.80504908785224,61.9581400975585,92.62],[-6.805167775601149,61.958219138905406,93.24],[-6.805278165265918,61.958296252414584,95.61],[-6.805376401171088,61.95837914943695,98.72],[-6.805468434467912,61.95846606977284,101.08],[-6.805615453049541,61.9585336279124,100.57],[-6.805774876847863,61.95858978666365,101.89],[-6.805920219048858,61.958648543804884,104.63],[-6.805921224877238,61.95872942917049,104.27],[-6.806067489087582,61.95878424681723,105.65],[-6.806208807975054,61.958855744451284,109.04],[-6.806294219568372,61.95894593372941,111.31],[-6.806381810456514,61.95903578773141,114.31],[-6.806480716913939,61.959123043343425,116.3],[-6.806581048294902,61.959208622574806,116.39],[-6.806686660274863,61.95930249989033,118.11],[-6.806756062433124,61.959386905655265,121.28],[-6.806803923100233,61.95947667583823,123.11],[-6.806816663593054,61.95956535637379,123.64],[-6.80683066137135,61.95961673744023,127.73],[-6.806875336915255,61.95971212349832,131.01],[-6.80691909044981,61.959804659709334,131.81],[-6.806924873962998,61.95989694446325,133.7],[-6.80697918869555,61.959998700767756,136.09],[-6.807003663852811,61.96010724641383,137.64],[-6.807085471227765,61.96019793860614,139.56],[-6.80713945068419,61.96027404628694,143.1],[-6.807162668555975,61.96033397689462,139.61],[-6.807240871712565,61.96041813120246,141.61],[-6.807296611368656,61.96051242761314,143.38],[-6.807394009083509,61.960599683225155,144.12],[-6.807490903884172,61.96069037541747,145.51],[-6.807506829500198,61.960794646292925,145.81],[-6.807561060413718,61.960890451446176,148.66],[-6.807646136730909,61.9609912019223,150.38],[-6.807708581909537,61.961082983762026,152.93],[-6.807798855006695,61.961171915754676,154.87],[-6.807928439229727,61.96125271730125,155.01],[-6.808028938248754,61.96133737452328,157.07],[-6.808105716481805,61.96142915636301,158.31],[-6.80816556327045,61.96153191849589,159.11],[-6.808231025934219,61.96162361651659,158.37],[-6.80835516192019,61.96170483715832,159.97],[-6.808426240459085,61.961790416389704,161.25],[-6.808568984270096,61.961873564869165,162],[-6.808687169104815,61.96196626871824,162.53],[-6.808814154937863,61.962051931768656,161.62],[-6.808926220983267,61.96213030256331,161.93],[-6.80904557928443,61.9622069131583,164.96],[-6.809139708057046,61.96229450404644,163.66],[-6.809240374714136,61.96237748488784,164.63],[-6.809326959773898,61.96247194893658,163.7],[-6.809434499591589,61.96254805661738,165.04],[-6.809557378292084,61.96261318400502,165.69],[-6.809653686359525,61.962693901732564,167.14],[-6.809760723263025,61.96277730166912,167.94],[-6.809867676347494,61.96285558864474,169.35],[-6.809962056577206,61.96293764747679,168.96],[-6.810061717405915,61.96301970630884,170.53],[-6.810134723782539,61.963115595281124,173.45],[-6.810214854776859,61.96320100687444,174.33],[-6.810253327712417,61.963293543085456,175.18],[-6.81035072542727,61.96339395828545,176],[-6.810413589701057,61.96349110454321,177.3],[-6.810491541400552,61.96359772235155,175.98],[-6.810637721791863,61.96367986500263,177.63],[-6.810754230245948,61.963758654892445,178.06],[-6.810858333483338,61.963845659047365,178.59],[-6.810979368165135,61.9639215990901,180.09],[-6.811056984588504,61.964000556617975,181.35],[-6.811092607676983,61.96409225463867,182.29],[-6.811125380918384,61.96418596431613,183.4],[-6.811117921024561,61.96430800482631,184.44],[-6.811149185523391,61.9644068274647,184.5],[-6.811207691207528,61.964503303170204,184.86],[-6.811270220205188,61.96460472419858,185.94],[-6.811321433633566,61.96470254100859,185.52],[-6.811348842456937,61.96479683741927,185.9],[-6.811327049508691,61.96489532478154,185.63],[-6.811335096135736,61.96499674580991,185.13],[-6.811427967622876,61.96509028784931,186.94],[-6.811483204364777,61.96518391370773,189.19],[-6.811537770554423,61.965274941176176,189.59],[-6.811598036438227,61.96537711657584,189.71],[-6.811676993966103,61.96546822786331,190.01],[-6.81173843331635,61.96556428447366,190.4],[-6.811788389459252,61.96566067636013,191.01],[-6.811832059174776,61.965760756284,191.96],[-6.811904897913337,61.96585765108466,192.4],[-6.811996260657907,61.9659542106092,192.32],[-6.81213179603219,61.96601891890168,192.69],[-6.812269007787108,61.96608681231737,194.19],[-6.812345366925001,61.96617188863456,195.45],[-6.812429772689939,61.966279512271285,196.53],[-6.812485428526998,61.96637741290033,196.53],[-6.812568744644523,61.96646408177912,197.43],[-6.812654240056872,61.96655108593404,198.7],[-6.81271375156939,61.96664806455374,199.67],[-6.812776615843177,61.966744204983115,200.46],[-6.812823722139001,61.966840513050556,200.91],[-6.812919778749347,61.96692667901516,203.09],[-6.813036287203431,61.967000188305974,202.2],[-6.813199147582054,61.967050060629845,203.78],[-6.813340215012431,61.96712809614837,203.48],[-6.813466865569353,61.96720705367625,203.63],[-6.813482120633125,61.967240162193775,206.52],[-6.813599802553654,61.967310067266226,206.93],[-6.813753861933947,61.96740168146789,208.8],[-6.8138771597296,61.96748432703316,210.03],[-6.814000625163317,61.96755951270461,209.46],[-6.814116546884179,61.96762983687222,211.15],[-6.814235234633088,61.967705776914954,210.53],[-6.814354592934251,61.967787835747004,212.96],[-6.814456265419722,61.96787333115935,211.76],[-6.814582496881485,61.96794650517404,211.94],[-6.814681738615036,61.96804381906986,214.86],[-6.814790368080139,61.96813208051026,215.44],[-6.814921796321869,61.96821196004748,216.06],[-6.815021876245737,61.9682923424989,217.72],[-6.815164620056748,61.96836652234197,218.21],[-6.815302837640047,61.96844598278403,218.88],[-6.815458154305816,61.96852435357869,218.28],[-6.815603161230683,61.96859937161207,220.22],[-6.815730733796954,61.96867447346449,222.79],[-6.815838860347867,61.96875812485814,221.75],[-6.815874734893441,61.96884931996465,222.25],[-6.815936509519815,61.96894336491823,222.38],[-6.815948747098446,61.96903992444277,223.36],[-6.815986130386591,61.969140926375985,223.69],[-6.816035499796271,61.9692419283092,223.79],[-6.816105404868722,61.96934158913791,223.5],[-6.816122923046351,61.96943789720535,222.55],[-6.816186709329486,61.96953202597797,223.13],[-6.816208669915795,61.96963604539633,223.99],[-6.816237084567547,61.96973964571953,224.09],[-6.816238341853023,61.96984785608947,223.54],[-6.816282346844673,61.969947684556246,224.51],[-6.816369602456689,61.97004206478596,225.85],[-6.81644881144166,61.97013761848211,224.34],[-6.81649960577488,61.97022587992251,225.27],[-6.816553920507431,61.97032721713185,222.43],[-6.816674871370196,61.97040877304971,223.03],[-6.816825661808252,61.97048504836857,226.43],[-6.816969746723771,61.970555456355214,224.64],[-6.817058511078358,61.970642544329166,227.44],[-6.817149538546801,61.970728039741516,227.07],[-6.817206870764494,61.970828119665384,226.06],[-6.817299742251635,61.97092962451279,226.25],[-6.817424800246954,61.971004558727145,224.77],[-6.817491855472326,61.97110204026103,224.95],[-6.817593863233924,61.97118912823498,223.59],[-6.817664187401533,61.971272276714444,224.12],[-6.817685896530747,61.971370009705424,224.97],[-6.817719843238592,61.97147050872445,224.78],[-6.817762590944767,61.97157704271376,226.48],[-6.817857306450605,61.97166689671576,227.59],[-6.817945651710033,61.97176412679255,227.78],[-6.818030728027225,61.97186437435448,228.24],[-6.818161150440574,61.97194970212877,226.49],[-6.818331889808178,61.97201960720122,228.5],[-6.818464323878288,61.97210166603327,228.77],[-6.818589298054576,61.97219864465296,229.73],[-6.818692311644554,61.97228590026498,229.48],[-6.818834217265248,61.97235790081322,231.51],[-6.818942595273256,61.97244632989168,231.41],[-6.819025659933686,61.9725402072072,230.98],[-6.819130349904299,61.97262796573341,230.98],[-6.819248786196113,61.9727096054703,230.98],[-6.819368898868561,61.97278738953173,233.08],[-6.819470822811127,61.9728771597147,233.63],[-6.819575596600771,61.97296902537346,233.23],[-6.819669557735324,61.97306256741285,234.38],[-6.81976268067956,61.973142782226205,232.95],[-6.819879356771708,61.9732157047838,232.55],[-6.819975413382053,61.973293321207166,230.31],[-6.820032242685556,61.97338082827628,230.22],[-6.820073733106256,61.973484847694635,229.71],[-6.820153528824449,61.97357612662017,229.66],[-6.820167861878872,61.97368157096207,231.09],[-6.820196276530623,61.973775029182434,230.31],[-6.820195522159338,61.97387779131532,229.88],[-6.820271797478199,61.973972925916314,230.77],[-6.82035100646317,61.97406294755638,230.37],[-6.820437842980027,61.974156238138676,232.88],[-6.820523254573345,61.97425480931997,232.65],[-6.82056650519371,61.97434566915035,232.91],[-6.820620819926262,61.974441558122635,235.93],[-6.820708410814405,61.974536860361695,233.27],[-6.820835648104549,61.97463618591428,235.62],[-6.821008566766977,61.974727967754006,232.14],[-6.821126919239759,61.97481480427086,233.67],[-6.82124326005578,61.974902395159006,235.13],[-6.821359181776643,61.974988393485546,237.86],[-6.821446185931563,61.975076319649816,236.74],[-6.821546852588654,61.97516600601375,237.47],[-6.82165615260601,61.97525133378804,237.32],[-6.821719268336892,61.97534831240773,239.62],[-6.821837117895484,61.97543070651591,236.86],[-6.82190970517695,61.97552617639303,237.03],[-6.822027890011668,61.97560287080705,237.54],[-6.822137776762247,61.97567721828818,238.01],[-6.822233079001308,61.97576061822474,237.51],[-6.822339193895459,61.975840581581,238.2],[-6.822471711784601,61.97590411640704,239.41],[-6.822580089792609,61.97597888298333,239.97],[-6.822633063420653,61.97606513276696,240.65],[-6.822648905217648,61.97616085410118,239.82],[-6.822714870795608,61.976247103884816,239.72],[-6.822781004011631,61.976350620388985,240.1],[-6.822870606556535,61.9764344394207,239.81],[-6.822937577962875,61.97652915492654,240.67],[-6.822995329275727,61.976626720279455,241.26],[-6.823016535490751,61.97673015296459,239.15],[-6.823045201599598,61.9768300652504,239.9],[-6.823073364794254,61.976930145174265,240.4],[-6.823164811357856,61.977025363594294,242],[-6.82322951965034,61.97711957618594,242.92],[-6.823248881846666,61.977217895910144,243.48],[-6.823282744735479,61.97731772437692,241.85],[-6.823300682008266,61.97741218842566,241.95],[-6.823269752785564,61.97751092724502,241.62],[-6.82331308722496,61.977612767368555,240.22],[-6.82330914773047,61.97771837934852,240.37],[-6.823266064748168,61.97782005183399,241.35],[-6.82323144748807,61.977923987433314,240.45],[-6.823159111663699,61.97801208123565,240.25],[-6.82312541641295,61.97811190970242,240.55],[-6.823056265711784,61.978207966312766,240.16],[-6.823010332882404,61.97830310091376,240.7],[-6.822943780571222,61.97839295491576,241.03],[-6.822849316522479,61.97847870178521,240.79],[-6.822829619050026,61.9785703998059,239.17],[-6.822795001789928,61.978670647367835,240.4],[-6.822751751169562,61.978769889101386,239.88],[-6.822762563824654,61.9788727350533,240.38],[-6.822767676785588,61.978967199102044,239.83],[-6.822746470570564,61.97907440364361,239.7],[-6.822721911594272,61.979171466082335,239.05],[-6.822626693174243,61.97925629094243,237.38],[-6.822443129494786,61.979298535734415,236.32],[-6.822361992672086,61.979384534060955,237.98],[-6.822343468666077,61.979480255395174,238.22],[-6.822350090369582,61.979579497128725,238.19],[-6.822281442582607,61.979687036946416,237.35],[-6.822218662127852,61.979772532358766,238.7],[-6.822191840037704,61.9798693433404,237.99],[-6.822147751227021,61.979965567588806,237.23],[-6.822111122310162,61.980069587007165,237.01],[-6.822075750678778,61.980169583112,237.01],[-6.82204314507544,61.98026773519814,237.94],[-6.822032164782286,61.980364713817835,238.43],[-6.821975167840719,61.98046370409429,238.94],[-6.821981454268098,61.98056026361883,238.5],[-6.822010204195976,61.980658415704966,238.6],[-6.822063596919179,61.980762016028166,238.83],[-6.822099052369595,61.98085497133434,238.7],[-6.822142889723182,61.98095580562949,238.17],[-6.822224110364914,61.981055634096265,238.79],[-6.822295775637031,61.98114976286888,239],[-6.822336930781603,61.98124531656504,238.97],[-6.82241446338594,61.981341959908605,239.01],[-6.822462659329176,61.98143457993865,238.9],[-6.822494929656386,61.98153189383447,239.01],[-6.822549914941192,61.98162954300642,240.11],[-6.822623340412974,61.98171076364815,239.52],[-6.822706907987595,61.98180589824915,240.07],[-6.822759043425322,61.98190371505916,241.83],[-6.822795839980245,61.98199633508921,243.32],[-6.822779830545187,61.98209993541241,243.3],[-6.822800533846021,61.98219406418502,243.18],[-6.822837749496102,61.982298167422414,243.28],[-6.822843533009291,61.98240059427917,242.86],[-6.822891896590591,61.98250310495496,241.81],[-6.822927435860038,61.982601173222065,242.81],[-6.822909498587251,61.98269865475595,243.96],[-6.82287672534585,61.98279035277665,244.11],[-6.822844874113798,61.98289076797664,243.27],[-6.822813944891095,61.98298590257764,242.89],[-6.822765748947859,61.98309008963406,242.66],[-6.822728449478746,61.983193354681134,243.01],[-6.822716379538178,61.9832918420434,242.94],[-6.822716547176242,61.983395190909505,242.8],[-6.822733897715807,61.98348739184439,243.59],[-6.822740016505122,61.98358747176826,243.57],[-6.822683857753873,61.98368411511183,243.37],[-6.822659131139517,61.983784111216664,243.31],[-6.822681678459048,61.98387832380831,243.4],[-6.822718977928162,61.98396616615355,243.64],[-6.822677487507463,61.98406130075455,244.7],[-6.82267933152616,61.98415853083134,244.58],[-6.822691401466727,61.984248887747526,244.3],[-6.822706237435341,61.98434276506305,244.41],[-6.82271939702332,61.984431529417634,244.45],[-6.822707243263722,61.984529765322804,245.13],[-6.822722163051367,61.984637724235654,245.28],[-6.82274772785604,61.98473394848406,245.1],[-6.822801539674401,61.984833693131804,245.59],[-6.82277119718492,61.98492941446602,246.14],[-6.822749152779579,61.98502681218088,246.87],[-6.822754852473736,61.98512420989573,246.89],[-6.822666674852371,61.985220685601234,245.73],[-6.822666004300118,61.98531431145966,243.32],[-6.822685785591602,61.985404919832945,241.69],[-6.822749823331833,61.98549645021558,239.92],[-6.822871528565884,61.985582280904055,239.06],[-6.822937242686749,61.98568613268435,238.2],[-6.822964902967215,61.98579266667366,237.23],[-6.822914863005281,61.985884280875325,236.99],[-6.822936153039336,61.9859925750643,236.6],[-6.822987198829651,61.986090894788504,236.54],[-6.82299105450511,61.986185275018215,235.87],[-6.823041597381234,61.98628367856145,235.14],[-6.823093146085739,61.986380657181144,234.38],[-6.823086440563202,61.986476043239236,233.94],[-6.823135726153851,61.98656380176544,233.39],[-6.823229184374213,61.98665114119649,233.09],[-6.823321301490068,61.98674099519849,232.86],[-6.823374191299081,61.98684115894139,232.76],[-6.823388021439314,61.98694207705557,232.64],[-6.82338978163898,61.987035032361746,232.32],[-6.823447197675705,61.98712840676308,232.05],[-6.823535794392228,61.98721784166992,231.74],[-6.823627073317766,61.98729160241783,231.88],[-6.823695637285709,61.98738346807659,231.96],[-6.823725393041968,61.98748463764787,231.74],[-6.823753891512752,61.98758589103818,231.31],[-6.823792615905404,61.98766250163317,231.34],[-6.823729919269681,61.987697118893266,231.18],[-6.823805021122098,61.98778806254268,230.78],[-6.823768727481365,61.98787909001112,230.95],[-6.823804685845971,61.98797062039375,231.07],[-6.823836620897055,61.98805737309158,231.12],[-6.823940724134445,61.988130547106266,230.13],[-6.824049688875675,61.98822006583214,229.28],[-6.824147589504719,61.98830212466419,227.07],[-6.824213303625584,61.988403210416436,226.17],[-6.824285890907049,61.9884966686368,224.4],[-6.824365351349115,61.988592222332954,222.89],[-6.824396112933755,61.98869414627552,222.58],[-6.82444280013442,61.98879229836166,222.68],[-6.824485044926405,61.9888954795897,223.69],[-6.824530977755785,61.98898910544813,224.87],[-6.824575318023562,61.989076528698206,226.17],[-6.824621083214879,61.98916856199503,227.76],[-6.824646145105362,61.98926042765379,229.52],[-6.824600463733077,61.98935363441706,230.27],[-6.824498623609543,61.989461006596684,230.35],[-6.824342049658299,61.98954381980002,231.4],[-6.824219170957804,61.98961825110018,231.44],[-6.824110206216574,61.98969787918031,231.23],[-6.824097884818912,61.98980097658932,231.68],[-6.82406997308135,61.98991488665342,231.29],[-6.823994116857648,61.99001697823405,230.85],[-6.823892276734114,61.99011177755892,231.69],[-6.823781384155154,61.99019953608513,232],[-6.82367954403162,61.99028310365975,231.53],[-6.823550630360842,61.99036583304405,230.55],[-6.823457591235638,61.99045560322702,229.85],[-6.823356002569199,61.99054663069546,229.7],[-6.823248127475381,61.990629360079765,230.67],[-6.823258185759187,61.99072742834687,227.37],[-6.823196662589908,61.99082348495722,224.44],[-6.823095828294754,61.99091048911214,222.64],[-6.822932967916131,61.9910229742527,221.56],[-6.8228430300951,61.991132693365216,219.55],[-6.822771532461047,61.99123939499259,217.42],[-6.822709003463388,61.99134341441095,215.35],[-6.822600457817316,61.991442488506436,213.05],[-6.822504065930843,61.991538209840655,211.45],[-6.822411613538861,61.991648683324456,210.48],[-6.822356125339866,61.99172805994749,209.54],[-6.822287226095796,61.991817159578204,208.35],[-6.82229720056057,61.99188404716551,209.71],[-6.822183877229691,61.99195604771376,210.28],[-6.822098968550563,61.99204942211509,208.35],[-6.822042223066092,61.99214229360223,206.68],[-6.821967624127865,61.99223030358553,204.68],[-6.821872154250741,61.99230900965631,203.28],[-6.821705186739564,61.99239048175514,200.81],[-6.821634108200669,61.99248285032809,197.83],[-6.821442497894168,61.9925304595381,195.97],[-6.821296904236078,61.99259248562157,190.79],[-6.821174947544932,61.99264897964895,187.45],[-6.821151729673147,61.992722656577826,184.08],[-6.820985600352287,61.99278552085161,180.96],[-6.820907145738602,61.9928621314466,179.53],[-6.820773035287857,61.9929242413491,177.15],[-6.820578575134277,61.99298811145127,174.88],[-6.820395095273852,61.99305726215243,173.85],[-6.8202596437186,61.99315105564892,171.99],[-6.820077588781714,61.99319799430668,170.82],[-6.819913303479552,61.99327393434942,170.64],[-6.819776678457856,61.99335624463856,168.62],[-6.819604011252523,61.99342195875943,167.33],[-6.819411898031831,61.99345842003822,165.72],[-6.819290360435844,61.99353695847094,164.14],[-6.819125069305301,61.99359328486025,162.6],[-6.818936727941036,61.99363695457578,160.1],[-6.818761210888624,61.99368942528963,158.14],[-6.818595333024859,61.99373661540449,157.42],[-6.818419480696321,61.99377626180649,156.49],[-6.818230133503676,61.99381163343787,154.94],[-6.818033242598176,61.99384281411767,152.01],[-6.81784288957715,61.99388287961483,149.06],[-6.817638706415892,61.99392034672201,146.04],[-6.817462434992194,61.99397457763553,144.6],[-6.81728532537818,61.9940173253417,143.22],[-6.817109556868672,61.994061414152384,140.79],[-6.816946445032954,61.99410416185856,138.68],[-6.816751733422279,61.994151854887605,137.46],[-6.816545119509101,61.99420491233468,135.83],[-6.816333224996924,61.9943075068295,132.58],[-6.81616785004735,61.9943955168128,130.41],[-6.815999876707792,61.99447707273066,128.41],[-6.815901724621654,61.9945596344769,127.52],[-6.815738445147872,61.99463079683483,125.53],[-6.815607352182269,61.99472433887422,123.9],[-6.815449018031359,61.9948067329824,121.85],[-6.8152931984514,61.99489424005151,119.5],[-6.815142827108502,61.994974706321955,118],[-6.814982146024704,61.99506724253297,116.45],[-6.814839905127883,61.995151061564684,114.85],[-6.814707219600678,61.99523395858705,112.93],[-6.814575036987662,61.995328925549984,111.2],[-6.814418211579323,61.99541073292494,110.65],[-6.814252249896526,61.995498994365335,109.21],[-6.814144710078836,61.99558566324413,108.89],[-6.814030632376671,61.99566839262843,108.1],[-6.813897443935275,61.99573787860572,106.65],[-6.813783450052142,61.99580744840205,105.57],[-6.813655206933618,61.99587249197066,104.98],[-6.813516905531287,61.995933428406715,104.07],[-6.813415065407753,61.995996879413724,103.39],[-6.813273327425122,61.99613886885345,102.28],[-6.813147515058518,61.996217239648104,101.37],[-6.8130171764642,61.99630239978433,100.85],[-6.812889771535993,61.99638596735895,100.71],[-6.812765384092927,61.99647272005677,100.27],[-6.812641667202115,61.9965557847172,99.72],[-6.812486937269568,61.996634155511856,99.84],[-6.812342684715986,61.99671210721135,99.19],[-6.812198851257563,61.99678293429315,98.15],[-6.812059795483947,61.99685879051685,97.45],[-6.811926942318678,61.99692467227578,96.74],[-6.811776319518685,61.996994661167264,96.37],[-6.811622008681297,61.99707353487611,95.87],[-6.811472559347749,61.997154923155904,96.19],[-6.811309112235904,61.997235054150224,96.14],[-6.811152873560786,61.997313844040036,95.25],[-6.811000406742096,61.99739749543369,94.31],[-6.810863865539432,61.997466227039695,94.34],[-6.810722965747118,61.99755289591849,93.85],[-6.810632608830929,61.997649455443025,92.71],[-6.81063168682158,61.997758923098445,92.4],[-6.810540491715074,61.99785246513784,92.43],[-6.810377966612577,61.99793267995119,92.1],[-6.810221476480365,61.99800753034651,92.68],[-6.810070350766182,61.99809595942497,92.62],[-6.8099260982126,61.99816863052547,92.89],[-6.809795508161187,61.998250437900424,94.19],[-6.809660559520125,61.998336017131805,94.86],[-6.809531729668379,61.99842318892479,95.84],[-6.80941111408174,61.998510444536805,96.73],[-6.809278512373567,61.998595520853996,97.63],[-6.809152951464057,61.99868562631309,99.06],[-6.80902311578393,61.99876684695482,99.37],[-6.808884060010314,61.99885259382427,100.67],[-6.808763612061739,61.99894404038787,101.83],[-6.808646013960242,61.99902484193444,102.42],[-6.808543251827359,61.99910581111908,103.62],[-6.808410901576281,61.999200358986855,103.87],[-6.808281904086471,61.99930312111974,104.17],[-6.808157600462437,61.99938694015145,104.43],[-6.808043103665113,61.99947511777282,105.28],[-6.807877561077476,61.999558098614216,105.37],[-6.807731967419386,61.99964049272239,105.24],[-6.807613112032414,61.99971500784159,105.71],[-6.807471793144941,61.99980058707297,107.53],[-6.807326786220074,61.99987535364926,108.64],[-6.807218911126256,61.999949449673295,109.58],[-6.807244308292866,62.0000631082803,112.23],[-6.807438265532255,62.0000908523798,111.58]]}},{"type":"Feature","properties":{"name":"WP1 06_TK","type":"user","time":"2020-07-25T10:11:53Z","gpxx_WaypointExtension":"SymbolAndName","gpxx_DisplayMode":"SymbolAndName","wptx1_WaypointExtension":"SymbolAndName","wptx1_DisplayMode":"SymbolAndName","ctx_CreationTimeExtension":"2020-07-25T10:11:53Z","ctx_CreationTime":"2020-07-25T10:11:53Z","sym":"Flag, Blue"},"geometry":{"type":"Point","coordinates":[-6.823735032230616,61.98769401758909,231.457092]}},{"type":"Feature","properties":{"name":"WP2 08_TK","type":"user","time":"2020-07-25T10:42:05Z","gpxx_WaypointExtension":"SymbolAndName","gpxx_DisplayMode":"SymbolAndName","wptx1_WaypointExtension":"SymbolAndName","wptx1_DisplayMode":"SymbolAndName","ctx_CreationTimeExtension":"2020-07-25T10:42:05Z","ctx_CreationTime":"2020-07-25T10:42:05Z","sym":"Flag, Blue"},"geometry":{"type":"Point","coordinates":[-6.814650977030397,61.96801096200943,212.858475]}},{"type":"Feature","properties":{"name":"WP3 14_TK","type":"user","time":"2020-07-25T11:21:53Z","gpxx_WaypointExtension":"SymbolAndName","gpxx_DisplayMode":"SymbolAndName","wptx1_WaypointExtension":"SymbolAndName","wptx1_DisplayMode":"SymbolAndName","ctx_CreationTimeExtension":"2020-07-25T11:21:53Z","ctx_CreationTime":"2020-07-25T11:21:53Z","sym":"Flag, Blue"},"geometry":{"type":"Point","coordinates":[-6.801910987123847,61.955346995964646,34.995819]}}]}