{"type":"FeatureCollection","features":[{"type":"Feature","properties":{"_gpxType":"trk","name":"16 Wanderung Nolsoy Bordan CS 001","time":"2020-07-22T08:59:52Z","gpxx_TrackExtension":"Blue","gpxx_DisplayColor":"Blue","coordinateProperties":{"times":["2020-07-22T08:59:52Z","2020-07-22T09:00:57Z","2020-07-22T09:01:18Z","2020-07-22T09:01:36Z","2020-07-22T09:01:42Z","2020-07-22T09:01:48Z","2020-07-22T09:01:52Z","2020-07-22T09:01:59Z","2020-07-22T09:02:03Z","2020-07-22T09:02:06Z","2020-07-22T09:02:09Z","2020-07-22T09:02:18Z","2020-07-22T09:02:25Z","2020-07-22T09:02:56Z","2020-07-22T09:03:08Z","2020-07-22T09:03:18Z","2020-07-22T09:03:26Z","2020-07-22T09:03:33Z","2020-07-22T09:03:41Z","2020-07-22T09:03:48Z","2020-07-22T09:03:55Z","2020-07-22T09:04:03Z","2020-07-22T09:04:11Z","2020-07-22T09:04:18Z","2020-07-22T09:04:25Z","2020-07-22T09:04:32Z","2020-07-22T09:04:40Z","2020-07-22T09:04:48Z","2020-07-22T09:04:56Z","2020-07-22T09:05:05Z","2020-07-22T09:05:13Z","2020-07-22T09:05:30Z","2020-07-22T09:05:42Z","2020-07-22T09:05:50Z","2020-07-22T09:05:58Z","2020-07-22T09:06:06Z","2020-07-22T09:06:13Z","2020-07-22T09:06:20Z","2020-07-22T09:06:27Z","2020-07-22T09:06:35Z","2020-07-22T09:06:47Z","2020-07-22T09:06:57Z","2020-07-22T09:07:06Z","2020-07-22T09:07:15Z","2020-07-22T09:07:24Z","2020-07-22T09:07:34Z","2020-07-22T09:07:46Z","2020-07-22T09:07:58Z","2020-07-22T09:08:09Z","2020-07-22T09:08:18Z","2020-07-22T09:08:27Z","2020-07-22T09:08:35Z","2020-07-22T09:08:43Z","2020-07-22T09:08:51Z","2020-07-22T09:09:01Z","2020-07-22T09:09:10Z","2020-07-22T09:09:19Z","2020-07-22T09:09:28Z","2020-07-22T09:09:37Z","2020-07-22T09:09:46Z","2020-07-22T09:09:54Z","2020-07-22T09:10:03Z","2020-07-22T09:10:12Z","2020-07-22T09:10:20Z","2020-07-22T09:10:28Z","2020-07-22T09:10:36Z","2020-07-22T09:10:44Z","2020-07-22T09:11:14Z","2020-07-22T09:11:31Z","2020-07-22T09:11:40Z","2020-07-22T09:11:50Z","2020-07-22T09:11:59Z","2020-07-22T09:12:10Z","2020-07-22T09:12:26Z","2020-07-22T09:13:01Z","2020-07-22T09:13:09Z","2020-07-22T09:13:17Z","2020-07-22T09:13:25Z","2020-07-22T09:13:33Z","2020-07-22T09:13:41Z","2020-07-22T09:13:49Z","2020-07-22T09:13:58Z","2020-07-22T09:14:07Z","2020-07-22T09:14:16Z","2020-07-22T09:14:24Z","2020-07-22T09:14:32Z","2020-07-22T09:14:40Z","2020-07-22T09:14:49Z","2020-07-22T09:14:58Z","2020-07-22T09:15:08Z","2020-07-22T09:15:18Z","2020-07-22T09:15:28Z","2020-07-22T09:15:41Z","2020-07-22T09:15:51Z","2020-07-22T09:16:02Z","2020-07-22T09:16:13Z","2020-07-22T09:16:23Z","2020-07-22T09:16:32Z","2020-07-22T09:16:43Z","2020-07-22T09:16:57Z","2020-07-22T09:17:11Z","2020-07-22T09:17:26Z","2020-07-22T09:17:42Z","2020-07-22T09:18:50Z","2020-07-22T09:20:15Z","2020-07-22T09:20:58Z","2020-07-22T09:21:07Z","2020-07-22T09:21:17Z","2020-07-22T09:21:31Z","2020-07-22T09:21:46Z","2020-07-22T09:21:57Z","2020-07-22T09:22:11Z","2020-07-22T09:22:22Z","2020-07-22T09:22:44Z","2020-07-22T09:22:56Z","2020-07-22T09:23:10Z","2020-07-22T09:23:24Z","2020-07-22T09:23:42Z","2020-07-22T09:24:12Z","2020-07-22T09:24:29Z","2020-07-22T09:24:45Z","2020-07-22T09:25:01Z","2020-07-22T09:25:20Z","2020-07-22T09:25:46Z","2020-07-22T09:26:00Z","2020-07-22T09:26:11Z","2020-07-22T09:26:20Z","2020-07-22T09:26:30Z","2020-07-22T09:26:39Z","2020-07-22T09:26:50Z","2020-07-22T09:27:00Z","2020-07-22T09:27:14Z","2020-07-22T09:27:25Z","2020-07-22T09:27:39Z","2020-07-22T09:27:51Z","2020-07-22T09:28:09Z","2020-07-22T09:28:27Z","2020-07-22T09:28:39Z","2020-07-22T09:28:53Z","2020-07-22T09:29:03Z","2020-07-22T09:29:15Z","2020-07-22T09:29:29Z","2020-07-22T09:29:41Z","2020-07-22T09:29:50Z","2020-07-22T09:30:00Z","2020-07-22T09:30:10Z","2020-07-22T09:30:20Z","2020-07-22T09:31:41Z","2020-07-22T09:32:55Z","2020-07-22T09:33:04Z","2020-07-22T09:33:13Z","2020-07-22T09:33:21Z","2020-07-22T09:33:30Z","2020-07-22T09:33:39Z","2020-07-22T09:33:48Z","2020-07-22T09:33:56Z","2020-07-22T09:35:13Z","2020-07-22T09:35:20Z","2020-07-22T09:35:29Z","2020-07-22T09:35:37Z","2020-07-22T09:35:47Z","2020-07-22T09:36:00Z","2020-07-22T09:36:14Z","2020-07-22T09:36:25Z","2020-07-22T09:36:39Z","2020-07-22T09:36:48Z","2020-07-22T09:36:57Z","2020-07-22T09:37:06Z","2020-07-22T09:37:15Z","2020-07-22T09:37:44Z","2020-07-22T09:38:07Z","2020-07-22T09:38:17Z","2020-07-22T09:38:30Z","2020-07-22T09:38:40Z","2020-07-22T09:38:52Z","2020-07-22T09:39:01Z","2020-07-22T09:39:09Z","2020-07-22T09:39:18Z","2020-07-22T09:39:28Z","2020-07-22T09:39:37Z","2020-07-22T09:39:47Z","2020-07-22T09:39:56Z","2020-07-22T09:40:04Z","2020-07-22T09:40:12Z","2020-07-22T09:40:21Z","2020-07-22T09:40:29Z","2020-07-22T09:40:38Z","2020-07-22T09:40:47Z","2020-07-22T09:40:56Z","2020-07-22T09:41:06Z","2020-07-22T09:41:15Z","2020-07-22T09:41:24Z","2020-07-22T09:41:32Z","2020-07-22T09:41:39Z","2020-07-22T09:41:47Z","2020-07-22T09:41:54Z","2020-07-22T09:42:01Z","2020-07-22T09:42:08Z","2020-07-22T09:42:15Z","2020-07-22T09:42:22Z","2020-07-22T09:42:28Z","2020-07-22T09:42:35Z","2020-07-22T09:42:43Z","2020-07-22T09:42:51Z","2020-07-22T09:42:58Z","2020-07-22T09:43:06Z","2020-07-22T09:43:15Z","2020-07-22T09:43:24Z","2020-07-22T09:43:31Z","2020-07-22T09:43:39Z","2020-07-22T09:43:46Z","2020-07-22T09:43:53Z","2020-07-22T09:44:01Z","2020-07-22T09:44:08Z","2020-07-22T09:44:14Z","2020-07-22T09:44:21Z","2020-07-22T09:44:29Z","2020-07-22T09:44:37Z","2020-07-22T09:44:43Z","2020-07-22T09:44:50Z","2020-07-22T09:45:02Z","2020-07-22T09:45:10Z","2020-07-22T09:45:17Z","2020-07-22T09:45:24Z","2020-07-22T09:45:31Z","2020-07-22T09:45:40Z","2020-07-22T09:45:49Z","2020-07-22T09:45:56Z","2020-07-22T09:46:03Z","2020-07-22T09:46:11Z","2020-07-22T09:46:18Z","2020-07-22T09:46:26Z","2020-07-22T09:46:33Z","2020-07-22T09:46:40Z","2020-07-22T09:46:47Z","2020-07-22T09:46:54Z","2020-07-22T09:47:03Z","2020-07-22T09:47:11Z","2020-07-22T09:47:18Z","2020-07-22T09:47:26Z","2020-07-22T09:47:33Z","2020-07-22T09:47:43Z","2020-07-22T09:47:52Z","2020-07-22T09:47:59Z","2020-07-22T09:48:08Z","2020-07-22T09:48:15Z","2020-07-22T09:48:22Z","2020-07-22T09:48:30Z","2020-07-22T09:48:38Z","2020-07-22T09:50:37Z","2020-07-22T09:50:45Z","2020-07-22T09:50:51Z","2020-07-22T09:50:57Z","2020-07-22T09:51:04Z","2020-07-22T09:51:12Z","2020-07-22T09:51:19Z","2020-07-22T09:51:26Z","2020-07-22T09:51:33Z","2020-07-22T09:51:40Z","2020-07-22T09:51:48Z","2020-07-22T09:51:56Z","2020-07-22T09:52:03Z","2020-07-22T09:52:11Z","2020-07-22T09:52:18Z","2020-07-22T09:52:26Z","2020-07-22T09:52:34Z","2020-07-22T09:52:41Z","2020-07-22T09:52:49Z","2020-07-22T09:52:57Z","2020-07-22T09:53:04Z","2020-07-22T09:53:12Z","2020-07-22T09:53:20Z","2020-07-22T09:53:28Z","2020-07-22T09:53:35Z","2020-07-22T09:53:42Z","2020-07-22T09:53:49Z","2020-07-22T09:53:56Z","2020-07-22T09:54:04Z","2020-07-22T09:54:13Z","2020-07-22T09:54:21Z","2020-07-22T09:54:29Z","2020-07-22T09:54:37Z","2020-07-22T09:54:45Z","2020-07-22T09:54:52Z","2020-07-22T09:55:00Z","2020-07-22T09:55:07Z","2020-07-22T09:55:15Z","2020-07-22T09:55:23Z","2020-07-22T09:55:30Z","2020-07-22T09:55:38Z","2020-07-22T09:55:46Z","2020-07-22T09:55:54Z","2020-07-22T09:56:01Z","2020-07-22T09:56:08Z","2020-07-22T09:56:16Z","2020-07-22T09:56:24Z","2020-07-22T09:56:33Z","2020-07-22T09:56:43Z","2020-07-22T09:56:51Z","2020-07-22T09:57:04Z","2020-07-22T09:57:12Z","2020-07-22T09:57:19Z","2020-07-22T09:57:27Z","2020-07-22T09:57:35Z","2020-07-22T09:57:42Z","2020-07-22T09:57:49Z","2020-07-22T09:57:57Z","2020-07-22T09:58:15Z","2020-07-22T09:58:44Z","2020-07-22T09:58:51Z","2020-07-22T09:58:58Z","2020-07-22T09:59:06Z","2020-07-22T09:59:13Z","2020-07-22T09:59:20Z","2020-07-22T09:59:27Z","2020-07-22T09:59:33Z","2020-07-22T09:59:40Z","2020-07-22T09:59:48Z","2020-07-22T09:59:56Z","2020-07-22T10:00:05Z","2020-07-22T10:00:13Z","2020-07-22T10:00:20Z","2020-07-22T10:00:28Z","2020-07-22T10:00:39Z","2020-07-22T10:00:47Z","2020-07-22T10:00:54Z","2020-07-22T10:01:03Z","2020-07-22T10:01:10Z","2020-07-22T10:01:18Z","2020-07-22T10:01:27Z","2020-07-22T10:01:35Z","2020-07-22T10:01:42Z","2020-07-22T10:01:50Z","2020-07-22T10:01:59Z","2020-07-22T10:02:06Z","2020-07-22T10:02:14Z","2020-07-22T10:02:21Z","2020-07-22T10:02:28Z","2020-07-22T10:02:35Z","2020-07-22T10:02:42Z","2020-07-22T10:02:50Z","2020-07-22T10:02:58Z","2020-07-22T10:03:05Z","2020-07-22T10:03:13Z","2020-07-22T10:03:22Z","2020-07-22T10:03:31Z","2020-07-22T10:03:39Z","2020-07-22T10:03:48Z","2020-07-22T10:03:57Z","2020-07-22T10:04:13Z","2020-07-22T10:04:35Z","2020-07-22T10:04:43Z","2020-07-22T10:04:51Z","2020-07-22T10:05:01Z","2020-07-22T10:05:12Z","2020-07-22T10:05:21Z","2020-07-22T10:05:28Z","2020-07-22T10:05:38Z","2020-07-22T10:05:49Z","2020-07-22T10:05:57Z","2020-07-22T10:06:04Z","2020-07-22T10:06:11Z","2020-07-22T10:06:19Z","2020-07-22T10:06:27Z","2020-07-22T10:06:34Z","2020-07-22T10:06:41Z","2020-07-22T10:06:48Z","2020-07-22T10:06:55Z","2020-07-22T10:07:03Z","2020-07-22T10:07:12Z","2020-07-22T10:07:20Z","2020-07-22T10:07:27Z","2020-07-22T10:07:35Z","2020-07-22T10:07:43Z","2020-07-22T10:07:51Z","2020-07-22T10:07:59Z","2020-07-22T10:08:06Z","2020-07-22T10:08:14Z","2020-07-22T10:08:22Z","2020-07-22T10:08:30Z","2020-07-22T10:08:38Z","2020-07-22T10:08:45Z","2020-07-22T10:08:53Z","2020-07-22T10:09:01Z","2020-07-22T10:09:08Z","2020-07-22T10:09:15Z","2020-07-22T10:09:23Z","2020-07-22T10:09:31Z","2020-07-22T10:09:38Z","2020-07-22T10:09:46Z","2020-07-22T10:09:56Z","2020-07-22T10:10:03Z","2020-07-22T10:10:10Z","2020-07-22T10:10:17Z","2020-07-22T10:10:25Z","2020-07-22T10:10:32Z","2020-07-22T10:10:39Z","2020-07-22T10:10:47Z","2020-07-22T10:10:53Z","2020-07-22T10:11:00Z","2020-07-22T10:11:08Z","2020-07-22T10:11:16Z","2020-07-22T10:11:24Z","2020-07-22T10:11:32Z","2020-07-22T10:11:41Z","2020-07-22T10:11:50Z","2020-07-22T10:11:59Z","2020-07-22T10:12:08Z","2020-07-22T10:12:17Z","2020-07-22T10:12:26Z","2020-07-22T10:12:36Z","2020-07-22T10:12:44Z","2020-07-22T10:13:06Z","2020-07-22T10:14:13Z","2020-07-22T10:14:22Z","2020-07-22T10:14:31Z","2020-07-22T10:14:38Z","2020-07-22T10:14:45Z","2020-07-22T10:14:53Z","2020-07-22T10:15:02Z","2020-07-22T10:15:11Z","2020-07-22T10:15:21Z","2020-07-22T10:15:29Z","2020-07-22T10:15:36Z","2020-07-22T10:15:44Z","2020-07-22T10:15:51Z","2020-07-22T10:15:59Z","2020-07-22T10:16:09Z","2020-07-22T10:16:17Z","2020-07-22T10:16:25Z","2020-07-22T10:16:35Z","2020-07-22T10:16:43Z","2020-07-22T10:16:52Z","2020-07-22T10:17:00Z","2020-07-22T10:17:07Z","2020-07-22T10:17:15Z","2020-07-22T10:17:23Z","2020-07-22T10:17:31Z","2020-07-22T10:17:39Z","2020-07-22T10:17:47Z","2020-07-22T10:17:55Z","2020-07-22T10:18:04Z","2020-07-22T10:18:12Z","2020-07-22T10:18:20Z","2020-07-22T10:18:28Z","2020-07-22T10:18:36Z","2020-07-22T10:18:43Z","2020-07-22T10:18:51Z","2020-07-22T10:18:59Z","2020-07-22T10:19:09Z","2020-07-22T10:19:17Z","2020-07-22T10:19:25Z","2020-07-22T10:19:38Z","2020-07-22T10:19:46Z","2020-07-22T10:19:53Z","2020-07-22T10:20:02Z","2020-07-22T10:20:10Z","2020-07-22T10:20:17Z","2020-07-22T10:20:24Z","2020-07-22T10:20:31Z","2020-07-22T10:20:38Z","2020-07-22T10:20:45Z","2020-07-22T10:20:52Z","2020-07-22T10:20:59Z","2020-07-22T10:21:07Z","2020-07-22T10:21:14Z","2020-07-22T10:21:21Z","2020-07-22T10:21:36Z","2020-07-22T10:21:44Z","2020-07-22T10:21:52Z","2020-07-22T10:22:00Z","2020-07-22T10:22:07Z","2020-07-22T10:22:14Z","2020-07-22T10:22:22Z","2020-07-22T10:22:29Z","2020-07-22T10:22:36Z","2020-07-22T10:22:44Z","2020-07-22T10:22:52Z","2020-07-22T10:22:59Z","2020-07-22T10:23:06Z","2020-07-22T10:23:13Z","2020-07-22T10:23:20Z","2020-07-22T10:23:27Z","2020-07-22T10:23:34Z","2020-07-22T10:23:42Z","2020-07-22T10:23:49Z","2020-07-22T10:23:56Z","2020-07-22T10:24:02Z","2020-07-22T10:24:09Z","2020-07-22T10:24:17Z","2020-07-22T10:24:23Z","2020-07-22T10:24:30Z","2020-07-22T10:24:37Z","2020-07-22T10:24:44Z","2020-07-22T10:24:52Z","2020-07-22T10:25:00Z","2020-07-22T10:25:10Z","2020-07-22T10:25:17Z","2020-07-22T10:25:24Z","2020-07-22T10:25:31Z","2020-07-22T10:25:38Z","2020-07-22T10:25:45Z","2020-07-22T10:25:52Z","2020-07-22T10:25:59Z","2020-07-22T10:26:06Z","2020-07-22T10:27:32Z","2020-07-22T10:27:39Z","2020-07-22T10:27:46Z","2020-07-22T10:27:53Z","2020-07-22T10:28:00Z","2020-07-22T10:28:07Z","2020-07-22T10:28:15Z","2020-07-22T10:28:22Z","2020-07-22T10:28:30Z","2020-07-22T10:28:37Z","2020-07-22T10:28:54Z","2020-07-22T10:29:01Z","2020-07-22T10:29:08Z","2020-07-22T10:29:16Z","2020-07-22T10:29:25Z","2020-07-22T10:29:32Z","2020-07-22T10:29:40Z","2020-07-22T10:29:50Z","2020-07-22T10:30:01Z","2020-07-22T10:30:10Z","2020-07-22T10:30:18Z","2020-07-22T10:30:26Z","2020-07-22T10:30:34Z","2020-07-22T10:30:42Z","2020-07-22T10:30:49Z","2020-07-22T10:30:57Z","2020-07-22T10:31:04Z","2020-07-22T10:31:13Z","2020-07-22T10:31:21Z","2020-07-22T10:31:29Z","2020-07-22T10:31:37Z","2020-07-22T10:31:45Z","2020-07-22T10:31:54Z","2020-07-22T10:32:02Z","2020-07-22T10:32:08Z","2020-07-22T10:32:15Z","2020-07-22T10:32:24Z","2020-07-22T10:32:32Z","2020-07-22T10:32:39Z","2020-07-22T10:32:47Z","2020-07-22T10:32:55Z","2020-07-22T10:33:02Z","2020-07-22T10:33:10Z","2020-07-22T10:33:18Z","2020-07-22T10:33:27Z","2020-07-22T10:33:37Z","2020-07-22T10:33:45Z","2020-07-22T10:33:52Z","2020-07-22T10:33:59Z","2020-07-22T10:34:06Z","2020-07-22T10:34:14Z","2020-07-22T10:34:21Z","2020-07-22T10:34:28Z","2020-07-22T10:34:35Z","2020-07-22T10:34:43Z","2020-07-22T10:34:51Z","2020-07-22T10:34:59Z","2020-07-22T10:35:08Z","2020-07-22T10:35:17Z","2020-07-22T10:35:26Z","2020-07-22T10:35:34Z","2020-07-22T10:35:43Z","2020-07-22T10:35:50Z","2020-07-22T10:35:57Z","2020-07-22T10:36:07Z","2020-07-22T10:36:16Z","2020-07-22T10:36:24Z","2020-07-22T10:36:32Z","2020-07-22T10:36:39Z","2020-07-22T10:36:47Z","2020-07-22T10:36:55Z","2020-07-22T10:37:02Z","2020-07-22T10:37:09Z","2020-07-22T10:37:17Z","2020-07-22T10:37:26Z","2020-07-22T10:37:33Z","2020-07-22T10:37:41Z","2020-07-22T10:37:50Z","2020-07-22T10:37:57Z","2020-07-22T10:38:04Z","2020-07-22T10:38:11Z","2020-07-22T10:38:18Z","2020-07-22T10:38:25Z","2020-07-22T10:38:32Z","2020-07-22T10:38:39Z","2020-07-22T10:38:46Z","2020-07-22T10:38:54Z","2020-07-22T10:39:01Z","2020-07-22T10:39:08Z","2020-07-22T10:39:16Z","2020-07-22T10:39:23Z","2020-07-22T10:39:32Z","2020-07-22T10:40:48Z","2020-07-22T10:40:56Z","2020-07-22T10:41:04Z","2020-07-22T10:41:13Z","2020-07-22T10:41:21Z","2020-07-22T10:41:28Z","2020-07-22T10:41:35Z","2020-07-22T10:41:42Z","2020-07-22T10:41:50Z","2020-07-22T10:41:57Z","2020-07-22T10:42:04Z","2020-07-22T10:42:11Z","2020-07-22T10:42:18Z","2020-07-22T10:42:25Z","2020-07-22T10:42:32Z","2020-07-22T10:42:40Z","2020-07-22T10:42:48Z","2020-07-22T10:42:56Z","2020-07-22T10:43:30Z","2020-07-22T10:43:42Z","2020-07-22T10:43:54Z","2020-07-22T10:44:07Z","2020-07-22T10:44:16Z","2020-07-22T10:44:25Z","2020-07-22T10:44:33Z","2020-07-22T10:44:41Z","2020-07-22T10:44:49Z","2020-07-22T10:44:57Z","2020-07-22T10:45:04Z","2020-07-22T10:45:12Z","2020-07-22T10:45:20Z","2020-07-22T10:45:29Z","2020-07-22T10:45:36Z","2020-07-22T10:45:43Z","2020-07-22T10:46:11Z","2020-07-22T10:46:19Z","2020-07-22T10:46:26Z","2020-07-22T10:46:33Z","2020-07-22T10:46:40Z","2020-07-22T10:46:48Z","2020-07-22T10:46:56Z","2020-07-22T10:47:03Z","2020-07-22T10:47:11Z","2020-07-22T10:47:20Z","2020-07-22T10:47:59Z","2020-07-22T10:48:13Z","2020-07-22T10:48:28Z","2020-07-22T10:49:21Z","2020-07-22T10:49:30Z","2020-07-22T10:50:02Z","2020-07-22T10:51:56Z","2020-07-22T10:52:38Z","2020-07-22T10:53:43Z","2020-07-22T11:37:49Z","2020-07-22T11:38:03Z","2020-07-22T11:38:20Z","2020-07-22T11:39:40Z","2020-07-22T11:40:00Z","2020-07-22T11:40:09Z","2020-07-22T11:40:18Z","2020-07-22T11:40:27Z","2020-07-22T11:40:44Z","2020-07-22T11:40:52Z","2020-07-22T11:41:01Z","2020-07-22T11:41:09Z","2020-07-22T11:41:17Z","2020-07-22T11:41:25Z","2020-07-22T11:41:33Z","2020-07-22T11:41:41Z","2020-07-22T11:41:49Z","2020-07-22T11:41:57Z","2020-07-22T11:42:05Z","2020-07-22T11:42:13Z","2020-07-22T11:42:21Z","2020-07-22T11:42:30Z","2020-07-22T11:42:38Z","2020-07-22T11:42:48Z","2020-07-22T11:42:58Z","2020-07-22T11:43:09Z","2020-07-22T11:43:21Z","2020-07-22T11:43:36Z","2020-07-22T11:44:01Z","2020-07-22T11:44:23Z","2020-07-22T11:44:39Z","2020-07-22T11:44:48Z","2020-07-22T11:44:55Z","2020-07-22T11:45:05Z","2020-07-22T11:45:17Z","2020-07-22T11:45:25Z","2020-07-22T11:45:33Z","2020-07-22T11:45:42Z","2020-07-22T11:45:51Z","2020-07-22T11:46:00Z","2020-07-22T11:46:08Z","2020-07-22T11:46:16Z","2020-07-22T11:46:23Z","2020-07-22T11:46:32Z","2020-07-22T11:46:42Z","2020-07-22T11:46:51Z","2020-07-22T11:46:59Z","2020-07-22T11:47:08Z","2020-07-22T11:47:16Z","2020-07-22T11:47:27Z","2020-07-22T11:47:36Z","2020-07-22T11:47:44Z","2020-07-22T11:47:52Z","2020-07-22T11:47:59Z","2020-07-22T11:48:07Z","2020-07-22T11:48:16Z","2020-07-22T11:48:24Z","2020-07-22T11:48:32Z","2020-07-22T11:48:40Z","2020-07-22T11:48:49Z","2020-07-22T11:48:56Z","2020-07-22T11:49:04Z","2020-07-22T11:49:11Z","2020-07-22T11:49:19Z","2020-07-22T11:49:26Z","2020-07-22T11:49:34Z","2020-07-22T11:49:42Z","2020-07-22T11:49:52Z","2020-07-22T11:49:59Z","2020-07-22T11:50:07Z","2020-07-22T11:50:16Z","2020-07-22T11:50:24Z","2020-07-22T11:50:32Z","2020-07-22T11:50:40Z","2020-07-22T11:50:47Z","2020-07-22T11:50:55Z","2020-07-22T11:51:06Z","2020-07-22T11:51:16Z","2020-07-22T11:51:26Z","2020-07-22T11:51:36Z","2020-07-22T11:51:44Z","2020-07-22T11:51:52Z","2020-07-22T11:52:03Z","2020-07-22T11:52:12Z","2020-07-22T11:52:22Z","2020-07-22T11:52:30Z","2020-07-22T11:52:38Z","2020-07-22T11:52:48Z","2020-07-22T11:52:55Z","2020-07-22T11:53:02Z","2020-07-22T11:53:11Z","2020-07-22T11:53:19Z","2020-07-22T11:53:27Z","2020-07-22T11:53:36Z","2020-07-22T11:53:44Z","2020-07-22T11:53:53Z","2020-07-22T11:54:02Z","2020-07-22T11:54:12Z","2020-07-22T11:54:21Z","2020-07-22T11:54:29Z","2020-07-22T11:54:37Z","2020-07-22T11:54:45Z","2020-07-22T11:54:53Z","2020-07-22T11:55:02Z","2020-07-22T11:55:11Z","2020-07-22T11:55:20Z","2020-07-22T11:55:29Z","2020-07-22T11:55:39Z","2020-07-22T11:55:50Z","2020-07-22T11:55:58Z","2020-07-22T11:56:06Z","2020-07-22T11:56:14Z","2020-07-22T11:56:24Z","2020-07-22T11:56:32Z","2020-07-22T11:56:39Z","2020-07-22T11:56:47Z","2020-07-22T11:56:55Z","2020-07-22T11:57:04Z","2020-07-22T11:57:13Z","2020-07-22T11:57:22Z","2020-07-22T11:57:32Z","2020-07-22T11:57:42Z","2020-07-22T11:57:53Z","2020-07-22T11:58:05Z","2020-07-22T11:58:15Z","2020-07-22T11:58:23Z","2020-07-22T11:58:33Z","2020-07-22T11:58:49Z","2020-07-22T11:59:00Z","2020-07-22T11:59:08Z","2020-07-22T11:59:28Z","2020-07-22T11:59:36Z","2020-07-22T11:59:44Z","2020-07-22T11:59:53Z","2020-07-22T12:00:01Z","2020-07-22T12:00:10Z","2020-07-22T12:00:18Z","2020-07-22T12:00:27Z","2020-07-22T12:00:36Z","2020-07-22T12:00:44Z","2020-07-22T12:00:52Z","2020-07-22T12:00:59Z","2020-07-22T12:01:09Z","2020-07-22T12:01:19Z","2020-07-22T12:01:27Z","2020-07-22T12:01:36Z","2020-07-22T12:01:44Z","2020-07-22T12:01:53Z","2020-07-22T12:02:01Z","2020-07-22T12:02:09Z","2020-07-22T12:02:17Z","2020-07-22T12:02:26Z","2020-07-22T12:02:36Z","2020-07-22T12:02:44Z","2020-07-22T12:02:51Z","2020-07-22T12:03:00Z","2020-07-22T12:03:08Z","2020-07-22T12:03:15Z","2020-07-22T12:03:23Z","2020-07-22T12:03:30Z","2020-07-22T12:03:39Z","2020-07-22T12:03:47Z","2020-07-22T12:03:55Z","2020-07-22T12:04:03Z","2020-07-22T12:04:11Z","2020-07-22T12:04:19Z","2020-07-22T12:04:29Z","2020-07-22T12:04:38Z","2020-07-22T12:04:48Z","2020-07-22T12:04:55Z","2020-07-22T12:05:03Z","2020-07-22T12:05:11Z","2020-07-22T12:05:19Z","2020-07-22T12:05:27Z","2020-07-22T12:05:37Z","2020-07-22T12:05:46Z","2020-07-22T12:05:55Z","2020-07-22T12:06:09Z","2020-07-22T12:06:16Z","2020-07-22T12:06:23Z","2020-07-22T12:06:33Z","2020-07-22T12:06:42Z","2020-07-22T12:06:50Z","2020-07-22T12:06:57Z","2020-07-22T12:07:04Z","2020-07-22T12:07:12Z","2020-07-22T12:07:21Z","2020-07-22T12:07:29Z","2020-07-22T12:07:38Z","2020-07-22T12:07:46Z","2020-07-22T12:07:54Z","2020-07-22T12:08:02Z","2020-07-22T12:08:14Z","2020-07-22T12:08:29Z","2020-07-22T12:08:38Z","2020-07-22T12:08:47Z","2020-07-22T12:08:56Z","2020-07-22T12:09:04Z","2020-07-22T12:09:14Z","2020-07-22T12:09:29Z","2020-07-22T12:09:38Z","2020-07-22T12:09:47Z","2020-07-22T12:09:55Z","2020-07-22T12:10:04Z","2020-07-22T12:10:13Z","2020-07-22T12:10:22Z","2020-07-22T12:10:30Z","2020-07-22T12:10:39Z","2020-07-22T12:10:48Z","2020-07-22T12:10:56Z","2020-07-22T12:11:40Z","2020-07-22T12:11:49Z","2020-07-22T12:11:58Z","2020-07-22T12:12:06Z","2020-07-22T12:12:17Z","2020-07-22T12:12:26Z","2020-07-22T12:12:35Z","2020-07-22T12:12:43Z","2020-07-22T12:12:50Z","2020-07-22T12:12:57Z","2020-07-22T12:13:04Z","2020-07-22T12:13:12Z","2020-07-22T12:13:19Z","2020-07-22T12:13:30Z","2020-07-22T12:13:39Z","2020-07-22T12:13:48Z","2020-07-22T12:13:57Z","2020-07-22T12:14:04Z","2020-07-22T12:14:13Z","2020-07-22T12:14:21Z","2020-07-22T12:14:29Z","2020-07-22T12:14:38Z","2020-07-22T12:14:46Z","2020-07-22T12:14:54Z","2020-07-22T12:15:03Z","2020-07-22T12:15:12Z","2020-07-22T12:15:21Z","2020-07-22T12:15:30Z","2020-07-22T12:15:43Z","2020-07-22T12:15:52Z","2020-07-22T12:16:02Z","2020-07-22T12:16:11Z","2020-07-22T12:16:20Z","2020-07-22T12:16:29Z","2020-07-22T12:16:36Z","2020-07-22T12:16:44Z","2020-07-22T12:16:51Z","2020-07-22T12:16:59Z","2020-07-22T12:17:08Z","2020-07-22T12:17:16Z","2020-07-22T12:17:23Z","2020-07-22T12:17:31Z","2020-07-22T12:17:40Z","2020-07-22T12:17:49Z","2020-07-22T12:17:58Z","2020-07-22T12:18:09Z","2020-07-22T12:18:17Z","2020-07-22T12:18:25Z","2020-07-22T12:18:34Z","2020-07-22T12:18:42Z","2020-07-22T12:18:51Z","2020-07-22T12:19:00Z","2020-07-22T12:19:08Z","2020-07-22T12:19:15Z","2020-07-22T12:19:24Z","2020-07-22T12:19:33Z","2020-07-22T12:19:42Z","2020-07-22T12:19:52Z","2020-07-22T12:20:00Z","2020-07-22T12:20:08Z","2020-07-22T12:20:17Z","2020-07-22T12:20:26Z","2020-07-22T12:20:34Z","2020-07-22T12:20:43Z","2020-07-22T12:20:51Z","2020-07-22T12:21:00Z","2020-07-22T12:21:08Z","2020-07-22T12:21:17Z","2020-07-22T12:21:25Z","2020-07-22T12:21:33Z","2020-07-22T12:21:42Z","2020-07-22T12:21:50Z","2020-07-22T12:21:59Z","2020-07-22T12:22:07Z","2020-07-22T12:22:16Z","2020-07-22T12:22:24Z","2020-07-22T12:22:37Z","2020-07-22T12:22:46Z","2020-07-22T12:23:01Z","2020-07-22T12:23:10Z","2020-07-22T12:23:19Z","2020-07-22T12:23:28Z","2020-07-22T12:23:39Z","2020-07-22T12:23:48Z","2020-07-22T12:23:59Z","2020-07-22T12:24:09Z","2020-07-22T12:24:21Z","2020-07-22T12:24:30Z","2020-07-22T12:24:41Z","2020-07-22T12:24:50Z","2020-07-22T12:24:58Z","2020-07-22T12:25:06Z","2020-07-22T12:25:14Z","2020-07-22T12:25:24Z","2020-07-22T12:25:32Z","2020-07-22T12:25:40Z","2020-07-22T12:25:48Z","2020-07-22T12:25:57Z","2020-07-22T12:26:05Z","2020-07-22T12:26:14Z","2020-07-22T12:26:22Z","2020-07-22T12:26:32Z","2020-07-22T12:26:41Z","2020-07-22T12:26:50Z","2020-07-22T12:26:58Z","2020-07-22T12:27:06Z","2020-07-22T12:27:14Z","2020-07-22T12:27:25Z","2020-07-22T12:27:35Z","2020-07-22T12:27:44Z","2020-07-22T12:27:54Z","2020-07-22T12:28:04Z","2020-07-22T12:28:13Z","2020-07-22T12:28:21Z","2020-07-22T12:28:30Z","2020-07-22T12:28:39Z","2020-07-22T12:28:47Z","2020-07-22T12:28:56Z","2020-07-22T12:29:04Z","2020-07-22T12:29:13Z","2020-07-22T12:29:21Z","2020-07-22T12:29:29Z","2020-07-22T12:29:36Z","2020-07-22T12:29:44Z","2020-07-22T12:29:52Z","2020-07-22T12:30:00Z","2020-07-22T12:30:07Z","2020-07-22T12:30:14Z","2020-07-22T12:30:46Z","2020-07-22T12:31:41Z","2020-07-22T12:33:23Z","2020-07-22T12:33:31Z","2020-07-22T12:33:39Z","2020-07-22T12:33:46Z","2020-07-22T12:33:56Z","2020-07-22T12:34:05Z","2020-07-22T12:34:17Z","2020-07-22T12:34:29Z","2020-07-22T12:34:39Z","2020-07-22T12:34:48Z","2020-07-22T12:34:58Z","2020-07-22T12:35:06Z","2020-07-22T12:35:14Z","2020-07-22T12:35:21Z","2020-07-22T12:35:30Z","2020-07-22T12:35:38Z","2020-07-22T12:35:45Z","2020-07-22T12:35:54Z","2020-07-22T12:36:01Z","2020-07-22T12:36:09Z","2020-07-22T12:36:16Z","2020-07-22T12:36:24Z","2020-07-22T12:36:33Z","2020-07-22T12:36:41Z","2020-07-22T12:36:49Z","2020-07-22T12:36:57Z","2020-07-22T12:37:05Z","2020-07-22T12:37:14Z","2020-07-22T12:37:22Z","2020-07-22T12:37:30Z","2020-07-22T12:37:38Z","2020-07-22T12:37:46Z","2020-07-22T12:37:54Z","2020-07-22T12:38:03Z","2020-07-22T12:38:12Z","2020-07-22T12:38:20Z","2020-07-22T12:38:28Z","2020-07-22T12:38:36Z","2020-07-22T12:38:43Z","2020-07-22T12:38:51Z","2020-07-22T12:38:59Z","2020-07-22T12:39:07Z","2020-07-22T12:39:15Z","2020-07-22T12:39:23Z","2020-07-22T12:39:31Z","2020-07-22T12:39:38Z","2020-07-22T12:39:46Z","2020-07-22T12:39:54Z","2020-07-22T12:40:02Z","2020-07-22T12:40:09Z","2020-07-22T12:40:17Z","2020-07-22T12:40:25Z","2020-07-22T12:40:32Z","2020-07-22T12:40:39Z","2020-07-22T12:40:47Z","2020-07-22T12:40:55Z","2020-07-22T12:41:02Z","2020-07-22T12:41:10Z","2020-07-22T12:41:17Z","2020-07-22T12:41:25Z","2020-07-22T12:41:32Z","2020-07-22T12:41:41Z","2020-07-22T12:41:51Z","2020-07-22T12:41:59Z","2020-07-22T12:42:08Z","2020-07-22T12:42:18Z","2020-07-22T12:42:28Z","2020-07-22T12:43:15Z","2020-07-22T12:43:25Z","2020-07-22T12:43:32Z","2020-07-22T12:43:39Z","2020-07-22T12:43:46Z","2020-07-22T12:43:53Z","2020-07-22T12:44:00Z","2020-07-22T12:44:08Z","2020-07-22T12:44:15Z","2020-07-22T12:44:22Z","2020-07-22T12:44:30Z","2020-07-22T12:44:37Z","2020-07-22T12:44:45Z","2020-07-22T12:44:52Z","2020-07-22T12:45:01Z","2020-07-22T12:45:08Z","2020-07-22T12:45:17Z","2020-07-22T12:45:25Z","2020-07-22T12:45:32Z","2020-07-22T12:45:40Z","2020-07-22T12:45:48Z","2020-07-22T12:45:56Z","2020-07-22T12:46:03Z","2020-07-22T12:46:10Z","2020-07-22T12:46:36Z","2020-07-22T12:46:51Z","2020-07-22T12:46:58Z","2020-07-22T12:47:05Z","2020-07-22T12:47:13Z","2020-07-22T12:47:20Z","2020-07-22T12:48:03Z","2020-07-22T12:48:11Z","2020-07-22T12:48:20Z","2020-07-22T12:48:27Z","2020-07-22T12:48:34Z","2020-07-22T12:48:41Z","2020-07-22T12:48:49Z","2020-07-22T12:48:58Z","2020-07-22T12:49:06Z","2020-07-22T12:49:16Z","2020-07-22T12:49:23Z","2020-07-22T12:49:30Z","2020-07-22T12:49:38Z","2020-07-22T12:49:45Z","2020-07-22T12:49:53Z","2020-07-22T12:50:02Z","2020-07-22T12:50:09Z","2020-07-22T12:50:18Z","2020-07-22T12:50:30Z","2020-07-22T12:50:37Z","2020-07-22T12:50:45Z","2020-07-22T12:50:54Z","2020-07-22T12:51:05Z","2020-07-22T12:51:14Z","2020-07-22T12:51:22Z","2020-07-22T12:51:29Z","2020-07-22T12:51:38Z","2020-07-22T12:51:45Z","2020-07-22T12:51:55Z","2020-07-22T12:52:24Z","2020-07-22T12:52:33Z","2020-07-22T12:52:41Z","2020-07-22T12:52:59Z","2020-07-22T12:53:08Z","2020-07-22T12:53:20Z","2020-07-22T12:53:29Z","2020-07-22T12:53:38Z","2020-07-22T12:53:48Z","2020-07-22T12:56:59Z","2020-07-22T12:57:08Z","2020-07-22T12:57:16Z","2020-07-22T12:57:29Z","2020-07-22T12:57:44Z","2020-07-22T12:57:54Z","2020-07-22T12:58:01Z","2020-07-22T12:58:45Z","2020-07-22T12:58:57Z","2020-07-22T12:59:25Z","2020-07-22T12:59:34Z","2020-07-22T12:59:53Z","2020-07-22T13:00:06Z","2020-07-22T13:00:22Z","2020-07-22T13:00:31Z","2020-07-22T13:00:41Z","2020-07-22T13:00:49Z","2020-07-22T13:00:58Z","2020-07-22T13:01:05Z","2020-07-22T13:01:12Z","2020-07-22T13:01:21Z","2020-07-22T13:01:52Z","2020-07-22T13:02:00Z","2020-07-22T13:02:08Z","2020-07-22T13:02:15Z","2020-07-22T13:02:22Z","2020-07-22T13:02:30Z","2020-07-22T13:02:39Z","2020-07-22T13:02:50Z","2020-07-22T13:02:59Z","2020-07-22T13:03:08Z","2020-07-22T13:03:34Z","2020-07-22T13:03:50Z","2020-07-22T13:04:02Z","2020-07-22T13:04:15Z","2020-07-22T13:04:28Z","2020-07-22T13:04:47Z","2020-07-22T13:05:05Z","2020-07-22T13:05:30Z","2020-07-22T13:05:46Z","2020-07-22T13:05:58Z","2020-07-22T13:06:24Z","2020-07-22T13:08:06Z","2020-07-22T13:08:36Z","2020-07-22T13:08:46Z","2020-07-22T13:08:59Z","2020-07-22T13:09:08Z","2020-07-22T13:09:17Z","2020-07-22T13:09:28Z","2020-07-22T13:09:37Z","2020-07-22T13:09:45Z","2020-07-22T13:09:54Z","2020-07-22T13:10:33Z","2020-07-22T13:10:56Z","2020-07-22T13:11:18Z","2020-07-22T13:11:50Z","2020-07-22T13:12:18Z","2020-07-22T13:12:34Z","2020-07-22T13:12:49Z","2020-07-22T13:13:10Z","2020-07-22T13:13:26Z","2020-07-22T13:13:40Z","2020-07-22T13:13:58Z","2020-07-22T13:14:15Z","2020-07-22T13:14:25Z","2020-07-22T13:16:00Z","2020-07-22T13:16:13Z","2020-07-22T13:16:23Z","2020-07-22T13:16:31Z","2020-07-22T13:16:41Z","2020-07-22T13:16:50Z","2020-07-22T13:17:01Z","2020-07-22T13:17:15Z","2020-07-22T13:17:27Z","2020-07-22T13:17:44Z","2020-07-22T13:17:53Z","2020-07-22T13:18:02Z","2020-07-22T13:18:11Z","2020-07-22T13:18:21Z","2020-07-22T13:18:31Z","2020-07-22T13:18:40Z","2020-07-22T13:18:48Z","2020-07-22T13:19:00Z","2020-07-22T13:19:11Z","2020-07-22T13:19:20Z","2020-07-22T13:19:41Z","2020-07-22T13:19:50Z","2020-07-22T13:19:58Z","2020-07-22T13:20:07Z","2020-07-22T13:20:15Z","2020-07-22T13:20:26Z","2020-07-22T13:20:35Z","2020-07-22T13:20:48Z","2020-07-22T13:20:57Z","2020-07-22T13:21:05Z","2020-07-22T13:21:14Z","2020-07-22T13:21:26Z","2020-07-22T13:21:41Z","2020-07-22T13:21:48Z","2020-07-22T13:21:55Z","2020-07-22T13:22:02Z","2020-07-22T13:22:09Z","2020-07-22T13:22:17Z","2020-07-22T13:22:24Z","2020-07-22T13:22:31Z","2020-07-22T13:22:38Z","2020-07-22T13:22:45Z","2020-07-22T13:22:52Z","2020-07-22T13:23:00Z","2020-07-22T13:23:07Z","2020-07-22T13:23:15Z","2020-07-22T13:23:23Z","2020-07-22T13:23:32Z","2020-07-22T13:23:39Z","2020-07-22T13:23:47Z","2020-07-22T13:23:55Z","2020-07-22T13:24:03Z","2020-07-22T13:24:12Z","2020-07-22T13:24:20Z","2020-07-22T13:24:29Z","2020-07-22T13:24:38Z","2020-07-22T13:24:45Z","2020-07-22T13:24:52Z","2020-07-22T13:25:01Z","2020-07-22T13:25:12Z","2020-07-22T13:25:25Z","2020-07-22T13:26:11Z","2020-07-22T13:26:23Z","2020-07-22T13:26:35Z","2020-07-22T13:26:47Z","2020-07-22T13:26:56Z","2020-07-22T13:27:05Z","2020-07-22T13:27:13Z","2020-07-22T13:27:22Z","2020-07-22T13:27:33Z","2020-07-22T13:27:41Z","2020-07-22T13:28:21Z","2020-07-22T13:28:41Z","2020-07-22T13:28:48Z","2020-07-22T13:28:56Z","2020-07-22T13:29:04Z","2020-07-22T13:29:54Z","2020-07-22T13:30:06Z","2020-07-22T13:30:14Z","2020-07-22T13:30:24Z","2020-07-22T13:30:42Z","2020-07-22T13:30:49Z","2020-07-22T13:30:57Z","2020-07-22T13:31:04Z","2020-07-22T13:31:11Z","2020-07-22T13:31:20Z","2020-07-22T13:31:28Z","2020-07-22T13:34:11Z","2020-07-22T13:34:19Z","2020-07-22T13:34:26Z","2020-07-22T13:34:32Z","2020-07-22T13:34:38Z","2020-07-22T13:34:44Z","2020-07-22T13:34:51Z","2020-07-22T13:34:58Z","2020-07-22T13:35:05Z","2020-07-22T13:35:12Z","2020-07-22T13:35:19Z","2020-07-22T13:35:26Z","2020-07-22T13:35:33Z","2020-07-22T13:35:40Z","2020-07-22T13:35:47Z","2020-07-22T13:35:54Z","2020-07-22T13:36:01Z","2020-07-22T13:36:08Z","2020-07-22T13:36:15Z","2020-07-22T13:36:22Z","2020-07-22T13:36:28Z","2020-07-22T13:36:35Z","2020-07-22T13:36:42Z","2020-07-22T13:36:49Z","2020-07-22T13:36:56Z","2020-07-22T13:37:03Z","2020-07-22T13:37:11Z","2020-07-22T13:37:19Z","2020-07-22T13:37:26Z","2020-07-22T13:37:33Z","2020-07-22T13:37:40Z","2020-07-22T13:37:47Z","2020-07-22T13:37:54Z","2020-07-22T13:38:02Z","2020-07-22T13:38:10Z","2020-07-22T13:38:18Z","2020-07-22T13:38:26Z","2020-07-22T13:38:33Z","2020-07-22T13:38:40Z","2020-07-22T13:38:47Z","2020-07-22T13:38:54Z","2020-07-22T13:39:02Z","2020-07-22T13:39:09Z","2020-07-22T13:39:17Z","2020-07-22T13:39:25Z","2020-07-22T13:39:31Z","2020-07-22T13:39:39Z","2020-07-22T13:39:46Z","2020-07-22T13:39:53Z","2020-07-22T13:40:00Z","2020-07-22T13:40:07Z","2020-07-22T13:40:15Z","2020-07-22T13:40:23Z","2020-07-22T13:40:30Z","2020-07-22T13:40:38Z","2020-07-22T13:40:48Z","2020-07-22T13:40:55Z","2020-07-22T13:41:03Z","2020-07-22T13:41:11Z","2020-07-22T13:42:05Z","2020-07-22T13:42:13Z","2020-07-22T13:42:21Z","2020-07-22T13:42:31Z","2020-07-22T13:42:40Z","2020-07-22T13:42:50Z","2020-07-22T13:42:57Z","2020-07-22T13:43:05Z","2020-07-22T13:43:14Z","2020-07-22T13:43:25Z","2020-07-22T13:44:28Z","2020-07-22T13:44:36Z","2020-07-22T13:44:43Z","2020-07-22T13:44:50Z","2020-07-22T13:45:00Z","2020-07-22T13:45:09Z","2020-07-22T13:45:16Z","2020-07-22T13:45:25Z","2020-07-22T13:45:32Z","2020-07-22T13:45:44Z","2020-07-22T13:45:53Z","2020-07-22T13:46:01Z","2020-07-22T13:46:30Z","2020-07-22T13:46:37Z","2020-07-22T13:46:44Z","2020-07-22T13:46:51Z","2020-07-22T13:46:58Z","2020-07-22T13:47:05Z","2020-07-22T13:47:12Z","2020-07-22T13:47:20Z","2020-07-22T13:47:27Z","2020-07-22T13:47:35Z","2020-07-22T13:49:10Z","2020-07-22T13:49:17Z","2020-07-22T13:49:23Z","2020-07-22T13:49:29Z","2020-07-22T13:49:36Z","2020-07-22T13:49:43Z","2020-07-22T13:49:50Z","2020-07-22T13:49:57Z","2020-07-22T13:50:04Z","2020-07-22T13:50:11Z","2020-07-22T13:50:18Z","2020-07-22T13:50:25Z","2020-07-22T13:50:31Z","2020-07-22T13:50:38Z","2020-07-22T13:50:46Z","2020-07-22T13:50:55Z","2020-07-22T13:51:02Z","2020-07-22T13:51:09Z","2020-07-22T13:51:16Z","2020-07-22T13:51:23Z","2020-07-22T13:51:30Z","2020-07-22T13:51:36Z","2020-07-22T13:51:43Z","2020-07-22T13:51:50Z","2020-07-22T13:51:57Z","2020-07-22T13:52:03Z","2020-07-22T13:52:09Z","2020-07-22T13:52:16Z"]}},"geometry":{"type":"LineString","coordinates":[[-6.672126771882176,62.00629974715412,-17.83],[-6.671599298715591,62.00654190033674,-10.54],[-6.671343483030796,62.00645732693374,-7.67],[-6.671146340668201,62.00632288120687,-6.04],[-6.671036537736654,62.006256245076656,-5.85],[-6.671061599627137,62.00614484958351,-4.98],[-6.671013738960028,62.00605507940054,-4.58],[-6.670958669856191,62.00598685070872,-3.58],[-6.67090343311429,62.00590068474412,-3.41],[-6.670833695679903,62.00583069585264,-2.95],[-6.670752810314298,62.005715779960155,-2.44],[-6.670554662123323,62.00551469810307,-1.36],[-6.670385766774416,62.00532803311944,-0.66],[-6.670231623575091,62.00517372228205,2.13],[-6.670004306361079,62.00500147417188,2.99],[-6.669892324134708,62.004856802523136,3.72],[-6.669800542294979,62.004770720377564,4.48],[-6.669716136530042,62.00468455441296,4.97],[-6.669591413810849,62.004584055393934,5],[-6.669503403827548,62.00450509786606,5.47],[-6.669462835416198,62.00442605651915,5.89],[-6.669436935335398,62.00433804653585,6.55],[-6.669345069676638,62.00422857888043,7],[-6.669286144897342,62.00411366298795,7.45],[-6.669245576485992,62.00402925722301,7.53],[-6.669172151014209,62.00393948704004,7.69],[-6.669072825461626,62.00385290198028,8.04],[-6.668957406654954,62.00377520173788,8.88],[-6.66888783685863,62.003680067136884,9.87],[-6.668845927342773,62.00357277877629,10.77],[-6.668804856017232,62.003483176231384,11.95],[-6.668711816892028,62.00339642353356,13.38],[-6.668694214895368,62.00329005718231,14.74],[-6.668680300936103,62.003192408010364,15.25],[-6.668672002851963,62.00309073552489,15.72],[-6.668678289279342,62.00298537500203,15.05],[-6.668722042813897,62.00288722291589,15.39],[-6.668757162988186,62.002796698361635,15.37],[-6.668790271505714,62.002703407779336,15.59],[-6.668800245970488,62.00261062011123,15.9],[-6.668779626488686,62.002513809129596,17.3],[-6.66876076720655,62.002420434728265,19.2],[-6.668752050027251,62.00233133509755,20.48],[-6.668744087219238,62.00224039144814,21.19],[-6.668723970651627,62.00213863514364,22.31],[-6.668689688667655,62.002040231600404,23.92],[-6.668660854920745,62.001931853592396,26.57],[-6.668616095557809,62.001837976276875,28.52],[-6.668502269312739,62.00171953998506,29.77],[-6.668418534100056,62.001625914126635,30.84],[-6.6683420073241,62.00152843259275,32.12],[-6.668260283768177,62.00144000351429,32.59],[-6.668169256299734,62.001348389312625,33.57],[-6.66808451525867,62.001258032396436,34.49],[-6.668001618236303,62.00116474181414,36.16],[-6.667910339310765,62.001072792336345,37.35],[-6.66783481836319,62.00097480788827,38.18],[-6.667766002938151,62.00088134966791,39.52],[-6.667684949934483,62.000786466524005,40.59],[-6.667604735121131,62.00068571604788,40.69],[-6.667519994080067,62.00059846043587,40.54],[-6.667445562779903,62.000508019700646,40.92],[-6.667375825345516,62.000406850129366,41.93],[-6.667303657159209,62.000312972813845,42.71],[-6.667227549478412,62.00021607801318,42.92],[-6.667145406827331,62.0001133158803,43.19],[-6.66707499884069,62.00002103112638,43.62],[-6.66703199967742,61.99994483962655,44.03],[-6.666933177039027,61.99990184046328,44.87],[-6.666832258924842,61.9998025149107,44.58],[-6.666709464043379,61.999675780534744,45.44],[-6.66651894338429,61.99956279247999,46.74],[-6.666390700265765,61.999485678970814,49.49],[-6.666185846552253,61.99944460764527,51.12],[-6.666094483807683,61.999455420300364,52.23],[-6.666021225973964,61.99942675419152,52.9],[-6.665908070281148,61.999446619302034,53.13],[-6.665864149108529,61.9994259160012,52.49],[-6.665819892659783,61.999328937381506,52.34],[-6.66583145968616,61.999255092814565,52.26],[-6.665791478008032,61.999162724241614,52.52],[-6.665798518806696,61.99907471425831,53.25],[-6.665733978152275,61.99898854829371,52.71],[-6.665717801079154,61.99889022856951,53.58],[-6.665764404460788,61.99879081919789,54.15],[-6.665788376703858,61.99869593605399,53.98],[-6.665730457752943,61.99860197491944,54.71],[-6.66562476195395,61.998515808954835,55.73],[-6.665557790547609,61.998422937467694,57.31],[-6.66546206921339,61.998339369893074,58.21],[-6.665357882156968,61.998265190050006,58.99],[-6.665315721184015,61.998182544484735,60.76],[-6.66540096513927,61.99810258112848,62.59],[-6.665429379791021,61.99801415205002,64.02],[-6.665425188839436,61.99791566468775,66.18],[-6.665370874106884,61.99782757088542,68.49],[-6.665380513295531,61.997728580608964,69.58],[-6.665411693975329,61.99763805605471,70.97],[-6.665459387004376,61.99754795059562,72.7],[-6.665539601817727,61.997463293373585,75.14],[-6.665621157735586,61.997378300875425,77.83],[-6.665640100836754,61.99728668667376,80.93],[-6.665630880743265,61.997196581214666,83.76],[-6.665623672306538,61.997186271473765,84.05],[-6.665553012862802,61.9971689209342,84.28],[-6.665614200755954,61.99715165421367,85.53],[-6.665670359507203,61.99706238694489,86.35],[-6.665694918483496,61.99696599505842,88.22],[-6.665661307051778,61.996877482160926,89.47],[-6.665697768330574,61.996779162436724,91.18],[-6.665670359507203,61.996686877682805,93.28],[-6.665672706440091,61.99657958932221,94.77],[-6.665713777765632,61.996488561853766,97.44],[-6.665749819949269,61.99640013277531,100.37],[-6.665854174643755,61.996314553543925,103.16],[-6.665992978960276,61.99624213390052,106.53],[-6.666038911789656,61.99616074562073,109.56],[-6.666075037792325,61.996082877740264,114.05],[-6.66611585766077,61.996029317379,115.42],[-6.666196659207344,61.99596745893359,118.46],[-6.666210405528545,61.99589344672859,122.07],[-6.666277712211013,61.99583695270121,126.01],[-6.666314760223031,61.995783392339945,128.39],[-6.666343593969941,61.995728658512235,131.47],[-6.666371673345566,61.99563494883478,134.32],[-6.666470915079117,61.99553587473929,136.2],[-6.666562110185623,61.995453061535954,137.17],[-6.666602091863751,61.995373014360666,138.29],[-6.666611982509494,61.99528760276735,140.41],[-6.666615586727858,61.99519431218505,142.86],[-6.666689682751894,61.99510772712529,144.75],[-6.666733017191291,61.99499893002212,147.83],[-6.666773250326514,61.994910249486566,149.61],[-6.666767802089453,61.994807571172714,152.27],[-6.666806191205978,61.99469843879342,154.47],[-6.666783476248384,61.99461914598942,156.25],[-6.666825385764241,61.99453658424318,160.26],[-6.666811807081103,61.9944473169744,162.75],[-6.66679454036057,61.99435922317207,166.4],[-6.666828822344542,61.99425972998142,167.99],[-6.666805939748883,61.99416660703719,170.4],[-6.666748439893127,61.99407549574971,172.86],[-6.666723294183612,61.99397323653102,175.4],[-6.66676813736558,61.99388690292835,176.37],[-6.666859583929181,61.99379210360348,177.64],[-6.666968045756221,61.99370585381985,178.96],[-6.666963351890445,61.99360837228596,180.6],[-6.666991766542196,61.99360351078212,181.14],[-6.667017163708806,61.993507370352745,182.28],[-6.667048847302795,61.99341240338981,183.25],[-6.667114058509469,61.99332238174975,183.7],[-6.667121686041355,61.99322624132037,184.42],[-6.667179940268397,61.99313102290034,184.87],[-6.667210534214973,61.99304007925093,186.06],[-6.667231321334839,61.992946872487664,186.64],[-6.66724213398993,61.99284394271672,186.5],[-6.667206259444356,61.99274696409702,186.87],[-6.667205672711134,61.992652751505375,186.57],[-6.667231572791934,61.992556527256966,187.06],[-6.667196033522487,61.99246181175113,187.79],[-6.667128223925829,61.99236961081624,190.8],[-6.667011044919491,61.992287803441286,193.4],[-6.666932003572583,61.99218194000423,196.82],[-6.666992772370577,61.99207381345332,198.32],[-6.666974248364568,61.991959819570184,200.34],[-6.667013056576252,61.99184138327837,200.54],[-6.666948096826673,61.991746416315436,201.47],[-6.666846424341202,61.99165279045701,201.26],[-6.666758581995964,61.99155933223665,203.03],[-6.666679121553898,61.99150074273348,204.44],[-6.666643163189292,61.991421952843666,206.62],[-6.666478961706162,61.991366129368544,208.48],[-6.66636111214757,61.99129027314484,210.48],[-6.666261870414019,61.99121148325503,211.39],[-6.66616371832788,61.99112372472882,212.98],[-6.666055675595999,61.991037307307124,213.56],[-6.6659917216748,61.99095298536122,213.17],[-6.665890719741583,61.99087696149945,213.82],[-6.665764739736915,61.990804206579924,215.71],[-6.665642950683832,61.990742683410645,215.64],[-6.665580924600363,61.99065735563636,217.8],[-6.66549576446414,61.99057521298528,218.32],[-6.665338771417737,61.99052508920431,218.61],[-6.665227543562651,61.99045459739864,218.93],[-6.665215641260147,61.990364491939545,219.31],[-6.665126793086529,61.99028008617461,219.14],[-6.66501933708787,61.99021026492119,220.64],[-6.664913725107908,61.99012476950884,221.88],[-6.664817249402404,61.99004363268614,223.19],[-6.664739046245813,61.9899626635015,224.47],[-6.664661094546318,61.98986928910017,224.97],[-6.664558164775372,61.989775747060776,225.65],[-6.664426568895578,61.98968849144876,225.85],[-6.664362698793411,61.98960098437965,225.81],[-6.664273515343666,61.98950978927314,225.55],[-6.664264379069209,61.98941934853792,225.54],[-6.664282567799091,61.989324716851115,225.71],[-6.664285250008106,61.989227905869484,225.71],[-6.664262535050511,61.98913293890655,225.37],[-6.664255997166038,61.98903864249587,225.34],[-6.664249626919627,61.98894317261875,225.36],[-6.664263540878892,61.98884476907551,225.46],[-6.664263624697924,61.98875131085515,226.58],[-6.664341073483229,61.98866346850991,226.34],[-6.664377953857184,61.98857378214598,226.25],[-6.664354652166367,61.98848149739206,226.38],[-6.664391197264195,61.988380244001746,226.18],[-6.664408128708601,61.9882754702121,225.68],[-6.664451714605093,61.988184694200754,225.08],[-6.664483984932303,61.988086961209774,224.62],[-6.664506196975708,61.98798612691462,224.3],[-6.664553638547659,61.98789367452264,224.47],[-6.664601247757673,61.987801641225815,223.96],[-6.664631841704249,61.98770868591964,223.37],[-6.664650198072195,61.98762143030763,223.4],[-6.664702836424112,61.98753316886723,223.69],[-6.664775172248483,61.9874397944659,224.3],[-6.664818422868848,61.98734591715038,223.49],[-6.664888579398394,61.98725254274905,222.78],[-6.664923867210746,61.98715480975807,222.42],[-6.664912551641464,61.98706638067961,222.4],[-6.664929818361998,61.98697309009731,222.09],[-6.66495974175632,61.9868750218302,221.09],[-6.664957562461495,61.98678080923855,220.82],[-6.664891764521599,61.98669229634106,221.32],[-6.664834599941969,61.986605962738395,221.92],[-6.664826972410083,61.986506804823875,220.78],[-6.664805514737964,61.986409071832895,220.8],[-6.664815237745643,61.98631485924125,220.86],[-6.664794869720936,61.98621176183224,220.41],[-6.664783889427781,61.98612241074443,219.85],[-6.664690934121609,61.98603347875178,220.12],[-6.664602253586054,61.98594982735813,219.77],[-6.664578029885888,61.98585628531873,219.38],[-6.664476357400417,61.98577590286732,219.86],[-6.664407877251506,61.98568755760789,219.97],[-6.664324309676886,61.98558387346566,219.81],[-6.66423068381846,61.98549217544496,219.6],[-6.664121970534325,61.985421096906066,219.9],[-6.66402549482882,61.98533861897886,219.4],[-6.664004288613796,61.98524541221559,218.77],[-6.663983501493931,61.98513091541827,216.37],[-6.663897000253201,61.98503821156919,215.68],[-6.663744952529669,61.98497551493347,215.76],[-6.663625678047538,61.98489597067237,215.85],[-6.663495842367411,61.984818354249,215.24],[-6.663361731916666,61.984740905463696,214.57],[-6.663232482969761,61.984663205221295,214.02],[-6.663162326440215,61.98456899262965,213.79],[-6.663073226809502,61.98446304537356,213.27],[-6.662934673950076,61.98438894934952,213.49],[-6.66279804892838,61.98432474397123,212.18],[-6.662688245996833,61.98424712754786,212.02],[-6.662567714229226,61.98417470790446,211.66],[-6.662422204390168,61.9840984325856,211.1],[-6.662292620167136,61.98402676731348,211.03],[-6.662197820842266,61.983933644369245,210.57],[-6.662105452269316,61.98385946452618,210.27],[-6.661982322111726,61.98378344066441,209.42],[-6.661870256066322,61.98370775207877,208.35],[-6.661792304366827,61.98360205627978,207.29],[-6.661652829498053,61.98353667743504,207.72],[-6.661508660763502,61.98346668854356,207.73],[-6.661400953307748,61.98338412679732,207.46],[-6.661238176748157,61.98331623338163,207.23],[-6.661082189530134,61.98324255645275,206.87],[-6.660989318042994,61.98315613903105,206.79],[-6.660829307511449,61.983092268928885,206.83],[-6.660682205110788,61.98302831500769,206.53],[-6.660535102710128,61.98295572772622,206.47],[-6.660393197089434,61.98289009742439,207.13],[-6.660235449671745,61.98281407356262,206.48],[-6.660081809386611,61.982751628383994,206.41],[-6.65995180606842,61.98267904110253,206.52],[-6.659832447767258,61.982604609802365,206.37],[-6.659682411700487,61.982543086633086,206.96],[-6.659522987902165,61.98249162174761,207.5],[-6.659379238262773,61.982421297580004,207.25],[-6.659208917990327,61.982381232082844,207.75],[-6.659044129773974,61.982326582074165,207.45],[-6.658913036808372,61.98225156404078,206.65],[-6.658811783418059,61.982167577371,206.15],[-6.658642971888185,61.98212650604546,206.19],[-6.658479021862149,61.98208736255765,205.99],[-6.658371230587363,61.9820105843246,205.62],[-6.65819856338203,61.98197890073061,206.3],[-6.658035619184375,61.981918048113585,206.05],[-6.657894719392061,61.98185099288821,205.89],[-6.657747616991401,61.98179827071726,206.03],[-6.657567657530308,61.98174714110792,205.37],[-6.657408233731985,61.981691904366016,205.58],[-6.657256437465549,61.98163063265383,205.83],[-6.657127356156707,61.981564331799746,205.16],[-6.656998610123992,61.98150255717337,205.06],[-6.656885119155049,61.98142779059708,204.77],[-6.656727539375424,61.981367859989405,203.77],[-6.656584125012159,61.98130466043949,203.51],[-6.656459234654903,61.98124305345118,203.46],[-6.656376840546727,61.98116200044751,202.76],[-6.656296709552407,61.98107583448291,201.83],[-6.65626360103488,61.980987656861544,199.62],[-6.656213393434882,61.98090207763016,198.31],[-6.65617173537612,61.98080778121948,197.41],[-6.656105183064938,61.9807084556669,196.79],[-6.656080456450582,61.98062111623585,196.33],[-6.656043995171785,61.98053310625255,196.44],[-6.655966462567449,61.98043663054705,196.33],[-6.655830591917038,61.98037611320615,195.94],[-6.655742665752769,61.980366138741374,195.31],[-6.655551725998521,61.980309477075934,195.74],[-6.655400097370148,61.98024527169764,195.77],[-6.65524679236114,61.98017503134906,195.6],[-6.655100611969829,61.98011233471334,195.56],[-6.654962645843625,61.980030946433544,195.3],[-6.654858123511076,61.979940589517355,194.61],[-6.654736837372184,61.97986900806427,194.21],[-6.654583867639303,61.97979709133506,193.7],[-6.654418408870697,61.979740262031555,193.17],[-6.654253704473376,61.97967362590134,192.84],[-6.654163766652346,61.979581927880645,191.5],[-6.653994033113122,61.97952694259584,191.98],[-6.653893114998937,61.9794494099915,191.56],[-6.653749197721481,61.97938445024192,191.17],[-6.653598323464394,61.979335667565465,191.32],[-6.653467146679759,61.97926509194076,190.71],[-6.653301436454058,61.979213962331414,190.51],[-6.653130194172263,61.97914724238217,189.46],[-6.653018798679113,61.97907205671072,189.66],[-6.652937578037381,61.97899335063994,189.01],[-6.652793409302831,61.97892118245363,189.39],[-6.65263163857162,61.97885362431407,188.47],[-6.652449583634734,61.97881950996816,188.53],[-6.652293764054775,61.97875253856182,188.72],[-6.652209190651774,61.97866654023528,187.51],[-6.652085222303867,61.97859646752477,187.28],[-6.65195781737566,61.97852371260524,187.39],[-6.651830412447453,61.9784601777792,187.17],[-6.65170275606215,61.978387758135796,185.39],[-6.6515654604882,61.97831726633012,184.64],[-6.651400420814753,61.97826538234949,184.81],[-6.651250217109919,61.97819044813514,185.95],[-6.651119710877538,61.978122889995575,186.05],[-6.650981912389398,61.97804795578122,185.55],[-6.650816788896918,61.977984169498086,185.54],[-6.650696089491248,61.97790370322764,184.66],[-6.650547059252858,61.977835642173886,184.17],[-6.650422168895602,61.97776850312948,184.39],[-6.65030281059444,61.97769122198224,183.66],[-6.650150511413813,61.977618131786585,183.51],[-6.649998379871249,61.977571696043015,184.47],[-6.649891929700971,61.977477483451366,183.3],[-6.649751951918006,61.977425599470735,183.81],[-6.649652374908328,61.977354269474745,183.63],[-6.649505356326699,61.97727765887976,183.02],[-6.649357583373785,61.97720582596958,182.18],[-6.649235291406512,61.97713793255389,182.98],[-6.649095397442579,61.97706534527242,182.46],[-6.648977547883987,61.976998541504145,182.01],[-6.648868499323726,61.97692452929914,181.25],[-6.648737993091345,61.97685060091317,180.64],[-6.648606983944774,61.97678077965975,179.95],[-6.648467173799872,61.976714143529534,179.86],[-6.648338763043284,61.976639376953244,179.96],[-6.648204987868667,61.97656360454857,179.51],[-6.648077666759491,61.97649638168514,178.68],[-6.647998793050647,61.976410802453756,178.1],[-6.647981693968177,61.976314997300506,176.97],[-6.647913381457329,61.97622640058398,176.33],[-6.647771811112762,61.97615314275026,176.2],[-6.647615320980549,61.97610762901604,175.67],[-6.647416250780225,61.976069742813706,176.06],[-6.647251714020968,61.976020373404026,175.72],[-6.64711550809443,61.975945103913546,175.42],[-6.646942757070065,61.97589514777064,176.31],[-6.646779645234346,61.97584410198033,175.02],[-6.646642349660397,61.97577537037432,175.05],[-6.64648468606174,61.975730611011386,174.06],[-6.646339511498809,61.97567604482174,174.22],[-6.646234653890133,61.97559842839837,173.23],[-6.646122084930539,61.97551368735731,171.88],[-6.645979341119528,61.97544042952359,171.68],[-6.645810110494494,61.975390473380685,171.53],[-6.645638030022383,61.975334817543626,172.26],[-6.645491514354944,61.97528134100139,172.05],[-6.645390093326569,61.97520783171058,171.06],[-6.645261012017727,61.97512594051659,170.27],[-6.645174259319902,61.97504824027419,169.01],[-6.64502807892859,61.97497054003179,169.39],[-6.644899249076843,61.974895019084215,169.2],[-6.6447823215276,61.97481597773731,168.68],[-6.644668662920594,61.974737690761685,168.44],[-6.644534217193723,61.97467474266887,168.41],[-6.644415445625782,61.97459762915969,168.63],[-6.644298769533634,61.9745175819844,168.66],[-6.644172118976712,61.974447425454855,167.96],[-6.644033063203096,61.974371736869216,168.38],[-6.643897360190749,61.974306274205446,167.83],[-6.643775654956698,61.97422471828759,168.09],[-6.643671300262213,61.97415447793901,168.12],[-6.643570968881249,61.97408130392432,168.62],[-6.643494023010135,61.97399622760713,168.85],[-6.64344004355371,61.97390486486256,169.16],[-6.643345160409808,61.97381970472634,169.3],[-6.643294868990779,61.973723731935024,169.54],[-6.643293863162398,61.97362910024822,168.92],[-6.643238291144371,61.97353304363787,169.37],[-6.643211217597127,61.97342994622886,168.76],[-6.643218509852886,61.97333246469498,167.09],[-6.643212726339698,61.97323255240917,166.36],[-6.643253630027175,61.973142279312015,166.33],[-6.643311632797122,61.973039181903005,164.58],[-6.643324457108975,61.97294530458748,164.4],[-6.643334431573749,61.972841285169125,165.02],[-6.64329931139946,61.97274824604392,165.45],[-6.643280116841197,61.97265034541488,165.25],[-6.643248768523336,61.972542302682996,164.98],[-6.6431849822402,61.972455717623234,165],[-6.643124129623175,61.97236770763993,164.79],[-6.643109126016498,61.97227827273309,164.84],[-6.643082974478602,61.972179198637605,164.88],[-6.643084483221173,61.97208171710372,164.17],[-6.64313368499279,61.97199136018753,164.36],[-6.643063863739371,61.97189153172076,164.18],[-6.643026061356068,61.97178902104497,163.62],[-6.643000496551395,61.971676452085376,164.03],[-6.642964202910662,61.97157268412411,164.2],[-6.642926316708326,61.97147008962929,164.67],[-6.642872169613838,61.97137227281928,165.06],[-6.642853226512671,61.97127806022763,164.46],[-6.642824141308665,61.971179991960526,164.75],[-6.642796732485294,61.971073960885406,164.12],[-6.642698999494314,61.97098175995052,164.1],[-6.642672093585134,61.97089140303433,163],[-6.642599841579795,61.97080096229911,162.55],[-6.642563212662935,61.97070767171681,162.16],[-6.642478471621871,61.970629720017314,162.34],[-6.642417619004846,61.97053919546306,162.31],[-6.642347211018205,61.970444060862064,161.11],[-6.642261715605855,61.97035496123135,161],[-6.64217496290803,61.97027139365673,161.73],[-6.64210950024426,61.97017651051283,160.13],[-6.642052670940757,61.97007064707577,160.84],[-6.641934905201197,61.9699795357883,160.94],[-6.641811523586512,61.96989370509982,160.64],[-6.641732314601541,61.969793289899826,159.79],[-6.641665091738105,61.96970896795392,159.52],[-6.641602395102382,61.969627076759934,159.75],[-6.641561826691032,61.96953345090151,158.5],[-6.641535339877009,61.969436472281814,157.24],[-6.641532238572836,61.96932725608349,156.48],[-6.641437606886029,61.96924863383174,156.56],[-6.641330905258656,61.969172693789005,156.42],[-6.641168380156159,61.96910932660103,156.06],[-6.641018344089389,61.96903715841472,155.8],[-6.640894124284387,61.96895417757332,156.04],[-6.64080485701561,61.96886801160872,155.77],[-6.640694467350841,61.96878067217767,155.14],[-6.640608552843332,61.96869559586048,154.26],[-6.640439322218299,61.96863289922476,154.24],[-6.640309989452362,61.96855779737234,153.61],[-6.640158109366894,61.96849334053695,153.03],[-6.64002894423902,61.96842142380774,153.63],[-6.639912603422999,61.968337101861835,153.52],[-6.639798106625676,61.968261413276196,153.29],[-6.639652932062745,61.96821665391326,152.51],[-6.639495687559247,61.96817038580775,153.47],[-6.639339616522193,61.96811146102846,153.61],[-6.639208607375622,61.96808556094766,153.99],[-6.639081118628383,61.968012219294906,153],[-6.638956228271127,61.96794608607888,152.01],[-6.638833349570632,61.967870984226465,151.92],[-6.638685576617718,61.967808455228806,150.96],[-6.638516345992684,61.96776621043682,150.2],[-6.638329681009054,61.96771273389459,150.99],[-6.638183500617743,61.96764391846955,151.71],[-6.638015359640122,61.96757015772164,150.86],[-6.637887870892882,61.967495642602444,152.12],[-6.637709587812424,61.96748021990061,151.08],[-6.637528706341982,61.967444345355034,150.59],[-6.637333575636149,61.96742037311196,149.83],[-6.637151185423136,61.967383325099945,149.87],[-6.636979775503278,61.967335967347026,149.96],[-6.636832421645522,61.96726187132299,148.69],[-6.636662688106298,61.967202108353376,148.02],[-6.636490607634187,61.9671559240669,147.6],[-6.636328920722008,61.96708903647959,147.53],[-6.636140579357743,61.967051569372416,147.3],[-6.635957099497318,61.96703120134771,147.14],[-6.635769428685308,61.96700991131365,147.05],[-6.635570609942079,61.96698132902384,146.3],[-6.635382184758782,61.9669521600008,145.78],[-6.635212870314717,61.96691544726491,145.32],[-6.635058308020234,61.96685970760882,145.05],[-6.634888490661979,61.96680413559079,144.1],[-6.634767539799213,61.96672769263387,143.89],[-6.634664526209235,61.96665292605758,142.54],[-6.63460660725832,61.966566760092974,141.87],[-6.634502587839961,61.96649224497378,141.77],[-6.6344004124403,61.966408006846905,140.51],[-6.634332267567515,61.966312285512686,139.29],[-6.634226571768522,61.966225281357765,138.1],[-6.634094389155507,61.966153448447585,136.68],[-6.633937899023294,61.96609251201153,134.2],[-6.633774200454354,61.966037610545754,133.32],[-6.633626511320472,61.96598522365093,134.22],[-6.633503129705787,61.96591808460653,133.04],[-6.633396595716476,61.96585463359952,131.83],[-6.633307579904795,61.965785566717386,130.48],[-6.633166680112481,61.96572287008166,130.14],[-6.632992252707481,61.96568012237549,129.16],[-6.632815729826689,61.965651120990515,128.52],[-6.632643230259419,61.965603260323405,128.86],[-6.632490428164601,61.96555456146598,128.35],[-6.632324298843741,61.9655067846179,127.74],[-6.632276270538569,61.96540913544595,127.82],[-6.632171748206019,61.96532825008035,126.4],[-6.631988687440753,61.96527963504195,126.44],[-6.631876202300191,61.96523202583194,125.6],[-6.631750809028745,61.96516907773912,123.98],[-6.631636396050453,61.96510604582727,124.15],[-6.631504129618406,61.96503513492644,124.12],[-6.631416203454137,61.96495424956083,121.87],[-6.631388962268829,61.96485341526568,120.74],[-6.631244877353311,61.964784851297736,121.01],[-6.631160639226437,61.96470580995083,121.5],[-6.63098780438304,61.964709581807256,120.9],[-6.630789320915937,61.964680748060346,121.26],[-6.630688654258847,61.96460925042629,120.49],[-6.630517998710275,61.96454940363765,119.92],[-6.630423199385405,61.964462315663695,119.7],[-6.630318928509951,61.964376736432314,119.46],[-6.630221195518971,61.964294761419296,119.68],[-6.630085660144687,61.964234160259366,119.56],[-6.629926739260554,61.964204739779234,119.92],[-6.629757592454553,61.9641462340951,121.51],[-6.629547793418169,61.964113377034664,121.45],[-6.629449808970094,61.96401556022465,121.06],[-6.629346376284957,61.963933585211635,122.1],[-6.629197597503662,61.9638785161078,121.19],[-6.629072371870279,61.963808946311474,119.5],[-6.62903088144958,61.96372018195689,118.79],[-6.629026103764772,61.963617000728846,118.12],[-6.629003807902336,61.96352228522301,117.63],[-6.62893365137279,61.96343687362969,117.95],[-6.628743633627892,61.96340133436024,119.23],[-6.628578761592507,61.96334802545607,120.44],[-6.628411207348108,61.96329513564706,120.39],[-6.628278102725744,61.96322724223137,118.8],[-6.628157235682011,61.96314317174256,117.62],[-6.628195038065314,61.9630547426641,116.93],[-6.628199899569154,61.96295709349215,118.2],[-6.628134353086352,61.962865395471454,118.93],[-6.627999739721417,61.96279339492321,118.65],[-6.627830173820257,61.96275249123573,118.41],[-6.627634959295392,61.96271812543273,118.06],[-6.627504704520106,61.9626453705132,118.25],[-6.627330612391233,61.962616285309196,119],[-6.627163393422961,61.9625763874501,118.52],[-6.626975554972887,61.96254068054259,118.71],[-6.626785369589925,61.962505895644426,119.2],[-6.626588478684425,61.96250505745411,119.29],[-6.626391923055053,61.96252467110753,119.24],[-6.626182626932859,61.96251494809985,119.53],[-6.626065447926521,61.9624365773052,120.76],[-6.626029824838042,61.96233347989619,119.55],[-6.625883476808667,61.96226960979402,119.54],[-6.62577660754323,61.962183360010386,119.74],[-6.625649454072118,61.96210918016732,119.14],[-6.625489611178637,61.96205369196832,118.13],[-6.625392297282815,61.961966436356306,117.77],[-6.625282494351268,61.96189879439771,117.35],[-6.625107061117888,61.96185185573995,118.77],[-6.624954678118229,61.96178966201842,120.04],[-6.624800032004714,61.96173258125782,119.84],[-6.624597776681185,61.961689749732614,120.15],[-6.624438939616084,61.96163535118103,121.01],[-6.624457547441125,61.961536444723606,121.34],[-6.624495601281524,61.96143980138004,121.07],[-6.624483447521925,61.961340475827456,121.73],[-6.624433407559991,61.96124802343547,121.92],[-6.624275492504239,61.96119898930192,122.03],[-6.624087654054165,61.96114324964583,122.2],[-6.623948765918613,61.96107971481979,122.3],[-6.623825300484896,61.961005199700594,122.03],[-6.623682472854853,61.960925152525306,121.7],[-6.623550541698933,61.96085449308157,121.51],[-6.623417101800442,61.96078626438975,120.98],[-6.623290115967393,61.96070889942348,120.36],[-6.623134883120656,61.96063656359911,119.38],[-6.623001359403133,61.96055484004319,119.78],[-6.622851490974426,61.960493568331,118.64],[-6.622686702758074,61.960438499227166,118.24],[-6.6225541010499,61.96036457084119,118.26],[-6.622415296733379,61.96029298938811,118.19],[-6.62228386849165,61.96020313538611,118.02],[-6.622174819931388,61.96011554449797,117.4],[-6.622028555721045,61.96005502715707,117.25],[-6.621963931247592,61.96001881733537,117.09],[-6.621855972334743,61.95992477238178,116.52],[-6.621758826076984,61.959838857874274,115.54],[-6.621706020087004,61.959742214530706,114.78],[-6.621654136106372,61.95964808575809,114.54],[-6.621500495821238,61.959583880379796,114.08],[-6.621337467804551,61.9595336727798,114.06],[-6.621159771457315,61.9594800285995,113.9],[-6.621002107858658,61.959423115476966,112.8],[-6.620835140347481,61.95936041884124,112.03],[-6.620751656591892,61.959267714992166,111.28],[-6.620627269148827,61.95919227786362,109.69],[-6.620523417368531,61.95909789763391,109.33],[-6.620368184521794,61.95903419516981,108.9],[-6.620236085727811,61.958972001448274,108.26],[-6.620044726878405,61.95894878357649,106.35],[-6.61986174993217,61.95889103226364,104.69],[-6.619661087170243,61.95884023793042,105.13],[-6.619513565674424,61.958778044208884,105.36],[-6.619306700304151,61.958770249038935,101.3],[-6.619116766378284,61.958718951791525,97.85],[-6.618988858535886,61.95863085798919,93.22],[-6.618916522711515,61.95854368619621,90.79],[-6.618829099461436,61.958438912406564,88.4],[-6.618743939325213,61.95833900012076,86.81],[-6.618624329566956,61.958252247422934,85.53],[-6.618474125862122,61.958170691505075,86.37],[-6.618305062875152,61.958109168335795,86.39],[-6.618216466158629,61.958015374839306,86.26],[-6.618073135614395,61.957938596606255,86.45],[-6.617882950231433,61.95788470096886,86.07],[-6.617703912779689,61.957833068445325,85.82],[-6.617506016045809,61.95781311951578,85.16],[-6.617304347455502,61.957771461457014,85.19],[-6.617138721048832,61.95773952640593,85.36],[-6.616935962811112,61.95771396160126,85.08],[-6.616755081340671,61.957677667960525,84.9],[-6.616559363901615,61.95766123943031,84.28],[-6.616343781352043,61.95765562355518,84.61],[-6.616126270964742,61.957670794799924,84.64],[-6.61590876057744,61.957656126469374,84.34],[-6.615717066451907,61.95767439901829,83.06],[-6.615555882453919,61.957637686282396,82.19],[-6.615394446998835,61.95759678259492,80.54],[-6.615335186943412,61.95755344815552,79.25],[-6.615403080359101,61.95746493525803,78.71],[-6.615472063422203,61.957386899739504,77.79],[-6.615281542763114,61.957405591383576,74.75],[-6.615065541118383,61.957409447059035,72.39],[-6.614856664091349,61.95741070434451,70.12],[-6.614839900285006,61.957428054884076,69.28],[-6.61466907709837,61.95740978233516,68.77],[-6.614788016304374,61.95743601769209,69.36],[-6.614917181432247,61.95740785449743,67.52],[-6.615137625485659,61.95740316063166,70.27],[-6.615364858880639,61.957409363240004,73.29],[-6.615491844713688,61.95742931216955,74.63],[-6.61547482945025,61.95751774124801,76.05],[-6.615559319034219,61.95761882700026,77.46],[-6.615672642365098,61.95768730714917,78.94],[-6.6158486623317,61.95768965408206,79.88],[-6.616052929311991,61.957686552777886,80.31],[-6.616249401122332,61.95767833851278,80.07],[-6.616465989500284,61.95767406374216,80.04],[-6.616672771051526,61.95769392885268,80.13],[-6.616884330287576,61.95770197547972,80.74],[-6.617080802097917,61.95773181505501,80.69],[-6.617263024672866,61.95778260938823,81.19],[-6.617470979690552,61.95781563408673,80.71],[-6.617661667987704,61.9578361697495,81.42],[-6.617833161726594,61.95788235403597,81.4],[-6.618007002398372,61.95793197490275,81.7],[-6.618146309629083,61.95800179615617,81.77],[-6.618245299905539,61.95808586664498,81.85],[-6.618367675691843,61.958158453926444,81.74],[-6.618516957387328,61.95822190493345,81.88],[-6.61865777336061,61.95830061100423,81.73],[-6.618758607655764,61.958378395065665,82.98],[-6.61883463151753,61.958468835800886,84.49],[-6.618923982605338,61.95856329984963,86.54],[-6.619016267359257,61.958654411137104,89.01],[-6.619123890995979,61.9587410800159,93.68],[-6.619308292865753,61.95877645164728,97.52],[-6.619515577331185,61.95880813524127,100.82],[-6.619693106040359,61.95886672474444,99.97],[-6.619832245633006,61.95892916992307,99.58],[-6.620017066597939,61.95896848104894,101.39],[-6.620222423225641,61.958990106359124,103.46],[-6.620364412665367,61.95904986932874,104.34],[-6.6204974334687,61.95912036113441,104.72],[-6.620594998821616,61.95920116268098,105.76],[-6.620719470083714,61.959281880408525,107.28],[-6.620825249701738,61.95937835611403,107.66],[-6.621003951877356,61.959435772150755,107.92],[-6.621165554970503,61.95949234999716,109.15],[-6.621330510824919,61.95955362170935,109.36],[-6.621502172201872,61.95961237885058,109.73],[-6.621537376195192,61.95970952510834,109.71],[-6.621652627363801,61.95978546515107,110.02],[-6.621743403375149,61.95987867191434,110.83],[-6.621863935142756,61.959951762109995,111.45],[-6.621939623728395,61.96004790253937,112.02],[-6.622109608724713,61.96008930914104,112.36],[-6.622248580679297,61.96016642265022,112.53],[-6.622372129932046,61.960248313844204,113.25],[-6.622500875964761,61.96031763218343,113.46],[-6.622645715251565,61.960382256656885,113.47],[-6.622802540659905,61.96045098826289,113.24],[-6.622976632788777,61.960510751232505,113.55],[-6.623130775988102,61.96057344786823,113.7],[-6.62322985008359,61.96066791191697,114.51],[-6.623345855623484,61.96074033156037,114.91],[-6.623515170067549,61.96080219000578,115.6],[-6.623652800917625,61.96087452583015,115.96],[-6.623780205845833,61.960959266871214,116.58],[-6.623903838917613,61.961035123094916,116.66],[-6.624028142541647,61.96111827157438,116.54],[-6.624188655987382,61.9611791241914,116],[-6.624356713145971,61.961231511086226,115.63],[-6.624487973749638,61.96130351163447,115.84],[-6.624468863010407,61.96139286272228,115.81],[-6.624456206336618,61.96148447692394,114.87],[-6.62444363348186,61.96157751604915,114.75],[-6.624484034255147,61.96166334673762,114.07],[-6.624657791107893,61.9617024064064,113.72],[-6.62485308945179,61.961751859635115,113.82],[-6.625031959265471,61.96180148050189,113.63],[-6.625173361971974,61.96187557652593,112.74],[-6.625342341139913,61.96192276664078,111.49],[-6.625439990311861,61.96200088597834,111.41],[-6.625572592020035,61.96207380853593,113.08],[-6.62573260255158,61.962128123268485,114.02],[-6.625813404098153,61.96221822872758,113.06],[-6.625958411023021,61.962282015010715,113.3],[-6.626046253368259,61.96236642077565,113.29],[-6.626065783202648,61.96246448904276,114.09],[-6.626227051019669,61.9625089969486,113.05],[-6.626425953581929,61.96250220760703,113.12],[-6.626636674627662,61.96250472217798,113.18],[-6.626833314076066,61.96252567693591,112.88],[-6.627023248001933,61.962547302246094,112.98],[-6.627213349565864,61.96260295808315,113.16],[-6.627384927123785,61.96263908408582,112.86],[-6.627534041181207,61.96268836967647,112.16],[-6.627717772498727,61.96274218149483,112.18],[-6.627909634262323,61.962785851210356,113.14],[-6.628083810210228,61.96284360252321,112.97],[-6.628174753859639,61.96292423643172,111.89],[-6.628165449947119,61.96302121505141,111.18],[-6.628112895414233,61.96310905739665,110.52],[-6.628207610920072,61.963193379342556,112.04],[-6.628304002806544,61.96326982229948,113.63],[-6.628492427989841,61.963329333812,114],[-6.628648918122053,61.96340032853186,113.64],[-6.628811275586486,61.96345757693052,112.64],[-6.628962904214859,61.963511472567916,111.38],[-6.629015626385808,61.963589591905475,111.63],[-6.629008166491985,61.96367986500263,111.9],[-6.62904110737145,61.96377097629011,113.37],[-6.629174379631877,61.963847670704126,114.01],[-6.629323493689299,61.9639250356704,114.96],[-6.629433548077941,61.964013716205955,114.99],[-6.629542512819171,61.964102145284414,114.72],[-6.629727920517325,61.96413114666939,114.51],[-6.62991332821548,61.964169619604945,112.87],[-6.630077864974737,61.96423348970711,111.78],[-6.630214238539338,61.964288894087076,112.45],[-6.630334854125977,61.96435737423599,112.47],[-6.63046058267355,61.96443172171712,112.05],[-6.630524368956685,61.96451822295785,112.74],[-6.630671555176377,61.964582009240985,112.74],[-6.630742466077209,61.964665073901415,113.82],[-6.630939776077867,61.96469457820058,114.07],[-6.631130799651146,61.964694913476706,113.97],[-6.631230544298887,61.96475425735116,113.9],[-6.631349734961987,61.964834639802575,113.87],[-6.631426261737943,61.96491996757686,114.23],[-6.631495160982013,61.96500898338854,116.06],[-6.631593480706215,61.9650905393064,116.66],[-6.631684508174658,61.96517435833812,116.82],[-6.631836807355285,61.96523856371641,118.01],[-6.631992207840085,61.96527703665197,118.56],[-6.632171412929893,61.96532540023327,119.08],[-6.632300997152925,61.96538373827934,120.03],[-6.632277611643076,61.965479627251625,120.03],[-6.632420355454087,61.96554534137249,120.75],[-6.632609702646732,61.96558247320354,120.72],[-6.632778681814671,61.965644834563136,121.43],[-6.632987642660737,61.96567450650036,121.6],[-6.633161902427673,61.9657279830426,122.42],[-6.633322918787599,61.965787997469306,123.1],[-6.633411180227995,61.96587508544326,124.04],[-6.633554175496101,61.96594641543925,125.39],[-6.63370949216187,61.96599813178182,125.6],[-6.633857684209943,61.96605873294175,124.77],[-6.634027250111103,61.96611212566495,126.77],[-6.634183069691062,61.96619024500251,128.53],[-6.63428214378655,61.96626551449299,129.53],[-6.634358754381537,61.96635838598013,130.93],[-6.634414242580533,61.966439271345735,132.22],[-6.634516920894384,61.96652367711067,133.4],[-6.634657317772508,61.96659006178379,133.66],[-6.634813053533435,61.966646974906325,134.02],[-6.634952025488019,61.9667087495327,134.51],[-6.635102983564138,61.96677169762552,134.6],[-6.635120585560799,61.96686800569296,136.01],[-6.635275734588504,61.9669246673584,136.53],[-6.635455274954438,61.96695274673402,136.88],[-6.635661385953426,61.96697638370097,138.22],[-6.635863389819861,61.96700102649629,138.71],[-6.636043433099985,61.96704151108861,139.05],[-6.636242503300309,61.96705911308527,138.72],[-6.636399915441871,61.967109739780426,139.03],[-6.636573672294617,61.96715818718076,139.13],[-6.636741813272238,61.96720822714269,139.74],[-6.636887406930327,61.967282155528665,140.43],[-6.637061750516295,61.96734627708793,141.86],[-6.637239614501596,61.967394053936005,141.39],[-6.63742845878005,61.96743378415704,141.59],[-6.637611016631126,61.96746069006622,142.41],[-6.637801956385374,61.967494217678905,142.56],[-6.637988034635782,61.96754040196538,142.65],[-6.638127593323588,61.96760687045753,142.36],[-6.638298584148288,61.9676739256829,142.29],[-6.638453816995025,61.96774575859308,141.85],[-6.638650875538588,61.96778867393732,142.1],[-6.638824883848429,61.96783997118473,142.63],[-6.638977769762278,61.96791716851294,142.86],[-6.639134008437395,61.96797776967287,143.6],[-6.639260742813349,61.968056643381715,144.36],[-6.639331905171275,61.968124117702246,145.01],[-6.639515552669764,61.9681557174772,144.59],[-6.639687465503812,61.96821036748588,144.3],[-6.639868598431349,61.96826200000942,144.3],[-6.640012348070741,61.96834221482277,144.78],[-6.640124330297113,61.9684236869216,145.17],[-6.640279646962881,61.96848453953862,144.8],[-6.640423061326146,61.9685497507453,144.81],[-6.6405497957021,61.96862510405481,145.09],[-6.640720367431641,61.96868050843477,145.75],[-6.640829583629966,61.9687601365149,146.57],[-6.640846682712436,61.96885493583977,147.51],[-6.640947433188558,61.96894034743309,147.29],[-6.64109168574214,61.96901075541973,147.47],[-6.641245745122433,61.9690830912441,147.6],[-6.641372479498386,61.96914955973625,147.93],[-6.641465770080686,61.96922214701772,148.38],[-6.641551433131099,61.96929909288883,148.37],[-6.641653943806887,61.96938115172088,147.94],[-6.641678083688021,61.96947729215026,149.18],[-6.641741786152124,61.969565050676465,149.73],[-6.64180020801723,61.96965926326811,150.64],[-6.641847146674991,61.969746351242065,151.74],[-6.641962062567473,61.96982312947512,151.88],[-6.642022412270308,61.969916922971606,152.52],[-6.64213347248733,61.970003340393305,152.35],[-6.642229277640581,61.97010342031717,152.28],[-6.642307145521045,61.97020257823169,153.15],[-6.642376547679305,61.97029662318528,153.38],[-6.642429772764444,61.970393266528845,153.6],[-6.642495570704341,61.970484210178256,154.28],[-6.642555249854922,61.97058705613017,154.51],[-6.642627250403166,61.970676742494106,154.37],[-6.642682487145066,61.97075947187841,155.2],[-6.642715847119689,61.97086399421096,155.16],[-6.642784075811505,61.97095116600394,156.07],[-6.642865715548396,61.97104009799659,155.72],[-6.642888933420181,61.97115174494684,156.55],[-6.642945427447557,61.97125450707972,156.86],[-6.64297828450799,61.97136338800192,156.09],[-6.643014997243881,61.971461875364184,155.82],[-6.643077526241541,61.97156019508839,155.64],[-6.643104264512658,61.97165625169873,155.48],[-6.643119435757399,61.971753146499395,155.63],[-6.643145838752389,61.97185515426099,156.34],[-6.64316545240581,61.971949534490705,156.37],[-6.64311365224421,61.972043411806226,156.36],[-6.64316788315773,61.972130332142115,156.08],[-6.643236866220832,61.97222689166665,155.72],[-6.643262263387442,61.97232504375279,155.81],[-6.643277602270246,61.97242026217282,155.68],[-6.643299395218492,61.97252403013408,156.41],[-6.643309788778424,61.972621930763125,156.69],[-6.643340466544032,61.97271052747965,156.73],[-6.643377095460892,61.972800716757774,157.12],[-6.643401319161058,61.97290171869099,156.97],[-6.643383633345366,61.97300565429032,156.68],[-6.64336041547358,61.97310053743422,157.79],[-6.643329318612814,61.97320841252804,158.3],[-6.643321942538023,61.97329390794039,159.18],[-6.643308447673917,61.973390551283956,160.83],[-6.643242230638862,61.973461881279945,162.15],[-6.643261760473251,61.97355198673904,162.32],[-6.643440630286932,61.97359582409263,161.74],[-6.643505338579416,61.973687103018165,160.71],[-6.643545487895608,61.973772598430514,161.12],[-6.643484802916646,61.973866978660226,161.82],[-6.643540877848864,61.97395850904286,161.25],[-6.643618913367391,61.974055487662554,161.18],[-6.64366727694869,61.97415397502482,160.79],[-6.643796022981405,61.97423762641847,160.47],[-6.643937509506941,61.974312560632825,159.97],[-6.644106991589069,61.97437693364918,160.45],[-6.644217967987061,61.97445312514901,161.48],[-6.644348138943315,61.97451213374734,161.06],[-6.644478896632791,61.97459385730326,161.12],[-6.644597332924604,61.974675580859184,160.99],[-6.644679643213749,61.974767027422786,161.58],[-6.644751727581024,61.97485872544348,162.16],[-6.644906541332603,61.97492050006986,161.9],[-6.645075352862477,61.974984453991055,162.05],[-6.645224466919899,61.9750390201807,162.09],[-6.645321110263467,61.97511504404247,163.36],[-6.645384393632412,61.97520791552961,163.88],[-6.645503751933575,61.97529315948486,164.58],[-6.645648675039411,61.97535015642643,165.1],[-6.645835004746914,61.975393909960985,164.32],[-6.645892588421702,61.97548200376332,164.97],[-6.645986968651414,61.97555526159704,165.81],[-6.64614848792553,61.97557051666081,164.68],[-6.646269522607327,61.97561393491924,166.09],[-6.646364573389292,61.97569599375129,167.01],[-6.646510250866413,61.97575123049319,167.03],[-6.64669037796557,61.97580705396831,167.79],[-6.646830858662725,61.97587050497532,168.43],[-6.647028336301446,61.97590830735862,169.16],[-6.647198237478733,61.97596228681505,167.82],[-6.647330084815621,61.97602439671755,168.43],[-6.647508535534143,61.97607426904142,168.93],[-6.647716322913766,61.97609329596162,168.85],[-6.647857138887048,61.976165464147925,168.67],[-6.647999798879027,61.976237213239074,169.08],[-6.648058807477355,61.97633360512555,169.53],[-6.648094262927771,61.97643016465008,170.71],[-6.648167101666331,61.97651566006243,171.54],[-6.64829115383327,61.97659704834223,171.95],[-6.648426605388522,61.97667500004172,172.02],[-6.648576054722071,61.97674423456192,172.17],[-6.648705387488008,61.97681279852986,172.63],[-6.648866990581155,61.97685655206442,173.98],[-6.648984588682652,61.976930648088455,173.58],[-6.649091122671962,61.977008851245046,175.17],[-6.649226322770119,61.9770888146013,175.36],[-6.649364624172449,61.977164167910814,175.14],[-6.649502003565431,61.97722837328911,174.61],[-6.649619517847896,61.97731604799628,175.82],[-6.64975312538445,61.97738888673484,176.38],[-6.649921936914325,61.977424090728164,175.54],[-6.650071134790778,61.977490140125155,174.48],[-6.650232067331672,61.97754805907607,174.24],[-6.650356287136674,61.97763171046972,174.02],[-6.650504563003779,61.977696754038334,174.55],[-6.650641858577728,61.97776339016855,173.86],[-6.650817291811109,61.977806221693754,174.45],[-6.650996161624789,61.97785642929375,175.54],[-6.651096073910594,61.977917617186904,176.47],[-6.65116916410625,61.977998754009604,178.03],[-6.651276620104909,61.97807125747204,178.47],[-6.651423303410411,61.97814376093447,178.11],[-6.651499746367335,61.97823126800358,177.94],[-6.651603765785694,61.97831408120692,178.28],[-6.651747766882181,61.97837786749005,179.21],[-6.651884727180004,61.978457076475024,180.34],[-6.652000229805708,61.97853159159422,180.77],[-6.652134926989675,61.978594874963164,180.89],[-6.65224120952189,61.978687243536115,181.38],[-6.652343720197678,61.97877366095781,182.02],[-6.652507083490491,61.9788278080523,182.25],[-6.652680085971952,61.978875920176506,182.33],[-6.652839677408338,61.97892855852842,182.38],[-6.652966747060418,61.9789969548583,182.84],[-6.653093649074435,61.9790902454406,183.18],[-6.653229435905814,61.97916727513075,183.52],[-6.653407383710146,61.97922787629068,184.66],[-6.653530932962894,61.979308258742094,185.16],[-6.653682645410299,61.97937062010169,185.23],[-6.653846679255366,61.9794134516269,185.13],[-6.653964025899768,61.979501293972135,185.64],[-6.654093191027641,61.979580502957106,185.6],[-6.654258146882057,61.97963012382388,185.49],[-6.654399130493403,61.97970279492438,186.46],[-6.654504993930459,61.97977772913873,187.23],[-6.654643965885043,61.979836067184806,188.16],[-6.654795678332448,61.97990178130567,188.52],[-6.654932973906398,61.979973362758756,188.94],[-6.655036741867662,61.980050560086966,189.28],[-6.655179653316736,61.98012507520616,189.63],[-6.655296999961138,61.98020755313337,189.57],[-6.65543488226831,61.980273770168424,190.12],[-6.655586594715715,61.98033311404288,189.65],[-6.655756747350097,61.98037669993937,190.03],[-6.655914159491658,61.98041441850364,190.79],[-6.655994625762105,61.980461021885276,191.83],[-6.65608867071569,61.98051307350397,191.74],[-6.656151534989476,61.98060502298176,191.77],[-6.65618883445859,61.98069957084954,192.46],[-6.656260332092643,61.98078481480479,193.11],[-6.656288746744394,61.98088992387056,193.79],[-6.656332081183791,61.98098296299577,195.03],[-6.656354377046228,61.98106870986521,197.77],[-6.656393688172102,61.98115613311529,198.93],[-6.656534671783447,61.981231989338994,199.23],[-6.65663936175406,61.981321005150676,199.41],[-6.656772382557392,61.98138806037605,200.21],[-6.656923424452543,61.98144329711795,201.06],[-6.657054098322988,61.981517393141985,201.62],[-6.657175803557038,61.98159517720342,201.74],[-6.657316032797098,61.98166969232261,202.64],[-6.657482832670212,61.98173708282411,201.82],[-6.657653069123626,61.98177874088287,202.14],[-6.657821293920279,61.98183263652027,203],[-6.658005192875862,61.981889717280865,201.92],[-6.658137124031782,61.9819516595453,202.68],[-6.658315826207399,61.981997257098556,202.58],[-6.658494779840112,61.982038244605064,202.29],[-6.658620592206717,61.98210974223912,202.89],[-6.658793678507209,61.982148215174675,203.75],[-6.658956371247768,61.98220571503043,203.57],[-6.659058211371303,61.982285510748625,204],[-6.659172037616372,61.98235893622041,204.13],[-6.659331796690822,61.98241140693426,204.73],[-6.659496836364269,61.98245742358267,203.79],[-6.659651901572943,61.98252481408417,203.96],[-6.659826161339879,61.98258474469185,203.28],[-6.659958176314831,61.98266102001071,203.38],[-6.660102596506476,61.982732098549604,204.38],[-6.660262523218989,61.98280208744109,203.83],[-6.660426305606961,61.982870399951935,204.53],[-6.660587741062045,61.982933934777975,203.58],[-6.660734256729484,61.98300844989717,204.01],[-6.660877587273717,61.983076175674796,203.63],[-6.661032987758517,61.98313049040735,204.26],[-6.661117058247328,61.98321481235325,203.81],[-6.661242786794901,61.98330148123205,204.22],[-6.661382094025612,61.98336526751518,205.02],[-6.661520143970847,61.98342804796994,204.61],[-6.661639753729105,61.98349895887077,205.06],[-6.661793394014239,61.98355092667043,204.95],[-6.661890204995871,61.98363600298762,205.72],[-6.661957427859306,61.98371747508645,206.05],[-6.662083826959133,61.98379165492952,207.13],[-6.662168484181166,61.98387966491282,208.2],[-6.662244340404868,61.983966333791614,207.35],[-6.662381887435913,61.98402659967542,207.95],[-6.662491271272302,61.98410446755588,208.71],[-6.662585400044918,61.98417965322733,208.63],[-6.662701657041907,61.98425064794719,209.28],[-6.662818752229214,61.98432977311313,209.45],[-6.662960490211844,61.98439087718725,210.85],[-6.663089152425528,61.984453992918134,210.96],[-6.663177078589797,61.9845284242183,211.83],[-6.663253270089626,61.984616266563535,211.75],[-6.663335915654898,61.98469472117722,212.36],[-6.663447730243206,61.98476755991578,212.68],[-6.663596592843533,61.984837129712105,213.26],[-6.663709748536348,61.98492388240993,214.31],[-6.663848971948028,61.984991524368525,213.98],[-6.66401912458241,61.98505204170942,213.91],[-6.664062710478902,61.98515103198588,214.74],[-6.664080061018467,61.98524683713913,216.7],[-6.664107469841838,61.98528413660824,216.96],[-6.664155581966043,61.985385892912745,217.66],[-6.664287094026804,61.985447918996215,217.23],[-6.6643753554672,61.98552872054279,216.94],[-6.664442243054509,61.98561136610806,217.47],[-6.664514327421784,61.98569250293076,217.74],[-6.664579538628459,61.985784536227584,217.93],[-6.664685653522611,61.98585771024227,217.17],[-6.664703087881208,61.98595016263425,217.62],[-6.66480241343379,61.98602928780019,218.13],[-6.664855806156993,61.98611796833575,218.21],[-6.664866451174021,61.98620639741421,218.48],[-6.664887070655823,61.98629692196846,218.64],[-6.66488497518003,61.98638593778014,218.08],[-6.664893105626106,61.98648392222822,218.75],[-6.664946163073182,61.986569752916694,219.26],[-6.665053954347968,61.98664711788297,219.82],[-6.665033837780356,61.98674250394106,219.19],[-6.665037944912911,61.98683210648596,218.95],[-6.665043141692877,61.98693118058145,219.49],[-6.665058061480522,61.987046180292964,220.11],[-6.664992347359657,61.98714039288461,220.84],[-6.664949599653482,61.98722681030631,221.21],[-6.664948593825102,61.98732102289796,221.11],[-6.664890674874187,61.98738556355238,222.17],[-6.664815321564674,61.987483045086265,221.9],[-6.664750780910254,61.98756778612733,221.53],[-6.664721108973026,61.987672140821815,221.41],[-6.664674924686551,61.987773058936,221.92],[-6.664647432044148,61.98786408640444,222.23],[-6.66460401378572,61.98795385658741,223.11],[-6.664580460637808,61.98804513551295,222.74],[-6.664544334635139,61.988142197951674,223.02],[-6.664506867527962,61.98823037557304,223.35],[-6.664477363228798,61.98832291178405,224.27],[-6.664455737918615,61.98841318488121,224.7],[-6.664425730705261,61.98850345797837,224.92],[-6.664441572502255,61.988601526245475,224.55],[-6.664377702400088,61.9886935595423,224.38],[-6.664377031847835,61.98879179544747,223.96],[-6.664380468428135,61.98888290673494,223.66],[-6.664369655773044,61.98897711932659,223.35],[-6.66437778621912,61.989076025784016,223.7],[-6.66440418921411,61.98917644098401,224.16],[-6.664403770118952,61.98927467688918,224.58],[-6.664357585832477,61.989376014098525,224.08],[-6.6643494553864,61.98947098106146,224.1],[-6.664373762905598,61.98956980369985,224.59],[-6.664445763453841,61.98965638875961,224.4],[-6.664550118148327,61.98973333463073,224.01],[-6.664661932736635,61.98981011286378,224.38],[-6.664728568866849,61.98990549892187,223.82],[-6.664802329614759,61.98999837040901,222.41],[-6.664947755634785,61.99006685055792,220.51],[-6.665039705112577,61.99014832265675,219.78],[-6.665115393698216,61.99023088440299,218.69],[-6.665232237428427,61.990305818617344,217.66],[-6.66532376781106,61.9903857819736,217.61],[-6.665445221588016,61.99046281166375,217.12],[-6.665456369519234,61.99056833982468,216.57],[-6.66542150080204,61.990632712841034,216.68],[-6.665580840781331,61.99068384245038,216.62],[-6.665719142183662,61.99075475335121,214.44],[-6.665854509919882,61.99082490988076,213.84],[-6.665986273437738,61.99090613052249,212.05],[-6.666064728051424,61.99099036864936,211.71],[-6.666188444942236,61.99105859734118,211.45],[-6.666275030001998,61.99114157818258,211.18],[-6.666365722194314,61.99121047742665,210.5],[-6.66643830947578,61.99130569584668,209.64],[-6.666516596451402,61.99138565920293,208.92],[-6.666652550920844,61.99144273996353,206.29],[-6.666776770725846,61.991487415507436,203.18],[-6.66682387702167,61.99157249182463,201.39],[-6.666918592527509,61.99165413156152,200.62],[-6.667031496763229,61.991737531498075,200.7],[-6.667075250297785,61.991823613643646,200.05],[-6.667066365480423,61.9919070135802,199.72],[-6.667096288874745,61.991996029391885,198.84],[-6.667124116793275,61.99208948761225,196.16],[-6.667117243632674,61.992186130955815,194.46],[-6.667147167026997,61.99228688143194,190.83],[-6.667226124554873,61.99237489141524,189.04],[-6.667257389053702,61.992468517273664,186.46],[-6.66726753115654,61.992563400417566,186.38],[-6.667277002707124,61.99266817420721,185.83],[-6.667277254164219,61.99276917614043,185.81],[-6.6672816965729,61.99285810813308,186.17],[-6.667251856997609,61.99296078644693,186.16],[-6.667240960523486,61.993055837228894,185.12],[-6.667193518951535,61.99314929544926,184.33],[-6.66716393083334,61.99324526824057,183.38],[-6.667144317179918,61.99334685690701,183.13],[-6.667136438190937,61.99343151412904,182.35],[-6.66710089892149,61.993523463606834,181.29],[-6.667034430429339,61.99361306615174,180.21],[-6.667001405730844,61.99370828457177,178.39],[-6.666922112926841,61.99379688128829,176.95],[-6.666876263916493,61.993885142728686,176.11],[-6.666888417676091,61.993956975638866,175.09],[-6.666926220059395,61.99403576552868,172.65],[-6.666943151503801,61.994131822139025,170.58],[-6.666984055191279,61.99421840719879,168.91],[-6.666972069069743,61.994305243715644,167.45],[-6.666926387697458,61.99439702555537,165.27],[-6.666957484558225,61.994483610615134,161.86],[-6.666976846754551,61.99456550180912,158.8],[-6.666981037706137,61.99466030113399,155.26],[-6.666976427659392,61.994755351915956,153.51],[-6.666945833712816,61.99483187869191,152.53],[-6.666943319141865,61.99490086175501,151.26],[-6.666934937238693,61.994892898947,151.57],[-6.666910126805306,61.99498048983514,150.17],[-6.666894620284438,61.99507528916001,147.97],[-6.666843239217997,61.99517285451293,145.81],[-6.666797054931521,61.995258182287216,144.19],[-6.666756570339203,61.99535080231726,141.33],[-6.666694460436702,61.99544903822243,139.98],[-6.666589854285121,61.99553595855832,139.46],[-6.666541825979948,61.9956217892468,138.02],[-6.666487008333206,61.99568976648152,136.69],[-6.66645834222436,61.99575933627784,133.23],[-6.666399752721191,61.99583259411156,129.16],[-6.666371170431376,61.99590241536498,125.21],[-6.666344180703163,61.99598640203476,122.12],[-6.666287770494819,61.9960792735219,119.73],[-6.666164053604007,61.99613216333091,116.25],[-6.66613002307713,61.996222184970975,111.91],[-6.666053328663111,61.9963002204895,109.42],[-6.665979400277138,61.99636752717197,106.07],[-6.66588225401938,61.99644179083407,102.96],[-6.665758537128568,61.99651060625911,100.95],[-6.665646638721228,61.996586211025715,99.21],[-6.665671784430742,61.99666860513389,97.1],[-6.66577186435461,61.99674831703305,94.87],[-6.665744204074144,61.9968530908227,93.06],[-6.665691481903195,61.996957026422024,91.67],[-6.665693996474147,61.997052412480116,89.97],[-6.665795752778649,61.997133465483785,89.4],[-6.665776139125228,61.99722055345774,87.61],[-6.665718471631408,61.997306887060404,84.82],[-6.665613949298859,61.99737838469446,83.18],[-6.665546474978328,61.99745667167008,79.68],[-6.665463577955961,61.99754375964403,77.98],[-6.665451927110553,61.99762925505638,76.31],[-6.665405156090856,61.99771332554519,74.6],[-6.665457794442773,61.997803933918476,72.98],[-6.665480341762304,61.99789588339627,71.72],[-6.665480425581336,61.997987665235996,69.67],[-6.66543859988451,61.99807140044868,68.33],[-6.665374226868153,61.99815211817622,67.09],[-6.665331311523914,61.99823216535151,65.47],[-6.665448322892189,61.99829913675785,63.91],[-6.665530800819397,61.998398546129465,63.8],[-6.665593245998025,61.99847398325801,62.07],[-6.665663234889507,61.99856190942228,60.84],[-6.665729284286499,61.99862292967737,60.09],[-6.665799021720886,61.99870373122394,59.35],[-6.665766416117549,61.99877740815282,59.05],[-6.665704809129238,61.99889425188303,58.38],[-6.665734481066465,61.99899307452142,58.08],[-6.665775217115879,61.99912777170539,58.17],[-6.665815869346261,61.999240927398205,57.35],[-6.665827268734574,61.99934511445463,56.85],[-6.665845960378647,61.99943848885596,55.1],[-6.666043270379305,61.999432956799865,53.81],[-6.666237059980631,61.99945072643459,53.33],[-6.666397992521524,61.99947570450604,52.91],[-6.666489606723189,61.99953488074243,52.13],[-6.666668895632029,61.999592212960124,51.25],[-6.66676864027977,61.99966329149902,50.98],[-6.66685120202601,61.99975088238716,50.99],[-6.666935859248042,61.99983838945627,51.17],[-6.667021354660392,61.99992681853473,51.04],[-6.667109532281756,62.000013906508684,50.87],[-6.66718790307641,62.00010376051068,50.21],[-6.667267447337508,62.00019596144557,50.1],[-6.667348248884082,62.00028137303889,49.99],[-6.66742192581296,62.00036829337478,49.31],[-6.667489651590586,62.00045781210065,48.2],[-6.6675597243011,62.000560238957405,47.76],[-6.667643962427974,62.0006519369781,47.52],[-6.667711939662695,62.00073969550431,48.52],[-6.667798524722457,62.00082711875439,47.9],[-6.667869770899415,62.00091320089996,46.76],[-6.667931796982884,62.00101001188159,45.34],[-6.668002037331462,62.00110045261681,44.8],[-6.668079318478704,62.00119089335203,43.9],[-6.668159449473023,62.001276556402445,42.26],[-6.668248130008578,62.00135936960578,41.63],[-6.668328177183867,62.00143505819142,41.43],[-6.668400429189205,62.00152457691729,40.63],[-6.668477291241288,62.001617113128304,39.52],[-6.668545939028263,62.00171275064349,38.54],[-6.668630512431264,62.001778380945325,38.25],[-6.668653227388859,62.00187737122178,36.44],[-6.668667225167155,62.00196831487119,34.79],[-6.668678624555469,62.002058839425445,32.52],[-6.668698405846953,62.002155566588044,31.35],[-6.66872606612742,62.00225053355098,31],[-6.668761605396867,62.002343740314245,30.16],[-6.66877007111907,62.00243107974529,28.53],[-6.66879303753376,62.002524537965655,26.72],[-6.668845508247614,62.00261455960572,25.28],[-6.668895883485675,62.00268991291523,25.71],[-6.668791444972158,62.00276417657733,25.48],[-6.668732352554798,62.002848917618394,25.24],[-6.668704021722078,62.002950590103865,24.98],[-6.668679798021913,62.00304966419935,25.34],[-6.66872606612742,62.00308092869818,24.96],[-6.668662782758474,62.00317279435694,25.2],[-6.668692789971829,62.003271114081144,24.86],[-6.66870703920722,62.003367338329554,23.5],[-6.668784823268652,62.00346205383539,21.95],[-6.668865373358131,62.0035529974848,21.35],[-6.668951287865639,62.003648383542895,20.43],[-6.669019851833582,62.00374444015324,19.79],[-6.669087577611208,62.003831611946225,19.44],[-6.66916636750102,62.003921465948224,19.03],[-6.669236524030566,62.00400939211249,18.2],[-6.669271308928728,62.00407954864204,18.15],[-6.669351691380143,62.004177030175924,17.74],[-6.669410197064281,62.00428054668009,17.93],[-6.669464847072959,62.00437626801431,17.44],[-6.669534835964441,62.0044719055295,17.2],[-6.669620163738728,62.00455941259861,16.65],[-6.669695097953081,62.00465228408575,16.17],[-6.669778916984797,62.00474079698324,16.19],[-6.669855862855911,62.00483559630811,15.7],[-6.669952338561416,62.00492260046303,15.07],[-6.670046886429191,62.00500993989408,14.54],[-6.670148056000471,62.00509057380259,14.12],[-6.670256517827511,62.00517858378589,13.49],[-6.670351484790444,62.005264749750495,12.34],[-6.670437986031175,62.005360051989555,11.68],[-6.670534377917647,62.00543951243162,11.23],[-6.670604282990098,62.00553732924163,10.69],[-6.67069279588759,62.00563330203295,9.47],[-6.67078910395503,62.00571988709271,8.55],[-6.670875269919634,62.00581225566566,7.42],[-6.670921202749014,62.00590613298118,6.88],[-6.670971410349011,62.00599414296448,7.09],[-6.671038046479225,62.006083158776164,6.63],[-6.671075345948339,62.006189189851284,6.14],[-6.671052798628807,62.006281055510044,6.25],[-6.670937296003103,62.00635624118149,5.71],[-6.670831767842174,62.00645229779184,5.66],[-6.670725317671895,62.00654625892639,5.79],[-6.670633284375072,62.0066459197551,5.67],[-6.670548040419817,62.00674491003156,5.7],[-6.67049297131598,62.00684314593673,5.34],[-6.670474112033844,62.006947584450245,5.34],[-6.670460114255548,62.00703928247094,5.2],[-6.67046656832099,62.00713701546192,4.32],[-6.670486936345696,62.00724296271801,3.2],[-6.6704954020679,62.00733868405223,1.9],[-6.670536389574409,62.00743113644421,0],[-6.670600092038512,62.007530461996794,-0.57],[-6.670698998495936,62.00762702152133,-1.15],[-6.670801173895598,62.007726514711976,-2.11],[-6.670901086181402,62.00781318359077,-2.61],[-6.671013236045837,62.00790354050696,-2.99],[-6.671138377860189,62.0079773850739,-3.42],[-6.671283636242151,62.0080429315567,-3.25],[-6.671457728371024,62.00812381692231,-2.98],[-6.671601561829448,62.0082001760602,-3.25],[-6.671736342832446,62.008280558511615,-2.54],[-6.67184941470623,62.00835666619241,-2.68],[-6.671987716108561,62.00844258069992,-2.54],[-6.672117551788688,62.00852715410292,-2.56],[-6.6722671687603,62.008591778576374,-2.66],[-6.672450648620725,62.008649026975036,-2.49],[-6.672636643052101,62.00870359316468,-2.64],[-6.672788858413696,62.00875857844949,-2.16],[-6.67297912761569,62.00881892815232,-2.78],[-6.673180041834712,62.00889461673796,-2.03],[-6.673370646312833,62.00892915017903,-2.09],[-6.673569297417998,62.00897499918938,-1.63],[-6.673779180273414,62.008981285616755,-2.28],[-6.673941453918815,62.00900701805949,-2.65],[-6.674131471663714,62.00895421206951,-2.8],[-6.674338420853019,62.00890811160207,-2.52],[-6.674541346728802,62.00884600169957,-2.21],[-6.674770843237639,62.008793195709586,-1.65],[-6.674980893731117,62.00875044800341,-1.01],[-6.675171749666333,62.00870870612562,-1.38],[-6.675388924777508,62.008675429970026,-1.15],[-6.675608195364475,62.00862044468522,-1.38],[-6.675913548097014,62.00858733616769,-1.66],[-6.675888486206532,62.00867551378906,-1.45],[-6.675908351317048,62.00877333059907,-0.67],[-6.675924025475979,62.00886947102845,-0.05],[-6.675968114286661,62.008961252868176,1.06],[-6.675904076546431,62.00903920456767,1.93],[-6.675702575594187,62.00907717458904,1.68],[-6.675500823184848,62.00910609215498,2.56],[-6.675277780741453,62.009139033034444,2.33],[-6.675060773268342,62.009166022762656,1.83],[-6.674842843785882,62.00917297974229,1.24],[-6.674632877111435,62.00918957591057,0.08],[-6.674415366724134,62.0092018134892,-0.17],[-6.674186959862709,62.00923525728285,0.14],[-6.674001552164555,62.00918228365481,-0.15],[-6.673806756734848,62.00913048349321,-1.15],[-6.673620343208313,62.00908522121608,-2.09],[-6.673433091491461,62.00903685763478,-1.33],[-6.673229075968266,62.008989080786705,-1.4],[-6.673033023253083,62.00892956927419,-1.65],[-6.672852979972959,62.00887441635132,-1.9],[-6.67266103439033,62.00882915407419,-1.98],[-6.672506639733911,62.00878699310124,-1.88],[-6.67248903773725,62.008732510730624,-1.86],[-6.672324668616056,62.008654307574034,-1.8],[-6.672169268131256,62.008589934557676,-2.05],[-6.672030547633767,62.00852966867387,-2.14],[-6.671894593164325,62.00845959596336,-1.89],[-6.671774229034782,62.00838290154934,-2.08],[-6.671667695045471,62.00829841196537,-2.28],[-6.671542720869184,62.00821693986654,-2.21],[-6.671389080584049,62.008130103349686,-2.58],[-6.671238206326962,62.00803840532899,-2.62],[-6.671088505536318,62.00795969925821,-2.54],[-6.671030335128307,62.00785333290696,-2.93],[-6.671057157218456,62.007756270468235,-3.74],[-6.671031257137656,62.00765593908727,-4.02],[-6.670979289337993,62.0075577031821,-3.71],[-6.671048440039158,62.007468016818166,-3.78],[-6.67111499235034,62.00737179256976,-3.02],[-6.671166876330972,62.00727489776909,-3.13],[-6.671170899644494,62.007169872522354,-2.62],[-6.671187998726964,62.00705830939114,-2.39],[-6.671132594347,62.00695060193539,-2.46],[-6.671153716742992,62.00674843043089,-3.21],[-6.671273913234472,62.006653966382146,-3.38],[-6.671449346467853,62.00664575211704,-2.13],[-6.671783784404397,62.006653463467956,-3.09],[-6.672118222340941,62.00666394084692,-2.84],[-6.672096094116569,62.00661540962756,-2.2],[-6.67213330976665,62.006321623921394,-2.24]]}},{"type":"Feature","properties":{"name":"Leuchtturm Nólsoyarviti","type":"user","time":"2025-05-08T10:51:01Z","gpxx_WaypointExtension":"SymbolAndName","gpxx_DisplayMode":"SymbolAndName","wptx1_WaypointExtension":"SymbolAndName","wptx1_DisplayMode":"SymbolAndName","ctx_CreationTimeExtension":"2025-05-08T10:51:01Z","ctx_CreationTime":"2025-05-08T10:51:01Z","sym":"Flag, Blue"},"geometry":{"type":"Point","coordinates":[-6.614661533385515,61.95742528885603,41.95703125]}},{"type":"Feature","properties":{"name":"WP1 06_N","type":"user","time":"2020-07-22T09:32:51Z","gpxx_WaypointExtension":"SymbolAndName","gpxx_DisplayMode":"SymbolAndName","wptx1_WaypointExtension":"SymbolAndName","wptx1_DisplayMode":"SymbolAndName","ctx_CreationTimeExtension":"2020-07-22T09:32:51Z","ctx_CreationTime":"2020-07-22T09:32:51Z","sym":"Flag, Blue"},"geometry":{"type":"Point","coordinates":[-6.667016996070743,61.99351600371301,182.280731]}},{"type":"Feature","properties":{"name":"WP2 09_N","type":"user","time":"2020-07-22T09:57:59Z","gpxx_WaypointExtension":"SymbolAndName","gpxx_DisplayMode":"SymbolAndName","wptx1_WaypointExtension":"SymbolAndName","wptx1_DisplayMode":"SymbolAndName","ctx_CreationTimeExtension":"2020-07-22T09:57:59Z","ctx_CreationTime":"2020-07-22T09:57:59Z","sym":"Flag, Blue"},"geometry":{"type":"Point","coordinates":[-6.655940981581807,61.98042598553002,196.42569]}},{"type":"Feature","properties":{"name":"WP3 12_N","type":"user","time":"2020-07-22T10:28:38Z","gpxx_WaypointExtension":"SymbolAndName","gpxx_DisplayMode":"SymbolAndName","wptx1_WaypointExtension":"SymbolAndName","wptx1_DisplayMode":"SymbolAndName","ctx_CreationTimeExtension":"2020-07-22T10:28:38Z","ctx_CreationTime":"2020-07-22T10:28:38Z","sym":"Flag, Blue"},"geometry":{"type":"Point","coordinates":[-6.632267972454429,61.96539295837283,127.759911]}}]}