{"type":"FeatureCollection","features":[{"type":"Feature","properties":{"_gpxType":"trk","name":"18 Wanderung Bøur Gásadalur","time":"2020-07-31T10:32:09Z","gpxx_TrackExtension":"Black","gpxx_DisplayColor":"Black","coordinateProperties":{"times":["2020-07-31T10:32:09Z","2020-07-31T10:32:30Z","2020-07-31T10:32:37Z","2020-07-31T10:33:23Z","2020-07-31T10:33:29Z","2020-07-31T10:33:36Z","2020-07-31T10:33:42Z","2020-07-31T10:33:48Z","2020-07-31T10:33:55Z","2020-07-31T10:34:02Z","2020-07-31T10:34:08Z","2020-07-31T10:34:15Z","2020-07-31T10:34:21Z","2020-07-31T10:34:28Z","2020-07-31T10:34:35Z","2020-07-31T10:34:42Z","2020-07-31T10:34:49Z","2020-07-31T10:34:56Z","2020-07-31T10:35:02Z","2020-07-31T10:35:08Z","2020-07-31T10:35:15Z","2020-07-31T10:35:22Z","2020-07-31T10:35:29Z","2020-07-31T10:35:35Z","2020-07-31T10:35:41Z","2020-07-31T10:35:47Z","2020-07-31T10:35:54Z","2020-07-31T10:36:01Z","2020-07-31T10:36:08Z","2020-07-31T10:36:15Z","2020-07-31T10:36:22Z","2020-07-31T10:36:52Z","2020-07-31T10:37:01Z","2020-07-31T10:37:09Z","2020-07-31T10:37:18Z","2020-07-31T10:37:41Z","2020-07-31T10:37:56Z","2020-07-31T10:38:20Z","2020-07-31T10:38:31Z","2020-07-31T10:38:44Z","2020-07-31T10:38:57Z","2020-07-31T10:39:07Z","2020-07-31T10:39:15Z","2020-07-31T10:39:24Z","2020-07-31T10:39:33Z","2020-07-31T10:39:41Z","2020-07-31T10:39:50Z","2020-07-31T10:40:00Z","2020-07-31T10:40:12Z","2020-07-31T10:40:21Z","2020-07-31T10:40:30Z","2020-07-31T10:40:42Z","2020-07-31T10:40:55Z","2020-07-31T10:41:09Z","2020-07-31T10:41:24Z","2020-07-31T10:41:38Z","2020-07-31T10:42:21Z","2020-07-31T10:42:36Z","2020-07-31T10:42:51Z","2020-07-31T10:43:01Z","2020-07-31T10:43:17Z","2020-07-31T10:43:38Z","2020-07-31T10:44:26Z","2020-07-31T10:44:45Z","2020-07-31T10:44:57Z","2020-07-31T10:45:12Z","2020-07-31T10:45:28Z","2020-07-31T10:45:42Z","2020-07-31T10:46:02Z","2020-07-31T10:46:14Z","2020-07-31T10:46:25Z","2020-07-31T10:46:34Z","2020-07-31T10:46:45Z","2020-07-31T10:47:15Z","2020-07-31T10:47:30Z","2020-07-31T10:47:39Z","2020-07-31T10:48:16Z","2020-07-31T10:48:48Z","2020-07-31T10:49:02Z","2020-07-31T10:49:16Z","2020-07-31T10:49:34Z","2020-07-31T10:50:08Z","2020-07-31T10:50:40Z","2020-07-31T10:50:59Z","2020-07-31T10:51:12Z","2020-07-31T10:51:23Z","2020-07-31T10:51:46Z","2020-07-31T10:52:41Z","2020-07-31T10:55:21Z","2020-07-31T10:55:34Z","2020-07-31T10:55:57Z","2020-07-31T10:56:18Z","2020-07-31T10:56:41Z","2020-07-31T10:56:53Z","2020-07-31T10:57:05Z","2020-07-31T10:57:17Z","2020-07-31T10:57:33Z","2020-07-31T10:57:44Z","2020-07-31T10:57:56Z","2020-07-31T10:58:17Z","2020-07-31T10:58:35Z","2020-07-31T10:58:53Z","2020-07-31T10:59:04Z","2020-07-31T10:59:16Z","2020-07-31T10:59:26Z","2020-07-31T11:00:45Z","2020-07-31T11:00:55Z","2020-07-31T11:01:04Z","2020-07-31T11:01:17Z","2020-07-31T11:02:52Z","2020-07-31T11:04:00Z","2020-07-31T11:04:16Z","2020-07-31T11:04:32Z","2020-07-31T11:04:42Z","2020-07-31T11:04:54Z","2020-07-31T11:05:03Z","2020-07-31T11:05:12Z","2020-07-31T11:05:22Z","2020-07-31T11:05:34Z","2020-07-31T11:05:44Z","2020-07-31T11:06:24Z","2020-07-31T11:06:32Z","2020-07-31T11:06:40Z","2020-07-31T11:06:49Z","2020-07-31T11:07:20Z","2020-07-31T11:07:29Z","2020-07-31T11:07:37Z","2020-07-31T11:08:11Z","2020-07-31T11:09:22Z","2020-07-31T11:09:31Z","2020-07-31T11:09:38Z","2020-07-31T11:09:45Z","2020-07-31T11:09:52Z","2020-07-31T11:10:16Z","2020-07-31T11:10:23Z","2020-07-31T11:10:29Z","2020-07-31T11:10:37Z","2020-07-31T11:10:47Z","2020-07-31T11:10:55Z","2020-07-31T11:11:03Z","2020-07-31T11:11:09Z","2020-07-31T11:11:17Z","2020-07-31T11:11:27Z","2020-07-31T11:11:45Z","2020-07-31T11:11:53Z","2020-07-31T11:12:00Z","2020-07-31T11:12:07Z","2020-07-31T11:12:14Z","2020-07-31T11:12:21Z","2020-07-31T11:12:29Z","2020-07-31T11:12:57Z","2020-07-31T11:13:06Z","2020-07-31T11:13:15Z","2020-07-31T11:13:25Z","2020-07-31T11:13:33Z","2020-07-31T11:13:40Z","2020-07-31T11:13:48Z","2020-07-31T11:13:58Z","2020-07-31T11:14:06Z","2020-07-31T11:14:15Z","2020-07-31T11:14:23Z","2020-07-31T11:14:32Z","2020-07-31T11:14:38Z","2020-07-31T11:14:45Z","2020-07-31T11:14:52Z","2020-07-31T11:15:01Z","2020-07-31T11:15:10Z","2020-07-31T11:15:21Z","2020-07-31T11:15:34Z","2020-07-31T11:15:42Z","2020-07-31T11:15:50Z","2020-07-31T11:15:59Z","2020-07-31T11:16:09Z","2020-07-31T11:16:18Z","2020-07-31T11:16:32Z","2020-07-31T11:16:44Z","2020-07-31T11:16:51Z","2020-07-31T11:16:59Z","2020-07-31T11:17:07Z","2020-07-31T11:17:18Z","2020-07-31T11:17:27Z","2020-07-31T11:17:36Z","2020-07-31T11:17:47Z","2020-07-31T11:17:57Z","2020-07-31T11:18:10Z","2020-07-31T11:18:19Z","2020-07-31T11:18:29Z","2020-07-31T11:18:39Z","2020-07-31T11:18:47Z","2020-07-31T11:18:55Z","2020-07-31T11:19:03Z","2020-07-31T11:19:12Z","2020-07-31T11:19:32Z","2020-07-31T11:19:57Z","2020-07-31T11:21:43Z","2020-07-31T11:22:40Z","2020-07-31T11:22:53Z","2020-07-31T11:23:25Z","2020-07-31T11:23:43Z","2020-07-31T11:24:01Z","2020-07-31T11:24:11Z","2020-07-31T11:24:22Z","2020-07-31T11:24:46Z","2020-07-31T11:25:00Z","2020-07-31T11:25:20Z","2020-07-31T11:25:54Z","2020-07-31T11:26:49Z","2020-07-31T11:27:17Z","2020-07-31T11:27:43Z","2020-07-31T11:28:05Z","2020-07-31T11:28:28Z","2020-07-31T11:28:52Z","2020-07-31T11:29:12Z","2020-07-31T11:29:35Z","2020-07-31T11:29:58Z","2020-07-31T11:30:28Z","2020-07-31T11:31:04Z","2020-07-31T11:31:26Z","2020-07-31T11:31:48Z","2020-07-31T11:32:04Z","2020-07-31T11:32:29Z","2020-07-31T11:32:51Z","2020-07-31T11:33:10Z","2020-07-31T11:33:25Z","2020-07-31T11:33:35Z","2020-07-31T11:33:54Z","2020-07-31T11:34:18Z","2020-07-31T11:34:47Z","2020-07-31T11:35:02Z","2020-07-31T11:35:30Z","2020-07-31T11:35:55Z","2020-07-31T11:36:18Z","2020-07-31T11:36:50Z","2020-07-31T11:37:21Z","2020-07-31T11:37:41Z","2020-07-31T11:38:08Z","2020-07-31T11:38:32Z","2020-07-31T11:38:56Z","2020-07-31T11:39:20Z","2020-07-31T11:42:35Z","2020-07-31T11:42:46Z","2020-07-31T11:43:08Z","2020-07-31T11:43:28Z","2020-07-31T11:43:40Z","2020-07-31T11:44:30Z","2020-07-31T11:44:43Z","2020-07-31T11:45:02Z","2020-07-31T11:45:20Z","2020-07-31T11:45:42Z","2020-07-31T11:46:01Z","2020-07-31T11:46:17Z","2020-07-31T11:46:34Z","2020-07-31T11:46:50Z","2020-07-31T11:47:08Z","2020-07-31T11:47:55Z","2020-07-31T11:48:17Z","2020-07-31T11:48:33Z","2020-07-31T11:48:47Z","2020-07-31T11:49:28Z","2020-07-31T11:49:40Z","2020-07-31T11:49:50Z","2020-07-31T11:50:05Z","2020-07-31T11:50:19Z","2020-07-31T11:50:55Z","2020-07-31T11:51:13Z","2020-07-31T11:51:51Z","2020-07-31T11:52:07Z","2020-07-31T11:52:21Z","2020-07-31T11:52:36Z","2020-07-31T11:52:52Z","2020-07-31T11:53:07Z","2020-07-31T11:53:21Z","2020-07-31T11:53:49Z","2020-07-31T11:54:06Z","2020-07-31T11:54:24Z","2020-07-31T11:54:33Z","2020-07-31T11:54:43Z","2020-07-31T11:54:55Z","2020-07-31T11:55:06Z","2020-07-31T11:55:21Z","2020-07-31T11:55:36Z","2020-07-31T11:56:08Z","2020-07-31T11:56:20Z","2020-07-31T11:56:36Z","2020-07-31T11:56:46Z","2020-07-31T11:57:00Z","2020-07-31T11:57:13Z","2020-07-31T11:57:30Z","2020-07-31T11:57:43Z","2020-07-31T11:58:10Z","2020-07-31T11:58:30Z","2020-07-31T11:59:03Z","2020-07-31T11:59:16Z","2020-07-31T11:59:51Z","2020-07-31T12:00:19Z","2020-07-31T12:00:51Z","2020-07-31T12:01:53Z","2020-07-31T12:03:16Z","2020-07-31T12:03:29Z","2020-07-31T12:03:37Z","2020-07-31T12:03:44Z","2020-07-31T12:03:51Z","2020-07-31T12:03:57Z","2020-07-31T12:04:03Z","2020-07-31T12:04:10Z","2020-07-31T12:04:17Z","2020-07-31T12:04:25Z","2020-07-31T12:04:33Z","2020-07-31T12:04:40Z","2020-07-31T12:04:48Z","2020-07-31T12:04:55Z","2020-07-31T12:05:01Z","2020-07-31T12:05:08Z","2020-07-31T12:05:15Z","2020-07-31T12:05:22Z","2020-07-31T12:05:29Z","2020-07-31T12:05:36Z","2020-07-31T12:05:44Z","2020-07-31T12:05:56Z","2020-07-31T12:06:40Z","2020-07-31T12:06:54Z","2020-07-31T12:07:01Z","2020-07-31T12:07:08Z","2020-07-31T12:07:15Z","2020-07-31T12:07:21Z","2020-07-31T12:07:27Z","2020-07-31T12:07:34Z","2020-07-31T12:07:41Z","2020-07-31T12:07:47Z","2020-07-31T12:07:55Z","2020-07-31T12:08:02Z","2020-07-31T12:08:08Z","2020-07-31T12:08:15Z","2020-07-31T12:08:21Z","2020-07-31T12:08:28Z","2020-07-31T12:08:35Z","2020-07-31T12:08:43Z","2020-07-31T12:08:51Z","2020-07-31T12:08:59Z","2020-07-31T12:09:06Z","2020-07-31T12:09:12Z","2020-07-31T12:09:19Z","2020-07-31T12:09:25Z","2020-07-31T12:09:33Z","2020-07-31T12:09:40Z","2020-07-31T12:09:46Z","2020-07-31T12:09:53Z","2020-07-31T12:09:59Z","2020-07-31T12:10:05Z","2020-07-31T12:10:11Z","2020-07-31T12:10:17Z","2020-07-31T12:10:23Z","2020-07-31T12:10:30Z","2020-07-31T12:10:37Z","2020-07-31T12:10:44Z","2020-07-31T12:10:51Z","2020-07-31T12:10:58Z","2020-07-31T12:11:05Z","2020-07-31T12:11:14Z","2020-07-31T12:11:21Z","2020-07-31T12:11:28Z","2020-07-31T12:11:34Z","2020-07-31T12:11:41Z","2020-07-31T12:11:41Z","2020-07-31T12:14:39Z","2020-07-31T12:16:41Z","2020-07-31T12:17:53Z","2020-07-31T12:19:48Z","2020-07-31T12:20:35Z","2020-07-31T12:20:42Z","2020-07-31T12:20:49Z","2020-07-31T12:20:56Z","2020-07-31T12:21:03Z","2020-07-31T12:21:09Z","2020-07-31T12:21:16Z","2020-07-31T12:21:23Z","2020-07-31T12:21:30Z","2020-07-31T12:21:37Z","2020-07-31T12:21:44Z","2020-07-31T12:21:50Z","2020-07-31T12:21:57Z","2020-07-31T12:22:05Z","2020-07-31T12:22:12Z","2020-07-31T12:22:19Z","2020-07-31T12:22:26Z","2020-07-31T12:22:54Z","2020-07-31T12:23:01Z","2020-07-31T12:23:08Z","2020-07-31T12:23:15Z","2020-07-31T12:23:22Z","2020-07-31T12:23:30Z","2020-07-31T12:23:40Z","2020-07-31T12:24:36Z","2020-07-31T12:25:58Z","2020-07-31T12:26:14Z","2020-07-31T12:26:21Z","2020-07-31T12:26:28Z","2020-07-31T12:26:36Z","2020-07-31T12:26:43Z","2020-07-31T12:27:01Z","2020-07-31T12:27:11Z","2020-07-31T12:29:37Z","2020-07-31T12:29:46Z","2020-07-31T12:30:42Z","2020-07-31T12:30:50Z","2020-07-31T12:31:22Z","2020-07-31T12:31:32Z","2020-07-31T12:31:39Z","2020-07-31T12:31:50Z","2020-07-31T12:31:56Z","2020-07-31T12:32:03Z","2020-07-31T12:32:11Z","2020-07-31T12:32:19Z","2020-07-31T12:32:28Z","2020-07-31T12:32:37Z","2020-07-31T12:32:47Z","2020-07-31T12:33:12Z","2020-07-31T12:33:21Z","2020-07-31T12:33:28Z","2020-07-31T12:33:36Z","2020-07-31T12:33:44Z","2020-07-31T12:33:51Z","2020-07-31T12:33:59Z","2020-07-31T12:34:06Z","2020-07-31T12:34:14Z","2020-07-31T12:34:21Z","2020-07-31T12:34:28Z","2020-07-31T12:34:36Z","2020-07-31T12:34:43Z","2020-07-31T12:34:51Z","2020-07-31T12:34:59Z","2020-07-31T12:35:07Z","2020-07-31T12:35:15Z","2020-07-31T12:35:23Z","2020-07-31T12:35:31Z","2020-07-31T12:35:40Z","2020-07-31T12:35:49Z","2020-07-31T12:35:57Z","2020-07-31T12:36:07Z","2020-07-31T12:36:22Z","2020-07-31T12:37:26Z","2020-07-31T12:37:55Z","2020-07-31T12:38:05Z","2020-07-31T12:38:19Z","2020-07-31T12:38:30Z","2020-07-31T12:38:39Z","2020-07-31T12:38:48Z","2020-07-31T12:38:55Z","2020-07-31T12:39:03Z","2020-07-31T12:39:11Z","2020-07-31T12:39:55Z","2020-07-31T12:40:02Z","2020-07-31T12:40:11Z","2020-07-31T12:40:19Z","2020-07-31T12:40:29Z","2020-07-31T12:40:43Z","2020-07-31T12:41:19Z","2020-07-31T12:41:27Z","2020-07-31T12:41:34Z","2020-07-31T12:41:41Z","2020-07-31T12:41:49Z","2020-07-31T12:42:03Z","2020-07-31T12:42:14Z","2020-07-31T12:42:22Z","2020-07-31T12:42:30Z","2020-07-31T12:42:38Z","2020-07-31T12:42:47Z","2020-07-31T12:43:21Z","2020-07-31T12:43:29Z","2020-07-31T12:43:36Z","2020-07-31T12:43:43Z","2020-07-31T12:43:56Z","2020-07-31T12:44:06Z","2020-07-31T12:45:07Z","2020-07-31T12:46:54Z","2020-07-31T12:47:02Z","2020-07-31T12:47:10Z","2020-07-31T12:47:20Z","2020-07-31T12:47:28Z","2020-07-31T12:47:35Z","2020-07-31T12:47:42Z","2020-07-31T12:47:49Z","2020-07-31T12:47:55Z","2020-07-31T12:48:03Z","2020-07-31T12:48:10Z","2020-07-31T12:48:17Z","2020-07-31T12:48:24Z","2020-07-31T12:48:31Z","2020-07-31T12:48:39Z","2020-07-31T12:48:46Z","2020-07-31T12:48:53Z","2020-07-31T12:48:59Z","2020-07-31T12:49:06Z","2020-07-31T12:49:13Z","2020-07-31T12:49:21Z","2020-07-31T12:49:29Z","2020-07-31T12:49:36Z","2020-07-31T12:49:43Z","2020-07-31T12:49:51Z","2020-07-31T12:49:59Z","2020-07-31T12:50:07Z","2020-07-31T12:50:15Z","2020-07-31T12:50:22Z","2020-07-31T12:50:30Z","2020-07-31T12:50:38Z","2020-07-31T12:50:47Z","2020-07-31T12:51:03Z","2020-07-31T12:51:16Z","2020-07-31T12:51:22Z","2020-07-31T12:51:29Z","2020-07-31T12:51:36Z","2020-07-31T12:51:43Z","2020-07-31T12:51:49Z","2020-07-31T12:51:55Z","2020-07-31T12:52:01Z","2020-07-31T12:52:07Z","2020-07-31T12:52:13Z","2020-07-31T12:52:19Z","2020-07-31T12:52:25Z","2020-07-31T12:52:31Z","2020-07-31T12:52:37Z","2020-07-31T12:52:43Z","2020-07-31T12:52:49Z","2020-07-31T12:52:55Z","2020-07-31T12:53:01Z","2020-07-31T12:53:08Z","2020-07-31T12:53:14Z","2020-07-31T12:53:20Z","2020-07-31T12:53:26Z","2020-07-31T12:53:31Z","2020-07-31T12:53:37Z","2020-07-31T12:53:43Z","2020-07-31T12:53:49Z","2020-07-31T12:53:55Z","2020-07-31T12:54:01Z","2020-07-31T12:54:07Z","2020-07-31T12:11:41Z","2020-07-31T12:11:34Z","2020-07-31T12:11:28Z","2020-07-31T12:11:21Z","2020-07-31T12:11:14Z","2020-07-31T12:11:05Z","2020-07-31T12:10:58Z","2020-07-31T12:10:51Z","2020-07-31T12:10:44Z","2020-07-31T12:10:37Z","2020-07-31T12:10:30Z","2020-07-31T12:10:23Z","2020-07-31T12:10:17Z","2020-07-31T12:10:11Z","2020-07-31T12:10:05Z","2020-07-31T12:09:59Z","2020-07-31T12:09:53Z","2020-07-31T12:09:46Z","2020-07-31T12:09:40Z","2020-07-31T12:09:33Z","2020-07-31T12:09:25Z","2020-07-31T12:09:19Z","2020-07-31T12:09:12Z","2020-07-31T12:09:06Z","2020-07-31T12:08:59Z","2020-07-31T12:08:51Z","2020-07-31T12:08:43Z","2020-07-31T12:08:35Z","2020-07-31T12:08:28Z","2020-07-31T12:08:21Z","2020-07-31T12:08:15Z","2020-07-31T12:08:08Z","2020-07-31T12:08:02Z","2020-07-31T12:07:55Z","2020-07-31T12:07:47Z","2020-07-31T12:07:41Z","2020-07-31T12:07:34Z","2020-07-31T12:07:27Z","2020-07-31T12:07:21Z","2020-07-31T12:07:15Z","2020-07-31T12:07:08Z","2020-07-31T12:07:01Z","2020-07-31T12:06:54Z","2020-07-31T12:06:40Z","2020-07-31T12:05:56Z","2020-07-31T12:05:44Z","2020-07-31T12:05:36Z","2020-07-31T12:05:29Z","2020-07-31T12:05:22Z","2020-07-31T12:05:15Z","2020-07-31T12:05:08Z","2020-07-31T12:05:01Z","2020-07-31T12:04:55Z","2020-07-31T12:04:48Z","2020-07-31T12:04:40Z","2020-07-31T12:04:33Z","2020-07-31T12:04:25Z","2020-07-31T12:04:17Z","2020-07-31T12:04:10Z","2020-07-31T12:04:03Z","2020-07-31T12:03:57Z","2020-07-31T12:03:51Z","2020-07-31T12:03:44Z","2020-07-31T12:03:37Z","2020-07-31T12:03:29Z","2020-07-31T12:03:16Z","2020-07-31T12:01:53Z","2020-07-31T12:00:51Z","2020-07-31T12:00:19Z","2020-07-31T11:59:51Z","2020-07-31T11:59:16Z","2020-07-31T11:59:03Z","2020-07-31T11:58:30Z","2020-07-31T11:58:10Z","2020-07-31T11:57:43Z","2020-07-31T11:57:30Z","2020-07-31T11:57:13Z","2020-07-31T11:57:00Z","2020-07-31T11:56:46Z","2020-07-31T11:56:36Z","2020-07-31T11:56:20Z","2020-07-31T11:56:08Z","2020-07-31T11:55:36Z","2020-07-31T11:55:21Z","2020-07-31T11:55:06Z","2020-07-31T11:54:55Z","2020-07-31T11:54:43Z","2020-07-31T11:54:33Z","2020-07-31T11:54:24Z","2020-07-31T11:54:06Z","2020-07-31T11:53:49Z","2020-07-31T11:53:21Z","2020-07-31T11:53:07Z","2020-07-31T11:52:52Z","2020-07-31T11:52:36Z","2020-07-31T11:52:21Z","2020-07-31T11:52:07Z","2020-07-31T11:51:51Z","2020-07-31T11:51:13Z","2020-07-31T11:50:55Z","2020-07-31T11:50:19Z","2020-07-31T11:50:05Z","2020-07-31T11:49:50Z","2020-07-31T11:49:40Z","2020-07-31T11:49:28Z","2020-07-31T11:48:47Z","2020-07-31T11:48:33Z","2020-07-31T11:48:17Z","2020-07-31T11:47:55Z","2020-07-31T11:47:08Z","2020-07-31T11:46:50Z","2020-07-31T11:46:34Z","2020-07-31T11:46:17Z","2020-07-31T11:46:01Z","2020-07-31T11:45:42Z","2020-07-31T11:45:20Z","2020-07-31T11:45:02Z","2020-07-31T11:44:43Z","2020-07-31T11:44:30Z","2020-07-31T11:43:40Z","2020-07-31T11:43:28Z","2020-07-31T11:43:08Z","2020-07-31T11:42:46Z","2020-07-31T11:42:35Z","2020-07-31T11:39:20Z","2020-07-31T11:38:56Z","2020-07-31T11:38:32Z","2020-07-31T11:38:08Z","2020-07-31T11:37:41Z","2020-07-31T11:37:21Z","2020-07-31T11:36:50Z","2020-07-31T11:36:18Z","2020-07-31T11:35:55Z","2020-07-31T11:35:30Z","2020-07-31T11:35:02Z","2020-07-31T11:34:47Z","2020-07-31T11:34:18Z","2020-07-31T11:33:54Z","2020-07-31T11:33:35Z","2020-07-31T11:33:25Z","2020-07-31T11:33:10Z","2020-07-31T11:32:51Z","2020-07-31T11:32:29Z","2020-07-31T11:32:04Z","2020-07-31T11:31:48Z","2020-07-31T11:31:26Z","2020-07-31T11:31:04Z","2020-07-31T11:30:28Z","2020-07-31T11:29:58Z","2020-07-31T11:29:35Z","2020-07-31T11:29:12Z","2020-07-31T11:28:52Z","2020-07-31T11:28:28Z","2020-07-31T11:28:05Z","2020-07-31T11:27:43Z","2020-07-31T11:27:17Z","2020-07-31T11:26:49Z","2020-07-31T11:25:54Z","2020-07-31T11:25:20Z","2020-07-31T11:25:00Z","2020-07-31T11:24:46Z","2020-07-31T11:24:22Z","2020-07-31T11:24:11Z","2020-07-31T11:24:01Z","2020-07-31T11:23:43Z","2020-07-31T11:23:25Z","2020-07-31T11:22:53Z","2020-07-31T11:22:40Z","2020-07-31T11:21:43Z","2020-07-31T11:19:57Z","2020-07-31T11:19:32Z","2020-07-31T11:19:12Z","2020-07-31T11:19:03Z","2020-07-31T11:18:55Z","2020-07-31T11:18:47Z","2020-07-31T11:18:39Z","2020-07-31T11:18:29Z","2020-07-31T11:18:19Z","2020-07-31T11:18:10Z","2020-07-31T11:17:57Z","2020-07-31T11:17:47Z","2020-07-31T11:17:36Z","2020-07-31T11:17:27Z","2020-07-31T11:17:18Z","2020-07-31T11:17:07Z","2020-07-31T11:16:59Z","2020-07-31T11:16:51Z","2020-07-31T11:16:44Z","2020-07-31T11:16:32Z","2020-07-31T11:16:18Z","2020-07-31T11:16:09Z","2020-07-31T11:15:59Z","2020-07-31T11:15:50Z","2020-07-31T11:15:42Z","2020-07-31T11:15:34Z","2020-07-31T11:15:21Z","2020-07-31T11:15:10Z","2020-07-31T11:15:01Z","2020-07-31T11:14:52Z","2020-07-31T11:14:45Z","2020-07-31T11:14:38Z","2020-07-31T11:14:32Z","2020-07-31T11:14:23Z","2020-07-31T11:14:15Z","2020-07-31T11:14:06Z","2020-07-31T11:13:58Z","2020-07-31T11:13:48Z","2020-07-31T11:13:40Z","2020-07-31T11:13:33Z","2020-07-31T11:13:25Z","2020-07-31T11:13:15Z","2020-07-31T11:13:06Z","2020-07-31T11:12:57Z","2020-07-31T11:12:29Z","2020-07-31T11:12:21Z","2020-07-31T11:12:14Z","2020-07-31T11:12:07Z","2020-07-31T11:12:00Z","2020-07-31T11:11:53Z","2020-07-31T11:11:45Z","2020-07-31T11:11:27Z","2020-07-31T11:11:17Z","2020-07-31T11:11:09Z","2020-07-31T11:11:03Z","2020-07-31T11:10:55Z","2020-07-31T11:10:47Z","2020-07-31T11:10:37Z","2020-07-31T11:10:29Z","2020-07-31T11:10:23Z","2020-07-31T11:10:16Z","2020-07-31T11:09:52Z","2020-07-31T11:09:45Z","2020-07-31T11:09:38Z","2020-07-31T11:09:31Z","2020-07-31T11:09:22Z","2020-07-31T11:08:11Z","2020-07-31T11:07:37Z","2020-07-31T11:07:29Z","2020-07-31T11:07:20Z","2020-07-31T11:06:49Z","2020-07-31T11:06:40Z","2020-07-31T11:06:32Z","2020-07-31T11:06:24Z","2020-07-31T11:05:44Z","2020-07-31T11:05:34Z","2020-07-31T11:05:22Z","2020-07-31T11:05:12Z","2020-07-31T11:05:03Z","2020-07-31T11:04:54Z","2020-07-31T11:04:42Z","2020-07-31T11:04:32Z","2020-07-31T11:04:16Z","2020-07-31T11:04:00Z","2020-07-31T11:02:52Z","2020-07-31T11:01:17Z","2020-07-31T11:01:04Z","2020-07-31T11:00:55Z","2020-07-31T11:00:45Z","2020-07-31T10:59:26Z","2020-07-31T10:59:16Z","2020-07-31T10:59:04Z","2020-07-31T10:58:53Z","2020-07-31T10:58:35Z","2020-07-31T10:58:17Z","2020-07-31T10:57:56Z","2020-07-31T10:57:44Z","2020-07-31T10:57:33Z","2020-07-31T10:57:17Z","2020-07-31T10:57:05Z","2020-07-31T10:56:53Z","2020-07-31T10:56:41Z","2020-07-31T10:56:18Z","2020-07-31T10:55:57Z","2020-07-31T10:55:34Z","2020-07-31T10:55:21Z","2020-07-31T10:52:41Z","2020-07-31T10:51:46Z","2020-07-31T10:51:23Z","2020-07-31T10:51:12Z","2020-07-31T10:50:59Z","2020-07-31T10:50:40Z","2020-07-31T10:50:08Z","2020-07-31T10:49:34Z","2020-07-31T10:49:16Z","2020-07-31T10:49:02Z","2020-07-31T10:48:48Z","2020-07-31T10:48:16Z","2020-07-31T10:47:39Z","2020-07-31T10:47:30Z","2020-07-31T10:47:15Z","2020-07-31T10:46:45Z","2020-07-31T10:46:34Z","2020-07-31T10:46:25Z","2020-07-31T10:46:14Z","2020-07-31T10:46:02Z","2020-07-31T10:45:42Z","2020-07-31T10:45:28Z","2020-07-31T10:45:12Z","2020-07-31T10:44:57Z","2020-07-31T10:44:45Z","2020-07-31T10:44:26Z","2020-07-31T10:43:38Z","2020-07-31T10:43:17Z","2020-07-31T10:43:01Z","2020-07-31T10:42:51Z","2020-07-31T10:42:36Z","2020-07-31T10:42:21Z","2020-07-31T10:41:38Z","2020-07-31T10:41:24Z","2020-07-31T10:41:09Z","2020-07-31T10:40:55Z","2020-07-31T10:40:42Z","2020-07-31T10:40:30Z","2020-07-31T10:40:21Z","2020-07-31T10:40:12Z","2020-07-31T10:40:00Z","2020-07-31T10:39:50Z","2020-07-31T10:39:41Z","2020-07-31T10:39:33Z","2020-07-31T10:39:24Z","2020-07-31T10:39:15Z","2020-07-31T10:39:07Z","2020-07-31T10:38:57Z","2020-07-31T10:38:44Z","2020-07-31T10:38:31Z","2020-07-31T10:38:20Z","2020-07-31T10:37:56Z","2020-07-31T10:37:41Z","2020-07-31T10:37:18Z","2020-07-31T10:37:09Z","2020-07-31T10:37:01Z","2020-07-31T10:36:52Z","2020-07-31T10:36:22Z","2020-07-31T10:36:15Z","2020-07-31T10:36:08Z","2020-07-31T10:36:01Z","2020-07-31T10:35:54Z","2020-07-31T10:35:47Z","2020-07-31T10:35:41Z","2020-07-31T10:35:35Z","2020-07-31T10:35:29Z","2020-07-31T10:35:22Z","2020-07-31T10:35:15Z","2020-07-31T10:35:08Z","2020-07-31T10:35:02Z","2020-07-31T10:34:56Z","2020-07-31T10:34:49Z","2020-07-31T10:34:42Z","2020-07-31T10:34:35Z","2020-07-31T10:34:28Z","2020-07-31T10:34:21Z","2020-07-31T10:34:15Z","2020-07-31T10:34:08Z","2020-07-31T10:34:02Z","2020-07-31T10:33:55Z","2020-07-31T10:33:48Z","2020-07-31T10:33:42Z","2020-07-31T10:33:36Z","2020-07-31T10:33:29Z","2020-07-31T10:33:23Z","2020-07-31T10:32:37Z","2020-07-31T10:32:30Z","2020-07-31T10:32:09Z"]}},"geometry":{"type":"LineString","coordinates":[[-7.40170824341476,62.09670988842845,94.32],[-7.401941763237119,62.09670159034431,136.26],[-7.402145778760314,62.09667828865349,130.83],[-7.402355074882507,62.096676863729954,131.95],[-7.402532603591681,62.09663319401443,129.52],[-7.402716083452106,62.0965778734535,129.27],[-7.402878105640411,62.09649380296469,130.68],[-7.403006013482809,62.09642129950225,129.63],[-7.403143895789981,62.096344102174044,129.5],[-7.403271468356252,62.096255254000425,128.94],[-7.403387390077114,62.096175039187074,128.24],[-7.403512028977275,62.096081329509616,128.33],[-7.403614288195968,62.09599197842181,129.02],[-7.403722498565912,62.0959095004946,127.4],[-7.403831044211984,62.09582727402449,127.72],[-7.403957108035684,62.095744125545025,128.25],[-7.40401703864336,62.09563868120313,129.65],[-7.40411720238626,62.0955416187644,128.59],[-7.404184760525823,62.09545134566724,129.01],[-7.404243098571897,62.09535243920982,129.94],[-7.404328174889088,62.09524833597243,131.49],[-7.404352985322475,62.095149513334036,130.78],[-7.404428506270051,62.09505504928529,130.54],[-7.404481312260032,62.094957400113344,130.62],[-7.404549540951848,62.094856062904,130.32],[-7.40461022593081,62.09476327523589,128.35],[-7.404669653624296,62.09466462023556,128.08],[-7.404752718284726,62.09457443095744,129.79],[-7.404915830120444,62.09451743401587,128.09],[-7.405092269182205,62.09445976652205,128.56],[-7.405293434858322,62.094405787065625,130.55],[-7.40551857277751,62.094377959147096,130.58],[-7.405745219439268,62.09438684396446,130.99],[-7.405933812260628,62.09440452978015,131.95],[-7.406156687065959,62.094421964138746,132.77],[-7.406309489160776,62.09445146843791,132.59],[-7.406480144709349,62.0944572519511,137.31],[-7.406713161617518,62.094478541985154,142.47],[-7.406900832429528,62.09453268907964,144.37],[-7.407035613432527,62.094576358795166,147.69],[-7.407221859320998,62.094616927206516,150.51],[-7.407378768548369,62.094559678807855,151.14],[-7.40752000361681,62.09449631161988,153.15],[-7.407669452950358,62.09443252533674,154.53],[-7.407816639170051,62.09438449703157,156],[-7.407976817339659,62.09433772601187,156.53],[-7.408156860619783,62.09428181871772,158.26],[-7.408355595543981,62.09425549954176,160.98],[-7.408566735684872,62.094209818169475,164.02],[-7.408757004886866,62.09415734745562,162.43],[-7.408956410363317,62.094113510102034,163.22],[-7.409165035933256,62.09408484399319,164.51],[-7.409410793334246,62.09404067136347,166.12],[-7.409607181325555,62.09400127641857,170.47],[-7.409810861572623,62.093990379944444,171.53],[-7.409999202936888,62.0940425992012,174.64],[-7.410223167389631,62.09403966553509,178.05],[-7.410353170707822,62.0940980874002,182.91],[-7.410529190674424,62.09407386370003,183.18],[-7.410677969455719,62.094013346359134,186.49],[-7.41083974018693,62.09395308047533,189.45],[-7.410920290276408,62.09404251538217,195.12],[-7.411027075722814,62.094069086015224,200.11],[-7.411216339096427,62.094016363844275,203.63],[-7.411413984373212,62.093968419358134,206.77],[-7.411523284390569,62.0940306968987,212.18],[-7.411559745669365,62.09411837160587,213.15],[-7.411739621311426,62.09416304714978,217.33],[-7.411919245496392,62.094160951673985,222.19],[-7.412082944065332,62.0941202994436,226.7],[-7.41230171173811,62.09409071132541,228.27],[-7.412481671199203,62.0940497238189,230.83],[-7.412650566548109,62.093999264761806,235.19],[-7.412823233753443,62.09397587925196,238.22],[-7.413011156022549,62.09396397694945,241.58],[-7.413230678066611,62.0939358137548,248.57],[-7.413405356928706,62.0939426869154,249.76],[-7.413335032761097,62.09404477849603,242.73],[-7.413238557055593,62.09414787590504,245.02],[-7.413169657811523,62.094232868403196,246.49],[-7.413067650049925,62.09432741627097,254.47],[-7.413136130198836,62.09442204795778,258.84],[-7.413109475746751,62.09448181092739,260.79],[-7.413140824064612,62.09448273293674,265.42],[-7.413330171257258,62.09448549896479,269.16],[-7.413529325276613,62.09447116591036,268.57],[-7.413709871470928,62.09447409957647,273.94],[-7.413633596152067,62.09451399743557,269.99],[-7.413611551746726,62.0945436693728,268.09],[-7.413475597277284,62.094608042389154,270.99],[-7.413549106568098,62.09464240819216,275.28],[-7.413577688857913,62.094698902219534,277.16],[-7.413670979440212,62.094756569713354,282.36],[-7.413860410451889,62.094750702381134,286.62],[-7.414060989394784,62.09474944509566,289.3],[-7.414237596094608,62.09476755000651,293.78],[-7.414108430966735,62.094848435372114,294.93],[-7.413992928341031,62.0949319191277,295.28],[-7.413904583081603,62.09500014781952,298.77],[-7.413894608616829,62.09505773149431,301.25],[-7.413864098489285,62.095111291855574,307],[-7.414030395448208,62.09511489607394,309.35],[-7.414215467870235,62.095072735100985,315.6],[-7.414415795356035,62.09507156163454,318.56],[-7.414625007659197,62.095064017921686,320.06],[-7.414788790047169,62.09508472122252,321.53],[-7.414987022057176,62.095081117004156,322.78],[-7.415174944326282,62.09509268403053,324.53],[-7.415151726454496,62.09518379531801,330.04],[-7.415109314024448,62.095214975997806,329.58],[-7.415226576849818,62.09525981917977,332.2],[-7.415373092517257,62.095318995416164,338.33],[-7.41555598564446,62.0953862182796,342.26],[-7.415756396949291,62.095424020662904,343.95],[-7.415961418300867,62.09547028876841,343.34],[-7.41616434417665,62.09548898041248,348.67],[-7.416345728561282,62.095548743382096,351.02],[-7.416518060490489,62.09560381248593,352.74],[-7.41661487147212,62.095684949308634,353.36],[-7.416733307763934,62.09576541557908,352.39],[-7.416896084323525,62.09585644304752,358.67],[-7.416975880041719,62.09594336338341,358.66],[-7.417109655216336,62.0960302837193,361.77],[-7.417138321325183,62.096121814101934,358.57],[-7.417141171172261,62.09621971473098,362.74],[-7.417195737361908,62.096314849331975,365.04],[-7.417217195034027,62.09640705026686,366.51],[-7.417267905548215,62.096502017229795,368.11],[-7.417275784537196,62.096511237323284,370.05],[-7.41745431907475,62.0965707488358,372.35],[-7.417579125612974,62.096652556210756,370.79],[-7.417699238285422,62.09673780016601,372.08],[-7.417859081178904,62.09679312072694,372.55],[-7.417972572147846,62.09688331000507,374.25],[-7.418104419484735,62.09696629084647,375.48],[-7.4182806070894,62.09702328778803,377.79],[-7.418368952348828,62.09711255505681,376.46],[-7.418474648147821,62.09721674211323,375.44],[-7.4185292981565,62.097312211990356,376.57],[-7.418625019490719,62.09740608930588,378.06],[-7.418749071657658,62.09748471155763,377.56],[-7.418838758021593,62.097580432891846,378.59],[-7.418908579275012,62.097675651311874,380.78],[-7.419001199305058,62.097771959379315,378.55],[-7.41904185153544,62.09787421859801,377.88],[-7.419124580919743,62.097974214702845,377.63],[-7.419158443808556,62.09807898849249,377],[-7.419211333617568,62.09818225353956,379.36],[-7.419252656400204,62.09828149527311,379.7],[-7.419272186234593,62.098380234092474,378.39],[-7.41932088509202,62.09847528487444,378.09],[-7.41937268525362,62.0985671505332,379.65],[-7.419333793222904,62.09865893237293,378.45],[-7.419311245903373,62.09877636283636,378.02],[-7.419288866221905,62.09888775832951,379.86],[-7.419290374964476,62.098995465785265,379.39],[-7.419275119900703,62.099101077765226,380.32],[-7.419244106858969,62.09921884350479,381.69],[-7.419248968362808,62.09933007135987,379.91],[-7.41926615126431,62.099448926746845,381.67],[-7.419266235083342,62.099573984742165,382.44],[-7.419292302802205,62.09969845600426,381.88],[-7.419295655563474,62.09980498999357,384.25],[-7.419287860393524,62.0999089255929,383.42],[-7.419300684705377,62.10000900551677,384.2],[-7.419246034696698,62.1001280285418,384.67],[-7.419251650571823,62.100226264446974,386.01],[-7.419215859845281,62.10033514536917,391.68],[-7.419232958927751,62.100444696843624,391.73],[-7.41925542242825,62.10054762661457,394.67],[-7.419295152649283,62.10064326412976,397.12],[-7.419341504573822,62.10074317641556,399.2],[-7.41940688341856,62.100842921063304,400.77],[-7.419500593096018,62.100921124219894,401.84],[-7.419598829001188,62.101024221628904,402.55],[-7.419674014672637,62.10112086497247,404.53],[-7.419786667451263,62.10119420662522,406.85],[-7.4198745097965,62.101287078112364,407.75],[-7.419986240565777,62.1013696398586,411.63],[-7.420114651322365,62.10145580582321,407.39],[-7.420200733467937,62.10155571810901,408.81],[-7.420280110090971,62.10163434036076,412.97],[-7.420399384573102,62.1017306484282,416.62],[-7.420530142262578,62.101816311478615,418.02],[-7.420629719272256,62.10191664285958,425.06],[-7.420775145292282,62.102002557367086,424.17],[-7.420904729515314,62.10208025760949,429.06],[-7.421016376465559,62.102176984772086,427],[-7.42111318744719,62.10226373746991,427.21],[-7.421213099732995,62.10234638303518,428.36],[-7.421358525753021,62.10243573412299,427.39],[-7.421499593183398,62.10251628421247,431.18],[-7.421587267890573,62.102606473490596,451.78],[-7.421692544594407,62.10267369635403,438.23],[-7.421766556799412,62.10273454897106,436.08],[-7.421681815758348,62.10282105021179,434.56],[-7.421528091654182,62.10290729999542,431.76],[-7.421537144109607,62.10299212485552,427.98],[-7.421678379178047,62.10297318175435,423.95],[-7.421743338927627,62.10304509848356,417.62],[-7.421750547364354,62.1031485311687,416.67],[-7.421817602589726,62.103245593607426,411.53],[-7.421899829059839,62.103189853951335,414.09],[-7.422017343342304,62.103086253628135,408.35],[-7.422083141282201,62.103168396279216,406.9],[-7.422286067157984,62.103155655786395,402.96],[-7.422352619469166,62.10313838906586,398.78],[-7.422545151785016,62.10313830524683,397.58],[-7.422742126509547,62.10316898301244,393.6],[-7.422951925545931,62.10319144651294,392.29],[-7.423044629395008,62.103246599435806,389.02],[-7.422897862270474,62.103336453437805,385.87],[-7.42302711121738,62.10333050228655,385.01],[-7.423236826434732,62.10334944538772,381.93],[-7.423456851392984,62.10332932882011,379.17],[-7.423634044826031,62.10336000658572,378.31],[-7.423844765871763,62.103418009355664,370.08],[-7.423788523301482,62.103489423170686,363.44],[-7.423672853037715,62.10359319113195,363.99],[-7.423526169732213,62.10366887971759,358.86],[-7.423617700114846,62.103675082325935,353.33],[-7.423830013722181,62.103653121739626,347.77],[-7.424017433077097,62.103654965758324,346.25],[-7.424246510490775,62.103661336004734,344.6],[-7.42445781826973,62.10363484919071,343.48],[-7.424671640619636,62.1036060154438,336.96],[-7.424846738576889,62.10362554527819,336.18],[-7.424970120191574,62.10368111729622,333.34],[-7.425201209262013,62.10369729436934,330.11],[-7.425346886739135,62.10368815809488,326.78],[-7.425532042980194,62.10370718501508,323.66],[-7.425709320232272,62.103731324896216,321.94],[-7.425874695181847,62.10379200987518,317.75],[-7.42586899548769,62.103863256052136,314.76],[-7.426048368215561,62.10382637567818,311.06],[-7.426212821155787,62.10382763296366,308.81],[-7.426458578556776,62.10386401042342,305.83],[-7.426644992083311,62.10385864600539,303.5],[-7.42682084441185,62.10387038066983,299.53],[-7.426825370639563,62.103863675147295,298.59],[-7.426647590473294,62.10391036234796,297.38],[-7.42649981752038,62.1039688680321,292.28],[-7.426401330158114,62.10403827019036,289.18],[-7.426598975434899,62.10404371842742,286],[-7.426581038162112,62.10407657548785,283.16],[-7.426397306844592,62.104133404791355,281.86],[-7.426238302141428,62.104197358712554,277.45],[-7.426096815615892,62.10424060933292,275.36],[-7.426273170858622,62.10428461432457,270.6],[-7.426353385671973,62.104339096695185,270.49],[-7.426156075671315,62.104363488033414,266.39],[-7.426262525841594,62.104413360357285,260.21],[-7.426449693739414,62.10445669479668,257.07],[-7.426408622413874,62.10451293736696,255.24],[-7.426296891644597,62.10457814857364,253.11],[-7.426497219130397,62.10460086353123,249.77],[-7.426544409245253,62.10465308278799,246.39],[-7.426438881084323,62.10473363287747,242.74],[-7.42645681835711,62.104783756658435,239.51],[-7.426567208021879,62.10482155904174,236.51],[-7.426751274615526,62.10480077192187,234.14],[-7.42667525075376,62.10487059317529,230.36],[-7.426617415621877,62.10492809303105,227.49],[-7.426691260188818,62.1049739420414,231.58],[-7.426636358723044,62.10503797978163,226.57],[-7.426792262122035,62.10507318377495,222.84],[-7.42681740783155,62.10512515157461,216.86],[-7.426881277933717,62.10516823455691,215.65],[-7.426940202713013,62.1052086353302,215.97],[-7.426989488303661,62.10526077076793,212.99],[-7.427133992314339,62.10530603304505,206.39],[-7.427069870755076,62.10537711158395,200.07],[-7.42719903588295,62.10541097447276,193.9],[-7.427330799400806,62.10542622953653,192.94],[-7.427365332841873,62.10547786206007,191],[-7.427290063351393,62.105564111843705,187.94],[-7.427262738347054,62.105634436011314,186.08],[-7.427457198500633,62.1056161634624,184.45],[-7.427637409418821,62.10558372549713,181.02],[-7.427609162405133,62.10566486231983,178.16],[-7.427527019754052,62.105734599754214,176.11],[-7.427713936194778,62.10573334246874,174.18],[-7.427864475175738,62.10572118870914,172.2],[-7.427785685285926,62.10580123588443,169.08],[-7.427906803786755,62.10580685175955,168.82],[-7.428084081038833,62.10578707046807,166.23],[-7.428260771557689,62.10578975267708,164.12],[-7.428234620019794,62.105857813730836,160.75],[-7.428396139293909,62.10585496388376,158.98],[-7.428371496498585,62.1059306524694,152.83],[-7.428565118461847,62.10596208460629,152.45],[-7.428591269999743,62.106006341055036,147.57],[-7.428728900849819,62.10604808293283,145.93],[-7.428617337718606,62.10611958056688,141.89],[-7.428729319944978,62.10619501769543,142.44],[-7.42881883867085,62.106241872534156,143.76],[-7.428792854771018,62.10620331577957,143.89],[-7.428845325484872,62.10618311539292,145.78],[-7.429035594686866,62.10612494498491,144.61],[-7.429219745099545,62.1060633379966,141.69],[-7.429387466982007,62.10600709542632,141.58],[-7.429553512483835,62.10593341849744,141.44],[-7.429696340113878,62.10586921311915,139.7],[-7.429837491363287,62.105800062417984,139.33],[-7.429963639006019,62.1057268884033,137.71],[-7.43009515106678,62.10564793087542,136.84],[-7.430236972868443,62.10558691062033,137.1],[-7.430440569296479,62.10551851429045,135.34],[-7.430591778829694,62.10544324479997,134.17],[-7.430749610066414,62.10536856204271,132.75],[-7.430900651961565,62.10528566502035,131.98],[-7.431039121001959,62.10521592758596,130.84],[-7.431178763508797,62.10515004582703,130.57],[-7.431323518976569,62.10506455041468,128.62],[-7.431481601670384,62.10499565117061,128.13],[-7.43165384978056,62.10492708720267,126.14],[-7.431827774271369,62.104871766641736,127.12],[-7.432094654068351,62.104858523234725,124.82],[-7.43229397572577,62.10484150797129,125.17],[-7.43240050971508,62.10482549853623,123.5],[-7.43234627880156,62.10491702891886,124.2],[-7.432269919663668,62.10501769557595,123.24],[-7.432211162522435,62.10510461591184,121.58],[-7.432133546099067,62.105173682793975,120.1],[-7.432010499760509,62.10527108050883,118.2],[-7.431901199743152,62.10533604025841,116.89],[-7.431783266365528,62.105400916188955,114.27],[-7.431659381836653,62.10549311712384,113.03],[-7.431553434580565,62.10555790923536,112.43],[-7.431429047137499,62.10564256645739,112.64],[-7.431328883394599,62.105754129588604,109.22],[-7.43124146014452,62.105845576152205,108.26],[-7.431156635284424,62.10593702271581,106.74],[-7.431081784889102,62.10601740516722,106.69],[-7.431021686643362,62.106109857559204,103.7],[-7.430978855118156,62.10620641708374,102.42],[-7.430979190394282,62.10630465298891,99.79],[-7.430984387174249,62.10641261190176,99.24],[-7.430975502356887,62.10653339512646,98.01],[-7.43092336691916,62.106646383181214,97.24],[-7.430922612547875,62.106753922998905,95.53],[-7.430950859561563,62.10685811005533,92.86],[-7.430962594226003,62.106949305161834,89.67],[-7.431005006656051,62.10703957825899,91.46],[-7.431049766018987,62.10713622160256,87.11],[-7.43108413182199,62.1072306856513,86.25],[-7.431149259209633,62.10731660015881,85.78],[-7.431199215352535,62.10740930400789,83.77],[-7.431265097111464,62.10749991238117,81.69],[-7.431312371045351,62.10759345442057,84.01],[-7.43138269521296,62.10768297314644,81.5],[-7.431483529508114,62.10776184685528,79.08],[-7.431579167023301,62.107843989506364,77.55],[-7.43167782202363,62.107935855165124,76.33],[-7.431776728481054,62.10802084766328,75.8],[-7.431891476735473,62.10810324177146,74.24],[-7.431998765096068,62.10818781517446,74.24],[-7.432126672938466,62.108274986967444,73.99],[-7.43227151222527,62.10835101082921,72.26],[-7.432426661252976,62.10842519067228,68.71],[-7.432578038424254,62.10850934498012,69.02],[-7.432710388675332,62.10858570411801,66.8],[-7.432817174121738,62.10865401662886,68.88],[-7.432817174121738,62.10865401662886,68.88],[-7.432891186326742,62.10854790173471,62.92],[-7.432925216853619,62.10854798555374,65.59],[-7.432891102507711,62.108541866764426,63.82],[-7.432888085022569,62.108558882027864,65.01],[-7.432963857427239,62.10849090479314,62.24],[-7.433013394474983,62.10839342325926,62.81],[-7.433045161888003,62.10828470997512,62.78],[-7.433114983141422,62.108182115480304,62.41],[-7.433157060295343,62.10807340219617,62.48],[-7.433230904862285,62.10797784850001,63.19],[-7.433303659781814,62.107884641736746,63.55],[-7.43339778855443,62.10779503919184,64.39],[-7.433490073308349,62.1077090408653,64.17],[-7.433611778542399,62.10761675611138,64.23],[-7.433720575645566,62.10751634091139,63.73],[-7.433798527345061,62.10742296651006,64.35],[-7.433836832642555,62.107331436127424,64.41],[-7.43387564085424,62.10722674615681,65.41],[-7.433902630582452,62.10712448693812,66.36],[-7.433900786563754,62.107021138072014,64.12],[-7.433891398832202,62.1069217287004,60.68],[-7.433980498462915,62.106841849163175,60.82],[-7.434041770175099,62.10674939677119,62.8],[-7.434129780158401,62.10666532628238,62.75],[-7.434247713536024,62.10658083669841,61.49],[-7.434393307194114,62.10651881061494,60.28],[-7.434628671035171,62.10654320195317,60.17],[-7.434787843376398,62.106595588847995,60.55],[-7.434844002127647,62.10661838762462,60],[-7.434747442603111,62.106551583856344,62.76],[-7.434601178392768,62.10650120861828,60.47],[-7.434429936110973,62.1065538469702,58.92],[-7.434300519526005,62.106628278270364,59.65],[-7.434217622503638,62.106697764247656,59.74],[-7.434136904776096,62.10678451694548,59.48],[-7.434083009138703,62.106867330148816,60.66],[-7.434045542031527,62.10696774534881,64.28],[-7.43401637300849,62.10708542726934,58.18],[-7.434062138199806,62.10717452690005,59.8],[-7.43406280875206,62.10720629431307,62.17],[-7.434192225337029,62.10727837868035,59.19],[-7.434323150664568,62.10733839310706,58.58],[-7.434515347704291,62.10740729235113,58.23],[-7.434649793431163,62.107478035613894,58.03],[-7.434803768992424,62.10756470449269,53.77],[-7.434935364872217,62.107632011175156,53.3],[-7.435077354311943,62.10769663564861,51.25],[-7.435175506398082,62.10777626372874,60.39],[-7.435334259644151,62.10782219655812,54.1],[-7.435529893264175,62.107857232913375,55.56],[-7.4357133731246,62.10784365423024,48.78],[-7.435885369777679,62.10777794010937,49.14],[-7.436006907373667,62.10773468948901,55.68],[-7.436197595670819,62.107707280665636,57.52],[-7.436403706669807,62.10768900811672,55.56],[-7.436626916751266,62.10768121294677,55.53],[-7.436811402440071,62.10774173028767,55.23],[-7.436959259212017,62.107815239578485,56.96],[-7.437109714373946,62.10788774304092,55.21],[-7.437259163707495,62.107957899570465,56.9],[-7.437398554757237,62.10803484544158,53.8],[-7.437497461214662,62.108123023062944,55.81],[-7.437627296894789,62.10820005275309,56.42],[-7.437770124524832,62.10829242132604,58.52],[-7.437876993790269,62.10837313905358,59.73],[-7.437969362363219,62.10845888592303,61.33],[-7.438035160303116,62.10855477489531,62.76],[-7.438132809475064,62.108641946688294,67.44],[-7.438219813629985,62.10873146541417,67.82],[-7.438310254365206,62.108815368264914,67.76],[-7.438405388966203,62.10890061222017,67.62],[-7.438500104472041,62.10898811928928,68.47],[-7.43863882496953,62.10906841792166,69.06],[-7.438781233504415,62.10913530550897,69.32],[-7.438912997022271,62.1092130895704,72.6],[-7.439018692821264,62.1092995069921,72.03],[-7.439053896814585,62.10932641290128,77.01],[-7.439070660620928,62.10932431742549,74.89],[-7.439189767464995,62.109403694048524,78.73],[-7.439374253153801,62.10947108455002,85.17],[-7.43960970081389,62.109513245522976,85.35],[-7.439829809591174,62.109515676274896,85.44],[-7.440049415454269,62.10948960855603,86.45],[-7.4402463901788,62.10945784114301,85.37],[-7.440425930544734,62.10941609926522,79.16],[-7.4406021181494,62.109367148950696,78.08],[-7.440792303532362,62.109321216121316,84.25],[-7.440970502793789,62.1092907898128,95.06],[-7.4411616101861,62.10924569517374,83],[-7.441374007612467,62.10921451449394,80.81],[-7.441558074206114,62.10922851227224,79.72],[-7.441751779988408,62.109272265806794,84.15],[-7.441994016990066,62.1093290951103,84.93],[-7.4421442206949,62.109377793967724,89.08],[-7.442323509603739,62.10941802710295,92.09],[-7.442472036927939,62.109465803951025,92.05],[-7.442623162642121,62.10952606983483,99.58],[-7.442780155688524,62.109577702358365,93.56],[-7.442889958620071,62.109662778675556,95.76],[-7.442979561164975,62.10974751971662,95.93],[-7.443078635260463,62.10985011421144,97.24],[-7.44315910153091,62.109940219670534,98.46],[-7.443214422091842,62.11003124713898,96.08],[-7.443239400163293,62.110123531892896,99.14],[-7.443246776238084,62.11021279916167,100.89],[-7.443280471488833,62.110301814973354,98.17],[-7.443328751251102,62.1103857178241,103.29],[-7.44338289834559,62.110482109710574,105.09],[-7.443413995206356,62.110600378364325,107.28],[-7.443384658545256,62.11068402975798,105.47],[-7.443297151476145,62.11071889847517,106.19],[-7.443150551989675,62.11078536696732,101.92],[-7.442975705489516,62.1108537632972,101.56],[-7.442766074091196,62.11090598255396,102.64],[-7.442512856796384,62.11091076023877,103.48],[-7.442376483231783,62.11084060370922,101.51],[-7.442252850160003,62.110754353925586,100.28],[-7.442155620083213,62.110667349770665,96.98],[-7.442044895142317,62.11058713495731,96.47],[-7.441885387524962,62.11050692014396,93.26],[-7.441728813573718,62.1104272082448,94.03],[-7.441561594605446,62.110347831621766,94.18],[-7.441382138058543,62.11028731428087,94],[-7.441186001524329,62.1102355979383,92.23],[-7.440968826413155,62.11019159294665,92.41],[-7.440781490877271,62.11016041226685,87.05],[-7.440580576658249,62.110107438638806,87.28],[-7.440406735986471,62.11006821133196,86.27],[-7.440233146771789,62.1100196801126,87.15],[-7.440043799579144,62.109996965155005,82.85],[-7.439929889515042,62.11007349193096,81.4],[-7.439834335818887,62.11015806533396,81.15],[-7.43967030197382,62.110226629301906,80.6],[-7.439504843205214,62.11029041558504,80.5],[-7.439329326152802,62.110363421961665,80.2],[-7.439188258722425,62.11044707335532,80.17],[-7.438966808840632,62.11047196760774,81.14],[-7.438736641779542,62.11043743416667,78.2],[-7.438537739217281,62.110381443053484,77.15],[-7.438354594632983,62.11030466482043,75.5],[-7.43822006508708,62.11020676419139,74.12],[-7.438030634075403,62.11011087521911,69.17],[-7.437883950769901,62.11009251885116,70.62],[-7.437642635777593,62.11008505895734,70.51],[-7.437432333827019,62.11010182276368,68.87],[-7.437210213392973,62.110132751986384,67.73],[-7.437009215354919,62.11015923880041,66.53],[-7.436764296144247,62.110160663723946,65.37],[-7.436527423560619,62.110171895474195,64.37],[-7.436334304511547,62.1101438999176,64.4],[-7.436151076108217,62.11010618135333,63.62],[-7.43596063926816,62.11006946861744,62.73],[-7.435773219913244,62.11002403870225,61],[-7.435607677325606,62.109957905486226,59.69],[-7.435430735349655,62.1098920237273,60.14],[-7.435263684019446,62.109823543578386,59.34],[-7.435102667659521,62.10975665599108,58.08],[-7.43493746034801,62.10969387553632,57.86],[-7.434786837548018,62.1096311789006,57.95],[-7.434637472033501,62.109570410102606,57.96],[-7.434495985507965,62.10951089859009,57.96],[-7.434330526739359,62.10944342426956,57.96],[-7.434181161224842,62.10937662050128,56.29],[-7.434017714112997,62.109303530305624,58.37],[-7.433855356648564,62.10923002101481,60.65],[-7.43372518569231,62.1091649774462,61.41],[-7.433593505993486,62.10908476263285,57.1],[-7.433460401371121,62.10900907404721,58.18],[-7.433328470215201,62.10893497802317,59.65],[-7.433188827708364,62.10885199718177,59.71],[-7.433055890724063,62.10876868106425,62.53],[-7.432822622358799,62.10865309461951,61.43],[-7.432817174121738,62.10865401662886,68.88],[-7.432710388675332,62.10858570411801,66.8],[-7.432578038424254,62.10850934498012,69.02],[-7.432426661252976,62.10842519067228,68.71],[-7.43227151222527,62.10835101082921,72.26],[-7.432126672938466,62.108274986967444,73.99],[-7.431998765096068,62.10818781517446,74.24],[-7.431891476735473,62.10810324177146,74.24],[-7.431776728481054,62.10802084766328,75.8],[-7.43167782202363,62.107935855165124,76.33],[-7.431579167023301,62.107843989506364,77.55],[-7.431483529508114,62.10776184685528,79.08],[-7.43138269521296,62.10768297314644,81.5],[-7.431312371045351,62.10759345442057,84.01],[-7.431265097111464,62.10749991238117,81.69],[-7.431199215352535,62.10740930400789,83.77],[-7.431149259209633,62.10731660015881,85.78],[-7.43108413182199,62.1072306856513,86.25],[-7.431049766018987,62.10713622160256,87.11],[-7.431005006656051,62.10703957825899,91.46],[-7.430962594226003,62.106949305161834,89.67],[-7.430950859561563,62.10685811005533,92.86],[-7.430922612547875,62.106753922998905,95.53],[-7.43092336691916,62.106646383181214,97.24],[-7.430975502356887,62.10653339512646,98.01],[-7.430984387174249,62.10641261190176,99.24],[-7.430979190394282,62.10630465298891,99.79],[-7.430978855118156,62.10620641708374,102.42],[-7.431021686643362,62.106109857559204,103.7],[-7.431081784889102,62.10601740516722,106.69],[-7.431156635284424,62.10593702271581,106.74],[-7.43124146014452,62.105845576152205,108.26],[-7.431328883394599,62.105754129588604,109.22],[-7.431429047137499,62.10564256645739,112.64],[-7.431553434580565,62.10555790923536,112.43],[-7.431659381836653,62.10549311712384,113.03],[-7.431783266365528,62.105400916188955,114.27],[-7.431901199743152,62.10533604025841,116.89],[-7.432010499760509,62.10527108050883,118.2],[-7.432133546099067,62.105173682793975,120.1],[-7.432211162522435,62.10510461591184,121.58],[-7.432269919663668,62.10501769557595,123.24],[-7.43234627880156,62.10491702891886,124.2],[-7.43240050971508,62.10482549853623,123.5],[-7.43229397572577,62.10484150797129,125.17],[-7.432094654068351,62.104858523234725,124.82],[-7.431827774271369,62.104871766641736,127.12],[-7.43165384978056,62.10492708720267,126.14],[-7.431481601670384,62.10499565117061,128.13],[-7.431323518976569,62.10506455041468,128.62],[-7.431178763508797,62.10515004582703,130.57],[-7.431039121001959,62.10521592758596,130.84],[-7.430900651961565,62.10528566502035,131.98],[-7.430749610066414,62.10536856204271,132.75],[-7.430591778829694,62.10544324479997,134.17],[-7.430440569296479,62.10551851429045,135.34],[-7.430236972868443,62.10558691062033,137.1],[-7.43009515106678,62.10564793087542,136.84],[-7.429963639006019,62.1057268884033,137.71],[-7.429837491363287,62.105800062417984,139.33],[-7.429696340113878,62.10586921311915,139.7],[-7.429553512483835,62.10593341849744,141.44],[-7.429387466982007,62.10600709542632,141.58],[-7.429219745099545,62.1060633379966,141.69],[-7.429035594686866,62.10612494498491,144.61],[-7.428845325484872,62.10618311539292,145.78],[-7.428792854771018,62.10620331577957,143.89],[-7.42881883867085,62.106241872534156,143.76],[-7.428729319944978,62.10619501769543,142.44],[-7.428617337718606,62.10611958056688,141.89],[-7.428728900849819,62.10604808293283,145.93],[-7.428591269999743,62.106006341055036,147.57],[-7.428565118461847,62.10596208460629,152.45],[-7.428371496498585,62.1059306524694,152.83],[-7.428396139293909,62.10585496388376,158.98],[-7.428234620019794,62.105857813730836,160.75],[-7.428260771557689,62.10578975267708,164.12],[-7.428084081038833,62.10578707046807,166.23],[-7.427906803786755,62.10580685175955,168.82],[-7.427785685285926,62.10580123588443,169.08],[-7.427864475175738,62.10572118870914,172.2],[-7.427713936194778,62.10573334246874,174.18],[-7.427527019754052,62.105734599754214,176.11],[-7.427609162405133,62.10566486231983,178.16],[-7.427637409418821,62.10558372549713,181.02],[-7.427457198500633,62.1056161634624,184.45],[-7.427262738347054,62.105634436011314,186.08],[-7.427290063351393,62.105564111843705,187.94],[-7.427365332841873,62.10547786206007,191],[-7.427330799400806,62.10542622953653,192.94],[-7.42719903588295,62.10541097447276,193.9],[-7.427069870755076,62.10537711158395,200.07],[-7.427133992314339,62.10530603304505,206.39],[-7.426989488303661,62.10526077076793,212.99],[-7.426940202713013,62.1052086353302,215.97],[-7.426881277933717,62.10516823455691,215.65],[-7.42681740783155,62.10512515157461,216.86],[-7.426792262122035,62.10507318377495,222.84],[-7.426636358723044,62.10503797978163,226.57],[-7.426691260188818,62.1049739420414,231.58],[-7.426617415621877,62.10492809303105,227.49],[-7.42667525075376,62.10487059317529,230.36],[-7.426751274615526,62.10480077192187,234.14],[-7.426567208021879,62.10482155904174,236.51],[-7.42645681835711,62.104783756658435,239.51],[-7.426438881084323,62.10473363287747,242.74],[-7.426544409245253,62.10465308278799,246.39],[-7.426497219130397,62.10460086353123,249.77],[-7.426296891644597,62.10457814857364,253.11],[-7.426408622413874,62.10451293736696,255.24],[-7.426449693739414,62.10445669479668,257.07],[-7.426262525841594,62.104413360357285,260.21],[-7.426156075671315,62.104363488033414,266.39],[-7.426353385671973,62.104339096695185,270.49],[-7.426273170858622,62.10428461432457,270.6],[-7.426096815615892,62.10424060933292,275.36],[-7.426238302141428,62.104197358712554,277.45],[-7.426397306844592,62.104133404791355,281.86],[-7.426581038162112,62.10407657548785,283.16],[-7.426598975434899,62.10404371842742,286],[-7.426401330158114,62.10403827019036,289.18],[-7.42649981752038,62.1039688680321,292.28],[-7.426647590473294,62.10391036234796,297.38],[-7.426825370639563,62.103863675147295,298.59],[-7.42682084441185,62.10387038066983,299.53],[-7.426644992083311,62.10385864600539,303.5],[-7.426458578556776,62.10386401042342,305.83],[-7.426212821155787,62.10382763296366,308.81],[-7.426048368215561,62.10382637567818,311.06],[-7.42586899548769,62.103863256052136,314.76],[-7.425874695181847,62.10379200987518,317.75],[-7.425709320232272,62.103731324896216,321.94],[-7.425532042980194,62.10370718501508,323.66],[-7.425346886739135,62.10368815809488,326.78],[-7.425201209262013,62.10369729436934,330.11],[-7.424970120191574,62.10368111729622,333.34],[-7.424846738576889,62.10362554527819,336.18],[-7.424671640619636,62.1036060154438,336.96],[-7.42445781826973,62.10363484919071,343.48],[-7.424246510490775,62.103661336004734,344.6],[-7.424017433077097,62.103654965758324,346.25],[-7.423830013722181,62.103653121739626,347.77],[-7.423617700114846,62.103675082325935,353.33],[-7.423526169732213,62.10366887971759,358.86],[-7.423672853037715,62.10359319113195,363.99],[-7.423788523301482,62.103489423170686,363.44],[-7.423844765871763,62.103418009355664,370.08],[-7.423634044826031,62.10336000658572,378.31],[-7.423456851392984,62.10332932882011,379.17],[-7.423236826434732,62.10334944538772,381.93],[-7.42302711121738,62.10333050228655,385.01],[-7.422897862270474,62.103336453437805,385.87],[-7.423044629395008,62.103246599435806,389.02],[-7.422951925545931,62.10319144651294,392.29],[-7.422742126509547,62.10316898301244,393.6],[-7.422545151785016,62.10313830524683,397.58],[-7.422352619469166,62.10313838906586,398.78],[-7.422286067157984,62.103155655786395,402.96],[-7.422083141282201,62.103168396279216,406.9],[-7.422017343342304,62.103086253628135,408.35],[-7.421899829059839,62.103189853951335,414.09],[-7.421817602589726,62.103245593607426,411.53],[-7.421750547364354,62.1031485311687,416.67],[-7.421743338927627,62.10304509848356,417.62],[-7.421678379178047,62.10297318175435,423.95],[-7.421537144109607,62.10299212485552,427.98],[-7.421528091654182,62.10290729999542,431.76],[-7.421681815758348,62.10282105021179,434.56],[-7.421766556799412,62.10273454897106,436.08],[-7.421692544594407,62.10267369635403,438.23],[-7.421587267890573,62.102606473490596,451.78],[-7.421499593183398,62.10251628421247,431.18],[-7.421358525753021,62.10243573412299,427.39],[-7.421213099732995,62.10234638303518,428.36],[-7.42111318744719,62.10226373746991,427.21],[-7.421016376465559,62.102176984772086,427],[-7.420904729515314,62.10208025760949,429.06],[-7.420775145292282,62.102002557367086,424.17],[-7.420629719272256,62.10191664285958,425.06],[-7.420530142262578,62.101816311478615,418.02],[-7.420399384573102,62.1017306484282,416.62],[-7.420280110090971,62.10163434036076,412.97],[-7.420200733467937,62.10155571810901,408.81],[-7.420114651322365,62.10145580582321,407.39],[-7.419986240565777,62.1013696398586,411.63],[-7.4198745097965,62.101287078112364,407.75],[-7.419786667451263,62.10119420662522,406.85],[-7.419674014672637,62.10112086497247,404.53],[-7.419598829001188,62.101024221628904,402.55],[-7.419500593096018,62.100921124219894,401.84],[-7.41940688341856,62.100842921063304,400.77],[-7.419341504573822,62.10074317641556,399.2],[-7.419295152649283,62.10064326412976,397.12],[-7.41925542242825,62.10054762661457,394.67],[-7.419232958927751,62.100444696843624,391.73],[-7.419215859845281,62.10033514536917,391.68],[-7.419251650571823,62.100226264446974,386.01],[-7.419246034696698,62.1001280285418,384.67],[-7.419300684705377,62.10000900551677,384.2],[-7.419287860393524,62.0999089255929,383.42],[-7.419295655563474,62.09980498999357,384.25],[-7.419292302802205,62.09969845600426,381.88],[-7.419266235083342,62.099573984742165,382.44],[-7.41926615126431,62.099448926746845,381.67],[-7.419248968362808,62.09933007135987,379.91],[-7.419244106858969,62.09921884350479,381.69],[-7.419275119900703,62.099101077765226,380.32],[-7.419290374964476,62.098995465785265,379.39],[-7.419288866221905,62.09888775832951,379.86],[-7.419311245903373,62.09877636283636,378.02],[-7.419333793222904,62.09865893237293,378.45],[-7.41937268525362,62.0985671505332,379.65],[-7.41932088509202,62.09847528487444,378.09],[-7.419272186234593,62.098380234092474,378.39],[-7.419252656400204,62.09828149527311,379.7],[-7.419211333617568,62.09818225353956,379.36],[-7.419158443808556,62.09807898849249,377],[-7.419124580919743,62.097974214702845,377.63],[-7.41904185153544,62.09787421859801,377.88],[-7.419001199305058,62.097771959379315,378.55],[-7.418908579275012,62.097675651311874,380.78],[-7.418838758021593,62.097580432891846,378.59],[-7.418749071657658,62.09748471155763,377.56],[-7.418625019490719,62.09740608930588,378.06],[-7.4185292981565,62.097312211990356,376.57],[-7.418474648147821,62.09721674211323,375.44],[-7.418368952348828,62.09711255505681,376.46],[-7.4182806070894,62.09702328778803,377.79],[-7.418104419484735,62.09696629084647,375.48],[-7.417972572147846,62.09688331000507,374.25],[-7.417859081178904,62.09679312072694,372.55],[-7.417699238285422,62.09673780016601,372.08],[-7.417579125612974,62.096652556210756,370.79],[-7.41745431907475,62.0965707488358,372.35],[-7.417275784537196,62.096511237323284,370.05],[-7.417267905548215,62.096502017229795,368.11],[-7.417217195034027,62.09640705026686,366.51],[-7.417195737361908,62.096314849331975,365.04],[-7.417141171172261,62.09621971473098,362.74],[-7.417138321325183,62.096121814101934,358.57],[-7.417109655216336,62.0960302837193,361.77],[-7.416975880041719,62.09594336338341,358.66],[-7.416896084323525,62.09585644304752,358.67],[-7.416733307763934,62.09576541557908,352.39],[-7.41661487147212,62.095684949308634,353.36],[-7.416518060490489,62.09560381248593,352.74],[-7.416345728561282,62.095548743382096,351.02],[-7.41616434417665,62.09548898041248,348.67],[-7.415961418300867,62.09547028876841,343.34],[-7.415756396949291,62.095424020662904,343.95],[-7.41555598564446,62.0953862182796,342.26],[-7.415373092517257,62.095318995416164,338.33],[-7.415226576849818,62.09525981917977,332.2],[-7.415109314024448,62.095214975997806,329.58],[-7.415151726454496,62.09518379531801,330.04],[-7.415174944326282,62.09509268403053,324.53],[-7.414987022057176,62.095081117004156,322.78],[-7.414788790047169,62.09508472122252,321.53],[-7.414625007659197,62.095064017921686,320.06],[-7.414415795356035,62.09507156163454,318.56],[-7.414215467870235,62.095072735100985,315.6],[-7.414030395448208,62.09511489607394,309.35],[-7.413864098489285,62.095111291855574,307],[-7.413894608616829,62.09505773149431,301.25],[-7.413904583081603,62.09500014781952,298.77],[-7.413992928341031,62.0949319191277,295.28],[-7.414108430966735,62.094848435372114,294.93],[-7.414237596094608,62.09476755000651,293.78],[-7.414060989394784,62.09474944509566,289.3],[-7.413860410451889,62.094750702381134,286.62],[-7.413670979440212,62.094756569713354,282.36],[-7.413577688857913,62.094698902219534,277.16],[-7.413549106568098,62.09464240819216,275.28],[-7.413475597277284,62.094608042389154,270.99],[-7.413611551746726,62.0945436693728,268.09],[-7.413633596152067,62.09451399743557,269.99],[-7.413709871470928,62.09447409957647,273.94],[-7.413529325276613,62.09447116591036,268.57],[-7.413330171257258,62.09448549896479,269.16],[-7.413140824064612,62.09448273293674,265.42],[-7.413109475746751,62.09448181092739,260.79],[-7.413136130198836,62.09442204795778,258.84],[-7.413067650049925,62.09432741627097,254.47],[-7.413169657811523,62.094232868403196,246.49],[-7.413238557055593,62.09414787590504,245.02],[-7.413335032761097,62.09404477849603,242.73],[-7.413405356928706,62.0939426869154,249.76],[-7.413230678066611,62.0939358137548,248.57],[-7.413011156022549,62.09396397694945,241.58],[-7.412823233753443,62.09397587925196,238.22],[-7.412650566548109,62.093999264761806,235.19],[-7.412481671199203,62.0940497238189,230.83],[-7.41230171173811,62.09409071132541,228.27],[-7.412082944065332,62.0941202994436,226.7],[-7.411919245496392,62.094160951673985,222.19],[-7.411739621311426,62.09416304714978,217.33],[-7.411559745669365,62.09411837160587,213.15],[-7.411523284390569,62.0940306968987,212.18],[-7.411413984373212,62.093968419358134,206.77],[-7.411216339096427,62.094016363844275,203.63],[-7.411027075722814,62.094069086015224,200.11],[-7.410920290276408,62.09404251538217,195.12],[-7.41083974018693,62.09395308047533,189.45],[-7.410677969455719,62.094013346359134,186.49],[-7.410529190674424,62.09407386370003,183.18],[-7.410353170707822,62.0940980874002,182.91],[-7.410223167389631,62.09403966553509,178.05],[-7.409999202936888,62.0940425992012,174.64],[-7.409810861572623,62.093990379944444,171.53],[-7.409607181325555,62.09400127641857,170.47],[-7.409410793334246,62.09404067136347,166.12],[-7.409165035933256,62.09408484399319,164.51],[-7.408956410363317,62.094113510102034,163.22],[-7.408757004886866,62.09415734745562,162.43],[-7.408566735684872,62.094209818169475,164.02],[-7.408355595543981,62.09425549954176,160.98],[-7.408156860619783,62.09428181871772,158.26],[-7.407976817339659,62.09433772601187,156.53],[-7.407816639170051,62.09438449703157,156],[-7.407669452950358,62.09443252533674,154.53],[-7.40752000361681,62.09449631161988,153.15],[-7.407378768548369,62.094559678807855,151.14],[-7.407221859320998,62.094616927206516,150.51],[-7.407035613432527,62.094576358795166,147.69],[-7.406900832429528,62.09453268907964,144.37],[-7.406713161617518,62.094478541985154,142.47],[-7.406480144709349,62.0944572519511,137.31],[-7.406309489160776,62.09445146843791,132.59],[-7.406156687065959,62.094421964138746,132.77],[-7.405933812260628,62.09440452978015,131.95],[-7.405745219439268,62.09438684396446,130.99],[-7.40551857277751,62.094377959147096,130.58],[-7.405293434858322,62.094405787065625,130.55],[-7.405092269182205,62.09445976652205,128.56],[-7.404915830120444,62.09451743401587,128.09],[-7.404752718284726,62.09457443095744,129.79],[-7.404669653624296,62.09466462023556,128.08],[-7.40461022593081,62.09476327523589,128.35],[-7.404549540951848,62.094856062904,130.32],[-7.404481312260032,62.094957400113344,130.62],[-7.404428506270051,62.09505504928529,130.54],[-7.404352985322475,62.095149513334036,130.78],[-7.404328174889088,62.09524833597243,131.49],[-7.404243098571897,62.09535243920982,129.94],[-7.404184760525823,62.09545134566724,129.01],[-7.40411720238626,62.0955416187644,128.59],[-7.40401703864336,62.09563868120313,129.65],[-7.403957108035684,62.095744125545025,128.25],[-7.403831044211984,62.09582727402449,127.72],[-7.403722498565912,62.0959095004946,127.4],[-7.403614288195968,62.09599197842181,129.02],[-7.403512028977275,62.096081329509616,128.33],[-7.403387390077114,62.096175039187074,128.24],[-7.403271468356252,62.096255254000425,128.94],[-7.403143895789981,62.096344102174044,129.5],[-7.403006013482809,62.09642129950225,129.63],[-7.402878105640411,62.09649380296469,130.68],[-7.402716083452106,62.0965778734535,129.27],[-7.402532603591681,62.09663319401443,129.52],[-7.402355074882507,62.096676863729954,131.95],[-7.402145778760314,62.09667828865349,130.83],[-7.401941763237119,62.09670159034431,136.26],[-7.40170824341476,62.09670988842845,94.32]]}},{"type":"Feature","properties":{"name":"WP1 05_BG","type":"user","time":"2020-07-31T10:59:28Z","gpxx_WaypointExtension":"SymbolAndName","gpxx_DisplayMode":"SymbolAndName","wptx1_WaypointExtension":"SymbolAndName","wptx1_DisplayMode":"SymbolAndName","ctx_CreationTimeExtension":"2020-07-31T10:59:28Z","ctx_CreationTime":"2020-07-31T10:59:28Z","sym":"Flag, Blue"},"geometry":{"type":"Point","coordinates":[-7.414660966023803,62.0950579829514,321.102356]}},{"type":"Feature","properties":{"name":"WP2 07_BG","type":"user","time":"2020-07-31T11:20:36Z","gpxx_WaypointExtension":"SymbolAndName","gpxx_DisplayMode":"SymbolAndName","wptx1_WaypointExtension":"SymbolAndName","wptx1_DisplayMode":"SymbolAndName","ctx_CreationTimeExtension":"2020-07-31T11:20:36Z","ctx_CreationTime":"2020-07-31T11:20:36Z","sym":"Flag, Blue"},"geometry":{"type":"Point","coordinates":[-7.421777034178376,62.10270596668124,440.613251]}},{"type":"Feature","properties":{"name":"WP3 13_BG","type":"user","time":"2020-07-31T12:24:11Z","gpxx_WaypointExtension":"SymbolAndName","gpxx_DisplayMode":"SymbolAndName","wptx1_WaypointExtension":"SymbolAndName","wptx1_DisplayMode":"SymbolAndName","ctx_CreationTimeExtension":"2020-07-31T12:24:11Z","ctx_CreationTime":"2020-07-31T12:24:11Z","sym":"Flag, Blue"},"geometry":{"type":"Point","coordinates":[-7.43480896577239,62.10660899989307,62.071648]}}]}