{"type":"FeatureCollection","features":[{"type":"Feature","properties":{"_gpxType":"trk","name":"19 Wanderung Sandavágur Trøllkonufingur CS 001","time":"2020-07-30T15:54:22Z","gpxx_TrackExtension":"Blue","gpxx_DisplayColor":"Blue","coordinateProperties":{"times":["2020-07-30T15:54:22Z","2020-07-30T15:54:46Z","2020-07-30T15:54:52Z","2020-07-30T15:54:58Z","2020-07-30T15:55:05Z","2020-07-30T15:55:12Z","2020-07-30T15:55:21Z","2020-07-30T15:55:29Z","2020-07-30T15:55:36Z","2020-07-30T15:55:44Z","2020-07-30T15:55:52Z","2020-07-30T15:56:00Z","2020-07-30T15:56:07Z","2020-07-30T15:56:13Z","2020-07-30T15:56:20Z","2020-07-30T15:56:26Z","2020-07-30T15:56:33Z","2020-07-30T15:56:39Z","2020-07-30T15:56:45Z","2020-07-30T15:56:52Z","2020-07-30T15:58:11Z","2020-07-30T15:58:18Z","2020-07-30T15:58:26Z","2020-07-30T15:58:34Z","2020-07-30T15:58:43Z","2020-07-30T15:58:51Z","2020-07-30T15:59:01Z","2020-07-30T15:59:08Z","2020-07-30T15:59:17Z","2020-07-30T15:59:25Z","2020-07-30T15:59:33Z","2020-07-30T15:59:42Z","2020-07-30T15:59:51Z","2020-07-30T16:00:00Z","2020-07-30T16:00:08Z","2020-07-30T16:00:16Z","2020-07-30T16:00:24Z","2020-07-30T16:00:32Z","2020-07-30T16:00:42Z","2020-07-30T16:00:51Z","2020-07-30T16:00:58Z","2020-07-30T16:01:06Z","2020-07-30T16:01:13Z","2020-07-30T16:01:21Z","2020-07-30T16:01:28Z","2020-07-30T16:01:35Z","2020-07-30T16:01:42Z","2020-07-30T16:01:50Z","2020-07-30T16:01:57Z","2020-07-30T16:02:05Z","2020-07-30T16:02:12Z","2020-07-30T16:02:20Z","2020-07-30T16:02:28Z","2020-07-30T16:02:35Z","2020-07-30T16:02:43Z","2020-07-30T16:02:51Z","2020-07-30T16:02:58Z","2020-07-30T16:03:06Z","2020-07-30T16:03:13Z","2020-07-30T16:03:21Z","2020-07-30T16:03:28Z","2020-07-30T16:03:36Z","2020-07-30T16:03:44Z","2020-07-30T16:03:52Z","2020-07-30T16:04:01Z","2020-07-30T16:04:08Z","2020-07-30T16:04:15Z","2020-07-30T16:04:22Z","2020-07-30T16:04:29Z","2020-07-30T16:04:36Z","2020-07-30T16:04:43Z","2020-07-30T16:04:50Z","2020-07-30T16:04:58Z","2020-07-30T16:05:06Z","2020-07-30T16:05:13Z","2020-07-30T16:05:21Z","2020-07-30T16:05:29Z","2020-07-30T16:05:36Z","2020-07-30T16:05:44Z","2020-07-30T16:05:52Z","2020-07-30T16:05:59Z","2020-07-30T16:06:06Z","2020-07-30T16:06:14Z","2020-07-30T16:06:20Z","2020-07-30T16:06:27Z","2020-07-30T16:06:34Z","2020-07-30T16:06:41Z","2020-07-30T16:06:49Z","2020-07-30T16:06:56Z","2020-07-30T16:07:05Z","2020-07-30T16:07:12Z","2020-07-30T16:07:19Z","2020-07-30T16:07:27Z","2020-07-30T16:07:35Z","2020-07-30T16:07:43Z","2020-07-30T16:07:50Z","2020-07-30T16:07:56Z","2020-07-30T16:08:02Z","2020-07-30T16:08:10Z","2020-07-30T16:08:17Z","2020-07-30T16:08:24Z","2020-07-30T16:08:30Z","2020-07-30T16:08:37Z","2020-07-30T16:08:43Z","2020-07-30T16:08:50Z","2020-07-30T16:08:56Z","2020-07-30T16:09:03Z","2020-07-30T16:09:09Z","2020-07-30T16:09:15Z","2020-07-30T16:09:21Z","2020-07-30T16:09:28Z","2020-07-30T16:09:34Z","2020-07-30T16:09:40Z","2020-07-30T16:09:46Z","2020-07-30T16:09:53Z","2020-07-30T16:09:59Z","2020-07-30T16:10:05Z","2020-07-30T16:10:11Z","2020-07-30T16:10:17Z","2020-07-30T16:10:24Z","2020-07-30T16:10:31Z","2020-07-30T16:10:37Z","2020-07-30T16:10:43Z","2020-07-30T16:10:49Z","2020-07-30T16:10:56Z","2020-07-30T16:11:03Z","2020-07-30T16:11:09Z","2020-07-30T16:11:15Z","2020-07-30T16:11:21Z","2020-07-30T16:11:27Z","2020-07-30T16:11:33Z","2020-07-30T16:11:39Z","2020-07-30T16:11:46Z","2020-07-30T16:11:52Z","2020-07-30T16:11:57Z","2020-07-30T16:12:03Z","2020-07-30T16:12:09Z","2020-07-30T16:12:15Z","2020-07-30T16:12:21Z","2020-07-30T16:12:27Z","2020-07-30T16:12:34Z","2020-07-30T16:12:41Z","2020-07-30T16:14:05Z","2020-07-30T16:14:37Z","2020-07-30T16:14:43Z","2020-07-30T16:14:50Z","2020-07-30T16:14:57Z","2020-07-30T16:15:02Z","2020-07-30T16:15:09Z","2020-07-30T16:15:16Z","2020-07-30T16:15:30Z","2020-07-30T16:15:36Z","2020-07-30T16:15:43Z","2020-07-30T16:15:49Z","2020-07-30T16:15:56Z","2020-07-30T16:16:03Z","2020-07-30T16:16:10Z","2020-07-30T16:16:16Z","2020-07-30T16:16:23Z","2020-07-30T16:16:30Z","2020-07-30T16:16:51Z","2020-07-30T16:16:59Z","2020-07-30T16:17:07Z","2020-07-30T16:17:14Z","2020-07-30T16:17:20Z","2020-07-30T16:17:27Z","2020-07-30T16:17:33Z","2020-07-30T16:17:40Z","2020-07-30T16:17:48Z","2020-07-30T16:17:56Z","2020-07-30T16:18:03Z","2020-07-30T16:18:09Z","2020-07-30T16:18:17Z","2020-07-30T16:18:29Z","2020-07-30T16:18:36Z","2020-07-30T16:18:43Z","2020-07-30T16:18:49Z","2020-07-30T16:18:56Z","2020-07-30T16:19:03Z","2020-07-30T16:19:10Z","2020-07-30T16:19:16Z","2020-07-30T16:19:23Z","2020-07-30T16:19:29Z","2020-07-30T16:19:36Z","2020-07-30T16:19:43Z","2020-07-30T16:19:56Z","2020-07-30T16:20:03Z","2020-07-30T16:20:11Z","2020-07-30T16:20:18Z","2020-07-30T16:20:25Z","2020-07-30T16:20:32Z","2020-07-30T16:20:38Z","2020-07-30T16:20:45Z","2020-07-30T16:20:51Z","2020-07-30T16:20:57Z","2020-07-30T16:21:03Z","2020-07-30T16:21:11Z","2020-07-30T16:21:17Z","2020-07-30T16:21:23Z","2020-07-30T16:21:29Z","2020-07-30T16:21:36Z","2020-07-30T16:21:42Z","2020-07-30T16:21:49Z","2020-07-30T16:21:56Z","2020-07-30T16:22:08Z","2020-07-30T16:22:15Z","2020-07-30T16:22:29Z","2020-07-30T16:22:36Z","2020-07-30T16:22:43Z","2020-07-30T16:22:50Z","2020-07-30T16:23:01Z","2020-07-30T16:23:14Z","2020-07-30T16:23:23Z","2020-07-30T16:23:55Z","2020-07-30T16:24:40Z","2020-07-30T16:25:01Z","2020-07-30T16:25:11Z","2020-07-30T16:25:20Z","2020-07-30T16:25:28Z","2020-07-30T16:25:37Z","2020-07-30T16:26:32Z","2020-07-30T16:26:45Z","2020-07-30T16:26:52Z","2020-07-30T16:26:59Z","2020-07-30T16:27:06Z","2020-07-30T16:27:14Z","2020-07-30T16:27:26Z","2020-07-30T16:27:34Z","2020-07-30T16:27:41Z","2020-07-30T16:27:48Z","2020-07-30T16:27:55Z","2020-07-30T16:28:02Z","2020-07-30T16:28:20Z","2020-07-30T16:29:10Z","2020-07-30T16:29:17Z","2020-07-30T16:29:23Z","2020-07-30T16:29:31Z","2020-07-30T16:29:38Z","2020-07-30T16:29:44Z","2020-07-30T16:29:50Z","2020-07-30T16:29:56Z","2020-07-30T16:30:02Z","2020-07-30T16:30:08Z","2020-07-30T16:30:14Z","2020-07-30T16:30:25Z","2020-07-30T16:30:32Z","2020-07-30T16:30:39Z","2020-07-30T16:30:46Z","2020-07-30T16:30:53Z","2020-07-30T16:31:02Z","2020-07-30T16:31:08Z","2020-07-30T16:31:14Z","2020-07-30T16:31:20Z","2020-07-30T16:31:26Z","2020-07-30T16:31:32Z","2020-07-30T16:31:38Z","2020-07-30T16:31:44Z","2020-07-30T16:31:50Z","2020-07-30T16:31:56Z","2020-07-30T16:32:02Z","2020-07-30T16:32:08Z","2020-07-30T16:32:28Z","2020-07-30T16:32:45Z","2020-07-30T16:32:54Z","2020-07-30T16:33:07Z","2020-07-30T16:33:15Z","2020-07-30T16:33:22Z","2020-07-30T16:33:28Z","2020-07-30T16:33:34Z","2020-07-30T16:33:41Z","2020-07-30T16:34:26Z","2020-07-30T16:34:33Z","2020-07-30T16:34:39Z","2020-07-30T16:34:45Z","2020-07-30T16:34:51Z","2020-07-30T16:34:57Z","2020-07-30T16:35:03Z","2020-07-30T16:35:09Z","2020-07-30T16:35:15Z","2020-07-30T16:35:21Z","2020-07-30T16:35:27Z","2020-07-30T16:35:33Z","2020-07-30T16:35:39Z","2020-07-30T16:35:45Z","2020-07-30T16:35:51Z","2020-07-30T16:35:57Z","2020-07-30T16:36:03Z","2020-07-30T16:36:09Z","2020-07-30T16:36:15Z","2020-07-30T16:36:21Z","2020-07-30T16:36:27Z","2020-07-30T16:36:33Z","2020-07-30T16:36:39Z","2020-07-30T16:36:45Z","2020-07-30T16:36:51Z","2020-07-30T16:36:57Z","2020-07-30T16:37:03Z","2020-07-30T16:37:10Z","2020-07-30T16:37:16Z","2020-07-30T16:37:22Z","2020-07-30T16:37:28Z","2020-07-30T16:37:35Z","2020-07-30T16:37:41Z","2020-07-30T16:37:48Z","2020-07-30T16:37:54Z","2020-07-30T16:38:01Z","2020-07-30T16:38:09Z","2020-07-30T16:38:16Z","2020-07-30T16:38:22Z","2020-07-30T16:38:28Z","2020-07-30T16:38:35Z","2020-07-30T16:38:41Z","2020-07-30T16:38:48Z","2020-07-30T16:38:54Z","2020-07-30T16:39:00Z","2020-07-30T16:39:06Z","2020-07-30T16:39:12Z","2020-07-30T16:39:18Z","2020-07-30T16:39:24Z","2020-07-30T16:39:30Z","2020-07-30T16:39:36Z","2020-07-30T16:39:42Z","2020-07-30T16:39:56Z","2020-07-30T16:40:10Z","2020-07-30T16:40:17Z","2020-07-30T16:40:23Z","2020-07-30T16:40:29Z","2020-07-30T16:40:36Z","2020-07-30T16:40:42Z","2020-07-30T16:40:48Z","2020-07-30T16:40:54Z","2020-07-30T16:41:00Z","2020-07-30T16:41:26Z","2020-07-30T16:41:32Z","2020-07-30T16:41:38Z","2020-07-30T16:41:45Z","2020-07-30T16:41:51Z","2020-07-30T16:41:57Z","2020-07-30T16:42:04Z","2020-07-30T16:42:21Z","2020-07-30T16:42:27Z","2020-07-30T16:42:33Z","2020-07-30T16:42:39Z","2020-07-30T16:42:45Z","2020-07-30T16:42:51Z","2020-07-30T16:42:57Z","2020-07-30T16:43:04Z","2020-07-30T16:46:05Z","2020-07-30T16:46:11Z","2020-07-30T16:46:18Z","2020-07-30T16:46:25Z","2020-07-30T16:46:32Z","2020-07-30T16:46:38Z","2020-07-30T16:46:44Z","2020-07-30T16:46:50Z","2020-07-30T16:46:56Z","2020-07-30T16:47:02Z","2020-07-30T16:47:08Z","2020-07-30T16:47:15Z","2020-07-30T16:47:21Z","2020-07-30T16:47:27Z","2020-07-30T16:47:34Z","2020-07-30T16:47:40Z","2020-07-30T16:47:46Z","2020-07-30T16:47:53Z","2020-07-30T16:48:00Z","2020-07-30T16:48:07Z","2020-07-30T16:48:14Z","2020-07-30T16:48:20Z","2020-07-30T16:48:26Z","2020-07-30T16:48:32Z","2020-07-30T16:48:39Z","2020-07-30T16:48:45Z","2020-07-30T16:48:53Z","2020-07-30T16:49:03Z","2020-07-30T16:49:10Z","2020-07-30T16:49:16Z","2020-07-30T16:49:22Z","2020-07-30T16:49:29Z","2020-07-30T16:49:35Z","2020-07-30T16:49:45Z","2020-07-30T16:49:53Z","2020-07-30T16:50:02Z","2020-07-30T16:50:09Z","2020-07-30T16:50:16Z","2020-07-30T16:50:23Z","2020-07-30T16:50:31Z","2020-07-30T16:50:41Z","2020-07-30T16:51:14Z","2020-07-30T16:51:23Z","2020-07-30T16:51:32Z","2020-07-30T16:51:39Z","2020-07-30T16:51:47Z","2020-07-30T16:51:58Z","2020-07-30T16:52:07Z","2020-07-30T16:52:14Z","2020-07-30T16:52:22Z","2020-07-30T16:52:30Z","2020-07-30T16:52:37Z","2020-07-30T16:52:44Z","2020-07-30T16:52:51Z","2020-07-30T16:52:58Z","2020-07-30T16:53:05Z","2020-07-30T16:53:12Z","2020-07-30T16:53:20Z","2020-07-30T16:53:27Z","2020-07-30T16:53:34Z","2020-07-30T16:53:41Z","2020-07-30T16:53:49Z","2020-07-30T16:53:59Z","2020-07-30T16:54:36Z","2020-07-30T16:54:49Z","2020-07-30T16:54:56Z","2020-07-30T16:55:03Z","2020-07-30T16:55:09Z","2020-07-30T16:55:15Z","2020-07-30T16:55:21Z","2020-07-30T16:55:27Z","2020-07-30T16:55:33Z","2020-07-30T16:55:39Z","2020-07-30T16:55:45Z","2020-07-30T16:55:52Z","2020-07-30T16:55:59Z","2020-07-30T16:56:08Z","2020-07-30T16:56:16Z","2020-07-30T16:56:23Z","2020-07-30T16:56:29Z","2020-07-30T16:56:36Z","2020-07-30T16:56:43Z","2020-07-30T16:56:51Z","2020-07-30T16:56:59Z","2020-07-30T16:57:09Z","2020-07-30T16:57:31Z","2020-07-30T16:57:39Z","2020-07-30T16:57:47Z","2020-07-30T16:57:57Z","2020-07-30T16:58:05Z","2020-07-30T16:58:14Z","2020-07-30T16:58:39Z","2020-07-30T16:58:47Z","2020-07-30T16:59:04Z","2020-07-30T16:59:11Z","2020-07-30T16:59:18Z","2020-07-30T16:59:35Z","2020-07-30T16:59:41Z","2020-07-30T16:59:48Z","2020-07-30T16:59:55Z"]}},"geometry":{"type":"LineString","coordinates":[[-7.151190927252173,62.05381751060486,9.46],[-7.150982720777392,62.0538757648319,3.15],[-7.15077736414969,62.05387149006128,3.05],[-7.150567984208465,62.053878363221884,2.94],[-7.15035080909729,62.053864784538746,3.46],[-7.150151822715998,62.05384550616145,4.16],[-7.149929450824857,62.0538239646703,4.63],[-7.149713700637221,62.053867718204856,5.19],[-7.149612698704004,62.053956147283316,5.16],[-7.1495973598212,62.05406335182488,5.01],[-7.149534914642572,62.05416904762387,5.04],[-7.149477582424879,62.054284466430545,5.13],[-7.14940725825727,62.05438571982086,4.83],[-7.149322601035237,62.05448395572603,5.07],[-7.149265436455607,62.05460038036108,5.02],[-7.149209612980485,62.054701717570424,4.57],[-7.149168625473976,62.05481403507292,4.97],[-7.149120764806867,62.05491051077843,5.11],[-7.149058319628239,62.054999861866236,5.19],[-7.149010542780161,62.05509323626757,5.49],[-7.14885463938117,62.055161632597446,5.82],[-7.148691946640611,62.05523069947958,5.89],[-7.148489188402891,62.05529079772532,6.51],[-7.14830294251442,62.05532491207123,7.57],[-7.148112002760172,62.055385094136,8.9],[-7.147894660010934,62.05541929230094,9.45],[-7.147639011964202,62.0554905384779,9.86],[-7.147447317838669,62.05555013380945,10.53],[-7.147299209609628,62.05562833696604,11.72],[-7.147159902378917,62.0557149220258,13.27],[-7.147024031728506,62.055816845968366,14.6],[-7.146892854943872,62.05591122619808,14.92],[-7.146783974021673,62.056043073534966,15.81],[-7.146666375920177,62.05616544932127,16.6],[-7.146521871909499,62.05626854673028,17.36],[-7.146375356242061,62.056375835090876,18.35],[-7.146255914121866,62.056485721841455,19.19],[-7.146082408726215,62.05654087476432,20.44],[-7.145916866138578,62.05648144707084,21.67],[-7.145794071257114,62.056397292762995,23.27],[-7.145712515339255,62.056293692439795,23.41],[-7.145639257505536,62.056183302775025,23.86],[-7.145592821761966,62.05607199110091,24.56],[-7.145540518686175,62.05595523118973,25.64],[-7.145527359098196,62.055847104638815,26.09],[-7.145514953881502,62.05573629587889,26.95],[-7.145463572815061,62.05562791787088,27.8],[-7.145415712147951,62.05551593564451,28.67],[-7.14539366774261,62.05540806055069,29.22],[-7.145383693277836,62.05529565922916,29.87],[-7.145354608073831,62.05519490875304,31.19],[-7.145317308604717,62.055089715868235,31.83],[-7.145305406302214,62.054976811632514,32.98],[-7.145307334139943,62.054870361462235,33.96],[-7.145291995257139,62.05476667732,34.57],[-7.14528126642108,62.0546527672559,35.25],[-7.145302053540945,62.05453927628696,36.25],[-7.145298281684518,62.05442880280316,37.68],[-7.145299874246121,62.05432956106961,38.28],[-7.145284367725253,62.054220428690314,39.18],[-7.145297946408391,62.054121270775795,40.06],[-7.145285708829761,62.0540190115571,40.88],[-7.14528763666749,62.053918009623885,42.29],[-7.145311776548624,62.053813403472304,43.18],[-7.145316302776337,62.05370603129268,44.59],[-7.145317140966654,62.05359639599919,44.95],[-7.145347651094198,62.053482150658965,45.89],[-7.145340526476502,62.053367821499705,46.61],[-7.145341029390693,62.0532610360533,47.43],[-7.145345555618405,62.053155675530434,48.51],[-7.145356787368655,62.0530607085675,49.45],[-7.145392242819071,62.052961299195886,50.15],[-7.145408084616065,62.05285141244531,51.06],[-7.145413784310222,62.052739011123776,51.65],[-7.145426608622074,62.05262778326869,52.94],[-7.145423674955964,62.05251647159457,53.62],[-7.145444126799703,62.05239862203598,54.5],[-7.145500034093857,62.05229468643665,54.92],[-7.145557533949614,62.05218521878123,56.1],[-7.145641688257456,62.05207600258291,57.02],[-7.14568879455328,62.05197089351714,57.63],[-7.145715868100524,62.05186712555587,58.04],[-7.145714862272143,62.0517466776073,58.52],[-7.145709581673145,62.0516412332654,59.39],[-7.145702876150608,62.05153486691415,59.85],[-7.145661553367972,62.05143738538027,60.76],[-7.145606735721231,62.05134283751249,61.77],[-7.145502045750618,62.05124728381634,62.26],[-7.145419819280505,62.05114812590182,62.43],[-7.14533407241106,62.051047291606665,62.82],[-7.145247990265489,62.0509469602257,62.78],[-7.145186215639114,62.05084277316928,63.24],[-7.145209349691868,62.0507328864187,64.81],[-7.145300628617406,62.05063230358064,65.85],[-7.145423507317901,62.05052861943841,66.61],[-7.145524341613054,62.05043432302773,66.83],[-7.145584607496858,62.05032787285745,67.03],[-7.145590810105205,62.0502320677042,67.16],[-7.145592151209712,62.050130646675825,67.32],[-7.145647304132581,62.050019251182675,67.81],[-7.145674545317888,62.0499003957957,68.53],[-7.145682340487838,62.049791095778346,68.56],[-7.145667672157288,62.0496828854084,68.78],[-7.145680915564299,62.04958649352193,69.33],[-7.145697763189673,62.04947367310524,69.43],[-7.145698433741927,62.04937401227653,70.35],[-7.145674796774983,62.04926948994398,70.63],[-7.145660044625402,62.04916538670659,69.26],[-7.145653674378991,62.04906161874533,69.7],[-7.145626014098525,62.04896338284016,70.51],[-7.145552588626742,62.0488696731627,71.16],[-7.145483857020736,62.048776717856526,71.06],[-7.145394422113895,62.04868275672197,71.31],[-7.145268525928259,62.048603128641844,70.59],[-7.145143132656813,62.04852484166622,70.87],[-7.145013129338622,62.04845401458442,71.37],[-7.144890250638127,62.04837430268526,71.25],[-7.144763180986047,62.04828738234937,71.16],[-7.144623789936304,62.04821060411632,71.41],[-7.144483057782054,62.04813273623586,70.94],[-7.144368225708604,62.04804916866124,70.96],[-7.144240820780397,62.04795881174505,70.3],[-7.144092964008451,62.04786904156208,70.14],[-7.143960949033499,62.04780500382185,70.31],[-7.143831867724657,62.04772529192269,69.49],[-7.143674874678254,62.04764583148062,69.27],[-7.143515031784773,62.04757232218981,68.74],[-7.143350662663579,62.047497387975454,68.07],[-7.143216552212834,62.04742387868464,67.61],[-7.143070958554745,62.04736076295376,67.5],[-7.142922347411513,62.04729395918548,66.91],[-7.142755212262273,62.04723436385393,66.31],[-7.142585227265954,62.04717610962689,65.99],[-7.142429072409868,62.047103522345424,65.51],[-7.142283143475652,62.04704216681421,64.72],[-7.142117097973824,62.04698751680553,64.99],[-7.141960524022579,62.046927250921726,65.01],[-7.141815517097712,62.04685709439218,64.83],[-7.141657853499055,62.046802528202534,64.88],[-7.141515528783202,62.04673890955746,64.91],[-7.141343951225281,62.046686271205544,65.32],[-7.141175391152501,62.04664419405162,65.78],[-7.141197519376874,62.046638410538435,65.34],[-7.141090566292405,62.04656012356281,65.14],[-7.140929717570543,62.046524500474334,66.25],[-7.14072578586638,62.0464863628149,67.21],[-7.140497379004955,62.04648074693978,68.02],[-7.140305433422327,62.04647680744529,68.49],[-7.140107955783606,62.04648954793811,69.54],[-7.139916094020009,62.04645895399153,69.82],[-7.139700679108501,62.046422911807895,70.65],[-7.139511499553919,62.04640103504062,72.18],[-7.139327181503177,62.04636507667601,71.7],[-7.139147808775306,62.04632559791207,73.61],[-7.138965837657452,62.046265583485365,75],[-7.138769198209047,62.04622820019722,76.01],[-7.138558393344283,62.046215208247304,76.82],[-7.138363933190703,62.0461945887655,77.13],[-7.138150194659829,62.04617648385465,77.89],[-7.137949867174029,62.04615988768637,79.09],[-7.137761441990733,62.04611546359956,80.02],[-7.137538986280561,62.04609417356551,81.08],[-7.137307310476899,62.04606022685766,82.22],[-7.137105725705624,62.04601915553212,83.77],[-7.136880420148373,62.045980263501406,84.17],[-7.13667162694037,62.04593307338655,85.35],[-7.136465767398477,62.045911280438304,85.84],[-7.136266613379121,62.0459080953151,86.66],[-7.136077014729381,62.045873729512095,88.16],[-7.135869143530726,62.045845398679376,89.84],[-7.135663954541087,62.0458042435348,90.08],[-7.135465806350112,62.04576535150409,90.11],[-7.135298000648618,62.045696787536144,89.85],[-7.1350606251508,62.045666947960854,89.92],[-7.134860549122095,62.04563467763364,90.14],[-7.134637841954827,62.04559067264199,90.32],[-7.134425528347492,62.04556259326637,90.66],[-7.134219668805599,62.04555111005902,90.92],[-7.134023364633322,62.045507188886404,91.8],[-7.133812224492431,62.04547558911145,93.09],[-7.133607370778918,62.04545605927706,93.5],[-7.133397404104471,62.045421274378896,94.35],[-7.133194645866752,62.04540425911546,94.61],[-7.132967999204993,62.04539135098457,95.37],[-7.132748644798994,62.045373832806945,95.9],[-7.132546473294497,62.04535027965903,95.83],[-7.132342625409365,62.04533561132848,97.48],[-7.13208731263876,62.04529646784067,98.37],[-7.131868377327919,62.04527911730111,99.06],[-7.131638545542955,62.0452605932951,99.98],[-7.131409803405404,62.045233100652695,100.55],[-7.131218109279871,62.04521189443767,101.2],[-7.131005963310599,62.045195465907454,101.24],[-7.130810664966703,62.04519898630679,101.02],[-7.130604302510619,62.045203763991594,99.86],[-7.130413698032498,62.04520979896188,98.89],[-7.130177244544029,62.04518842510879,97.03],[-7.12996426038444,62.04516638070345,96.86],[-7.129747504368424,62.04515799880028,96],[-7.129541309550405,62.04513511620462,95.54],[-7.129337629303336,62.045113826170564,94.59],[-7.129124226048589,62.045104606077075,94.94],[-7.128899088129401,62.04508130438626,95.02],[-7.128710160031915,62.045048950240016,94.54],[-7.128481920808554,62.0450203679502,94.13],[-7.128254268318415,62.044999077916145,94.67],[-7.127989986911416,62.04494174569845,95.21],[-7.127761160954833,62.04494073987007,94.25],[-7.127538369968534,62.0449133310467,95.27],[-7.127337707206607,62.04486873932183,95.03],[-7.127117179334164,62.04483085311949,95.97],[-7.126924144104123,62.04481375403702,95.63],[-7.126731611788273,62.04483713954687,95.97],[-7.126595741137862,62.0448234770447,95.94],[-7.126593729481101,62.04480771906674,96.33],[-7.126645278185606,62.04471216537058,96.82],[-7.126490883529186,62.04466229304671,98.96],[-7.126275971531868,62.044678553938866,101.06],[-7.126062400639057,62.04471451230347,101.99],[-7.125821840018034,62.04473437741399,103.25],[-7.125758724287152,62.044745944440365,103.51],[-7.125959470868111,62.04470177181065,101.91],[-7.126159882172942,62.044682493433356,101.67],[-7.126352582126856,62.04467243514955,99.79],[-7.126559698954225,62.04469255171716,97.87],[-7.126687187701464,62.044757176190615,95.94],[-7.126873936504126,62.044769413769245,96.11],[-7.127104019746184,62.04480134882033,96.23],[-7.127318428829312,62.04483177512884,95.53],[-7.127529988065362,62.04486362636089,95.45],[-7.127743307501078,62.04487360082567,94.64],[-7.127976072952151,62.04489673487842,95.37],[-7.128145387396216,62.04493906348944,94.93],[-7.128196349367499,62.04494895413518,95.01],[-7.128425426781178,62.04495741985738,94.61],[-7.128635225817561,62.04498323611915,94.9],[-7.128851730376482,62.045009303838015,95.11],[-7.129053482785821,62.04503201879561,94.82],[-7.129253810271621,62.04504827968776,94.69],[-7.129485653713346,62.045056829229,95.52],[-7.129688328132033,62.045083567500114,96.02],[-7.129890834912658,62.04510720446706,96.56],[-7.13010398671031,62.045111898332834,97.05],[-7.130296770483255,62.045110976323485,98.21],[-7.130515538156033,62.04511256888509,99.92],[-7.130714859813452,62.045106031000614,100.99],[-7.130933040753007,62.045110473409295,101.19],[-7.131150048226118,62.04512690193951,100.74],[-7.131334953010082,62.04515925608575,99.96],[-7.131572160869837,62.04518708400428,99.28],[-7.131787240505219,62.04520208761096,98.62],[-7.13198714889586,62.04522103071213,97.91],[-7.132171047851443,62.04524642787874,97.1],[-7.132362071424723,62.04526620917022,96.31],[-7.13256667368114,62.045276099815965,95.28],[-7.132761301472783,62.045290768146515,94.51],[-7.132958946749568,62.04530920833349,94.16],[-7.133159441873431,62.04533712007105,93.64],[-7.133368235081434,62.04537022858858,93.15],[-7.133583482354879,62.045392943546176,92.11],[-7.133758580312133,62.04543091356754,91.39],[-7.134428462013602,62.04552881419659,89.25],[-7.134987870231271,62.04562587663531,88.79],[-7.135270424187183,62.04566342756152,88.21],[-7.135644843801856,62.04573165625334,88.04],[-7.135857241228223,62.04577683471143,86.6],[-7.136182626709342,62.04583626240492,84.56],[-7.136398460716009,62.04585009254515,83.9],[-7.136610019952059,62.045877082273364,82.87],[-7.136833649128676,62.04590776003897,81.79],[-7.136979997158051,62.0459786709398,81.64],[-7.137169847264886,62.04601370729506,80.44],[-7.137367157265544,62.04604220576584,79.03],[-7.137571005150676,62.0460497494787,78.41],[-7.137779546901584,62.046064333990216,77.72],[-7.137986831367016,62.04608109779656,76.4],[-7.138203252106905,62.04610951244831,74.92],[-7.138409279286861,62.04613398760557,74.67],[-7.138601057231426,62.04616013914347,73.9],[-7.138798702508211,62.04618821851909,72.83],[-7.13899408467114,62.046230882406235,71.71],[-7.139179240912199,62.04628880135715,70.61],[-7.139375796541572,62.046327106654644,69.66],[-7.139575118198991,62.046361388638616,68.96],[-7.139772428199649,62.04638737253845,68.11],[-7.139978874474764,62.04641478136182,67.28],[-7.1401980612427,62.04643154516816,66.42],[-7.140398472547531,62.04643548466265,65.49],[-7.140625203028321,62.046442022547126,65.14],[-7.140828547999263,62.04647337086499,64.05],[-7.141025857999921,62.04651100561023,63.71],[-7.141220485791564,62.046564649790525,63.17],[-7.14137907139957,62.046628687530756,62.64],[-7.141549056395888,62.04669423401356,61.88],[-7.141733374446631,62.04675341024995,62.14],[-7.141892379149795,62.04680973663926,61.67],[-7.142038056626916,62.04687419347465,61.92],[-7.142216172069311,62.046933034434915,62.07],[-7.142378194257617,62.04699405469,62.17],[-7.14253518730402,62.04705582931638,62.6],[-7.142710704356432,62.04711592756212,62.8],[-7.142883287742734,62.04718784429133,63.68],[-7.143031479790807,62.047257078811526,63.94],[-7.143204817548394,62.04733687452972,64],[-7.143351752310991,62.047401666641235,64.59],[-7.143520312383771,62.04746997915208,65.18],[-7.143682753667235,62.04754700884223,65.64],[-7.143842177465558,62.047630827873945,65.78],[-7.143982239067555,62.047708025202155,66.13],[-7.144126994535327,62.04778287559748,66.44],[-7.144261356443167,62.04786526970565,66.42],[-7.144377110525966,62.04794137738645,67.09],[-7.144516166299582,62.04802720807493,67.4],[-7.144634099677205,62.04811614006758,67.65],[-7.144747925922275,62.04819501377642,67.38],[-7.144889328628779,62.04826584085822,67.3],[-7.145010279491544,62.0483463909477,67.25],[-7.145151430740953,62.04842861741781,67.24],[-7.145277410745621,62.048509418964386,66.77],[-7.145403558388352,62.04859717749059,67.18],[-7.145509924739599,62.0486746262759,66.88],[-7.14560279622674,62.04876330681145,67.12],[-7.145667923614383,62.04888585023582,66.74],[-7.145693572238088,62.048993054777384,66.38],[-7.145715365186334,62.04908575862646,66.16],[-7.145724836736918,62.04917158931494,65.77],[-7.14573766104877,62.04925440251827,66.5],[-7.145763142034411,62.04935741610825,65.39],[-7.145774541422725,62.04947509802878,64.57],[-7.145760040730238,62.04957350157201,64.93],[-7.145764650776982,62.04969118349254,64.01],[-7.145764483138919,62.04979126341641,64.34],[-7.145741768181324,62.049885392189026,63.82],[-7.145745707675815,62.04999343492091,63.85],[-7.145726010203362,62.05008739605546,63.15],[-7.145697008818388,62.05020138993859,63.42],[-7.145657278597355,62.05030825920403,63.34],[-7.145595923066139,62.05039685592055,62.94],[-7.145506823435426,62.050493666902184,62.83],[-7.145379334688187,62.050582682713866,61.94],[-7.145282188430429,62.05066725611687,60.9],[-7.145199710503221,62.050756020471454,61.05],[-7.145189316943288,62.05084713175893,59.2],[-7.145256791263819,62.05093631520867,58.64],[-7.145359721034765,62.05101133324206,57.82],[-7.145447060465813,62.05108760856092,57.61],[-7.14555736631155,62.05117545090616,57.29],[-7.145626517012715,62.051286762580276,57.58],[-7.145675467327237,62.05136513337493,56.92],[-7.145717293024063,62.05146144144237,55.95],[-7.145754005759955,62.05155070871115,55.08],[-7.145772697404027,62.05166679807007,54.64],[-7.145771943032742,62.05177215859294,54.14],[-7.145755514502525,62.05188942141831,53.47],[-7.14571176096797,62.05200785771012,52.96],[-7.145642945542932,62.05210064537823,52.32],[-7.14557496830821,62.05219938419759,51.14],[-7.14555200189352,62.05230340361595,50.74],[-7.145516043528915,62.052401723340154,49.66],[-7.145506739616394,62.05250767059624,49.16],[-7.145505147054792,62.05260171554983,48.64],[-7.145470529794693,62.05270757898688,47.98],[-7.145453849807382,62.05280313268304,46.94],[-7.145455693826079,62.0529069006443,46.3],[-7.145418478175998,62.053022822365165,45.46],[-7.145411521196365,62.05313731916249,44.44],[-7.145417975261807,62.05324796028435,43.51],[-7.14539609849453,62.05336019396782,42.62],[-7.145378915593028,62.05346563830972,41.87],[-7.145389895886183,62.053555911406875,41.15],[-7.145399702712894,62.053647274151444,40.44],[-7.145370617508888,62.05374953337014,39.43],[-7.145351758226752,62.053842321038246,38.66],[-7.145350584760308,62.05394416116178,37.19],[-7.145328959450126,62.05406913533807,36.02],[-7.145325522869825,62.054181871935725,35.27],[-7.145329043269157,62.054280526936054,34.43],[-7.145332982763648,62.054378259927034,33.49],[-7.145314710214734,62.05448982305825,31.97],[-7.145323259755969,62.05457925796509,31.78],[-7.145380675792694,62.05468302592635,29.29],[-7.145537752658129,62.05470724962652,26.92],[-7.145745791494846,62.054717894643545,24.06],[-7.145980065688491,62.05474505200982,22.51],[-7.14619304984808,62.05476952716708,20.93],[-7.146426066756249,62.05479517579079,18.55],[-7.146639972925186,62.054834738373756,16.77],[-7.146826051175594,62.054867343977094,15.48],[-7.147037778049707,62.05488360486925,14.88],[-7.147215809673071,62.05490866675973,14.09],[-7.147394344210625,62.05495317466557,10.8],[-7.147582769393921,62.054992485791445,9.16],[-7.147766500711441,62.055037915706635,7.26],[-7.147959703579545,62.055099522694945,4.82],[-7.148182578384876,62.05516322515905,3.95],[-7.148433113470674,62.0551760494709,3.2],[-7.148612905293703,62.05513061955571,2.94],[-7.148793367668986,62.05503271892667,2.56],[-7.148897554725409,62.05492811277509,2.36],[-7.148994198068976,62.054821494966745,2.26],[-7.149085225537419,62.054718900471926,2.35],[-7.149153705686331,62.054623514413834,2.68],[-7.149219755083323,62.05450457520783,2.62],[-7.149350428953767,62.054422264918685,2.36],[-7.149477666243911,62.05433408729732,2.8],[-7.149535417556763,62.054241970181465,2.8],[-7.149599120020866,62.05413702875376,3.28],[-7.149689393118024,62.05403518863022,3.13],[-7.149739013984799,62.05392957665026,3.21],[-7.149801207706332,62.053821701556444,2.65],[-7.149816881865263,62.053745090961456,2.36],[-7.149959206581116,62.05375640653074,1.45],[-7.150173112750053,62.05378239043057,1.05],[-7.150418115779758,62.05382036045194,0.97],[-7.150638224557042,62.05385422334075,0.69],[-7.1508804615587,62.05389269627631,0.66],[-7.151104174554348,62.05393980257213,0.84],[-7.15123325586319,62.05400610342622,1.02],[-7.151274913921952,62.05410140566528,0.37],[-7.151281954720616,62.05419301986694,-0.09],[-7.15129385702312,62.05428237095475,-0.18],[-7.151375245302916,62.05437063239515,-0.37],[-7.151572052389383,62.05439317971468,-0.77],[-7.151776822283864,62.054357724264264,-1.04],[-7.151951836422086,62.05431983806193,-0.96],[-7.152089802548289,62.05424305982888,-0.67],[-7.152218213304877,62.054170556366444,-0.68],[-7.152394065633416,62.05410785973072,-0.71],[-7.152589280158281,62.05408388748765,-0.28],[-7.152806036174297,62.05407600849867,-0.08],[-7.153017008677125,62.05410232767463,-0.46],[-7.153217168524861,62.05408874899149,-0.69],[-7.153100157156587,62.05412403680384,-0.73],[-7.152901338413358,62.054114984348416,-0.63],[-7.152688857167959,62.05411037430167,-0.38],[-7.152471095323563,62.05411666072905,-0.59],[-7.152250399813056,62.05413828603923,-0.33],[-7.152104638516903,62.05420668236911,-0.12],[-7.151949154213071,62.05425973981619,0.55],[-7.151790149509907,62.0543335005641,0.01],[-7.151596779003739,62.05436132848263,-0.29],[-7.151365522295237,62.05437909811735,-0.24],[-7.151268543675542,62.05429921858013,0.39],[-7.15126259252429,62.05420106649399,0.95],[-7.151236608624458,62.054107105359435,0.93],[-7.151189167052507,62.054007863625884,0.92],[-7.151042064651847,62.0539431553334,1.88]]}},{"type":"Feature","properties":{"name":"WP1 02_TR","type":"user","time":"2020-07-30T16:07:01Z","gpxx_WaypointExtension":"SymbolAndName","gpxx_DisplayMode":"SymbolAndName","wptx1_WaypointExtension":"SymbolAndName","wptx1_DisplayMode":"SymbolAndName","ctx_CreationTimeExtension":"2020-07-30T16:07:01Z","ctx_CreationTime":"2020-07-30T16:07:01Z","sym":"Flag, Blue"},"geometry":{"type":"Point","coordinates":[-7.145373970270157,62.05108903348446,62.864868]}},{"type":"Feature","properties":{"name":"WP2 04_TR","type":"user","time":"2020-07-30T16:12:41Z","gpxx_WaypointExtension":"SymbolAndName","gpxx_DisplayMode":"SymbolAndName","wptx1_WaypointExtension":"SymbolAndName","wptx1_DisplayMode":"SymbolAndName","ctx_CreationTimeExtension":"2020-07-30T16:12:41Z","ctx_CreationTime":"2020-07-30T16:12:41Z","sym":"Flag, Blue"},"geometry":{"type":"Point","coordinates":[-7.141174972057343,62.04664603807032,65.775215]}},{"type":"Feature","properties":{"name":"WP3 09_TR","type":"user","time":"2020-07-30T16:25:40Z","gpxx_WaypointExtension":"SymbolAndName","gpxx_DisplayMode":"SymbolAndName","wptx1_WaypointExtension":"SymbolAndName","wptx1_DisplayMode":"SymbolAndName","ctx_CreationTimeExtension":"2020-07-30T16:25:40Z","ctx_CreationTime":"2020-07-30T16:25:40Z","sym":"Flag, Blue"},"geometry":{"type":"Point","coordinates":[-7.125782025977969,62.04474996775389,103.519402]}}]}