{"type":"FeatureCollection","features":[{"type":"Feature","properties":{"_gpxType":"trk","name":"20 Wanderung Skopun Líraberg CS 001","time":"2020-07-28T09:19:39Z","gpxx_TrackExtension":"Blue","gpxx_DisplayColor":"Blue","coordinateProperties":{"times":["2020-07-28T09:19:39Z","2020-07-28T09:19:57Z","2020-07-28T09:20:04Z","2020-07-28T09:20:11Z","2020-07-28T09:20:18Z","2020-07-28T09:20:25Z","2020-07-28T09:20:34Z","2020-07-28T09:21:47Z","2020-07-28T09:21:54Z","2020-07-28T09:22:29Z","2020-07-28T09:22:36Z","2020-07-28T09:22:43Z","2020-07-28T09:22:50Z","2020-07-28T09:22:57Z","2020-07-28T09:23:06Z","2020-07-28T09:23:14Z","2020-07-28T09:23:22Z","2020-07-28T09:23:29Z","2020-07-28T09:23:37Z","2020-07-28T09:23:46Z","2020-07-28T09:24:13Z","2020-07-28T09:24:23Z","2020-07-28T09:24:30Z","2020-07-28T09:24:38Z","2020-07-28T09:24:46Z","2020-07-28T09:24:54Z","2020-07-28T09:25:18Z","2020-07-28T09:25:26Z","2020-07-28T09:25:34Z","2020-07-28T09:25:41Z","2020-07-28T09:25:48Z","2020-07-28T09:25:55Z","2020-07-28T09:26:02Z","2020-07-28T09:26:09Z","2020-07-28T09:26:15Z","2020-07-28T09:26:21Z","2020-07-28T09:26:28Z","2020-07-28T09:26:35Z","2020-07-28T09:26:41Z","2020-07-28T09:26:48Z","2020-07-28T09:26:54Z","2020-07-28T09:27:00Z","2020-07-28T09:27:06Z","2020-07-28T09:27:13Z","2020-07-28T09:27:19Z","2020-07-28T09:27:26Z","2020-07-28T09:27:32Z","2020-07-28T09:27:38Z","2020-07-28T09:27:45Z","2020-07-28T09:27:53Z","2020-07-28T09:28:04Z","2020-07-28T09:28:11Z","2020-07-28T09:28:19Z","2020-07-28T09:28:26Z","2020-07-28T09:28:34Z","2020-07-28T09:28:52Z","2020-07-28T09:28:59Z","2020-07-28T09:29:06Z","2020-07-28T09:29:13Z","2020-07-28T09:29:20Z","2020-07-28T09:29:27Z","2020-07-28T09:29:34Z","2020-07-28T09:29:42Z","2020-07-28T09:29:49Z","2020-07-28T09:29:55Z","2020-07-28T09:30:01Z","2020-07-28T09:30:08Z","2020-07-28T09:30:24Z","2020-07-28T09:30:31Z","2020-07-28T09:30:37Z","2020-07-28T09:30:44Z","2020-07-28T09:30:51Z","2020-07-28T09:30:58Z","2020-07-28T09:31:04Z","2020-07-28T09:31:11Z","2020-07-28T09:31:18Z","2020-07-28T09:31:25Z","2020-07-28T09:31:32Z","2020-07-28T09:31:39Z","2020-07-28T09:31:46Z","2020-07-28T09:31:53Z","2020-07-28T09:31:59Z","2020-07-28T09:32:05Z","2020-07-28T09:32:11Z","2020-07-28T09:32:18Z","2020-07-28T09:32:24Z","2020-07-28T09:32:31Z","2020-07-28T09:32:39Z","2020-07-28T09:32:46Z","2020-07-28T09:32:54Z","2020-07-28T09:33:23Z","2020-07-28T09:33:30Z","2020-07-28T09:33:39Z","2020-07-28T09:33:46Z","2020-07-28T09:34:03Z","2020-07-28T09:34:10Z","2020-07-28T09:34:17Z","2020-07-28T09:34:24Z","2020-07-28T09:34:40Z","2020-07-28T09:34:55Z","2020-07-28T09:35:02Z","2020-07-28T09:35:08Z","2020-07-28T09:35:15Z","2020-07-28T09:37:22Z","2020-07-28T09:37:29Z","2020-07-28T09:37:36Z","2020-07-28T09:37:43Z","2020-07-28T09:37:50Z","2020-07-28T09:37:57Z","2020-07-28T09:38:04Z","2020-07-28T09:38:11Z","2020-07-28T09:38:17Z","2020-07-28T09:38:24Z","2020-07-28T09:38:30Z","2020-07-28T09:38:36Z","2020-07-28T09:38:42Z","2020-07-28T09:38:48Z","2020-07-28T09:38:54Z","2020-07-28T09:39:00Z","2020-07-28T09:39:06Z","2020-07-28T09:39:12Z","2020-07-28T09:39:18Z","2020-07-28T09:39:25Z","2020-07-28T09:39:32Z","2020-07-28T09:39:51Z","2020-07-28T09:39:59Z","2020-07-28T09:40:07Z","2020-07-28T09:40:14Z","2020-07-28T09:40:21Z","2020-07-28T09:40:28Z","2020-07-28T09:40:36Z","2020-07-28T09:41:12Z","2020-07-28T09:41:20Z","2020-07-28T09:41:27Z","2020-07-28T09:41:34Z","2020-07-28T09:41:59Z","2020-07-28T09:42:06Z","2020-07-28T09:42:12Z","2020-07-28T09:42:18Z","2020-07-28T09:42:24Z","2020-07-28T09:42:30Z","2020-07-28T09:42:37Z","2020-07-28T09:42:44Z","2020-07-28T09:42:52Z","2020-07-28T09:42:59Z","2020-07-28T09:43:05Z","2020-07-28T09:43:12Z","2020-07-28T09:43:19Z","2020-07-28T09:43:25Z","2020-07-28T09:43:32Z","2020-07-28T09:43:39Z","2020-07-28T09:43:45Z","2020-07-28T09:43:52Z","2020-07-28T09:43:59Z","2020-07-28T09:44:06Z","2020-07-28T09:44:13Z","2020-07-28T09:44:20Z","2020-07-28T09:44:27Z","2020-07-28T09:44:34Z","2020-07-28T09:44:41Z","2020-07-28T09:44:48Z","2020-07-28T09:44:55Z","2020-07-28T09:45:02Z","2020-07-28T09:45:10Z","2020-07-28T09:45:17Z","2020-07-28T09:45:25Z","2020-07-28T09:45:33Z","2020-07-28T09:45:40Z","2020-07-28T09:45:47Z","2020-07-28T09:45:54Z","2020-07-28T09:46:02Z","2020-07-28T09:47:35Z","2020-07-28T09:47:42Z","2020-07-28T09:47:49Z","2020-07-28T09:47:56Z","2020-07-28T09:48:03Z","2020-07-28T09:48:09Z","2020-07-28T09:48:16Z","2020-07-28T09:48:23Z","2020-07-28T09:48:30Z","2020-07-28T09:48:37Z","2020-07-28T09:48:43Z","2020-07-28T09:48:49Z","2020-07-28T09:48:55Z","2020-07-28T09:49:02Z","2020-07-28T09:49:09Z","2020-07-28T09:49:15Z","2020-07-28T09:49:22Z","2020-07-28T09:49:29Z","2020-07-28T09:49:35Z","2020-07-28T09:49:41Z","2020-07-28T09:49:48Z","2020-07-28T09:49:54Z","2020-07-28T09:50:00Z","2020-07-28T09:50:06Z","2020-07-28T09:50:14Z","2020-07-28T09:50:21Z","2020-07-28T09:50:29Z","2020-07-28T09:50:36Z","2020-07-28T09:50:44Z","2020-07-28T09:50:51Z","2020-07-28T09:50:57Z","2020-07-28T09:51:04Z","2020-07-28T09:51:11Z","2020-07-28T09:51:18Z","2020-07-28T09:51:26Z","2020-07-28T09:51:35Z","2020-07-28T09:51:43Z","2020-07-28T09:51:50Z","2020-07-28T09:51:57Z","2020-07-28T09:52:04Z","2020-07-28T09:52:11Z","2020-07-28T09:52:18Z","2020-07-28T09:52:26Z","2020-07-28T09:52:33Z","2020-07-28T09:52:40Z","2020-07-28T09:52:47Z","2020-07-28T09:52:54Z","2020-07-28T09:53:02Z","2020-07-28T09:53:09Z","2020-07-28T09:53:16Z","2020-07-28T09:53:23Z","2020-07-28T09:53:30Z","2020-07-28T09:53:37Z","2020-07-28T09:53:44Z","2020-07-28T09:53:51Z","2020-07-28T09:53:58Z","2020-07-28T09:54:05Z","2020-07-28T09:54:12Z","2020-07-28T09:54:19Z","2020-07-28T09:54:26Z","2020-07-28T09:54:33Z","2020-07-28T09:54:40Z","2020-07-28T09:54:47Z","2020-07-28T09:54:54Z","2020-07-28T09:55:01Z","2020-07-28T09:55:08Z","2020-07-28T09:55:15Z","2020-07-28T09:55:22Z","2020-07-28T09:55:30Z","2020-07-28T09:55:38Z","2020-07-28T09:55:45Z","2020-07-28T09:55:52Z","2020-07-28T09:55:59Z","2020-07-28T09:56:07Z","2020-07-28T09:56:19Z","2020-07-28T09:56:27Z","2020-07-28T09:56:35Z","2020-07-28T09:56:42Z","2020-07-28T09:56:49Z","2020-07-28T09:56:56Z","2020-07-28T09:57:03Z","2020-07-28T09:57:11Z","2020-07-28T09:58:54Z","2020-07-28T09:59:03Z","2020-07-28T09:59:12Z","2020-07-28T09:59:21Z","2020-07-28T09:59:29Z","2020-07-28T09:59:39Z","2020-07-28T09:59:49Z","2020-07-28T09:59:59Z","2020-07-28T10:00:11Z","2020-07-28T10:00:22Z","2020-07-28T10:00:35Z","2020-07-28T10:00:52Z","2020-07-28T10:01:12Z","2020-07-28T10:01:29Z","2020-07-28T10:01:54Z","2020-07-28T10:02:10Z","2020-07-28T10:02:20Z","2020-07-28T10:02:30Z","2020-07-28T10:02:40Z","2020-07-28T10:02:51Z","2020-07-28T10:03:08Z","2020-07-28T10:03:17Z","2020-07-28T10:03:39Z","2020-07-28T10:03:49Z","2020-07-28T10:03:58Z","2020-07-28T10:04:08Z","2020-07-28T10:04:18Z","2020-07-28T10:04:28Z","2020-07-28T10:04:39Z","2020-07-28T10:04:51Z","2020-07-28T10:05:00Z","2020-07-28T10:05:09Z","2020-07-28T10:05:18Z","2020-07-28T10:05:30Z","2020-07-28T10:05:39Z","2020-07-28T10:05:47Z","2020-07-28T10:05:56Z","2020-07-28T10:06:05Z","2020-07-28T10:06:13Z","2020-07-28T10:06:22Z","2020-07-28T10:06:32Z","2020-07-28T10:06:43Z","2020-07-28T10:06:53Z","2020-07-28T10:07:03Z","2020-07-28T10:07:13Z","2020-07-28T10:07:23Z","2020-07-28T10:07:34Z","2020-07-28T10:07:43Z","2020-07-28T10:07:51Z","2020-07-28T10:07:59Z","2020-07-28T10:08:09Z","2020-07-28T10:08:21Z","2020-07-28T10:08:32Z","2020-07-28T10:08:44Z","2020-07-28T10:08:53Z","2020-07-28T10:09:01Z","2020-07-28T10:09:09Z","2020-07-28T10:09:19Z","2020-07-28T10:09:29Z","2020-07-28T10:09:53Z","2020-07-28T10:10:03Z","2020-07-28T10:10:18Z","2020-07-28T10:10:31Z","2020-07-28T10:10:41Z","2020-07-28T10:10:51Z","2020-07-28T10:11:16Z","2020-07-28T10:16:54Z","2020-07-28T10:17:04Z","2020-07-28T10:17:12Z","2020-07-28T10:17:21Z","2020-07-28T10:17:52Z","2020-07-28T10:18:04Z","2020-07-28T10:18:37Z","2020-07-28T10:18:45Z","2020-07-28T10:18:53Z","2020-07-28T10:19:00Z","2020-07-28T10:19:09Z","2020-07-28T10:19:19Z","2020-07-28T10:19:48Z","2020-07-28T10:20:00Z","2020-07-28T10:20:09Z","2020-07-28T10:20:16Z","2020-07-28T10:20:25Z","2020-07-28T10:20:33Z","2020-07-28T10:20:41Z","2020-07-28T10:20:49Z","2020-07-28T10:20:57Z","2020-07-28T10:21:05Z","2020-07-28T10:21:13Z","2020-07-28T10:21:25Z","2020-07-28T10:21:39Z","2020-07-28T10:21:49Z","2020-07-28T10:21:58Z","2020-07-28T10:22:06Z","2020-07-28T10:22:14Z","2020-07-28T10:22:22Z","2020-07-28T10:22:30Z","2020-07-28T10:22:38Z","2020-07-28T10:22:46Z","2020-07-28T10:22:54Z","2020-07-28T10:23:04Z","2020-07-28T10:23:11Z","2020-07-28T10:23:20Z","2020-07-28T10:23:29Z","2020-07-28T10:23:39Z","2020-07-28T10:23:49Z","2020-07-28T10:23:59Z","2020-07-28T10:24:09Z","2020-07-28T10:24:19Z","2020-07-28T10:24:33Z","2020-07-28T10:26:16Z","2020-07-28T10:26:24Z","2020-07-28T10:26:33Z","2020-07-28T10:26:43Z","2020-07-28T10:26:53Z","2020-07-28T10:27:02Z","2020-07-28T10:27:11Z","2020-07-28T10:27:21Z","2020-07-28T10:27:36Z","2020-07-28T10:27:49Z","2020-07-28T10:28:02Z","2020-07-28T10:28:13Z","2020-07-28T10:28:23Z","2020-07-28T10:28:33Z","2020-07-28T10:28:44Z","2020-07-28T10:28:52Z","2020-07-28T10:29:00Z","2020-07-28T10:29:09Z","2020-07-28T10:29:18Z","2020-07-28T10:29:29Z","2020-07-28T10:29:38Z","2020-07-28T10:29:51Z","2020-07-28T10:29:59Z","2020-07-28T10:30:07Z","2020-07-28T10:30:13Z","2020-07-28T10:30:20Z","2020-07-28T10:30:27Z","2020-07-28T10:30:34Z","2020-07-28T10:30:41Z","2020-07-28T10:30:48Z","2020-07-28T10:30:57Z","2020-07-28T10:31:06Z","2020-07-28T10:31:13Z","2020-07-28T10:31:19Z","2020-07-28T10:31:25Z","2020-07-28T10:31:32Z","2020-07-28T10:31:58Z","2020-07-28T10:32:22Z","2020-07-28T10:32:28Z","2020-07-28T10:32:34Z","2020-07-28T10:32:40Z","2020-07-28T10:32:46Z","2020-07-28T10:32:52Z","2020-07-28T10:32:59Z","2020-07-28T10:33:05Z","2020-07-28T10:33:11Z","2020-07-28T10:33:17Z","2020-07-28T10:33:23Z","2020-07-28T10:33:30Z","2020-07-28T10:33:36Z","2020-07-28T10:33:42Z","2020-07-28T10:33:48Z","2020-07-28T10:33:54Z","2020-07-28T10:34:01Z","2020-07-28T10:34:07Z","2020-07-28T10:34:13Z","2020-07-28T10:34:19Z","2020-07-28T10:34:25Z","2020-07-28T10:34:31Z","2020-07-28T10:34:37Z","2020-07-28T10:34:43Z","2020-07-28T10:34:49Z","2020-07-28T10:34:55Z","2020-07-28T10:35:01Z","2020-07-28T10:35:07Z","2020-07-28T10:35:13Z","2020-07-28T10:35:19Z","2020-07-28T10:35:25Z","2020-07-28T10:35:31Z","2020-07-28T10:35:37Z","2020-07-28T10:35:43Z","2020-07-28T10:35:49Z","2020-07-28T10:35:55Z","2020-07-28T10:36:01Z","2020-07-28T10:36:07Z","2020-07-28T10:36:13Z","2020-07-28T10:36:19Z","2020-07-28T10:36:26Z","2020-07-28T10:36:33Z","2020-07-28T10:36:39Z","2020-07-28T10:36:45Z","2020-07-28T10:36:51Z","2020-07-28T10:36:58Z","2020-07-28T10:37:04Z","2020-07-28T10:37:10Z","2020-07-28T10:37:16Z","2020-07-28T10:37:22Z","2020-07-28T10:37:29Z","2020-07-28T10:37:35Z","2020-07-28T10:37:43Z","2020-07-28T10:38:04Z","2020-07-28T10:38:11Z","2020-07-28T10:38:17Z","2020-07-28T10:38:23Z","2020-07-28T10:38:28Z","2020-07-28T10:38:34Z","2020-07-28T10:38:41Z","2020-07-28T10:38:47Z","2020-07-28T10:38:53Z","2020-07-28T10:38:59Z","2020-07-28T10:39:05Z","2020-07-28T10:39:11Z","2020-07-28T10:39:18Z","2020-07-28T10:39:26Z","2020-07-28T10:39:42Z","2020-07-28T10:39:48Z","2020-07-28T10:39:55Z","2020-07-28T10:40:02Z","2020-07-28T10:40:28Z","2020-07-28T10:40:34Z","2020-07-28T10:40:40Z","2020-07-28T10:40:46Z","2020-07-28T10:41:08Z","2020-07-28T10:41:14Z","2020-07-28T10:41:20Z","2020-07-28T10:41:26Z","2020-07-28T10:41:32Z","2020-07-28T10:41:38Z","2020-07-28T10:41:44Z","2020-07-28T10:42:07Z","2020-07-28T10:42:14Z","2020-07-28T10:43:15Z","2020-07-28T10:43:21Z","2020-07-28T10:43:27Z","2020-07-28T10:43:33Z","2020-07-28T10:43:39Z","2020-07-28T10:43:45Z","2020-07-28T10:43:51Z","2020-07-28T10:43:57Z","2020-07-28T10:44:03Z","2020-07-28T10:44:12Z","2020-07-28T10:44:18Z","2020-07-28T10:44:24Z","2020-07-28T10:44:30Z","2020-07-28T10:44:36Z","2020-07-28T10:44:42Z","2020-07-28T10:44:48Z","2020-07-28T10:44:54Z","2020-07-28T10:45:00Z","2020-07-28T10:45:06Z","2020-07-28T10:45:12Z","2020-07-28T10:45:18Z","2020-07-28T10:45:41Z","2020-07-28T10:45:48Z","2020-07-28T10:45:54Z","2020-07-28T10:46:00Z","2020-07-28T10:46:06Z","2020-07-28T10:46:12Z","2020-07-28T10:46:18Z","2020-07-28T10:46:24Z","2020-07-28T10:46:30Z","2020-07-28T10:46:36Z","2020-07-28T10:46:42Z","2020-07-28T10:46:48Z","2020-07-28T10:46:54Z","2020-07-28T10:47:00Z","2020-07-28T10:47:06Z","2020-07-28T10:47:12Z","2020-07-28T10:47:18Z","2020-07-28T10:47:25Z","2020-07-28T10:47:36Z","2020-07-28T10:47:42Z","2020-07-28T10:47:48Z","2020-07-28T10:47:54Z","2020-07-28T10:48:00Z","2020-07-28T10:48:06Z","2020-07-28T10:48:12Z","2020-07-28T10:48:18Z","2020-07-28T10:48:24Z","2020-07-28T10:48:33Z","2020-07-28T10:48:39Z","2020-07-28T10:48:45Z","2020-07-28T10:48:51Z","2020-07-28T10:48:57Z","2020-07-28T10:49:04Z","2020-07-28T10:49:23Z","2020-07-28T10:49:29Z","2020-07-28T10:49:35Z","2020-07-28T10:49:41Z","2020-07-28T10:49:48Z","2020-07-28T10:50:01Z","2020-07-28T10:50:07Z","2020-07-28T10:50:13Z","2020-07-28T10:50:19Z","2020-07-28T10:50:25Z","2020-07-28T10:50:31Z","2020-07-28T10:50:37Z","2020-07-28T10:50:43Z","2020-07-28T10:50:49Z","2020-07-28T10:50:54Z","2020-07-28T10:51:00Z","2020-07-28T10:51:06Z","2020-07-28T10:51:12Z","2020-07-28T10:51:18Z","2020-07-28T10:51:24Z","2020-07-28T10:51:31Z","2020-07-28T10:51:38Z","2020-07-28T10:53:39Z","2020-07-28T10:53:46Z","2020-07-28T10:53:52Z","2020-07-28T10:54:02Z","2020-07-28T10:54:09Z","2020-07-28T10:54:15Z","2020-07-28T10:54:21Z","2020-07-28T10:54:27Z","2020-07-28T10:54:33Z","2020-07-28T10:54:39Z","2020-07-28T10:54:45Z","2020-07-28T10:54:51Z","2020-07-28T10:54:57Z","2020-07-28T10:55:03Z","2020-07-28T10:55:09Z","2020-07-28T10:55:15Z","2020-07-28T10:55:21Z","2020-07-28T10:55:27Z","2020-07-28T10:55:33Z","2020-07-28T10:55:39Z","2020-07-28T10:55:45Z","2020-07-28T10:55:51Z","2020-07-28T10:55:57Z","2020-07-28T10:56:03Z","2020-07-28T10:56:09Z","2020-07-28T10:56:45Z","2020-07-28T10:56:51Z","2020-07-28T10:56:57Z","2020-07-28T10:57:03Z","2020-07-28T10:57:09Z","2020-07-28T10:57:15Z","2020-07-28T10:57:21Z","2020-07-28T10:57:27Z","2020-07-28T10:57:33Z","2020-07-28T10:57:39Z","2020-07-28T10:57:47Z","2020-07-28T10:57:53Z","2020-07-28T10:57:59Z","2020-07-28T10:58:06Z","2020-07-28T10:58:13Z","2020-07-28T10:58:20Z","2020-07-28T10:58:26Z","2020-07-28T10:58:32Z","2020-07-28T10:58:39Z","2020-07-28T10:58:45Z","2020-07-28T10:58:51Z","2020-07-28T10:58:57Z","2020-07-28T10:59:03Z","2020-07-28T10:59:09Z","2020-07-28T10:59:15Z","2020-07-28T10:59:22Z","2020-07-28T10:59:49Z","2020-07-28T10:59:56Z","2020-07-28T11:00:02Z","2020-07-28T11:00:10Z","2020-07-28T11:00:16Z","2020-07-28T11:00:22Z","2020-07-28T11:00:29Z","2020-07-28T11:00:40Z","2020-07-28T11:01:38Z","2020-07-28T11:01:44Z","2020-07-28T11:01:51Z","2020-07-28T11:01:57Z","2020-07-28T11:02:04Z","2020-07-28T11:02:11Z","2020-07-28T11:02:18Z","2020-07-28T11:02:24Z","2020-07-28T11:02:31Z","2020-07-28T11:02:38Z","2020-07-28T11:02:44Z","2020-07-28T11:02:50Z","2020-07-28T11:02:56Z","2020-07-28T11:03:03Z","2020-07-28T11:03:10Z","2020-07-28T11:03:17Z","2020-07-28T11:03:25Z","2020-07-28T11:03:32Z","2020-07-28T11:03:38Z","2020-07-28T11:03:44Z","2020-07-28T11:03:51Z","2020-07-28T11:03:59Z","2020-07-28T11:04:06Z","2020-07-28T11:04:14Z","2020-07-28T11:04:21Z","2020-07-28T11:04:28Z","2020-07-28T11:04:34Z","2020-07-28T11:04:41Z","2020-07-28T11:04:48Z","2020-07-28T11:04:58Z","2020-07-28T11:05:15Z","2020-07-28T11:05:22Z","2020-07-28T11:05:31Z","2020-07-28T11:05:48Z","2020-07-28T11:05:55Z","2020-07-28T11:06:02Z","2020-07-28T11:06:09Z","2020-07-28T11:06:16Z","2020-07-28T11:06:23Z","2020-07-28T11:06:30Z","2020-07-28T11:06:38Z","2020-07-28T11:06:58Z","2020-07-28T11:07:05Z","2020-07-28T11:07:12Z","2020-07-28T11:07:19Z","2020-07-28T11:07:26Z","2020-07-28T11:07:33Z"]}},"geometry":{"type":"LineString","coordinates":[[-6.878356290981174,61.90283018164337,-25.38],[-6.878316644579172,61.90272716805339,7.73],[-6.878355201333761,61.90262356773019,7.05],[-6.87839669175446,61.902521308511496,7.39],[-6.878402810543776,61.902424581348896,7.42],[-6.878389148041606,61.90233036875725,7.34],[-6.878412449732423,61.90223322249949,7.14],[-6.878566257655621,61.90214336849749,6.62],[-6.878781337291002,61.90216038376093,6.8],[-6.878983424976468,61.902209082618356,5.93],[-6.879158858209848,61.902256440371275,4.82],[-6.879274696111679,61.90235434100032,5.74],[-6.879394305869937,61.90244100987911,5.86],[-6.879566386342049,61.90249574370682,7.27],[-6.879790518432856,61.902519799768925,8.47],[-6.879958240315318,61.902585849165916,9.48],[-6.880129734054208,61.90265256911516,10.73],[-6.880348417907953,61.902713254094124,11.43],[-6.880563497543335,61.902743093669415,12.82],[-6.880723088979721,61.902801766991615,13.6],[-6.880907574668527,61.90274376422167,14.25],[-6.881076386198402,61.90266363322735,15.77],[-6.881215609610081,61.90258945338428,16.15],[-6.881402442231774,61.90249230712652,17.01],[-6.881588017567992,61.90240412950516,17.95],[-6.881758589297533,61.902329279109836,19.06],[-6.88194458372891,61.902270186692476,20.43],[-6.882087662816048,61.90218519419432,21.79],[-6.882257647812367,61.90211554057896,22.8],[-6.882439032196999,61.902050245553255,23.98],[-6.882655955851078,61.90202266909182,25.27],[-6.88286810182035,61.902018059045076,25.31],[-6.883070021867752,61.902032643556595,26.07],[-6.883289208635688,61.90203180536628,26.29],[-6.883476292714477,61.90206223167479,26.56],[-6.883669579401612,61.90209257416427,26.23],[-6.883839061483741,61.902131382375956,25.82],[-6.884024804458022,61.90218762494624,25.65],[-6.884219432249665,61.902243196964264,25.6],[-6.884398553520441,61.902315113693476,26.12],[-6.884557558223605,61.90237529575825,26.39],[-6.88469217158854,61.902444614097476,25.32],[-6.884773559868336,61.90252751111984,24.75],[-6.884947651997209,61.90260521136224,24.55],[-6.885054269805551,61.90268928185105,23.99],[-6.885199192911387,61.902763629332185,23.58],[-6.885391641408205,61.90280931070447,23.66],[-6.885569673031569,61.90285968594253,23.37],[-6.88577544875443,61.90289891324937,23.98],[-6.885960521176457,61.9029457680881,24.63],[-6.886175181716681,61.90297636203468,25.11],[-6.886383220553398,61.90297887660563,25.12],[-6.886606430634856,61.90295482054353,25.19],[-6.886830730363727,61.90293252468109,25.69],[-6.887043798342347,61.90292481333017,26.14],[-6.887214789167047,61.90291970036924,27.52],[-6.88741042278707,61.90294953994453,29.05],[-6.887630028650165,61.90296873450279,29.67],[-6.887841420248151,61.9029838219285,31.35],[-6.888068821281195,61.90300377085805,31.14],[-6.888273423537612,61.90303126350045,31.85],[-6.888467716053128,61.903063617646694,33.02],[-6.888681370764971,61.903103683143854,33.85],[-6.88888605684042,61.90313486382365,34.78],[-6.889069536700845,61.90317367203534,35.13],[-6.88926131464541,61.903204852715135,35.71],[-6.889463067054749,61.90323645249009,37.66],[-6.889659957960248,61.90326537005603,38.18],[-6.889870343729854,61.90329537726939,38.88],[-6.890062037855387,61.90331884659827,38.82],[-6.890259264037013,61.90334776416421,39.5],[-6.890462692826986,61.903376933187246,40.02],[-6.890677269548178,61.9034069404006,40.71],[-6.890880195423961,61.90343560650945,40.95],[-6.891101812943816,61.90347030758858,41.87],[-6.891324184834957,61.90350383520126,42.65],[-6.891530631110072,61.90352948382497,43.88],[-6.89172400161624,61.90354649908841,44.21],[-6.89193313010037,61.90357583574951,43.76],[-6.892151813954115,61.903604585677385,45.54],[-6.892360523343086,61.90361933782697,45.88],[-6.892558420076966,61.90363216213882,46],[-6.892747264355421,61.90364783629775,46.61],[-6.892926888540387,61.90366334281862,46.58],[-6.893133921548724,61.90369410440326,48.02],[-6.893314383924007,61.90371723845601,47.79],[-6.893519992008805,61.903729224577546,47.97],[-6.893726186826825,61.90376015380025,49.18],[-6.893910504877567,61.90378613770008,51.38],[-6.894097002223134,61.903820587322116,50.91],[-6.894297078251839,61.90383332781494,51.33],[-6.894473433494568,61.903863586485386,52.09],[-6.894671162590385,61.9038768298924,52.83],[-6.894864700734615,61.90389158204198,53.49],[-6.895075589418411,61.903914799913764,54.38],[-6.895279688760638,61.90393089316785,54.14],[-6.895474316552281,61.903958888724446,54.78],[-6.895687468349934,61.90397213213146,56.3],[-6.895874217152596,61.90397774800658,58.08],[-6.896069012582302,61.90396307967603,56.7],[-6.89629222266376,61.90396785736084,58.2],[-6.896478217095137,61.90397632308304,59.98],[-6.896690530702472,61.90397816710174,59.53],[-6.896839309483767,61.90402292646468,59.79],[-6.897062351927161,61.904022842645645,59.19],[-6.897280113771558,61.90403122454882,60.92],[-6.897489158436656,61.904049664735794,62.3],[-6.897682193666697,61.90404740162194,60.91],[-6.897899368777871,61.90402736887336,61.6],[-6.898113358765841,61.904016053304076,62.67],[-6.898340005427599,61.90400850959122,60.66],[-6.898535219952464,61.90401756204665,61.65],[-6.89874853938818,61.904037510976195,61.53],[-6.898947525769472,61.904049161821604,60.25],[-6.899151708930731,61.90405720844865,61.84],[-6.899349773302674,61.90406869165599,61.71],[-6.899549933150411,61.90407405607402,60.96],[-6.899755373597145,61.90407766029239,62.57],[-6.899960311129689,61.90407866612077,61.34],[-6.900154184550047,61.9040647521615,63.06],[-6.900344621390104,61.90405419096351,63.27],[-6.900532627478242,61.90403969027102,63.22],[-6.900733541697264,61.90403105691075,62.3],[-6.90093076787889,61.90400356426835,63.65],[-6.90114819444716,61.90395721234381,63.86],[-6.901360927149653,61.903934413567185,63.8],[-6.901570642367005,61.9039199128747,66.06],[-6.901763342320919,61.903898706659675,67.22],[-6.901974650099874,61.90387557260692,67.66],[-6.902172463014722,61.90385503694415,68.87],[-6.902376646175981,61.90383986569941,70.2],[-6.902607148513198,61.903821509331465,70.59],[-6.902843937277794,61.90382519736886,71.86],[-6.903050718829036,61.90383986569941,72.87],[-6.903247777372599,61.9038612395525,74.27],[-6.903460845351219,61.90387691371143,73.89],[-6.903672320768237,61.90388638526201,74.38],[-6.903867702931166,61.903904154896736,74.16],[-6.904064007103443,61.903939275071025,74.41],[-6.904256455600262,61.90398445352912,74.94],[-6.90444597043097,61.90402502194047,75.89],[-6.904635652899742,61.904066847637296,77.44],[-6.904800441116095,61.9041199889034,79.6],[-6.904979478567839,61.90417606383562,81.29],[-6.905170753598213,61.90424001775682,80.35],[-6.905341157689691,61.904292572289705,81.02],[-6.905518854036927,61.90434009768069,83.24],[-6.905702082440257,61.9043842703104,81.76],[-6.905885729938746,61.9044207315892,81.06],[-6.906103575602174,61.904426934197545,79.78],[-6.906316475942731,61.9044239167124,81.16],[-6.906515965238214,61.904423581436276,82.84],[-6.906731883063912,61.90441402606666,82.41],[-6.906941514462233,61.90439818426967,82.8],[-6.907146284356713,61.90436935052276,83.53],[-6.907316604629159,61.90432224422693,84.47],[-6.907515842467547,61.9042809214443,84.83],[-6.907703680917621,61.90422778017819,85.64],[-6.907897051423788,61.90417589619756,85.04],[-6.908087572082877,61.90411990508437,85.9],[-6.908254036679864,61.904058968648314,86.27],[-6.908420585095882,61.90399526618421,86.66],[-6.908586630597711,61.903923097997904,86.79],[-6.908742031082511,61.903855204582214,87.09],[-6.908915787935257,61.90378714352846,87.9],[-6.909087030217052,61.90372344106436,88.61],[-6.909265648573637,61.903656302019954,88.64],[-6.909450720995665,61.90359469503164,88.91],[-6.909641409292817,61.9035345967859,89.38],[-6.909832349047065,61.903475504368544,90.73],[-6.910044578835368,61.90341901034117,91.03],[-6.910250270739198,61.903393529355526,90.3],[-6.910417908802629,61.90334592014551,90.4],[-6.910612788051367,61.90331247635186,90.06],[-6.910823844373226,61.90328624099493,89.72],[-6.911029703915119,61.90325195901096,88.02],[-6.911241346970201,61.90323829650879,87.87],[-6.911448128521442,61.90325011499226,88.36],[-6.911666980013251,61.90326914191246,87.19],[-6.911880383267999,61.90325698815286,88.95],[-6.912019941955805,61.90319001674652,88.62],[-6.91213846206665,61.903108125552535,87.86],[-6.912224963307381,61.90302078612149,87.38],[-6.912315571680665,61.90294040367007,88.05],[-6.912440797314048,61.90286261960864,87.73],[-6.91262855194509,61.902810065075755,85.99],[-6.912798369303346,61.90277754329145,86.32],[-6.912988722324371,61.90273747779429,85.65],[-6.913172118365765,61.90268416889012,85.89],[-6.913347970694304,61.90263915807009,85.89],[-6.913503035902977,61.90259397961199,86.28],[-6.91367955878377,61.902534971013665,87.17],[-6.913844179362059,61.902481745928526,87.35],[-6.914020450785756,61.902434723451734,87.27],[-6.914197476580739,61.90238895826042,87.36],[-6.914341561496258,61.90232081338763,88.47],[-6.914387159049511,61.902234898880124,89.74],[-6.914418926462531,61.90215024165809,91.15],[-6.91446821205318,61.90205602906644,92.03],[-6.914512719959021,61.90195033326745,92.89],[-6.914587235078216,61.90185662358999,93.34],[-6.914670970290899,61.9017662666738,94.12],[-6.914748335257173,61.90166945569217,94.45],[-6.914843888953328,61.901571890339255,94.99],[-6.914944471791387,61.901486814022064,94.13],[-6.915061650797725,61.90140701830387,95.08],[-6.915194839239121,61.90132881514728,95.31],[-6.915376810356975,61.90126670524478,96.31],[-6.91557495854795,61.90121741965413,96.96],[-6.915757767856121,61.901176599785686,98.31],[-6.915942672640085,61.90113628283143,100.28],[-6.916132522746921,61.901099402457476,100.54],[-6.916305441409349,61.90105129033327,99.95],[-6.916517755016685,61.90101742744446,102.74],[-6.916725039482117,61.90098046325147,102.63],[-6.916922936215997,61.900954227894545,103.6],[-6.917112283408642,61.900940984487534,104.95],[-6.917308252304792,61.900917179882526,105.47],[-6.917522074654698,61.90091894008219,106.49],[-6.917742853984237,61.900928327813745,105.95],[-6.917958771809936,61.900946851819754,106.02],[-6.918183155357838,61.90095607191324,105.58],[-6.91841047257185,61.900954311713576,105.46],[-6.918630078434944,61.900961520150304,105.2],[-6.918859658762813,61.900971326977015,105.29],[-6.919072810560465,61.9010014180094,106.52],[-6.919256541877985,61.901043243706226,107.75],[-6.919421665370464,61.901098899543285,107.91],[-6.919595841318369,61.90115002915263,107.65],[-6.919782087206841,61.90121532417834,106.67],[-6.91995064727962,61.901279194280505,107.72],[-6.920114178210497,61.90135404467583,108.06],[-6.920264381915331,61.90143954008818,108.47],[-6.920421123504639,61.90151397138834,106.18],[-6.920578451827169,61.9015902467072,106.9],[-6.920745000243187,61.901656463742256,106.89],[-6.920913979411125,61.90172217786312,106.71],[-6.921097626909614,61.901772636920214,106.16],[-6.92128705792129,61.901820078492165,107.44],[-6.921467101201415,61.90186693333089,108.7],[-6.921651251614094,61.90190683118999,109.86],[-6.921826768666506,61.9019391015172,110.45],[-6.921977810561657,61.90200221724808,110.79],[-6.922085685655475,61.902076648548245,111.42],[-6.922046709805727,61.902165580540895,112.14],[-6.921912515535951,61.90223414450884,114.54],[-6.921832635998726,61.90231670625508,115.86],[-6.921852165833116,61.902414774522185,116.76],[-6.921895751729608,61.902509070932865,114.64],[-6.921977726742625,61.902604792267084,112.89],[-6.92205517552793,61.9026867672801,112.89],[-6.922141760587692,61.902767065912485,113.67],[-6.922236895188689,61.902854992076755,115.18],[-6.922311494126916,61.902942918241024,116.04],[-6.92249396815896,61.90297401510179,114.57],[-6.922674598172307,61.90298289991915,115.43],[-6.922878446057439,61.902988934889436,116.01],[-6.92307592369616,61.90298281610012,116.85],[-6.9232845492661,61.90296923741698,119.39],[-6.923487223684788,61.90294224768877,121.16],[-6.923705572262406,61.90291970036924,123.25],[-6.923903888091445,61.90290478058159,124.34],[-6.924099186435342,61.902894554659724,128.34],[-6.924282750114799,61.902866307646036,130.4],[-6.924466229975224,61.902822302654386,134.23],[-6.924678962677717,61.902797492221,137.53],[-6.924877027049661,61.90276195295155,140.86],[-6.925083892419934,61.902718199416995,146.7],[-6.925294445827603,61.902668830007315,148.65],[-6.925455210730434,61.902634212747216,150.67],[-6.925588734447956,61.90258014947176,148.21],[-6.925748912617564,61.90252206288278,147.07],[-6.925814962014556,61.90243547782302,144.57],[-6.925962567329407,61.902362471446395,144.93],[-6.926020234823227,61.90227043814957,143.85],[-6.926152165979147,61.90220355056226,145.09],[-6.92628619261086,61.90212719142437,147.21],[-6.926446622237563,61.90205376595259,148.27],[-6.926587438210845,61.90197925083339,150.25],[-6.926729008555412,61.90192208625376,150.59],[-6.926803858950734,61.9018439669162,152.5],[-6.926863119006157,61.90174816176295,154],[-6.926960349082947,61.90166316926479,156.07],[-6.927152629941702,61.9016179908067,156.83],[-6.927323453128338,61.90156862139702,158.71],[-6.927487906068564,61.90149963833392,159.9],[-6.927663004025817,61.90144004300237,162.67],[-6.927809352055192,61.901367204263806,163.71],[-6.927951173856854,61.90129889175296,164],[-6.928088301792741,61.90122320316732,164.6],[-6.928262645378709,61.901167295873165,164.83],[-6.928407987579703,61.90109563060105,165.91],[-6.928554084151983,61.90102329477668,166.24],[-6.928726583719254,61.90095783211291,167.81],[-6.92883831448853,61.90088214352727,168.97],[-6.928979214280844,61.90082095563412,171.14],[-6.929146433249116,61.900775358080864,173.82],[-6.929310467094183,61.900725569576025,174.71],[-6.929448936134577,61.900655161589384,174.89],[-6.929586483165622,61.90057930536568,175.21],[-6.929747918620706,61.90050688572228,175.48],[-6.929891919717193,61.900438740849495,176.22],[-6.930034747347236,61.90037009306252,177.57],[-6.930201547220349,61.900303876027465,178.38],[-6.930362228304148,61.900230534374714,179.43],[-6.93052064627409,61.900172447785735,182.7],[-6.930662216618657,61.90009399317205,185.69],[-6.930808480829001,61.900019058957696,187.07],[-6.930964216589928,61.89995627850294,187.13],[-6.931120036169887,61.89989576116204,187.83],[-6.931262947618961,61.899826442822814,189.04],[-6.931426813825965,61.89975896850228,189.69],[-6.931617921218276,61.899698451161385,191.91],[-6.931733675301075,61.89962938427925,192.32],[-6.931677684187889,61.899537183344364,191.67],[-6.931500323116779,61.899471301585436,191.02],[-6.93137769587338,61.899396535009146,189.69],[-6.931277113035321,61.899318248033524,189.1],[-6.931253140792251,61.89926636405289,191.02],[-6.931247944012284,61.89929058775306,187.99],[-6.931351125240326,61.8993781786412,186.96],[-6.931469980627298,61.89944942481816,188.75],[-6.931571485474706,61.89952234737575,188.68],[-6.931580454111099,61.899611027911305,188.73],[-6.931540556252003,61.899701384827495,188.41],[-6.931418012827635,61.8997769895941,186.25],[-6.931267976760864,61.8998356629163,185.91],[-6.931126657873392,61.89990062266588,184.73],[-6.93098877556622,61.899956529960036,184.39],[-6.930832704529166,61.9000240880996,183.81],[-6.930684763938189,61.90008309669793,182.36],[-6.930564232170582,61.9001588691026,180.02],[-6.930401371791959,61.900216871872544,176.86],[-6.930245300754905,61.900294153019786,175.85],[-6.930095432326198,61.90035441890359,174.59],[-6.929938858374953,61.9004210550338,172.69],[-6.929812878370285,61.900495905429125,172.6],[-6.929658399894834,61.90055977553129,172.3],[-6.929501825943589,61.90062574110925,171.79],[-6.929360087960959,61.90070050768554,171.15],[-6.929199155420065,61.90075675025582,170.88],[-6.92908943630755,61.90083327703178,170.16],[-6.928985835984349,61.900910725817084,168.47],[-6.928819790482521,61.90095934085548,165.49],[-6.928614350035787,61.90101415850222,163.3],[-6.928468756377697,61.90109336748719,161.97],[-6.92834185436368,61.90116620622575,161.72],[-6.928185950964689,61.901218593120575,160.83],[-6.928036669269204,61.901283133774996,160.62],[-6.927889650687575,61.90135505050421,160.63],[-6.92772326990962,61.90141959115863,158.67],[-6.927539873868227,61.901475079357624,156.61],[-6.927377348765731,61.90152822062373,154.57],[-6.92725027911365,61.90159401856363,153.39],[-6.927082221955061,61.90162788145244,152.65],[-6.926910728216171,61.901666605845094,151.77],[-6.926842415705323,61.9017543643713,150.08],[-6.926770498976111,61.90183994360268,148.57],[-6.92669908516109,61.90192443318665,146.89],[-6.926584923639894,61.90200221724808,146.45],[-6.926435893401504,61.90206550061703,144.83],[-6.926261214539409,61.902122581377625,142.62],[-6.92616255953908,61.90218393690884,141.42],[-6.925998777151108,61.90218578092754,139.32],[-6.925986958667636,61.90227773040533,140.13],[-6.925921831279993,61.90236808732152,141.58],[-6.925799204036593,61.90244394354522,141.52],[-6.925684623420239,61.90253522247076,143.16],[-6.925553614273667,61.90259934403002,144.09],[-6.925411708652973,61.90267151221633,145.12],[-6.925223199650645,61.90270537510514,143.31],[-6.925042485818267,61.90274376422167,138.76],[-6.92485355772078,61.90277209505439,134.54],[-6.924681477248669,61.90280830487609,130.06],[-6.924490034580231,61.90283278003335,127.16],[-6.924276715144515,61.90285876393318,123.58],[-6.924072951078415,61.902865804731846,120.87],[-6.923848735168576,61.90288399346173,117.76],[-6.923638097941876,61.9029077142477,115.68],[-6.923447158187628,61.90293285995722,113.75],[-6.923244651407003,61.90294970758259,111.81],[-6.923013394698501,61.9029597658664,110.11],[-6.922782054170966,61.90296680666506,108.93],[-6.922594467177987,61.90298440866172,109.1],[-6.922397995367646,61.9029528927058,109.93],[-6.922276373952627,61.902885837480426,108.99],[-6.922202697023749,61.902792211622,107.23],[-6.922114854678512,61.90270688384771,106.71],[-6.921992478892207,61.90262272953987,107.56],[-6.921891141682863,61.902533210814,108.76],[-6.921840012073517,61.902432376518846,109.35],[-6.921828277409077,61.9023381639272,109.26],[-6.921870270743966,61.90224252641201,107.93],[-6.922010919079185,61.902160216122866,105.88],[-6.922067329287529,61.90207690000534,104.65],[-6.921980241313577,61.90199073404074,103.99],[-6.921840514987707,61.90192728303373,103.27],[-6.921654269099236,61.901883110404015,103.02],[-6.921475566923618,61.901839608326554,101.81],[-6.921295775100589,61.90181639045477,100.37],[-6.921098046004772,61.90177188254893,99.86],[-6.920925294980407,61.90171513706446,98.97],[-6.920771235600114,61.901648584753275,99.31],[-6.920625474303961,61.90157976932824,99.77],[-6.920479964464903,61.901512797921896,99.56],[-6.920355577021837,61.90143283456564,100.66],[-6.920201685279608,61.901353038847446,100.75],[-6.920042177662253,61.90128179267049,100.53],[-6.919886106625199,61.901212222874165,100.65],[-6.919716624543071,61.90115539357066,100.73],[-6.919547645375133,61.90110610798001,100.91],[-6.919376151636243,61.90106704831123,100.67],[-6.919190241023898,61.90102522261441,100.11],[-6.918976167216897,61.901006028056145,99.24],[-6.918756393715739,61.90098624676466,98.99],[-6.918550198897719,61.90097878687084,99.51],[-6.918341657146812,61.900969818234444,99.4],[-6.918136971071363,61.900964956730604,99.29],[-6.91793505102396,61.900948863476515,99.47],[-6.91774838604033,61.900932770222425,99.78],[-6.917541269212961,61.90092170611024,99.12],[-6.917341109365225,61.90092137083411,98.61],[-6.917150085791946,61.90093830227852,97.63],[-6.916954116895795,61.90095984376967,96.94],[-6.91675060428679,61.9009858276695,96.3],[-6.916568381711841,61.90102178603411,95.71],[-6.916358331218362,61.90105749294162,95.34],[-6.916161859408021,61.90109328366816,93.84],[-6.915988270193338,61.90113519318402,93.19],[-6.915818536654115,61.901176599785686,92.14],[-6.915627932175994,61.90122429281473,90.84],[-6.915430538356304,61.901270812377334,90.02],[-6.915285615250468,61.90134096890688,90.11],[-6.915164580568671,61.9014123827219,88.49],[-6.915037427097559,61.90148999914527,88.62],[-6.914931898936629,61.9015780929476,88.18],[-6.914857551455498,61.90166727639735,87.93],[-6.914789322763681,61.901762410998344,87.52],[-6.914735259488225,61.90185586921871,86.58],[-6.914679184556007,61.90195142291486,86.34],[-6.914593186229467,61.90205083228648,85.69],[-6.914527975022793,61.90215099602938,84.38],[-6.914475923404098,61.90224294550717,84.23],[-6.914424793794751,61.902332631871104,82.28],[-6.914305603131652,61.90240588970482,81.7],[-6.914134863764048,61.90245836041868,81.78],[-6.91394635476172,61.90251175314188,81.69],[-6.913770921528339,61.9025609549135,81.4],[-6.913605378940702,61.902611246332526,80.75],[-6.913418462499976,61.90265843644738,80.63],[-6.913205897435546,61.90270688384771,80.39],[-6.913019316270948,61.90275365486741,80.13],[-6.912852097302675,61.902801766991615,80.46],[-6.912649003788829,61.902851136401296,81.2],[-6.912483293563128,61.90290411002934,82.01],[-6.912365695461631,61.90297828987241,82.3],[-6.912248935550451,61.903073927387595,81.06],[-6.912154639139772,61.903151543810964,81.92],[-6.912025976926088,61.90322848968208,82.26],[-6.911873929202557,61.903296718373895,83.21],[-6.911687515676022,61.90330241806805,83.54],[-6.911492636427283,61.90328003838658,82.64],[-6.9112828373909,61.90326478332281,82.56],[-6.911087539047003,61.9032689742744,82.83],[-6.910902131348848,61.90329127013683,83.28],[-6.910708006471396,61.90332731232047,83.94],[-6.910515893250704,61.90337408334017,84.46],[-6.910306680947542,61.90340895205736,84.36],[-6.910117669031024,61.903444742783904,84.2],[-6.909922957420349,61.90349277108908,83.83],[-6.909745093435049,61.90354222431779,83.48],[-6.909550549462438,61.90359058789909,83.03],[-6.909378804266453,61.90363752655685,82.69],[-6.909191133454442,61.903697876259685,82.31],[-6.909042354673147,61.90375587902963,81.83],[-6.908868430182338,61.90381337888539,81.7],[-6.908741276711226,61.903883116319776,81.29],[-6.908565843477845,61.90393969416618,81.31],[-6.908411616459489,61.90400155261159,80.67],[-6.908262334764004,61.904061902314425,80.63],[-6.908087572082877,61.90411822870374,80.14],[-6.907916497439146,61.904171369969845,79.44],[-6.907708961516619,61.90422585234046,79.16],[-6.907530929893255,61.90429575741291,78.69],[-6.907339068129659,61.90432081930339,78.1],[-6.907151648774743,61.90436381846666,77.26],[-6.906948890537024,61.9043980166316,76.82],[-6.906751161441207,61.90442752093077,76.65],[-6.906523006036878,61.904434813186526,76.07],[-6.906306752935052,61.90442902967334,75.86],[-6.906082956120372,61.90441830083728,75.78],[-6.905861757695675,61.90439198166132,75.85],[-6.905673919245601,61.9043586216867,76.08],[-6.905462862923741,61.904304223135114,75.49],[-6.905289525166154,61.90425577573478,75.37],[-6.905105207115412,61.904199281707406,74.48],[-6.904937820509076,61.904144547879696,73.48],[-6.904763141646981,61.90409526228905,72.01],[-6.904573878273368,61.9040425401181,70.87],[-6.904372293502092,61.903997361660004,69.96],[-6.904190322384238,61.903953943401575,69.9],[-6.903975242748857,61.90391505137086,69.69],[-6.903780363500118,61.903878673911095,69.69],[-6.903587495908141,61.90384858287871,69.55],[-6.903387922793627,61.90382368862629,69.26],[-6.903205867856741,61.90380843356252,68.62],[-6.90298299305141,61.903796615079045,67.09],[-6.902760956436396,61.90378789789975,65.49],[-6.902548894286156,61.90379938110709,64.32],[-6.90233314409852,61.90382117405534,63.59],[-6.902117310091853,61.90383676439524,62.47],[-6.901908768340945,61.90386576578021,61.43],[-6.901676757261157,61.903888396918774,60.53],[-6.901457319036126,61.903918068856,59.6],[-6.901249196380377,61.903950003907084,58.81],[-6.901046186685562,61.90396701917052,58.44],[-6.900852899998426,61.90398696810007,57.91],[-6.900660954415798,61.90400733612478,57.29],[-6.900445790961385,61.904032062739134,56.82],[-6.90023154951632,61.90406458452344,56.69],[-6.900022337213159,61.904074642807245,56.8],[-6.899796528741717,61.904072128236294,56.46],[-6.899597039446235,61.90407154150307,56.33],[-6.899368464946747,61.90404899418354,55.85],[-6.899149194359779,61.904038935899734,55.27],[-6.898928331211209,61.90402158536017,55.31],[-6.898723980411887,61.90400985069573,55.05],[-6.898514768108726,61.904007922858,55.47],[-6.89830681309104,61.904017478227615,55.07],[-6.898101791739464,61.90403348766267,55.27],[-6.897898195311427,61.90405930392444,55.28],[-6.897695101797581,61.90408704802394,54.82],[-6.897468036040664,61.90407145768404,53.47],[-6.897251447662711,61.90405829809606,52.62],[-6.897018346935511,61.904036086052656,52.38],[-6.896795807406306,61.90401923842728,51.9],[-6.896599000319839,61.90401345491409,52.17],[-6.896407138556242,61.90399711020291,51.59],[-6.896210750564933,61.90398110076785,50.94],[-6.895995335653424,61.9039870519191,50.45],[-6.895760642364621,61.90398093312979,49.63],[-6.895566266030073,61.903966683894396,49.49],[-6.895374488085508,61.903926031664014,49.1],[-6.895199390128255,61.90390876494348,48.72],[-6.894989423453808,61.903899209573865,48.23],[-6.894792784005404,61.90387859009206,46.78],[-6.894621541723609,61.903876746073365,45.91],[-6.894410736858845,61.90384212881327,44.8],[-6.894204625859857,61.903806924819946,44.02],[-6.893981080502272,61.903788819909096,43.74],[-6.893765749409795,61.903775073587894,42.91],[-6.893561398610473,61.90374556928873,41.35],[-6.893369285389781,61.90371673554182,40.49],[-6.893172226846218,61.903686141595244,40.57],[-6.892972737550736,61.903664348647,39.76],[-6.892768470570445,61.903654877096415,39.04],[-6.892564119771123,61.903636856004596,39.18],[-6.892369324341416,61.90362386405468,38.35],[-6.892141839489341,61.90360869280994,36.98],[-6.891928436234593,61.90359846688807,36.21],[-6.889902194961906,61.903362264856696,30.44],[-6.889825332909823,61.90326922573149,30.08],[-6.889650234952569,61.90323628485203,29.43],[-6.889442866668105,61.90320895984769,28.47],[-6.889269612729549,61.90326327458024,27.39],[-6.889134161174297,61.9033482670784,26.94],[-6.888997033238411,61.90343342721462,26.55],[-6.888864263892174,61.90351649187505,26.11],[-6.888740295544267,61.90361313521862,26.14],[-6.888622110709548,61.90370433032513,27.05],[-6.888510882854462,61.903796615079045,26.06],[-6.888429578393698,61.90390231087804,25.66],[-6.888297144323587,61.90398847684264,25.51],[-6.888210391625762,61.90408361144364,25.33],[-6.888133026659489,61.90416625700891,25.35],[-6.888012830168009,61.90424722619355,25.3],[-6.887899003922939,61.90433624200523,25.14],[-6.887896070256829,61.904430286958814,26.58],[-6.887984499335289,61.904515363276005,26.15],[-6.888090614229441,61.90460119396448,27.55],[-6.888224389404059,61.904686354100704,27.02],[-6.88834123313427,61.90476472489536,28.99],[-6.888256324455142,61.90484309569001,28.97],[-6.888147359713912,61.90492993220687,29],[-6.888081394135952,61.905015176162124,29.95],[-6.888144593685865,61.90499304793775,28.85],[-6.888219024986029,61.904901936650276,28.95],[-6.888315919786692,61.9048073887825,28.57],[-6.88829337246716,61.90471200272441,27.97],[-6.888168985024095,61.90462986007333,27.43],[-6.88803730532527,61.90455702133477,26.19],[-6.887913839891553,61.90447521395981,25.77],[-6.887863799929619,61.90437773242593,24.89],[-6.887903781607747,61.904269605875015,24.87],[-6.887935549020767,61.90417296253145,25.15],[-6.88794351182878,61.90407631918788,23.19],[-6.887952145189047,61.90398344770074,22.58],[-6.887927167117596,61.90389602445066,22.51],[-6.887794733047485,61.90381404943764,22.56],[-6.887673949822784,61.903727212920785,22.01],[-6.88752131536603,61.90364012494683,21.2],[-6.887380499392748,61.903560580685735,20.59],[-6.887251166626811,61.90347684547305,19.76],[-6.887084115296602,61.90339487046003,19.02],[-6.886940784752369,61.90330618992448,18.9],[-6.886846320703626,61.90321826376021,18.62],[-6.886743474751711,61.90313871949911,17.61],[-6.886654626578093,61.903060264885426,16.51],[-6.886515067890286,61.90298901870847,16.26],[-6.886321445927024,61.90296186134219,15.7],[-6.88610477373004,61.90294484607875,15.34],[-6.885910481214523,61.902932189404964,14.67],[-6.885734377428889,61.90286949276924,14.26],[-6.885579563677311,61.902812998741865,14.19],[-6.885389294475317,61.90275541506708,14.43],[-6.885225428268313,61.90268768928945,14.62],[-6.885073464363813,61.902613593265414,14.66],[-6.884926864877343,61.90253899432719,15.48],[-6.884806333109736,61.90249909646809,15.93],[-6.884806249290705,61.90243564546108,14.85],[-6.884670043364167,61.90237923525274,15.88],[-6.884522689506412,61.90230765379965,16.55],[-6.884371479973197,61.902232049033046,16.39],[-6.884215325117111,61.90218452364206,15.87],[-6.884024469181895,61.90213004127145,16.48],[-6.88383269123733,61.90208528190851,16.9],[-6.883639488369227,61.90206365659833,16.78],[-6.88343002460897,61.90203272737563,17.55],[-6.883192230015993,61.90199785865843,17.85],[-6.882979916408658,61.90199173986912,16.59],[-6.88277036882937,61.90198972821236,15.83],[-6.88256953842938,61.90200154669583,14.85],[-6.882380191236734,61.902055190876126,13.68],[-6.88221238553524,61.9021275267005,12.3],[-6.882063103839755,61.902202628552914,11.02],[-6.881863530725241,61.90226490609348,9.39],[-6.881705028936267,61.902342941612005,7.93],[-6.881563626229763,61.9024314545095,7.12],[-6.881427420303226,61.90252055414021,6.67],[-6.881240839138627,61.90259079448879,6.21],[-6.881084768101573,61.90266220830381,5.14],[-6.880932552739978,61.90273714251816,3.95],[-6.880700290203095,61.90272632986307,2.58],[-6.88046651892364,61.902710404247046,1.57],[-6.880237190052867,61.9026524014771,-0.09],[-6.880076844245195,61.902584340423346,-0.71],[-6.879911553114653,61.902512004598975,-1.85],[-6.879764618352056,61.90243782475591,-2.15],[-6.87970032915473,61.902349228039384,-0.73],[-6.879703681915999,61.90240136347711,-2.29],[-6.879496397450566,61.902353251352906,-3.92],[-6.879372177645564,61.90237948670983,-3.95],[-6.879271091893315,61.90236322581768,-4.04],[-6.87921610660851,61.90225719474256,-4.3],[-6.87907587736845,61.90218335017562,-3.99],[-6.878869095817208,61.902148481458426,-2.89],[-6.878632558509708,61.90211839042604,-3.45],[-6.878439271822572,61.90213213674724,-3.24],[-6.878350004553795,61.90222165547311,-3.24],[-6.878292839974165,61.90231712535024,-3.25],[-6.878253361210227,61.90241988748312,-3.76],[-6.878231568261981,61.90252348780632,-3.26],[-6.878208601847291,61.90262264572084,-4.18],[-6.878200136125088,61.902727000415325,-3.05],[-6.878177840262651,61.90282649360597,-4.17],[-6.878128806129098,61.90292179584503,-3.95]]}},{"type":"Feature","properties":{"name":"WP1 01_LB","type":"user","time":"2020-07-28T09:28:44Z","gpxx_WaypointExtension":"SymbolAndName","gpxx_DisplayMode":"SymbolAndName","wptx1_WaypointExtension":"SymbolAndName","wptx1_DisplayMode":"SymbolAndName","ctx_CreationTimeExtension":"2020-07-28T09:28:44Z","ctx_CreationTime":"2020-07-28T09:28:44Z","sym":"Flag, Blue"},"geometry":{"type":"Point","coordinates":[-6.887093000113964,61.902921963483095,27.563128]}},{"type":"Feature","properties":{"name":"WP2 03_LB","type":"user","time":"2020-07-28T09:46:03Z","gpxx_WaypointExtension":"SymbolAndName","gpxx_DisplayMode":"SymbolAndName","wptx1_WaypointExtension":"SymbolAndName","wptx1_DisplayMode":"SymbolAndName","ctx_CreationTimeExtension":"2020-07-28T09:46:03Z","ctx_CreationTime":"2020-07-28T09:46:03Z","sym":"Flag, Blue"},"geometry":{"type":"Point","coordinates":[-6.910061007365584,61.903412975370884,90.666031]}},{"type":"Feature","properties":{"name":"WP3 05_LB","type":"user","time":"2020-07-28T09:57:32Z","gpxx_WaypointExtension":"SymbolAndName","gpxx_DisplayMode":"SymbolAndName","wptx1_WaypointExtension":"SymbolAndName","wptx1_DisplayMode":"SymbolAndName","ctx_CreationTimeExtension":"2020-07-28T09:57:32Z","ctx_CreationTime":"2020-07-28T09:57:32Z","sym":"Flag, Blue"},"geometry":{"type":"Point","coordinates":[-6.922288024798036,61.902926992625,115.599411]}}]}