{"type":"FeatureCollection","features":[{"type":"Feature","properties":{"_gpxType":"trk","name":"21 Wanderung Sandur Sølturvik CS 001","time":"2020-07-26T09:34:36Z","gpxx_TrackExtension":"Blue","gpxx_DisplayColor":"Blue","coordinateProperties":{"times":["2020-07-26T09:34:36Z","2020-07-26T09:34:45Z","2020-07-26T09:34:54Z","2020-07-26T09:35:04Z","2020-07-26T09:35:11Z","2020-07-26T09:35:18Z","2020-07-26T09:35:25Z","2020-07-26T09:35:32Z","2020-07-26T09:35:39Z","2020-07-26T09:35:45Z","2020-07-26T09:35:51Z","2020-07-26T09:35:57Z","2020-07-26T09:36:04Z","2020-07-26T09:36:10Z","2020-07-26T09:36:17Z","2020-07-26T09:36:32Z","2020-07-26T09:40:33Z","2020-07-26T09:40:39Z","2020-07-26T09:40:46Z","2020-07-26T09:40:52Z","2020-07-26T09:40:58Z","2020-07-26T09:41:04Z","2020-07-26T09:41:10Z","2020-07-26T09:41:16Z","2020-07-26T09:41:22Z","2020-07-26T09:41:29Z","2020-07-26T09:41:35Z","2020-07-26T09:41:42Z","2020-07-26T09:41:48Z","2020-07-26T09:41:54Z","2020-07-26T09:42:00Z","2020-07-26T09:42:06Z","2020-07-26T09:42:12Z","2020-07-26T09:42:18Z","2020-07-26T09:42:24Z","2020-07-26T09:42:30Z","2020-07-26T09:42:36Z","2020-07-26T09:42:42Z","2020-07-26T09:42:48Z","2020-07-26T09:42:58Z","2020-07-26T09:43:11Z","2020-07-26T09:43:17Z","2020-07-26T09:43:23Z","2020-07-26T09:43:30Z","2020-07-26T09:43:35Z","2020-07-26T09:43:41Z","2020-07-26T09:43:46Z","2020-07-26T09:43:51Z","2020-07-26T09:43:57Z","2020-07-26T09:44:12Z","2020-07-26T09:44:18Z","2020-07-26T09:44:23Z","2020-07-26T09:44:29Z","2020-07-26T09:44:37Z","2020-07-26T09:44:43Z","2020-07-26T09:44:55Z","2020-07-26T09:46:03Z","2020-07-26T09:46:48Z","2020-07-26T09:47:05Z","2020-07-26T09:47:12Z","2020-07-26T09:47:18Z","2020-07-26T09:47:23Z","2020-07-26T09:47:28Z","2020-07-26T09:47:34Z","2020-07-26T09:47:40Z","2020-07-26T09:47:45Z","2020-07-26T09:47:51Z","2020-07-26T09:47:56Z","2020-07-26T09:48:01Z","2020-07-26T09:48:07Z","2020-07-26T09:48:14Z","2020-07-26T09:48:21Z","2020-07-26T09:48:28Z","2020-07-26T09:48:35Z","2020-07-26T09:48:42Z","2020-07-26T09:48:48Z","2020-07-26T09:48:54Z","2020-07-26T09:48:59Z","2020-07-26T09:49:05Z","2020-07-26T09:49:10Z","2020-07-26T09:49:16Z","2020-07-26T09:49:22Z","2020-07-26T09:49:28Z","2020-07-26T09:49:34Z","2020-07-26T09:49:40Z","2020-07-26T09:49:46Z","2020-07-26T09:49:52Z","2020-07-26T09:49:58Z","2020-07-26T09:50:04Z","2020-07-26T09:50:10Z","2020-07-26T09:50:16Z","2020-07-26T09:50:22Z","2020-07-26T09:50:28Z","2020-07-26T09:50:34Z","2020-07-26T09:50:40Z","2020-07-26T09:50:45Z","2020-07-26T09:50:51Z","2020-07-26T09:50:57Z","2020-07-26T09:51:03Z","2020-07-26T09:51:09Z","2020-07-26T09:51:15Z","2020-07-26T09:51:21Z","2020-07-26T09:51:27Z","2020-07-26T09:51:33Z","2020-07-26T09:51:39Z","2020-07-26T09:51:45Z","2020-07-26T09:51:51Z","2020-07-26T09:51:57Z","2020-07-26T09:52:03Z","2020-07-26T09:52:09Z","2020-07-26T09:52:15Z","2020-07-26T09:52:21Z","2020-07-26T09:52:27Z","2020-07-26T09:52:45Z","2020-07-26T09:52:52Z","2020-07-26T09:52:59Z","2020-07-26T09:53:06Z","2020-07-26T09:53:13Z","2020-07-26T09:53:24Z","2020-07-26T09:53:34Z","2020-07-26T09:53:45Z","2020-07-26T09:53:54Z","2020-07-26T09:54:02Z","2020-07-26T09:54:10Z","2020-07-26T09:54:19Z","2020-07-26T09:54:26Z","2020-07-26T09:54:34Z","2020-07-26T09:54:41Z","2020-07-26T09:54:48Z","2020-07-26T09:54:56Z","2020-07-26T09:55:03Z","2020-07-26T09:55:09Z","2020-07-26T09:55:15Z","2020-07-26T09:55:21Z","2020-07-26T09:55:27Z","2020-07-26T09:55:33Z","2020-07-26T09:55:39Z","2020-07-26T09:55:45Z","2020-07-26T09:55:51Z","2020-07-26T09:55:57Z","2020-07-26T09:56:03Z","2020-07-26T09:56:09Z","2020-07-26T09:56:16Z","2020-07-26T09:56:22Z","2020-07-26T09:56:28Z","2020-07-26T09:56:34Z","2020-07-26T09:56:41Z","2020-07-26T09:56:47Z","2020-07-26T09:56:53Z","2020-07-26T09:57:00Z","2020-07-26T09:57:06Z","2020-07-26T09:57:12Z","2020-07-26T09:57:18Z","2020-07-26T09:57:23Z","2020-07-26T09:57:31Z","2020-07-26T09:57:37Z","2020-07-26T09:57:44Z","2020-07-26T09:57:51Z","2020-07-26T09:57:57Z","2020-07-26T09:58:03Z","2020-07-26T09:58:10Z","2020-07-26T09:58:17Z","2020-07-26T09:58:23Z","2020-07-26T09:58:29Z","2020-07-26T09:58:35Z","2020-07-26T09:58:42Z","2020-07-26T09:58:51Z","2020-07-26T09:58:58Z","2020-07-26T09:59:04Z","2020-07-26T09:59:10Z","2020-07-26T09:59:16Z","2020-07-26T09:59:22Z","2020-07-26T09:59:28Z","2020-07-26T09:59:35Z","2020-07-26T09:59:41Z","2020-07-26T09:59:47Z","2020-07-26T09:59:53Z","2020-07-26T09:59:59Z","2020-07-26T10:00:05Z","2020-07-26T10:00:12Z","2020-07-26T10:00:18Z","2020-07-26T10:00:24Z","2020-07-26T10:00:29Z","2020-07-26T10:00:36Z","2020-07-26T10:00:43Z","2020-07-26T10:00:49Z","2020-07-26T10:00:55Z","2020-07-26T10:01:02Z","2020-07-26T10:01:08Z","2020-07-26T10:01:14Z","2020-07-26T10:01:20Z","2020-07-26T10:01:26Z","2020-07-26T10:01:33Z","2020-07-26T10:01:39Z","2020-07-26T10:01:46Z","2020-07-26T10:01:52Z","2020-07-26T10:01:58Z","2020-07-26T10:02:04Z","2020-07-26T10:02:10Z","2020-07-26T10:02:16Z","2020-07-26T10:02:22Z","2020-07-26T10:02:28Z","2020-07-26T10:02:34Z","2020-07-26T10:02:40Z","2020-07-26T10:02:46Z","2020-07-26T10:02:52Z","2020-07-26T10:02:58Z","2020-07-26T10:03:04Z","2020-07-26T10:03:10Z","2020-07-26T10:03:16Z","2020-07-26T10:03:22Z","2020-07-26T10:03:28Z","2020-07-26T10:03:34Z","2020-07-26T10:03:40Z","2020-07-26T10:03:48Z","2020-07-26T10:04:01Z","2020-07-26T10:04:07Z","2020-07-26T10:04:13Z","2020-07-26T10:04:19Z","2020-07-26T10:04:25Z","2020-07-26T10:04:31Z","2020-07-26T10:04:37Z","2020-07-26T10:04:43Z","2020-07-26T10:04:49Z","2020-07-26T10:04:55Z","2020-07-26T10:05:01Z","2020-07-26T10:05:07Z","2020-07-26T10:05:13Z","2020-07-26T10:05:19Z","2020-07-26T10:05:26Z","2020-07-26T10:05:32Z","2020-07-26T10:05:38Z","2020-07-26T10:05:44Z","2020-07-26T10:05:50Z","2020-07-26T10:05:56Z","2020-07-26T10:06:02Z","2020-07-26T10:06:08Z","2020-07-26T10:06:14Z","2020-07-26T10:06:20Z","2020-07-26T10:06:26Z","2020-07-26T10:06:32Z","2020-07-26T10:06:38Z","2020-07-26T10:06:44Z","2020-07-26T10:06:50Z","2020-07-26T10:06:56Z","2020-07-26T10:07:02Z","2020-07-26T10:07:08Z","2020-07-26T10:07:14Z","2020-07-26T10:07:20Z","2020-07-26T10:07:26Z","2020-07-26T10:07:32Z","2020-07-26T10:07:38Z","2020-07-26T10:07:44Z","2020-07-26T10:07:50Z","2020-07-26T10:07:56Z","2020-07-26T10:08:02Z","2020-07-26T10:08:08Z","2020-07-26T10:08:14Z","2020-07-26T10:08:20Z","2020-07-26T10:08:26Z","2020-07-26T10:08:32Z","2020-07-26T10:08:38Z","2020-07-26T10:08:44Z","2020-07-26T10:08:50Z","2020-07-26T10:08:56Z","2020-07-26T10:09:02Z","2020-07-26T10:09:08Z","2020-07-26T10:09:14Z","2020-07-26T10:09:21Z","2020-07-26T10:09:27Z","2020-07-26T10:09:33Z","2020-07-26T10:09:39Z","2020-07-26T10:09:45Z","2020-07-26T10:09:51Z","2020-07-26T10:09:59Z","2020-07-26T10:10:05Z","2020-07-26T10:10:11Z","2020-07-26T10:10:18Z","2020-07-26T10:10:24Z","2020-07-26T10:10:30Z","2020-07-26T10:10:36Z","2020-07-26T10:10:42Z","2020-07-26T10:11:20Z","2020-07-26T10:11:29Z","2020-07-26T10:11:35Z","2020-07-26T10:11:41Z","2020-07-26T10:11:47Z","2020-07-26T10:11:53Z","2020-07-26T10:11:59Z","2020-07-26T10:12:06Z","2020-07-26T10:12:12Z","2020-07-26T10:12:18Z","2020-07-26T10:12:24Z","2020-07-26T10:12:30Z","2020-07-26T10:12:36Z","2020-07-26T10:12:43Z","2020-07-26T10:12:49Z","2020-07-26T10:12:55Z","2020-07-26T10:13:01Z","2020-07-26T10:13:07Z","2020-07-26T10:13:13Z","2020-07-26T10:13:19Z","2020-07-26T10:13:25Z","2020-07-26T10:13:31Z","2020-07-26T10:13:37Z","2020-07-26T10:13:43Z","2020-07-26T10:13:49Z","2020-07-26T10:13:55Z","2020-07-26T10:14:01Z","2020-07-26T10:14:07Z","2020-07-26T10:14:13Z","2020-07-26T10:14:19Z","2020-07-26T10:14:25Z","2020-07-26T10:14:31Z","2020-07-26T10:14:37Z","2020-07-26T10:14:43Z","2020-07-26T10:14:49Z","2020-07-26T10:14:55Z","2020-07-26T10:15:01Z","2020-07-26T10:15:07Z","2020-07-26T10:15:13Z","2020-07-26T10:15:19Z","2020-07-26T10:15:25Z","2020-07-26T10:15:31Z","2020-07-26T10:15:37Z","2020-07-26T10:15:43Z","2020-07-26T10:15:49Z","2020-07-26T10:15:55Z","2020-07-26T10:16:01Z","2020-07-26T10:16:07Z","2020-07-26T10:16:12Z","2020-07-26T10:16:17Z","2020-07-26T10:16:23Z","2020-07-26T10:16:29Z","2020-07-26T10:16:35Z","2020-07-26T10:16:41Z","2020-07-26T10:16:47Z","2020-07-26T10:16:53Z","2020-07-26T10:16:59Z","2020-07-26T10:17:05Z","2020-07-26T10:17:11Z","2020-07-26T10:17:17Z","2020-07-26T10:17:23Z","2020-07-26T10:17:30Z","2020-07-26T10:17:36Z","2020-07-26T10:17:43Z","2020-07-26T10:17:53Z","2020-07-26T10:17:59Z","2020-07-26T10:18:05Z","2020-07-26T10:18:11Z","2020-07-26T10:18:17Z","2020-07-26T10:18:23Z","2020-07-26T10:18:29Z","2020-07-26T10:18:35Z","2020-07-26T10:18:41Z","2020-07-26T10:18:47Z","2020-07-26T10:18:53Z","2020-07-26T10:19:00Z","2020-07-26T10:19:07Z","2020-07-26T10:19:13Z","2020-07-26T10:19:20Z","2020-07-26T10:19:26Z","2020-07-26T10:19:32Z","2020-07-26T10:19:38Z","2020-07-26T10:19:44Z","2020-07-26T10:19:50Z","2020-07-26T10:19:56Z","2020-07-26T10:20:02Z","2020-07-26T10:20:08Z","2020-07-26T10:20:14Z","2020-07-26T10:20:20Z","2020-07-26T10:20:26Z","2020-07-26T10:20:32Z","2020-07-26T10:20:38Z","2020-07-26T10:20:44Z","2020-07-26T10:20:50Z","2020-07-26T10:20:56Z","2020-07-26T10:21:02Z","2020-07-26T10:21:09Z","2020-07-26T10:21:15Z","2020-07-26T10:21:21Z","2020-07-26T10:21:27Z","2020-07-26T10:21:33Z","2020-07-26T10:21:39Z","2020-07-26T10:21:45Z","2020-07-26T10:21:52Z","2020-07-26T10:21:59Z","2020-07-26T10:22:05Z","2020-07-26T10:22:12Z","2020-07-26T10:22:19Z","2020-07-26T10:22:26Z","2020-07-26T10:22:32Z","2020-07-26T10:22:39Z","2020-07-26T10:22:46Z","2020-07-26T10:22:52Z","2020-07-26T10:22:58Z","2020-07-26T10:23:04Z","2020-07-26T10:23:10Z","2020-07-26T10:23:16Z","2020-07-26T10:23:22Z","2020-07-26T10:23:28Z","2020-07-26T10:23:34Z","2020-07-26T10:23:40Z","2020-07-26T10:23:46Z","2020-07-26T10:23:52Z","2020-07-26T10:23:58Z","2020-07-26T10:24:04Z","2020-07-26T10:24:10Z","2020-07-26T10:24:16Z","2020-07-26T10:24:22Z","2020-07-26T10:24:28Z","2020-07-26T10:24:34Z","2020-07-26T10:24:40Z","2020-07-26T10:24:46Z","2020-07-26T10:24:52Z","2020-07-26T10:24:58Z","2020-07-26T10:25:04Z","2020-07-26T10:25:10Z","2020-07-26T10:25:16Z","2020-07-26T10:25:24Z","2020-07-26T10:25:44Z","2020-07-26T10:26:32Z","2020-07-26T10:27:24Z","2020-07-26T10:28:53Z","2020-07-26T10:28:53Z","2020-07-26T10:27:24Z","2020-07-26T10:26:32Z","2020-07-26T10:25:44Z","2020-07-26T10:25:24Z","2020-07-26T10:25:16Z","2020-07-26T10:25:10Z","2020-07-26T10:25:04Z","2020-07-26T10:24:58Z","2020-07-26T10:24:52Z","2020-07-26T10:24:46Z","2020-07-26T10:24:40Z","2020-07-26T10:24:34Z","2020-07-26T10:24:28Z","2020-07-26T10:24:22Z","2020-07-26T10:24:16Z","2020-07-26T10:24:10Z","2020-07-26T10:24:04Z","2020-07-26T10:23:58Z","2020-07-26T10:23:52Z","2020-07-26T10:23:46Z","2020-07-26T10:23:40Z","2020-07-26T10:23:34Z","2020-07-26T10:23:28Z","2020-07-26T10:23:22Z","2020-07-26T10:23:16Z","2020-07-26T10:23:10Z","2020-07-26T10:23:04Z","2020-07-26T10:22:58Z","2020-07-26T10:22:52Z","2020-07-26T10:22:46Z","2020-07-26T10:22:39Z","2020-07-26T10:22:32Z","2020-07-26T10:22:26Z","2020-07-26T10:22:19Z","2020-07-26T10:22:12Z","2020-07-26T10:22:05Z","2020-07-26T10:21:59Z","2020-07-26T10:21:52Z","2020-07-26T10:21:45Z","2020-07-26T10:21:39Z","2020-07-26T10:21:33Z","2020-07-26T10:21:27Z","2020-07-26T10:21:21Z","2020-07-26T10:21:15Z","2020-07-26T10:21:09Z","2020-07-26T10:21:02Z","2020-07-26T10:20:56Z","2020-07-26T10:20:50Z","2020-07-26T10:20:44Z","2020-07-26T10:20:38Z","2020-07-26T10:20:32Z","2020-07-26T10:20:26Z","2020-07-26T10:20:20Z","2020-07-26T10:20:14Z","2020-07-26T10:20:08Z","2020-07-26T10:20:02Z","2020-07-26T10:19:56Z","2020-07-26T10:19:50Z","2020-07-26T10:19:44Z","2020-07-26T10:19:38Z","2020-07-26T10:19:32Z","2020-07-26T10:19:26Z","2020-07-26T10:19:20Z","2020-07-26T10:19:13Z","2020-07-26T10:19:07Z","2020-07-26T10:19:00Z","2020-07-26T10:18:53Z","2020-07-26T10:18:47Z","2020-07-26T10:18:41Z","2020-07-26T10:18:35Z","2020-07-26T10:18:29Z","2020-07-26T10:18:23Z","2020-07-26T10:18:17Z","2020-07-26T10:18:11Z","2020-07-26T10:18:05Z","2020-07-26T10:17:59Z","2020-07-26T10:17:53Z","2020-07-26T10:17:43Z","2020-07-26T10:17:36Z","2020-07-26T10:17:30Z","2020-07-26T10:17:23Z","2020-07-26T10:17:17Z","2020-07-26T10:17:11Z","2020-07-26T10:17:05Z","2020-07-26T10:16:59Z","2020-07-26T10:16:53Z","2020-07-26T10:16:47Z","2020-07-26T10:16:41Z","2020-07-26T10:16:35Z","2020-07-26T10:16:29Z","2020-07-26T10:16:23Z","2020-07-26T10:16:17Z","2020-07-26T10:16:12Z","2020-07-26T10:16:07Z","2020-07-26T10:16:01Z","2020-07-26T10:15:55Z","2020-07-26T10:15:49Z","2020-07-26T10:15:43Z","2020-07-26T10:15:37Z","2020-07-26T10:15:31Z","2020-07-26T10:15:25Z","2020-07-26T10:15:19Z","2020-07-26T10:15:13Z","2020-07-26T10:15:07Z","2020-07-26T10:15:01Z","2020-07-26T10:14:55Z","2020-07-26T10:14:49Z","2020-07-26T10:14:43Z","2020-07-26T10:14:37Z","2020-07-26T10:14:31Z","2020-07-26T10:14:25Z","2020-07-26T10:14:19Z","2020-07-26T10:14:13Z","2020-07-26T10:14:07Z","2020-07-26T10:14:01Z","2020-07-26T10:13:55Z","2020-07-26T10:13:49Z","2020-07-26T10:13:43Z","2020-07-26T10:13:37Z","2020-07-26T10:13:31Z","2020-07-26T10:13:25Z","2020-07-26T10:13:19Z","2020-07-26T10:13:13Z","2020-07-26T10:13:07Z","2020-07-26T10:13:01Z","2020-07-26T10:12:55Z","2020-07-26T10:12:49Z","2020-07-26T10:12:43Z","2020-07-26T10:12:36Z","2020-07-26T10:12:30Z","2020-07-26T10:12:24Z","2020-07-26T10:12:18Z","2020-07-26T10:12:12Z","2020-07-26T10:12:06Z","2020-07-26T10:11:59Z","2020-07-26T10:11:53Z","2020-07-26T10:11:47Z","2020-07-26T10:11:41Z","2020-07-26T10:11:35Z","2020-07-26T10:11:29Z","2020-07-26T10:11:20Z","2020-07-26T10:10:42Z","2020-07-26T10:10:36Z","2020-07-26T10:10:30Z","2020-07-26T10:10:24Z","2020-07-26T10:10:18Z","2020-07-26T10:10:11Z","2020-07-26T10:10:05Z","2020-07-26T10:09:59Z","2020-07-26T10:09:51Z","2020-07-26T10:09:45Z","2020-07-26T10:09:39Z","2020-07-26T10:09:33Z","2020-07-26T10:09:27Z","2020-07-26T10:09:21Z","2020-07-26T10:09:14Z","2020-07-26T10:09:08Z","2020-07-26T10:09:02Z","2020-07-26T10:08:56Z","2020-07-26T10:08:50Z","2020-07-26T10:08:44Z","2020-07-26T10:08:38Z","2020-07-26T10:08:32Z","2020-07-26T10:08:26Z","2020-07-26T10:08:20Z","2020-07-26T10:08:14Z","2020-07-26T10:08:08Z","2020-07-26T10:08:02Z","2020-07-26T10:07:56Z","2020-07-26T10:07:50Z","2020-07-26T10:07:44Z","2020-07-26T10:07:38Z","2020-07-26T10:07:32Z","2020-07-26T10:07:26Z","2020-07-26T10:07:20Z","2020-07-26T10:07:14Z","2020-07-26T10:07:08Z","2020-07-26T10:07:02Z","2020-07-26T10:06:56Z","2020-07-26T10:06:50Z","2020-07-26T10:06:44Z","2020-07-26T10:06:38Z","2020-07-26T10:06:32Z","2020-07-26T10:06:26Z","2020-07-26T10:06:20Z","2020-07-26T10:06:14Z","2020-07-26T10:06:08Z","2020-07-26T10:06:02Z","2020-07-26T10:05:56Z","2020-07-26T10:05:50Z","2020-07-26T10:05:44Z","2020-07-26T10:05:38Z","2020-07-26T10:05:32Z","2020-07-26T10:05:26Z","2020-07-26T10:05:19Z","2020-07-26T10:05:13Z","2020-07-26T10:05:07Z","2020-07-26T10:05:01Z","2020-07-26T10:04:55Z","2020-07-26T10:04:49Z","2020-07-26T10:04:43Z","2020-07-26T10:04:37Z","2020-07-26T10:04:31Z","2020-07-26T10:04:25Z","2020-07-26T10:04:19Z","2020-07-26T10:04:13Z","2020-07-26T10:04:07Z","2020-07-26T10:04:01Z","2020-07-26T10:03:48Z","2020-07-26T10:03:40Z","2020-07-26T10:03:34Z","2020-07-26T10:03:28Z","2020-07-26T10:03:22Z","2020-07-26T10:03:16Z","2020-07-26T10:03:10Z","2020-07-26T10:03:04Z","2020-07-26T10:02:58Z","2020-07-26T10:02:52Z","2020-07-26T10:02:46Z","2020-07-26T10:02:40Z","2020-07-26T10:02:34Z","2020-07-26T10:02:28Z","2020-07-26T10:02:22Z","2020-07-26T10:02:16Z","2020-07-26T10:02:10Z","2020-07-26T10:02:04Z","2020-07-26T10:01:58Z","2020-07-26T10:01:52Z","2020-07-26T10:01:46Z","2020-07-26T10:01:39Z","2020-07-26T10:01:33Z","2020-07-26T10:01:26Z","2020-07-26T10:01:20Z","2020-07-26T10:01:14Z","2020-07-26T10:01:08Z","2020-07-26T10:01:02Z","2020-07-26T10:00:55Z","2020-07-26T10:00:49Z","2020-07-26T10:00:43Z","2020-07-26T10:00:36Z","2020-07-26T10:00:29Z","2020-07-26T10:00:24Z","2020-07-26T10:00:18Z","2020-07-26T10:00:12Z","2020-07-26T10:00:05Z","2020-07-26T09:59:59Z","2020-07-26T09:59:53Z","2020-07-26T09:59:47Z","2020-07-26T09:59:41Z","2020-07-26T09:59:35Z","2020-07-26T09:59:28Z","2020-07-26T09:59:22Z","2020-07-26T09:59:16Z","2020-07-26T09:59:10Z","2020-07-26T09:59:04Z","2020-07-26T09:58:58Z","2020-07-26T09:58:51Z","2020-07-26T09:58:42Z","2020-07-26T09:58:35Z","2020-07-26T09:58:29Z","2020-07-26T09:58:23Z","2020-07-26T09:58:17Z","2020-07-26T09:58:10Z","2020-07-26T09:58:03Z","2020-07-26T09:57:57Z","2020-07-26T09:57:51Z","2020-07-26T09:57:44Z","2020-07-26T09:57:37Z","2020-07-26T09:57:31Z","2020-07-26T09:57:23Z","2020-07-26T09:57:18Z","2020-07-26T09:57:12Z","2020-07-26T09:57:06Z","2020-07-26T09:57:00Z","2020-07-26T09:56:53Z","2020-07-26T09:56:47Z","2020-07-26T09:56:41Z","2020-07-26T09:56:34Z","2020-07-26T09:56:28Z","2020-07-26T09:56:22Z","2020-07-26T09:56:16Z","2020-07-26T09:56:09Z","2020-07-26T09:56:03Z","2020-07-26T09:55:57Z","2020-07-26T09:55:51Z","2020-07-26T09:55:45Z","2020-07-26T09:55:39Z","2020-07-26T09:55:33Z","2020-07-26T09:55:27Z","2020-07-26T09:55:21Z","2020-07-26T09:55:15Z","2020-07-26T09:55:09Z","2020-07-26T09:55:03Z","2020-07-26T09:54:56Z","2020-07-26T09:54:48Z","2020-07-26T09:54:41Z","2020-07-26T09:54:34Z","2020-07-26T09:54:26Z","2020-07-26T09:54:19Z","2020-07-26T09:54:10Z","2020-07-26T09:54:02Z","2020-07-26T09:53:54Z","2020-07-26T09:53:45Z","2020-07-26T09:53:34Z","2020-07-26T09:53:24Z","2020-07-26T09:53:13Z","2020-07-26T09:53:06Z","2020-07-26T09:52:59Z","2020-07-26T09:52:52Z","2020-07-26T09:52:45Z","2020-07-26T09:52:27Z","2020-07-26T09:52:21Z","2020-07-26T09:52:15Z","2020-07-26T09:52:09Z","2020-07-26T09:52:03Z","2020-07-26T09:51:57Z","2020-07-26T09:51:51Z","2020-07-26T09:51:45Z","2020-07-26T09:51:39Z","2020-07-26T09:51:33Z","2020-07-26T09:51:27Z","2020-07-26T09:51:21Z","2020-07-26T09:51:15Z","2020-07-26T09:51:09Z","2020-07-26T09:51:03Z","2020-07-26T09:50:57Z","2020-07-26T09:50:51Z","2020-07-26T09:50:45Z","2020-07-26T09:50:40Z","2020-07-26T09:50:34Z","2020-07-26T09:50:28Z","2020-07-26T09:50:22Z","2020-07-26T09:50:16Z","2020-07-26T09:50:10Z","2020-07-26T09:50:04Z","2020-07-26T09:49:58Z","2020-07-26T09:49:52Z","2020-07-26T09:49:46Z","2020-07-26T09:49:40Z","2020-07-26T09:49:34Z","2020-07-26T09:49:28Z","2020-07-26T09:49:22Z","2020-07-26T09:49:16Z","2020-07-26T09:49:10Z","2020-07-26T09:49:05Z","2020-07-26T09:48:59Z","2020-07-26T09:48:54Z","2020-07-26T09:48:48Z","2020-07-26T09:48:42Z","2020-07-26T09:48:35Z","2020-07-26T09:48:28Z","2020-07-26T09:48:21Z","2020-07-26T09:48:14Z","2020-07-26T09:48:07Z","2020-07-26T09:48:01Z","2020-07-26T09:47:56Z","2020-07-26T09:47:51Z","2020-07-26T09:47:45Z","2020-07-26T09:47:40Z","2020-07-26T09:47:34Z","2020-07-26T09:47:28Z","2020-07-26T09:47:23Z","2020-07-26T09:47:18Z","2020-07-26T09:47:12Z","2020-07-26T09:47:05Z","2020-07-26T09:46:48Z","2020-07-26T09:46:03Z","2020-07-26T09:44:55Z","2020-07-26T09:44:43Z","2020-07-26T09:44:37Z","2020-07-26T09:44:29Z","2020-07-26T09:44:23Z","2020-07-26T09:44:18Z","2020-07-26T09:44:12Z","2020-07-26T09:43:57Z","2020-07-26T09:43:51Z","2020-07-26T09:43:46Z","2020-07-26T09:43:41Z","2020-07-26T09:43:35Z","2020-07-26T09:43:30Z","2020-07-26T09:43:23Z","2020-07-26T09:43:17Z","2020-07-26T09:43:11Z","2020-07-26T09:42:58Z","2020-07-26T09:42:48Z","2020-07-26T09:42:42Z","2020-07-26T09:42:36Z","2020-07-26T09:42:30Z","2020-07-26T09:42:24Z","2020-07-26T09:42:18Z","2020-07-26T09:42:12Z","2020-07-26T09:42:06Z","2020-07-26T09:42:00Z","2020-07-26T09:41:54Z","2020-07-26T09:41:48Z","2020-07-26T09:41:42Z","2020-07-26T09:41:35Z","2020-07-26T09:41:29Z","2020-07-26T09:41:22Z","2020-07-26T09:41:16Z","2020-07-26T09:41:10Z","2020-07-26T09:41:04Z","2020-07-26T09:40:58Z","2020-07-26T09:40:52Z","2020-07-26T09:40:46Z","2020-07-26T09:40:39Z","2020-07-26T09:40:33Z","2020-07-26T09:36:32Z","2020-07-26T09:36:17Z","2020-07-26T09:36:10Z","2020-07-26T09:36:04Z","2020-07-26T09:35:57Z","2020-07-26T09:35:51Z","2020-07-26T09:35:45Z","2020-07-26T09:35:39Z","2020-07-26T09:35:32Z","2020-07-26T09:35:25Z","2020-07-26T09:35:18Z","2020-07-26T09:35:11Z","2020-07-26T09:35:04Z","2020-07-26T09:34:54Z","2020-07-26T09:34:45Z","2020-07-26T09:34:36Z"]}},"geometry":{"type":"LineString","coordinates":[[-6.820398531854153,61.836741054430604,35.51],[-6.82093245908618,61.836668802425265,37.44],[-6.821084758266807,61.836603255942464,39.42],[-6.821201518177986,61.83647400699556,40.15],[-6.821304196491838,61.83636319823563,38.93],[-6.82146898470819,61.83627569116652,42.79],[-6.821591695770621,61.83620033785701,43.98],[-6.821710299700499,61.83613060042262,44.32],[-6.8218017462641,61.83603420853615,45.03],[-6.82191071100533,61.835934799164534,44.52],[-6.822019005194306,61.83583413250744,44.52],[-6.822161246091127,61.83575416915119,44.42],[-6.822354029864073,61.83569373562932,45.61],[-6.822572713717818,61.83562466874719,44.72],[-6.822775891050696,61.83558225631714,43.63],[-6.823117369785905,61.83551134541631,43.98],[-6.823633527383208,61.83536181226373,45.22],[-6.82385791093111,61.835359213873744,44.17],[-6.824093442410231,61.835369942709804,42.3],[-6.824297541752458,61.83540053665638,39.54],[-6.824517566710711,61.83544412255287,40.43],[-6.824721833691001,61.83548552915454,41.95],[-6.824931213632226,61.83551821857691,39.75],[-6.825135229155421,61.83558703400195,42.04],[-6.825360702350736,61.835628943517804,40.67],[-6.825569411739707,61.83566825464368,38.7],[-6.825777618214488,61.83571653440595,38.24],[-6.826058495789766,61.83575081638992,36.56],[-6.826282879337668,61.835720892995596,35.7],[-6.826479602605104,61.83568158186972,34.99],[-6.826674481853843,61.83564880862832,35.3],[-6.82690205052495,61.83565467596054,32.67],[-6.827090894803405,61.83566481806338,33.27],[-6.827287198975682,61.835689544677734,30.8],[-6.827521724626422,61.835720809176564,31.53],[-6.827723141759634,61.83575375005603,31.32],[-6.827891366556287,61.83580379001796,30.88],[-6.828092113137245,61.83584611862898,28.6],[-6.828269809484482,61.83587344363332,30.82],[-6.828442141413689,61.83591552078724,27.07],[-6.828607935458422,61.835984168574214,33.63],[-6.828684881329536,61.836081482470036,30.39],[-6.828731400892139,61.83618382550776,29.23],[-6.828792002052069,61.83630678802729,27.24],[-6.828827289864421,61.83640074916184,26.1],[-6.8288629129529,61.8365185149014,25.62],[-6.828893758356571,61.83661239221692,24.67],[-6.828944971784949,61.83670459315181,24.32],[-6.82906567119062,61.83678564615548,24.64],[-6.829469930380583,61.836782125756145,20.38],[-6.829481916502118,61.83667106553912,22.08],[-6.829483844339848,61.83657660149038,21.23],[-6.829536901786923,61.83647274971008,18.44],[-6.829666653648019,61.836363868787885,19.09],[-6.829806296154857,61.836300753057,19.42],[-6.830194629728794,61.836228081956506,19.78],[-6.832603421062231,61.83624383993447,15.49],[-6.833440102636814,61.83676200918853,25.03],[-6.833752831444144,61.836781203746796,22.99],[-6.833818377926946,61.83666712604463,25.31],[-6.833859365433455,61.836561262607574,26.62],[-6.833900352939963,61.836468391120434,26.88],[-6.833939915522933,61.836373172700405,26.54],[-6.833987357094884,61.8362679798156,30.58],[-6.834070924669504,61.83616764843464,31.64],[-6.834148960188031,61.83607326820493,31.76],[-6.834232108667493,61.83597704395652,32.57],[-6.834295559674501,61.83588911779225,33.82],[-6.834382312372327,61.83579440228641,35.69],[-6.834546849131584,61.83575240895152,37.75],[-6.834637122228742,61.835836647078395,39.06],[-6.83469663374126,61.83593119494617,36.36],[-6.834754720330238,61.836030101403594,36.86],[-6.834883717820048,61.8361109867692,38.94],[-6.835025874897838,61.83604594320059,39.3],[-6.835075747221708,61.83594586327672,43.04],[-6.835246989503503,61.835876712575555,43.94],[-6.835431223735213,61.8358416762203,44.38],[-6.835649907588959,61.83580714277923,42.39],[-6.835845792666078,61.8357724417001,43.98],[-6.836055004969239,61.83574402704835,44.54],[-6.836253572255373,61.83571167290211,45.61],[-6.836462449282408,61.835682755336165,46.44],[-6.836647940799594,61.8356603756547,45.57],[-6.836837455630302,61.835628943517804,46.58],[-6.837036274373531,61.83560186997056,47.9],[-6.837223274633288,61.83557303622365,51.52],[-6.837429720908403,61.835539089515805,51.52],[-6.83764111250639,61.83550707064569,53.01],[-6.837858790531755,61.83548058383167,53.18],[-6.83806230314076,61.835449151694775,53.82],[-6.838288698345423,61.835420820862055,53.35],[-6.838506460189819,61.83538679033518,54.65],[-6.838708212599158,61.83535653166473,56.77],[-6.838925974443555,61.835326524451375,57.43],[-6.839118339121342,61.83531009592116,58],[-6.839337106794119,61.83529358357191,61.25],[-6.8395418766886,61.835276652127504,62.97],[-6.839761231094599,61.83525477536023,63.36],[-6.839992990717292,61.83523935265839,63.5],[-6.840224331244826,61.83522812090814,63.47],[-6.840437483042479,61.835210686549544,62.12],[-6.840659938752651,61.835201969370246,63.77],[-6.84088951908052,61.83518998324871,68.12],[-6.841125888749957,61.83517715893686,69.52],[-6.841364940628409,61.83516198769212,66.21],[-6.841601645573974,61.835138350725174,64.72],[-6.841823766008019,61.835114462301135,67.53],[-6.842038510367274,61.83509367518127,69.37],[-6.842249231413007,61.83507808484137,72.97],[-6.842459533363581,61.835045060142875,68.32],[-6.842680312693119,61.83499191887677,67.52],[-6.842860691249371,61.8349470756948,68.65],[-6.843022294342518,61.83487725444138,70.65],[-6.84323888272047,61.83485713787377,67.08],[-6.84343820437789,61.834855461493134,66.78],[-6.843650015071034,61.83483274653554,67.26],[-6.84387506917119,61.83482218533754,67.87],[-6.844189139083028,61.83481849730015,70.33],[-6.844497341662645,61.834814473986626,69.7],[-6.844828426837921,61.83482302352786,70.21],[-6.845117853954434,61.83483014814556,72.06],[-6.845391523092985,61.83485185727477,71.35],[-6.845671478658915,61.83483878150582,71.47],[-6.845930479466915,61.8348588142544,71.95],[-6.846106247976422,61.83490131050348,69.68],[-6.846324261277914,61.83498194441199,71.36],[-6.846571275964379,61.83499904349446,70.8],[-6.846845783293247,61.83498571626842,72.39],[-6.847159266471863,61.83500709012151,71.27],[-6.847398318350315,61.835038689896464,73.48],[-6.847637370228767,61.83508194051683,72.02],[-6.847832668572664,61.83514438569546,73.53],[-6.84806065633893,61.835197024047375,73.02],[-6.848266012966633,61.835248321294785,73.81],[-6.848472626879811,61.835294337943196,74.88],[-6.848665745928884,61.835334822535515,75],[-6.848864061757922,61.83536139316857,74.85],[-6.849062796682119,61.835383186116815,76.48],[-6.849285755306482,61.83540933765471,75.41],[-6.849525896832347,61.83543674647808,77.49],[-6.849770061671734,61.835469687357545,78.71],[-6.850028475746512,61.8355203140527,79.58],[-6.850251518189907,61.83557932265103,80.89],[-6.850457796826959,61.83564327657223,82.04],[-6.850648652762175,61.835714438930154,80.54],[-6.850885525345802,61.83578400872648,83.88],[-6.851083589717746,61.83583538979292,83.03],[-6.85127092525363,61.835886519402266,82.52],[-6.851478461176157,61.835943683981895,80.48],[-6.851665880531073,61.835977882146835,80.88],[-6.851866375654936,61.83600093238056,81.14],[-6.852066703140736,61.836032615974545,79.54],[-6.852250685915351,61.836049715057015,79.84],[-6.852538520470262,61.836064299568534,78.33],[-6.852759048342705,61.836078548803926,77.75],[-6.853029783815146,61.83610796928406,78.78],[-6.853295909240842,61.83611459098756,78.07],[-6.853523645550013,61.83610185049474,78.17],[-6.853756159543991,61.83608936145902,78.18],[-6.85401507653296,61.83608416467905,78.49],[-6.854263432323933,61.83610017411411,78.81],[-6.854473650455475,61.836131606251,78.44],[-6.854674899950624,61.83616144582629,78.36],[-6.854862235486507,61.8361939676106,78.65],[-6.855096090584993,61.836234368383884,80.18],[-6.855404796078801,61.83629564009607,80.1],[-6.855635633692145,61.83634375222027,80.45],[-6.855820287019014,61.83639261871576,80.97],[-6.855999073013663,61.83643687516451,80.93],[-6.856203256174922,61.836471827700734,82.82],[-6.856413055211306,61.83651600033045,83.83],[-6.856623440980911,61.83656017296016,83.46],[-6.856876658275724,61.83660753071308,83.84],[-6.857052678242326,61.83664893731475,85.21],[-6.857228195294738,61.83671188540757,84.59],[-6.857407651841641,61.83676544576883,85.1],[-6.857588030397892,61.8368242867291,85.43],[-6.857762122526765,61.83688321150839,86.14],[-6.857943339273334,61.83695336803794,85.93],[-6.858131848275662,61.83700240217149,86.92],[-6.858316082507372,61.83705830946565,86.24],[-6.858489001169801,61.83710675686598,85.59],[-6.858715396374464,61.837151013314724,86.14],[-6.858944809064269,61.83719820342958,86.86],[-6.859147483482957,61.837252685800195,87.74],[-6.8593196477741,61.837314208969474,85.53],[-6.859504217281938,61.83738646097481,84.34],[-6.859674705192447,61.8374406080693,83.32],[-6.859867824241519,61.8374992813915,82.53],[-6.860057339072228,61.83756574988365,82.59],[-6.860253559425473,61.837636325508356,81.89],[-6.860483139753342,61.8376945797354,80.18],[-6.860669804736972,61.8377360701561,80.83],[-6.860903492197394,61.83778007514775,81.79],[-6.861095605418086,61.837834138423204,80.53],[-6.861295010894537,61.837874203920364,78.44],[-6.86150087043643,61.837915275245905,78.87],[-6.861719721928239,61.83795307762921,78.45],[-6.861919714137912,61.83800345286727,77.7],[-6.862129513174295,61.83804594911635,76.85],[-6.86235012486577,61.83808375149965,75.82],[-6.86256118118763,61.83811300434172,76.57],[-6.862780954688788,61.838128846138716,75.87],[-6.863024281337857,61.83813798241317,75.15],[-6.863232403993607,61.838147370144725,75.13],[-6.863447232171893,61.83816564269364,74.7],[-6.863652421161532,61.83819296769798,75.04],[-6.863868590444326,61.83821710757911,74.17],[-6.864085262641311,61.838248539716005,73.13],[-6.864317944273353,61.83826991356909,72.24],[-6.864497987553477,61.838301345705986,70.05],[-6.864711223170161,61.83832221664488,70.92],[-6.864937618374825,61.83834174647927,73.75],[-6.865235343575478,61.838356079533696,72.69],[-6.865410022437573,61.838407879695296,71.14],[-6.865580594167113,61.838485496118665,70.06],[-6.865716548636556,61.83855724520981,69.13],[-6.865879828110337,61.8386217020452,68.91],[-6.866080071777105,61.83866369538009,68.83],[-6.866279309615493,61.83870384469628,68.76],[-6.86647460795939,61.83873577974737,67.6],[-6.866677533835173,61.838770816102624,68.58],[-6.866876101121306,61.838799649849534,68.18],[-6.867072153836489,61.838835356757045,67.88],[-6.867283880710602,61.838878858834505,67.99],[-6.867494434118271,61.838922780007124,67.89],[-6.867720494046807,61.83896158821881,67.9],[-6.867940435186029,61.8389932718128,68.46],[-6.868161214515567,61.839039120823145,68.78],[-6.868368582800031,61.839076755568385,69.48],[-6.868555163964629,61.83912578970194,69.6],[-6.868739984929562,61.839178847149014,70.68],[-6.86891432851553,61.83923341333866,70.81],[-6.869100155308843,61.83928722515702,69.68],[-6.869293358176947,61.83933542110026,69],[-6.869484717026353,61.83938051573932,68.35],[-6.869685128331184,61.83942653238773,68.63],[-6.869893418624997,61.839481350034475,67.8],[-6.870086118578911,61.839532144367695,69.58],[-6.870276220142841,61.839582435786724,68.77],[-6.870465064421296,61.839632811024785,68.3],[-6.87065726146102,61.839684108272195,68.13],[-6.870842166244984,61.83973674662411,67.81],[-6.87102572992444,61.839776895940304,67.74],[-6.871232008561492,61.83982316404581,67.5],[-6.871436275541782,61.83985719457269,68.13],[-6.871641213074327,61.839891728013754,69.71],[-6.871855789795518,61.839927434921265,67.56],[-6.872062236070633,61.83995911851525,67.46],[-6.872281674295664,61.8400015309453,66.85],[-6.872492982074618,61.84004151262343,66.69],[-6.87270219437778,61.840084260329604,66.28],[-6.872908975929022,61.84011125005782,65.81],[-6.873132605105639,61.84010211378336,64.89],[-6.873348522931337,61.84008518233895,65.28],[-6.873557232320309,61.840070094913244,65.56],[-6.873784381896257,61.84005618095398,65.75],[-6.8740014731884,61.84003807604313,68.4],[-6.874219235032797,61.84002541936934,66.08],[-6.874430794268847,61.84000882320106,66.14],[-6.874653249979019,61.83998795226216,66.33],[-6.874871766194701,61.83996641077101,65.67],[-6.87510235235095,61.83994319289923,66.14],[-6.875325897708535,61.83993305079639,64.67],[-6.875531589612365,61.83991435915232,66.45],[-6.875753374770284,61.83991486206651,66.14],[-6.875986307859421,61.83990287594497,67.52],[-6.876238267868757,61.839873204007745,67.63],[-6.876447647809982,61.839822828769684,66.38],[-6.876654010266066,61.83976197615266,67.06],[-6.87686825171113,61.83970523066819,66.16],[-6.877060029655695,61.839648904278874,67.35],[-6.877238983288407,61.83959249407053,67.12],[-6.877445178106427,61.83954228647053,67.14],[-6.877642404288054,61.83950398117304,67.43],[-6.877836864441633,61.83947380632162,65.93],[-6.878061750903726,61.839447654783726,66.67],[-6.878269873559475,61.839436925947666,66.74],[-6.878499705344439,61.839435836300254,65.9],[-6.878706989809871,61.83944103308022,64.44],[-6.878917291760445,61.83944690041244,64.8],[-6.879119044169784,61.839453522115946,64.49],[-6.879350803792477,61.8394782487303,64.85],[-6.879548951983452,61.839478835463524,64.62],[-6.879744585603476,61.83948688209057,64.71],[-6.879970729351044,61.83949082158506,63.55],[-6.880179606378079,61.83948847465217,62.78],[-6.880394769832492,61.83949233032763,62.39],[-6.880594175308943,61.8395110219717,61.27],[-6.880806321278215,61.83952409774065,61.79],[-6.881002876907587,61.8395665101707,62.32],[-6.881145369261503,61.83964488096535,63.42],[-6.881311079487205,61.83972685597837,62.74],[-6.881433371454477,61.83979759924114,63.25],[-6.88156932592392,61.83989139273763,63.03],[-6.88168172724545,61.8399809114635,62.48],[-6.881793960928917,61.840050062164664,62.34],[-6.881892113015056,61.840116027742624,62.22],[-6.882016584277153,61.84019054286182,62.65],[-6.882143151015043,61.84028500691056,63.48],[-6.882244236767292,61.8403746932745,62.18],[-6.882341550663114,61.84048365801573,62.01],[-6.882440792396665,61.84057921171188,61.89],[-6.88253240659833,61.840683901682496,61.18],[-6.882629971951246,61.840783562511206,60.67],[-6.882751593366265,61.84088381007314,60.13],[-6.882884195074439,61.84096704237163,59.71],[-6.883027860894799,61.84104750864208,58.74],[-6.883161384612322,61.84112227521837,60.43],[-6.883320389315486,61.84119117446244,59.39],[-6.883482914417982,61.84125638566911,60.78],[-6.883651977404952,61.841328805312514,57.13],[-6.883847024291754,61.84139443561435,56.26],[-6.884033689275384,61.84146014973521,54.95],[-6.884205937385559,61.84153106063604,56.25],[-6.884350022301078,61.84160381555557,53.31],[-6.884492347016931,61.84167447499931,55.13],[-6.884649591520429,61.8417526781559,54.82],[-6.884780433028936,61.84182568453252,53.51],[-6.884943712502718,61.84189743362367,53.55],[-6.885099364444614,61.84196976944804,52.54],[-6.885265996679664,61.84203816577792,52.75],[-6.885422486811876,61.84210404753685,51.75],[-6.885550059378147,61.8421879503876,51.3],[-6.885685930028558,61.84226933866739,51.86],[-6.88581652007997,61.84234092012048,51.48],[-6.885976111516357,61.842416105791926,51.11],[-6.88612824305892,61.84250235557556,50.52],[-6.886272998526692,61.842591036111116,50.01],[-6.886378107592464,61.84267217293382,49.58],[-6.886509200558066,61.842756662517786,48.81],[-6.886592516675592,61.842844504863024,49.93],[-6.886675246059895,61.84293729253113,49.07],[-6.886759819462895,61.84301633387804,49.57],[-6.886871634051204,61.843106439337134,48.28],[-6.886958051472902,61.84321573935449,47.52],[-6.887050000950694,61.84331137686968,48.76],[-6.887130802497268,61.84341346845031,48.89],[-6.887195678427815,61.843503238633275,47.72],[-6.887273211032152,61.84360499493778,46.45],[-6.88734688796103,61.84370951727033,48.79],[-6.887433808296919,61.84380884282291,46.07],[-6.887531876564026,61.84391428716481,45.97],[-6.887624161317945,61.84400388970971,46.23],[-6.887703370302916,61.84410606510937,44.96],[-6.887814849615097,61.84422567486763,46.34],[-6.887916689738631,61.84433162212372,42.29],[-6.888016937300563,61.84442943893373,41.91],[-6.888108383864164,61.8445327039808,44.1],[-6.888190191239119,61.84463378973305,43.36],[-6.888270154595375,61.84473236091435,44.44],[-6.888355817645788,61.84482766315341,43],[-6.888457322493196,61.844925647601485,43.69],[-6.888565700501204,61.84502958320081,43.21],[-6.888651782646775,61.84512807056308,44.43],[-6.888731494545937,61.845212392508984,45.01],[-6.888814978301525,61.845310209318995,45.64],[-6.888911370187998,61.84540919959545,45.57],[-6.888996111229062,61.845496790483594,45.73],[-6.889074733480811,61.84559628367424,44.77],[-6.889159642159939,61.845683539286256,45.79],[-6.889249999076128,61.845786049962044,45.81],[-6.889337589964271,61.84587766416371,45.96],[-6.889409758150578,61.84597095474601,46.76],[-6.889475220814347,61.84606877155602,47.17],[-6.889563733711839,61.846162397414446,47.27],[-6.889655767008662,61.84625526890159,47],[-6.88976020552218,61.846351912245154,46.46],[-6.889909990131855,61.846450651064515,47.28],[-6.890076203271747,61.84652759693563,45.96],[-6.890255408361554,61.846596244722605,46.44],[-6.890435451641679,61.84666598215699,46.56],[-6.890599820762873,61.84673027135432,46.07],[-6.890767710283399,61.846802020445466,45.35],[-6.890951357781887,61.846871841698885,45.57],[-6.891131149604917,61.84693227522075,45.35],[-6.891303732991219,61.84698550030589,44.76],[-6.891514454036951,61.84704928658903,43.8],[-6.891710506752133,61.84709622524679,43.04],[-6.891895662993193,61.84714953415096,42.9],[-6.892088949680328,61.84721013531089,41.3],[-6.892273351550102,61.84726193547249,39.74],[-6.892471583560109,61.84732027351856,38.61],[-6.892676437273622,61.84737333096564,38.11],[-6.89290794543922,61.84741012752056,36.13],[-6.893182452768087,61.847437703981996,34.98],[-6.893386133015156,61.84745857492089,34.05],[-6.893577575683594,61.84749512001872,33.04],[-6.893765917047858,61.8475481774658,33.65],[-6.893950067460537,61.84759637340903,32.08],[-6.894110748544335,61.84764867648482,30.98],[-6.894456166774035,61.84768723323941,28.58],[-6.894537303596735,61.847587237134576,26.99],[-6.894482234492898,61.84748497791588,25.51],[-6.894390117377043,61.847409792244434,23.54],[-6.894288863986731,61.847332175821066,23.34],[-6.894151065498591,61.847257325425744,23.17],[-6.894048303365707,61.84716294519603,21.84],[-6.893945373594761,61.84706697240472,20.71],[-6.893857698887587,61.846970999613404,21.54],[-6.893760887905955,61.846872344613075,21.03],[-6.893679080531001,61.84677327051759,19.78],[-6.893592244014144,61.8466810695827,18.27],[-6.893501719459891,61.846589874476194,17.89],[-6.893391832709312,61.84649985283613,16.96],[-6.893317988142371,61.84640262275934,15.57],[-6.893256297335029,61.84630296193063,15.18],[-6.893221344798803,61.846197098493576,14.91],[-6.89319477416575,61.84609718620777,14.35],[-6.893170299008489,61.845987886190414,14.83],[-6.893154876306653,61.84588411822915,12.62],[-6.893111290410161,61.845794934779406,11.19],[-6.893083043396473,61.845701141282916,10.5],[-6.893031746149063,61.84560399502516,11.36],[-6.892992435023189,61.84550433419645,9.63],[-6.892961254343391,61.84540609829128,10.59],[-6.892929822206497,61.84530174359679,9.88],[-6.892885230481625,61.845205603167415,9.27],[-6.892874082550407,61.84510560706258,9.29],[-6.892934767529368,61.84498390182853,8.95],[-6.892828652635217,61.84495213441551,9.96],[-6.892862683162093,61.844932520762086,9.87],[-6.892792442813516,61.84498415328562,9.16],[-6.892792442813516,61.84498415328562,9.16],[-6.892862683162093,61.844932520762086,9.87],[-6.892828652635217,61.84495213441551,9.96],[-6.892934767529368,61.84498390182853,8.95],[-6.892874082550407,61.84510560706258,9.29],[-6.892885230481625,61.845205603167415,9.27],[-6.892929822206497,61.84530174359679,9.88],[-6.892961254343391,61.84540609829128,10.59],[-6.892992435023189,61.84550433419645,9.63],[-6.893031746149063,61.84560399502516,11.36],[-6.893083043396473,61.845701141282916,10.5],[-6.893111290410161,61.845794934779406,11.19],[-6.893154876306653,61.84588411822915,12.62],[-6.893170299008489,61.845987886190414,14.83],[-6.89319477416575,61.84609718620777,14.35],[-6.893221344798803,61.846197098493576,14.91],[-6.893256297335029,61.84630296193063,15.18],[-6.893317988142371,61.84640262275934,15.57],[-6.893391832709312,61.84649985283613,16.96],[-6.893501719459891,61.846589874476194,17.89],[-6.893592244014144,61.8466810695827,18.27],[-6.893679080531001,61.84677327051759,19.78],[-6.893760887905955,61.846872344613075,21.03],[-6.893857698887587,61.846970999613404,21.54],[-6.893945373594761,61.84706697240472,20.71],[-6.894048303365707,61.84716294519603,21.84],[-6.894151065498591,61.847257325425744,23.17],[-6.894288863986731,61.847332175821066,23.34],[-6.894390117377043,61.847409792244434,23.54],[-6.894482234492898,61.84748497791588,25.51],[-6.894537303596735,61.847587237134576,26.99],[-6.894456166774035,61.84768723323941,28.58],[-6.894110748544335,61.84764867648482,30.98],[-6.893950067460537,61.84759637340903,32.08],[-6.893765917047858,61.8475481774658,33.65],[-6.893577575683594,61.84749512001872,33.04],[-6.893386133015156,61.84745857492089,34.05],[-6.893182452768087,61.847437703981996,34.98],[-6.89290794543922,61.84741012752056,36.13],[-6.892676437273622,61.84737333096564,38.11],[-6.892471583560109,61.84732027351856,38.61],[-6.892273351550102,61.84726193547249,39.74],[-6.892088949680328,61.84721013531089,41.3],[-6.891895662993193,61.84714953415096,42.9],[-6.891710506752133,61.84709622524679,43.04],[-6.891514454036951,61.84704928658903,43.8],[-6.891303732991219,61.84698550030589,44.76],[-6.891131149604917,61.84693227522075,45.35],[-6.890951357781887,61.846871841698885,45.57],[-6.890767710283399,61.846802020445466,45.35],[-6.890599820762873,61.84673027135432,46.07],[-6.890435451641679,61.84666598215699,46.56],[-6.890255408361554,61.846596244722605,46.44],[-6.890076203271747,61.84652759693563,45.96],[-6.889909990131855,61.846450651064515,47.28],[-6.88976020552218,61.846351912245154,46.46],[-6.889655767008662,61.84625526890159,47],[-6.889563733711839,61.846162397414446,47.27],[-6.889475220814347,61.84606877155602,47.17],[-6.889409758150578,61.84597095474601,46.76],[-6.889337589964271,61.84587766416371,45.96],[-6.889249999076128,61.845786049962044,45.81],[-6.889159642159939,61.845683539286256,45.79],[-6.889074733480811,61.84559628367424,44.77],[-6.888996111229062,61.845496790483594,45.73],[-6.888911370187998,61.84540919959545,45.57],[-6.888814978301525,61.845310209318995,45.64],[-6.888731494545937,61.845212392508984,45.01],[-6.888651782646775,61.84512807056308,44.43],[-6.888565700501204,61.84502958320081,43.21],[-6.888457322493196,61.844925647601485,43.69],[-6.888355817645788,61.84482766315341,43],[-6.888270154595375,61.84473236091435,44.44],[-6.888190191239119,61.84463378973305,43.36],[-6.888108383864164,61.8445327039808,44.1],[-6.888016937300563,61.84442943893373,41.91],[-6.887916689738631,61.84433162212372,42.29],[-6.887814849615097,61.84422567486763,46.34],[-6.887703370302916,61.84410606510937,44.96],[-6.887624161317945,61.84400388970971,46.23],[-6.887531876564026,61.84391428716481,45.97],[-6.887433808296919,61.84380884282291,46.07],[-6.88734688796103,61.84370951727033,48.79],[-6.887273211032152,61.84360499493778,46.45],[-6.887195678427815,61.843503238633275,47.72],[-6.887130802497268,61.84341346845031,48.89],[-6.887050000950694,61.84331137686968,48.76],[-6.886958051472902,61.84321573935449,47.52],[-6.886871634051204,61.843106439337134,48.28],[-6.886759819462895,61.84301633387804,49.57],[-6.886675246059895,61.84293729253113,49.07],[-6.886592516675592,61.842844504863024,49.93],[-6.886509200558066,61.842756662517786,48.81],[-6.886378107592464,61.84267217293382,49.58],[-6.886272998526692,61.842591036111116,50.01],[-6.88612824305892,61.84250235557556,50.52],[-6.885976111516357,61.842416105791926,51.11],[-6.88581652007997,61.84234092012048,51.48],[-6.885685930028558,61.84226933866739,51.86],[-6.885550059378147,61.8421879503876,51.3],[-6.885422486811876,61.84210404753685,51.75],[-6.885265996679664,61.84203816577792,52.75],[-6.885099364444614,61.84196976944804,52.54],[-6.884943712502718,61.84189743362367,53.55],[-6.884780433028936,61.84182568453252,53.51],[-6.884649591520429,61.8417526781559,54.82],[-6.884492347016931,61.84167447499931,55.13],[-6.884350022301078,61.84160381555557,53.31],[-6.884205937385559,61.84153106063604,56.25],[-6.884033689275384,61.84146014973521,54.95],[-6.883847024291754,61.84139443561435,56.26],[-6.883651977404952,61.841328805312514,57.13],[-6.883482914417982,61.84125638566911,60.78],[-6.883320389315486,61.84119117446244,59.39],[-6.883161384612322,61.84112227521837,60.43],[-6.883027860894799,61.84104750864208,58.74],[-6.882884195074439,61.84096704237163,59.71],[-6.882751593366265,61.84088381007314,60.13],[-6.882629971951246,61.840783562511206,60.67],[-6.88253240659833,61.840683901682496,61.18],[-6.882440792396665,61.84057921171188,61.89],[-6.882341550663114,61.84048365801573,62.01],[-6.882244236767292,61.8403746932745,62.18],[-6.882143151015043,61.84028500691056,63.48],[-6.882016584277153,61.84019054286182,62.65],[-6.881892113015056,61.840116027742624,62.22],[-6.881793960928917,61.840050062164664,62.34],[-6.88168172724545,61.8399809114635,62.48],[-6.88156932592392,61.83989139273763,63.03],[-6.881433371454477,61.83979759924114,63.25],[-6.881311079487205,61.83972685597837,62.74],[-6.881145369261503,61.83964488096535,63.42],[-6.881002876907587,61.8395665101707,62.32],[-6.880806321278215,61.83952409774065,61.79],[-6.880594175308943,61.8395110219717,61.27],[-6.880394769832492,61.83949233032763,62.39],[-6.880179606378079,61.83948847465217,62.78],[-6.879970729351044,61.83949082158506,63.55],[-6.879744585603476,61.83948688209057,64.71],[-6.879548951983452,61.839478835463524,64.62],[-6.879350803792477,61.8394782487303,64.85],[-6.879119044169784,61.839453522115946,64.49],[-6.878917291760445,61.83944690041244,64.8],[-6.878706989809871,61.83944103308022,64.44],[-6.878499705344439,61.839435836300254,65.9],[-6.878269873559475,61.839436925947666,66.74],[-6.878061750903726,61.839447654783726,66.67],[-6.877836864441633,61.83947380632162,65.93],[-6.877642404288054,61.83950398117304,67.43],[-6.877445178106427,61.83954228647053,67.14],[-6.877238983288407,61.83959249407053,67.12],[-6.877060029655695,61.839648904278874,67.35],[-6.87686825171113,61.83970523066819,66.16],[-6.876654010266066,61.83976197615266,67.06],[-6.876447647809982,61.839822828769684,66.38],[-6.876238267868757,61.839873204007745,67.63],[-6.875986307859421,61.83990287594497,67.52],[-6.875753374770284,61.83991486206651,66.14],[-6.875531589612365,61.83991435915232,66.45],[-6.875325897708535,61.83993305079639,64.67],[-6.87510235235095,61.83994319289923,66.14],[-6.874871766194701,61.83996641077101,65.67],[-6.874653249979019,61.83998795226216,66.33],[-6.874430794268847,61.84000882320106,66.14],[-6.874219235032797,61.84002541936934,66.08],[-6.8740014731884,61.84003807604313,68.4],[-6.873784381896257,61.84005618095398,65.75],[-6.873557232320309,61.840070094913244,65.56],[-6.873348522931337,61.84008518233895,65.28],[-6.873132605105639,61.84010211378336,64.89],[-6.872908975929022,61.84011125005782,65.81],[-6.87270219437778,61.840084260329604,66.28],[-6.872492982074618,61.84004151262343,66.69],[-6.872281674295664,61.8400015309453,66.85],[-6.872062236070633,61.83995911851525,67.46],[-6.871855789795518,61.839927434921265,67.56],[-6.871641213074327,61.839891728013754,69.71],[-6.871436275541782,61.83985719457269,68.13],[-6.871232008561492,61.83982316404581,67.5],[-6.87102572992444,61.839776895940304,67.74],[-6.870842166244984,61.83973674662411,67.81],[-6.87065726146102,61.839684108272195,68.13],[-6.870465064421296,61.839632811024785,68.3],[-6.870276220142841,61.839582435786724,68.77],[-6.870086118578911,61.839532144367695,69.58],[-6.869893418624997,61.839481350034475,67.8],[-6.869685128331184,61.83942653238773,68.63],[-6.869484717026353,61.83938051573932,68.35],[-6.869293358176947,61.83933542110026,69],[-6.869100155308843,61.83928722515702,69.68],[-6.86891432851553,61.83923341333866,70.81],[-6.868739984929562,61.839178847149014,70.68],[-6.868555163964629,61.83912578970194,69.6],[-6.868368582800031,61.839076755568385,69.48],[-6.868161214515567,61.839039120823145,68.78],[-6.867940435186029,61.8389932718128,68.46],[-6.867720494046807,61.83896158821881,67.9],[-6.867494434118271,61.838922780007124,67.89],[-6.867283880710602,61.838878858834505,67.99],[-6.867072153836489,61.838835356757045,67.88],[-6.866876101121306,61.838799649849534,68.18],[-6.866677533835173,61.838770816102624,68.58],[-6.86647460795939,61.83873577974737,67.6],[-6.866279309615493,61.83870384469628,68.76],[-6.866080071777105,61.83866369538009,68.83],[-6.865879828110337,61.8386217020452,68.91],[-6.865716548636556,61.83855724520981,69.13],[-6.865580594167113,61.838485496118665,70.06],[-6.865410022437573,61.838407879695296,71.14],[-6.865235343575478,61.838356079533696,72.69],[-6.864937618374825,61.83834174647927,73.75],[-6.864711223170161,61.83832221664488,70.92],[-6.864497987553477,61.838301345705986,70.05],[-6.864317944273353,61.83826991356909,72.24],[-6.864085262641311,61.838248539716005,73.13],[-6.863868590444326,61.83821710757911,74.17],[-6.863652421161532,61.83819296769798,75.04],[-6.863447232171893,61.83816564269364,74.7],[-6.863232403993607,61.838147370144725,75.13],[-6.863024281337857,61.83813798241317,75.15],[-6.862780954688788,61.838128846138716,75.87],[-6.86256118118763,61.83811300434172,76.57],[-6.86235012486577,61.83808375149965,75.82],[-6.862129513174295,61.83804594911635,76.85],[-6.861919714137912,61.83800345286727,77.7],[-6.861719721928239,61.83795307762921,78.45],[-6.86150087043643,61.837915275245905,78.87],[-6.861295010894537,61.837874203920364,78.44],[-6.861095605418086,61.837834138423204,80.53],[-6.860903492197394,61.83778007514775,81.79],[-6.860669804736972,61.8377360701561,80.83],[-6.860483139753342,61.8376945797354,80.18],[-6.860253559425473,61.837636325508356,81.89],[-6.860057339072228,61.83756574988365,82.59],[-6.859867824241519,61.8374992813915,82.53],[-6.859674705192447,61.8374406080693,83.32],[-6.859504217281938,61.83738646097481,84.34],[-6.8593196477741,61.837314208969474,85.53],[-6.859147483482957,61.837252685800195,87.74],[-6.858944809064269,61.83719820342958,86.86],[-6.858715396374464,61.837151013314724,86.14],[-6.858489001169801,61.83710675686598,85.59],[-6.858316082507372,61.83705830946565,86.24],[-6.858131848275662,61.83700240217149,86.92],[-6.857943339273334,61.83695336803794,85.93],[-6.857762122526765,61.83688321150839,86.14],[-6.857588030397892,61.8368242867291,85.43],[-6.857407651841641,61.83676544576883,85.1],[-6.857228195294738,61.83671188540757,84.59],[-6.857052678242326,61.83664893731475,85.21],[-6.856876658275724,61.83660753071308,83.84],[-6.856623440980911,61.83656017296016,83.46],[-6.856413055211306,61.83651600033045,83.83],[-6.856203256174922,61.836471827700734,82.82],[-6.855999073013663,61.83643687516451,80.93],[-6.855820287019014,61.83639261871576,80.97],[-6.855635633692145,61.83634375222027,80.45],[-6.855404796078801,61.83629564009607,80.1],[-6.855096090584993,61.836234368383884,80.18],[-6.854862235486507,61.8361939676106,78.65],[-6.854674899950624,61.83616144582629,78.36],[-6.854473650455475,61.836131606251,78.44],[-6.854263432323933,61.83610017411411,78.81],[-6.85401507653296,61.83608416467905,78.49],[-6.853756159543991,61.83608936145902,78.18],[-6.853523645550013,61.83610185049474,78.17],[-6.853295909240842,61.83611459098756,78.07],[-6.853029783815146,61.83610796928406,78.78],[-6.852759048342705,61.836078548803926,77.75],[-6.852538520470262,61.836064299568534,78.33],[-6.852250685915351,61.836049715057015,79.84],[-6.852066703140736,61.836032615974545,79.54],[-6.851866375654936,61.83600093238056,81.14],[-6.851665880531073,61.835977882146835,80.88],[-6.851478461176157,61.835943683981895,80.48],[-6.85127092525363,61.835886519402266,82.52],[-6.851083589717746,61.83583538979292,83.03],[-6.850885525345802,61.83578400872648,83.88],[-6.850648652762175,61.835714438930154,80.54],[-6.850457796826959,61.83564327657223,82.04],[-6.850251518189907,61.83557932265103,80.89],[-6.850028475746512,61.8355203140527,79.58],[-6.849770061671734,61.835469687357545,78.71],[-6.849525896832347,61.83543674647808,77.49],[-6.849285755306482,61.83540933765471,75.41],[-6.849062796682119,61.835383186116815,76.48],[-6.848864061757922,61.83536139316857,74.85],[-6.848665745928884,61.835334822535515,75],[-6.848472626879811,61.835294337943196,74.88],[-6.848266012966633,61.835248321294785,73.81],[-6.84806065633893,61.835197024047375,73.02],[-6.847832668572664,61.83514438569546,73.53],[-6.847637370228767,61.83508194051683,72.02],[-6.847398318350315,61.835038689896464,73.48],[-6.847159266471863,61.83500709012151,71.27],[-6.846845783293247,61.83498571626842,72.39],[-6.846571275964379,61.83499904349446,70.8],[-6.846324261277914,61.83498194441199,71.36],[-6.846106247976422,61.83490131050348,69.68],[-6.845930479466915,61.8348588142544,71.95],[-6.845671478658915,61.83483878150582,71.47],[-6.845391523092985,61.83485185727477,71.35],[-6.845117853954434,61.83483014814556,72.06],[-6.844828426837921,61.83482302352786,70.21],[-6.844497341662645,61.834814473986626,69.7],[-6.844189139083028,61.83481849730015,70.33],[-6.84387506917119,61.83482218533754,67.87],[-6.843650015071034,61.83483274653554,67.26],[-6.84343820437789,61.834855461493134,66.78],[-6.84323888272047,61.83485713787377,67.08],[-6.843022294342518,61.83487725444138,70.65],[-6.842860691249371,61.8349470756948,68.65],[-6.842680312693119,61.83499191887677,67.52],[-6.842459533363581,61.835045060142875,68.32],[-6.842249231413007,61.83507808484137,72.97],[-6.842038510367274,61.83509367518127,69.37],[-6.841823766008019,61.835114462301135,67.53],[-6.841601645573974,61.835138350725174,64.72],[-6.841364940628409,61.83516198769212,66.21],[-6.841125888749957,61.83517715893686,69.52],[-6.84088951908052,61.83518998324871,68.12],[-6.840659938752651,61.835201969370246,63.77],[-6.840437483042479,61.835210686549544,62.12],[-6.840224331244826,61.83522812090814,63.47],[-6.839992990717292,61.83523935265839,63.5],[-6.839761231094599,61.83525477536023,63.36],[-6.8395418766886,61.835276652127504,62.97],[-6.839337106794119,61.83529358357191,61.25],[-6.839118339121342,61.83531009592116,58],[-6.838925974443555,61.835326524451375,57.43],[-6.838708212599158,61.83535653166473,56.77],[-6.838506460189819,61.83538679033518,54.65],[-6.838288698345423,61.835420820862055,53.35],[-6.83806230314076,61.835449151694775,53.82],[-6.837858790531755,61.83548058383167,53.18],[-6.83764111250639,61.83550707064569,53.01],[-6.837429720908403,61.835539089515805,51.52],[-6.837223274633288,61.83557303622365,51.52],[-6.837036274373531,61.83560186997056,47.9],[-6.836837455630302,61.835628943517804,46.58],[-6.836647940799594,61.8356603756547,45.57],[-6.836462449282408,61.835682755336165,46.44],[-6.836253572255373,61.83571167290211,45.61],[-6.836055004969239,61.83574402704835,44.54],[-6.835845792666078,61.8357724417001,43.98],[-6.835649907588959,61.83580714277923,42.39],[-6.835431223735213,61.8358416762203,44.38],[-6.835246989503503,61.835876712575555,43.94],[-6.835075747221708,61.83594586327672,43.04],[-6.835025874897838,61.83604594320059,39.3],[-6.834883717820048,61.8361109867692,38.94],[-6.834754720330238,61.836030101403594,36.86],[-6.83469663374126,61.83593119494617,36.36],[-6.834637122228742,61.835836647078395,39.06],[-6.834546849131584,61.83575240895152,37.75],[-6.834382312372327,61.83579440228641,35.69],[-6.834295559674501,61.83588911779225,33.82],[-6.834232108667493,61.83597704395652,32.57],[-6.834148960188031,61.83607326820493,31.76],[-6.834070924669504,61.83616764843464,31.64],[-6.833987357094884,61.8362679798156,30.58],[-6.833939915522933,61.836373172700405,26.54],[-6.833900352939963,61.836468391120434,26.88],[-6.833859365433455,61.836561262607574,26.62],[-6.833818377926946,61.83666712604463,25.31],[-6.833752831444144,61.836781203746796,22.99],[-6.833440102636814,61.83676200918853,25.03],[-6.832603421062231,61.83624383993447,15.49],[-6.830194629728794,61.836228081956506,19.78],[-6.829806296154857,61.836300753057,19.42],[-6.829666653648019,61.836363868787885,19.09],[-6.829536901786923,61.83647274971008,18.44],[-6.829483844339848,61.83657660149038,21.23],[-6.829481916502118,61.83667106553912,22.08],[-6.829469930380583,61.836782125756145,20.38],[-6.82906567119062,61.83678564615548,24.64],[-6.828944971784949,61.83670459315181,24.32],[-6.828893758356571,61.83661239221692,24.67],[-6.8288629129529,61.8365185149014,25.62],[-6.828827289864421,61.83640074916184,26.1],[-6.828792002052069,61.83630678802729,27.24],[-6.828731400892139,61.83618382550776,29.23],[-6.828684881329536,61.836081482470036,30.39],[-6.828607935458422,61.835984168574214,33.63],[-6.828442141413689,61.83591552078724,27.07],[-6.828269809484482,61.83587344363332,30.82],[-6.828092113137245,61.83584611862898,28.6],[-6.827891366556287,61.83580379001796,30.88],[-6.827723141759634,61.83575375005603,31.32],[-6.827521724626422,61.835720809176564,31.53],[-6.827287198975682,61.835689544677734,30.8],[-6.827090894803405,61.83566481806338,33.27],[-6.82690205052495,61.83565467596054,32.67],[-6.826674481853843,61.83564880862832,35.3],[-6.826479602605104,61.83568158186972,34.99],[-6.826282879337668,61.835720892995596,35.7],[-6.826058495789766,61.83575081638992,36.56],[-6.825777618214488,61.83571653440595,38.24],[-6.825569411739707,61.83566825464368,38.7],[-6.825360702350736,61.835628943517804,40.67],[-6.825135229155421,61.83558703400195,42.04],[-6.824931213632226,61.83551821857691,39.75],[-6.824721833691001,61.83548552915454,41.95],[-6.824517566710711,61.83544412255287,40.43],[-6.824297541752458,61.83540053665638,39.54],[-6.824093442410231,61.835369942709804,42.3],[-6.82385791093111,61.835359213873744,44.17],[-6.823633527383208,61.83536181226373,45.22],[-6.823117369785905,61.83551134541631,43.98],[-6.822775891050696,61.83558225631714,43.63],[-6.822572713717818,61.83562466874719,44.72],[-6.822354029864073,61.83569373562932,45.61],[-6.822161246091127,61.83575416915119,44.42],[-6.822019005194306,61.83583413250744,44.52],[-6.82191071100533,61.835934799164534,44.52],[-6.8218017462641,61.83603420853615,45.03],[-6.821710299700499,61.83613060042262,44.32],[-6.821591695770621,61.83620033785701,43.98],[-6.82146898470819,61.83627569116652,42.79],[-6.821304196491838,61.83636319823563,38.93],[-6.821201518177986,61.83647400699556,40.15],[-6.821084758266807,61.836603255942464,39.42],[-6.82093245908618,61.836668802425265,37.44],[-6.820398531854153,61.836741054430604,35.51]]}},{"type":"Feature","properties":{"name":"WP1 04_SS","type":"user","time":"2020-07-26T09:52:39Z","gpxx_WaypointExtension":"SymbolAndName","gpxx_DisplayMode":"SymbolAndName","wptx1_WaypointExtension":"SymbolAndName","wptx1_DisplayMode":"SymbolAndName","ctx_CreationTimeExtension":"2020-07-26T09:52:39Z","ctx_CreationTime":"2020-07-26T09:52:39Z","sym":"Flag, Blue"},"geometry":{"type":"Point","coordinates":[-6.842963034287095,61.834900975227356,70.953491]}},{"type":"Feature","properties":{"name":"WP2 06_SS","type":"user","time":"2020-07-26T10:11:17Z","gpxx_WaypointExtension":"SymbolAndName","gpxx_DisplayMode":"SymbolAndName","wptx1_WaypointExtension":"SymbolAndName","wptx1_DisplayMode":"SymbolAndName","ctx_CreationTimeExtension":"2020-07-26T10:11:17Z","ctx_CreationTime":"2020-07-26T10:11:17Z","sym":"Flag, Blue"},"geometry":{"type":"Point","coordinates":[-6.879102028906345,61.83944899588823,64.514847]}},{"type":"Feature","properties":{"name":"WP3 07_SS","type":"user","time":"2020-07-26T10:25:28Z","gpxx_WaypointExtension":"SymbolAndName","gpxx_DisplayMode":"SymbolAndName","wptx1_WaypointExtension":"SymbolAndName","wptx1_DisplayMode":"SymbolAndName","ctx_CreationTimeExtension":"2020-07-26T10:25:28Z","ctx_CreationTime":"2020-07-26T10:25:28Z","sym":"Flag, Blue"},"geometry":{"type":"Point","coordinates":[-6.892881039530039,61.84506403282285,9.388795]}}]}