{"type":"FeatureCollection","features":[{"type":"Feature","properties":{"_gpxType":"trk","name":"23 Wanderung Sandvik Asmundarstakkur Hvalba CS","time":"2020-07-19T07:40:03Z","gpxx_TrackExtension":"Blue","gpxx_DisplayColor":"Blue","coordinateProperties":{"times":["2020-07-19T07:40:03Z","2020-07-19T07:40:27Z","2020-07-19T07:40:38Z","2020-07-19T07:40:45Z","2020-07-19T07:40:52Z","2020-07-19T07:40:59Z","2020-07-19T07:41:06Z","2020-07-19T07:41:13Z","2020-07-19T07:41:20Z","2020-07-19T07:41:28Z","2020-07-19T07:41:36Z","2020-07-19T07:41:44Z","2020-07-19T07:42:44Z","2020-07-19T07:42:51Z","2020-07-19T07:42:58Z","2020-07-19T07:43:05Z","2020-07-19T07:43:12Z","2020-07-19T07:43:18Z","2020-07-19T07:43:25Z","2020-07-19T07:43:32Z","2020-07-19T07:43:39Z","2020-07-19T07:43:45Z","2020-07-19T07:43:51Z","2020-07-19T07:43:58Z","2020-07-19T07:44:05Z","2020-07-19T07:44:12Z","2020-07-19T07:44:18Z","2020-07-19T07:44:54Z","2020-07-19T07:45:00Z","2020-07-19T07:45:06Z","2020-07-19T07:45:12Z","2020-07-19T07:45:18Z","2020-07-19T07:45:24Z","2020-07-19T07:45:30Z","2020-07-19T07:45:36Z","2020-07-19T07:45:42Z","2020-07-19T07:45:48Z","2020-07-19T07:45:54Z","2020-07-19T07:46:00Z","2020-07-19T07:46:06Z","2020-07-19T07:46:12Z","2020-07-19T07:46:18Z","2020-07-19T07:46:24Z","2020-07-19T07:46:30Z","2020-07-19T07:46:36Z","2020-07-19T07:46:42Z","2020-07-19T07:46:48Z","2020-07-19T07:46:54Z","2020-07-19T07:47:00Z","2020-07-19T07:47:06Z","2020-07-19T07:47:12Z","2020-07-19T07:47:18Z","2020-07-19T07:47:24Z","2020-07-19T07:47:30Z","2020-07-19T07:47:36Z","2020-07-19T07:47:42Z","2020-07-19T07:47:48Z","2020-07-19T07:47:54Z","2020-07-19T07:48:00Z","2020-07-19T07:48:06Z","2020-07-19T07:48:12Z","2020-07-19T07:48:18Z","2020-07-19T07:48:24Z","2020-07-19T07:48:30Z","2020-07-19T07:48:36Z","2020-07-19T07:48:42Z","2020-07-19T07:48:48Z","2020-07-19T07:48:55Z","2020-07-19T07:49:01Z","2020-07-19T07:49:08Z","2020-07-19T07:49:15Z","2020-07-19T07:49:22Z","2020-07-19T07:49:28Z","2020-07-19T07:49:34Z","2020-07-19T07:49:40Z","2020-07-19T07:49:46Z","2020-07-19T07:49:52Z","2020-07-19T07:49:59Z","2020-07-19T07:50:05Z","2020-07-19T07:50:11Z","2020-07-19T07:50:17Z","2020-07-19T07:50:23Z","2020-07-19T07:50:29Z","2020-07-19T07:50:35Z","2020-07-19T07:50:41Z","2020-07-19T07:50:47Z","2020-07-19T07:50:53Z","2020-07-19T07:50:59Z","2020-07-19T07:51:06Z","2020-07-19T07:51:12Z","2020-07-19T07:51:18Z","2020-07-19T07:51:24Z","2020-07-19T07:51:30Z","2020-07-19T07:51:37Z","2020-07-19T07:51:43Z","2020-07-19T07:51:49Z","2020-07-19T07:51:55Z","2020-07-19T07:52:01Z","2020-07-19T07:52:07Z","2020-07-19T07:52:13Z","2020-07-19T07:52:19Z","2020-07-19T07:52:25Z","2020-07-19T07:52:31Z","2020-07-19T07:52:37Z","2020-07-19T07:52:43Z","2020-07-19T07:52:49Z","2020-07-19T07:52:55Z","2020-07-19T07:53:01Z","2020-07-19T07:53:07Z","2020-07-19T07:53:13Z","2020-07-19T07:53:19Z","2020-07-19T07:53:25Z","2020-07-19T07:53:31Z","2020-07-19T07:53:37Z","2020-07-19T07:53:43Z","2020-07-19T07:53:49Z","2020-07-19T07:53:55Z","2020-07-19T07:54:01Z","2020-07-19T07:54:07Z","2020-07-19T07:54:14Z","2020-07-19T07:54:20Z","2020-07-19T07:54:27Z","2020-07-19T07:54:33Z","2020-07-19T07:54:39Z","2020-07-19T07:54:46Z","2020-07-19T07:54:52Z","2020-07-19T07:54:58Z","2020-07-19T07:55:04Z","2020-07-19T07:55:10Z","2020-07-19T07:55:16Z","2020-07-19T07:55:22Z","2020-07-19T07:55:28Z","2020-07-19T07:55:35Z","2020-07-19T07:55:41Z","2020-07-19T07:55:47Z","2020-07-19T07:55:53Z","2020-07-19T07:55:59Z","2020-07-19T07:56:06Z","2020-07-19T07:56:12Z","2020-07-19T07:56:18Z","2020-07-19T07:57:45Z","2020-07-19T07:57:54Z","2020-07-19T07:58:02Z","2020-07-19T07:58:11Z","2020-07-19T07:58:20Z","2020-07-19T07:58:28Z","2020-07-19T07:58:36Z","2020-07-19T07:58:44Z","2020-07-19T07:58:51Z","2020-07-19T07:58:58Z","2020-07-19T07:59:12Z","2020-07-19T07:59:19Z","2020-07-19T07:59:26Z","2020-07-19T07:59:33Z","2020-07-19T07:59:41Z","2020-07-19T07:59:47Z","2020-07-19T07:59:54Z","2020-07-19T08:00:01Z","2020-07-19T08:00:08Z","2020-07-19T08:00:15Z","2020-07-19T08:00:21Z","2020-07-19T08:00:28Z","2020-07-19T08:00:35Z","2020-07-19T08:00:43Z","2020-07-19T08:00:50Z","2020-07-19T08:00:57Z","2020-07-19T08:01:04Z","2020-07-19T08:01:11Z","2020-07-19T08:01:18Z","2020-07-19T08:01:25Z","2020-07-19T08:01:32Z","2020-07-19T08:01:39Z","2020-07-19T08:01:46Z","2020-07-19T08:01:53Z","2020-07-19T08:02:00Z","2020-07-19T08:02:07Z","2020-07-19T08:02:15Z","2020-07-19T08:02:22Z","2020-07-19T08:02:28Z","2020-07-19T08:02:35Z","2020-07-19T08:02:42Z","2020-07-19T08:02:55Z","2020-07-19T08:03:07Z","2020-07-19T08:03:14Z","2020-07-19T08:03:21Z","2020-07-19T08:03:28Z","2020-07-19T08:03:35Z","2020-07-19T08:03:42Z","2020-07-19T08:03:48Z","2020-07-19T08:03:54Z","2020-07-19T08:04:00Z","2020-07-19T08:04:06Z","2020-07-19T08:04:13Z","2020-07-19T08:04:20Z","2020-07-19T08:04:26Z","2020-07-19T08:04:33Z","2020-07-19T08:04:41Z","2020-07-19T08:04:48Z","2020-07-19T08:04:55Z","2020-07-19T08:05:02Z","2020-07-19T08:05:10Z","2020-07-19T08:05:18Z","2020-07-19T08:05:25Z","2020-07-19T08:05:32Z","2020-07-19T08:05:40Z","2020-07-19T08:05:48Z","2020-07-19T08:05:55Z","2020-07-19T08:06:03Z","2020-07-19T08:06:11Z","2020-07-19T08:06:18Z","2020-07-19T08:06:26Z","2020-07-19T08:06:33Z","2020-07-19T08:06:41Z","2020-07-19T08:06:49Z","2020-07-19T08:06:56Z","2020-07-19T08:07:03Z","2020-07-19T08:07:10Z","2020-07-19T08:07:17Z","2020-07-19T08:07:24Z","2020-07-19T08:07:31Z","2020-07-19T08:07:38Z","2020-07-19T08:07:45Z","2020-07-19T08:07:53Z","2020-07-19T08:08:00Z","2020-07-19T08:08:08Z","2020-07-19T08:08:16Z","2020-07-19T08:08:24Z","2020-07-19T08:08:31Z","2020-07-19T08:08:40Z","2020-07-19T08:08:48Z","2020-07-19T08:08:55Z","2020-07-19T08:09:02Z","2020-07-19T08:09:10Z","2020-07-19T08:09:17Z","2020-07-19T08:09:24Z","2020-07-19T08:09:31Z","2020-07-19T08:09:38Z","2020-07-19T08:09:45Z","2020-07-19T08:09:53Z","2020-07-19T08:10:00Z","2020-07-19T08:10:07Z","2020-07-19T08:10:15Z","2020-07-19T08:10:22Z","2020-07-19T08:10:29Z","2020-07-19T08:10:37Z","2020-07-19T08:10:44Z","2020-07-19T08:10:51Z","2020-07-19T08:10:59Z","2020-07-19T08:11:07Z","2020-07-19T08:11:13Z","2020-07-19T08:11:20Z","2020-07-19T08:11:28Z","2020-07-19T08:11:35Z","2020-07-19T08:11:43Z","2020-07-19T08:11:51Z","2020-07-19T08:11:59Z","2020-07-19T08:12:07Z","2020-07-19T08:12:15Z","2020-07-19T08:12:22Z","2020-07-19T08:12:29Z","2020-07-19T08:12:37Z","2020-07-19T08:12:44Z","2020-07-19T08:12:51Z","2020-07-19T08:12:59Z","2020-07-19T08:13:06Z","2020-07-19T08:13:14Z","2020-07-19T08:13:22Z","2020-07-19T08:13:30Z","2020-07-19T08:13:39Z","2020-07-19T08:14:13Z","2020-07-19T08:14:20Z","2020-07-19T08:14:27Z","2020-07-19T08:14:35Z","2020-07-19T08:14:42Z","2020-07-19T08:14:49Z","2020-07-19T08:14:56Z","2020-07-19T08:15:03Z","2020-07-19T08:15:11Z","2020-07-19T08:15:18Z","2020-07-19T08:15:25Z","2020-07-19T08:15:32Z","2020-07-19T08:15:39Z","2020-07-19T08:15:46Z","2020-07-19T08:15:53Z","2020-07-19T08:16:00Z","2020-07-19T08:16:07Z","2020-07-19T08:16:15Z","2020-07-19T08:16:23Z","2020-07-19T08:16:31Z","2020-07-19T08:17:33Z","2020-07-19T08:18:17Z","2020-07-19T08:18:48Z","2020-07-19T08:18:58Z","2020-07-19T08:19:14Z","2020-07-19T08:19:32Z","2020-07-19T08:19:49Z","2020-07-19T08:20:07Z","2020-07-19T08:20:18Z","2020-07-19T08:20:28Z","2020-07-19T08:20:36Z","2020-07-19T08:20:44Z","2020-07-19T08:20:55Z","2020-07-19T08:21:09Z","2020-07-19T08:21:19Z","2020-07-19T08:21:29Z","2020-07-19T08:21:48Z","2020-07-19T08:22:07Z","2020-07-19T08:22:22Z","2020-07-19T08:22:30Z","2020-07-19T08:22:38Z","2020-07-19T08:22:47Z","2020-07-19T08:22:59Z","2020-07-19T08:23:07Z","2020-07-19T08:23:16Z","2020-07-19T08:23:25Z","2020-07-19T08:23:36Z","2020-07-19T08:23:50Z","2020-07-19T08:24:01Z","2020-07-19T08:24:09Z","2020-07-19T08:24:21Z","2020-07-19T08:24:30Z","2020-07-19T08:24:44Z","2020-07-19T08:24:59Z","2020-07-19T08:25:15Z","2020-07-19T08:25:32Z","2020-07-19T08:25:45Z","2020-07-19T08:26:31Z","2020-07-19T08:26:53Z","2020-07-19T08:27:11Z","2020-07-19T08:27:36Z","2020-07-19T08:27:53Z","2020-07-19T08:28:11Z","2020-07-19T08:28:25Z","2020-07-19T08:28:42Z","2020-07-19T08:28:54Z","2020-07-19T08:29:08Z","2020-07-19T08:29:17Z","2020-07-19T08:29:26Z","2020-07-19T08:29:36Z","2020-07-19T08:29:47Z","2020-07-19T08:29:55Z","2020-07-19T08:30:04Z","2020-07-19T08:30:13Z","2020-07-19T08:30:22Z","2020-07-19T08:30:32Z","2020-07-19T08:30:42Z","2020-07-19T08:30:51Z","2020-07-19T08:31:00Z","2020-07-19T08:31:09Z","2020-07-19T08:31:19Z","2020-07-19T08:31:27Z","2020-07-19T08:31:36Z","2020-07-19T08:31:44Z","2020-07-19T08:31:52Z","2020-07-19T08:32:02Z","2020-07-19T08:32:13Z","2020-07-19T08:32:24Z","2020-07-19T08:32:37Z","2020-07-19T08:34:12Z","2020-07-19T08:34:20Z","2020-07-19T08:34:29Z","2020-07-19T08:34:37Z","2020-07-19T08:34:45Z","2020-07-19T08:34:53Z","2020-07-19T08:35:00Z","2020-07-19T08:35:07Z","2020-07-19T08:35:15Z","2020-07-19T08:35:23Z","2020-07-19T08:35:31Z","2020-07-19T08:35:38Z","2020-07-19T08:35:44Z","2020-07-19T08:35:52Z","2020-07-19T08:36:01Z","2020-07-19T08:36:09Z","2020-07-19T08:36:16Z","2020-07-19T08:36:24Z","2020-07-19T08:36:31Z","2020-07-19T08:36:42Z","2020-07-19T08:36:51Z","2020-07-19T08:36:59Z","2020-07-19T08:37:05Z","2020-07-19T08:37:19Z","2020-07-19T08:37:27Z","2020-07-19T08:37:38Z","2020-07-19T08:37:50Z","2020-07-19T08:38:03Z","2020-07-19T08:38:17Z","2020-07-19T08:38:33Z","2020-07-19T08:38:48Z","2020-07-19T08:39:08Z","2020-07-19T08:39:22Z","2020-07-19T08:39:34Z","2020-07-19T08:39:44Z","2020-07-19T08:40:02Z","2020-07-19T08:41:20Z","2020-07-19T08:41:30Z","2020-07-19T08:41:41Z","2020-07-19T08:41:49Z","2020-07-19T08:41:57Z","2020-07-19T08:42:04Z","2020-07-19T08:42:12Z","2020-07-19T08:42:20Z","2020-07-19T08:42:30Z","2020-07-19T08:42:40Z","2020-07-19T08:42:50Z","2020-07-19T08:43:01Z","2020-07-19T08:43:10Z","2020-07-19T08:43:23Z","2020-07-19T08:43:29Z","2020-07-19T08:43:36Z","2020-07-19T08:43:56Z","2020-07-19T08:44:11Z","2020-07-19T08:44:22Z","2020-07-19T08:44:34Z","2020-07-19T08:44:46Z","2020-07-19T08:44:54Z","2020-07-19T08:45:02Z","2020-07-19T08:45:11Z","2020-07-19T08:45:20Z","2020-07-19T08:45:30Z","2020-07-19T08:45:47Z","2020-07-19T08:45:57Z","2020-07-19T08:46:07Z","2020-07-19T08:46:19Z","2020-07-19T08:46:40Z","2020-07-19T08:46:51Z","2020-07-19T08:46:58Z","2020-07-19T08:47:05Z","2020-07-19T08:47:33Z","2020-07-19T08:47:40Z","2020-07-19T08:47:46Z","2020-07-19T08:47:53Z","2020-07-19T08:47:59Z","2020-07-19T08:48:06Z","2020-07-19T08:48:12Z","2020-07-19T08:48:19Z","2020-07-19T08:48:27Z","2020-07-19T08:48:34Z","2020-07-19T08:48:41Z","2020-07-19T08:48:48Z","2020-07-19T08:48:55Z","2020-07-19T08:49:02Z","2020-07-19T08:49:09Z","2020-07-19T08:49:16Z","2020-07-19T08:49:23Z","2020-07-19T08:49:30Z","2020-07-19T08:49:37Z","2020-07-19T08:49:44Z","2020-07-19T08:49:51Z","2020-07-19T08:49:58Z","2020-07-19T08:50:05Z","2020-07-19T08:50:11Z","2020-07-19T08:50:18Z","2020-07-19T08:50:25Z","2020-07-19T08:50:32Z","2020-07-19T08:50:39Z","2020-07-19T08:50:45Z","2020-07-19T08:50:52Z","2020-07-19T08:50:59Z","2020-07-19T08:51:05Z","2020-07-19T08:51:12Z","2020-07-19T08:51:19Z","2020-07-19T08:51:26Z","2020-07-19T08:51:33Z","2020-07-19T08:51:39Z","2020-07-19T08:51:46Z","2020-07-19T08:51:53Z","2020-07-19T08:51:59Z","2020-07-19T08:52:06Z","2020-07-19T08:52:13Z","2020-07-19T08:52:19Z","2020-07-19T08:52:26Z","2020-07-19T08:52:33Z","2020-07-19T08:52:40Z","2020-07-19T08:52:47Z","2020-07-19T08:52:54Z","2020-07-19T08:53:01Z","2020-07-19T08:53:08Z","2020-07-19T08:53:14Z","2020-07-19T08:53:21Z","2020-07-19T08:53:28Z","2020-07-19T08:53:35Z","2020-07-19T08:53:42Z","2020-07-19T08:53:49Z","2020-07-19T08:53:56Z","2020-07-19T08:54:03Z","2020-07-19T08:54:10Z","2020-07-19T08:54:17Z","2020-07-19T08:54:24Z","2020-07-19T08:54:31Z","2020-07-19T08:54:38Z","2020-07-19T08:54:44Z","2020-07-19T08:54:50Z","2020-07-19T08:54:57Z","2020-07-19T08:55:04Z","2020-07-19T08:55:11Z","2020-07-19T08:55:17Z","2020-07-19T08:55:23Z","2020-07-19T08:55:29Z","2020-07-19T08:55:36Z","2020-07-19T08:55:43Z","2020-07-19T08:55:50Z","2020-07-19T08:55:57Z","2020-07-19T08:56:03Z","2020-07-19T08:56:10Z","2020-07-19T08:56:17Z","2020-07-19T08:56:24Z","2020-07-19T08:56:31Z","2020-07-19T08:56:38Z","2020-07-19T08:56:44Z","2020-07-19T08:56:50Z","2020-07-19T08:56:56Z","2020-07-19T08:57:02Z","2020-07-19T08:57:08Z","2020-07-19T08:57:14Z","2020-07-19T08:57:21Z","2020-07-19T08:57:27Z","2020-07-19T08:57:33Z","2020-07-19T08:57:39Z","2020-07-19T08:57:46Z","2020-07-19T08:57:53Z","2020-07-19T08:57:59Z","2020-07-19T08:58:05Z","2020-07-19T08:58:12Z","2020-07-19T08:58:19Z","2020-07-19T08:58:25Z","2020-07-19T08:58:32Z","2020-07-19T08:58:39Z","2020-07-19T08:58:45Z","2020-07-19T08:58:51Z","2020-07-19T08:58:57Z","2020-07-19T08:59:04Z","2020-07-19T08:59:10Z","2020-07-19T08:59:16Z","2020-07-19T08:59:22Z","2020-07-19T08:59:28Z","2020-07-19T08:59:34Z","2020-07-19T08:59:40Z","2020-07-19T08:59:46Z","2020-07-19T08:59:52Z","2020-07-19T08:59:58Z","2020-07-19T09:00:04Z","2020-07-19T09:00:10Z","2020-07-19T09:00:16Z","2020-07-19T09:00:22Z","2020-07-19T09:00:28Z","2020-07-19T09:00:34Z","2020-07-19T09:00:40Z","2020-07-19T09:00:46Z","2020-07-19T09:00:52Z","2020-07-19T09:00:58Z","2020-07-19T09:01:04Z","2020-07-19T09:01:10Z","2020-07-19T09:01:16Z","2020-07-19T09:01:22Z","2020-07-19T09:01:28Z","2020-07-19T09:01:35Z","2020-07-19T09:01:42Z","2020-07-19T09:01:49Z","2020-07-19T09:01:55Z","2020-07-19T09:02:01Z","2020-07-19T09:02:07Z","2020-07-19T09:02:13Z","2020-07-19T09:02:20Z","2020-07-19T09:02:27Z","2020-07-19T09:02:40Z","2020-07-19T09:02:46Z","2020-07-19T09:02:53Z","2020-07-19T09:03:54Z","2020-07-19T09:04:58Z","2020-07-19T09:05:06Z","2020-07-19T09:05:13Z","2020-07-19T09:05:21Z","2020-07-19T09:05:28Z","2020-07-19T09:05:36Z","2020-07-19T09:05:46Z","2020-07-19T09:06:09Z","2020-07-19T09:06:19Z","2020-07-19T09:06:27Z","2020-07-19T09:06:35Z","2020-07-19T09:06:44Z","2020-07-19T09:06:52Z","2020-07-19T09:07:00Z","2020-07-19T09:07:08Z","2020-07-19T09:07:17Z","2020-07-19T09:07:26Z","2020-07-19T09:07:37Z","2020-07-19T09:07:47Z","2020-07-19T09:07:56Z","2020-07-19T09:08:05Z","2020-07-19T09:08:14Z","2020-07-19T09:08:25Z","2020-07-19T09:08:41Z","2020-07-19T09:09:20Z","2020-07-19T09:09:31Z","2020-07-19T09:09:48Z","2020-07-19T09:09:59Z","2020-07-19T09:10:13Z","2020-07-19T09:10:27Z","2020-07-19T09:10:44Z","2020-07-19T09:11:02Z","2020-07-19T09:11:26Z","2020-07-19T09:11:48Z","2020-07-19T09:12:11Z","2020-07-19T09:12:33Z","2020-07-19T09:12:56Z","2020-07-19T09:13:14Z","2020-07-19T09:13:37Z","2020-07-19T09:14:05Z","2020-07-19T09:14:25Z","2020-07-19T09:14:41Z","2020-07-19T09:14:57Z","2020-07-19T09:15:20Z","2020-07-19T09:15:46Z","2020-07-19T09:16:11Z","2020-07-19T09:16:33Z","2020-07-19T09:16:53Z","2020-07-19T09:17:28Z","2020-07-19T09:17:44Z","2020-07-19T09:18:08Z","2020-07-19T09:18:27Z","2020-07-19T09:18:45Z","2020-07-19T09:19:03Z","2020-07-19T09:19:15Z","2020-07-19T09:19:31Z","2020-07-19T09:19:39Z","2020-07-19T09:19:48Z","2020-07-19T09:19:57Z","2020-07-19T09:20:08Z","2020-07-19T09:20:17Z","2020-07-19T09:20:26Z","2020-07-19T09:20:36Z","2020-07-19T09:20:51Z","2020-07-19T09:21:03Z","2020-07-19T09:21:22Z","2020-07-19T09:21:41Z","2020-07-19T09:21:54Z","2020-07-19T09:22:13Z","2020-07-19T09:22:26Z","2020-07-19T09:22:46Z","2020-07-19T09:22:58Z","2020-07-19T09:23:13Z","2020-07-19T09:25:53Z","2020-07-19T09:26:02Z","2020-07-19T09:26:13Z","2020-07-19T09:26:28Z","2020-07-19T09:26:41Z","2020-07-19T09:26:57Z","2020-07-19T09:27:09Z","2020-07-19T09:27:32Z","2020-07-19T09:27:51Z","2020-07-19T09:28:36Z","2020-07-19T09:28:51Z","2020-07-19T09:29:04Z","2020-07-19T09:29:14Z","2020-07-19T09:29:23Z","2020-07-19T09:29:42Z","2020-07-19T09:32:16Z","2020-07-19T09:32:27Z","2020-07-19T09:32:41Z","2020-07-19T09:32:52Z","2020-07-19T09:33:02Z","2020-07-19T09:33:12Z","2020-07-19T09:33:28Z","2020-07-19T09:33:44Z","2020-07-19T09:33:59Z","2020-07-19T09:34:15Z","2020-07-19T09:34:30Z","2020-07-19T09:34:41Z","2020-07-19T09:35:00Z","2020-07-19T09:35:16Z","2020-07-19T09:35:33Z","2020-07-19T09:35:48Z","2020-07-19T09:36:00Z","2020-07-19T09:36:17Z","2020-07-19T09:36:38Z","2020-07-19T09:36:51Z","2020-07-19T09:37:05Z","2020-07-19T09:37:15Z","2020-07-19T09:37:26Z","2020-07-19T09:37:35Z","2020-07-19T09:37:45Z","2020-07-19T09:37:54Z","2020-07-19T09:38:05Z","2020-07-19T09:38:18Z","2020-07-19T09:38:28Z","2020-07-19T09:38:44Z","2020-07-19T09:39:00Z","2020-07-19T09:39:10Z","2020-07-19T09:39:30Z","2020-07-19T09:39:41Z","2020-07-19T09:39:55Z","2020-07-19T09:40:08Z","2020-07-19T09:40:23Z","2020-07-19T09:41:12Z","2020-07-19T09:41:21Z","2020-07-19T09:41:30Z","2020-07-19T09:41:40Z","2020-07-19T09:41:51Z","2020-07-19T09:43:37Z","2020-07-19T09:44:04Z","2020-07-19T09:44:15Z","2020-07-19T09:44:26Z","2020-07-19T09:44:40Z","2020-07-19T09:44:51Z","2020-07-19T09:45:01Z","2020-07-19T09:45:13Z","2020-07-19T09:45:44Z","2020-07-19T09:45:51Z","2020-07-19T09:46:00Z","2020-07-19T09:46:08Z","2020-07-19T09:46:16Z","2020-07-19T09:46:23Z","2020-07-19T09:46:31Z","2020-07-19T09:46:38Z","2020-07-19T09:46:45Z","2020-07-19T09:46:52Z","2020-07-19T09:46:59Z","2020-07-19T09:47:06Z","2020-07-19T09:47:14Z","2020-07-19T09:47:21Z","2020-07-19T09:47:28Z","2020-07-19T09:47:35Z","2020-07-19T09:47:44Z","2020-07-19T09:48:12Z","2020-07-19T09:48:19Z","2020-07-19T09:48:27Z","2020-07-19T09:48:36Z","2020-07-19T09:48:43Z","2020-07-19T09:48:52Z","2020-07-19T09:48:59Z","2020-07-19T09:49:10Z","2020-07-19T09:49:22Z","2020-07-19T09:49:29Z","2020-07-19T09:49:36Z","2020-07-19T09:49:42Z","2020-07-19T09:49:49Z","2020-07-19T09:49:57Z","2020-07-19T09:50:05Z","2020-07-19T09:50:11Z","2020-07-19T09:50:18Z","2020-07-19T09:50:25Z","2020-07-19T09:50:32Z","2020-07-19T09:50:39Z","2020-07-19T09:50:46Z","2020-07-19T09:50:53Z","2020-07-19T09:51:00Z","2020-07-19T09:51:07Z","2020-07-19T09:51:15Z","2020-07-19T09:51:24Z","2020-07-19T09:51:32Z","2020-07-19T09:51:40Z","2020-07-19T09:51:48Z","2020-07-19T09:51:56Z","2020-07-19T09:52:04Z","2020-07-19T09:52:12Z","2020-07-19T09:52:20Z","2020-07-19T09:52:28Z","2020-07-19T09:52:40Z","2020-07-19T09:53:32Z","2020-07-19T09:54:22Z","2020-07-19T09:54:33Z","2020-07-19T09:54:42Z","2020-07-19T09:54:50Z","2020-07-19T09:55:00Z","2020-07-19T09:55:08Z","2020-07-19T09:55:15Z","2020-07-19T09:55:22Z","2020-07-19T09:55:29Z","2020-07-19T09:55:37Z","2020-07-19T09:55:48Z","2020-07-19T09:55:55Z","2020-07-19T09:56:02Z","2020-07-19T09:56:10Z","2020-07-19T09:56:18Z","2020-07-19T09:56:28Z","2020-07-19T09:56:36Z","2020-07-19T09:56:44Z","2020-07-19T09:56:54Z","2020-07-19T09:57:03Z","2020-07-19T09:57:11Z","2020-07-19T09:57:19Z","2020-07-19T09:57:29Z","2020-07-19T09:57:36Z","2020-07-19T09:57:44Z","2020-07-19T09:57:52Z","2020-07-19T09:58:00Z","2020-07-19T09:58:09Z","2020-07-19T09:58:18Z","2020-07-19T09:58:25Z","2020-07-19T09:58:33Z","2020-07-19T09:58:41Z","2020-07-19T09:58:48Z","2020-07-19T09:58:56Z","2020-07-19T09:59:04Z","2020-07-19T09:59:11Z","2020-07-19T09:59:20Z","2020-07-19T09:59:27Z","2020-07-19T09:59:35Z","2020-07-19T09:59:43Z","2020-07-19T09:59:52Z","2020-07-19T10:00:01Z","2020-07-19T10:00:11Z","2020-07-19T10:00:20Z","2020-07-19T10:00:29Z","2020-07-19T10:00:39Z","2020-07-19T10:00:47Z","2020-07-19T10:00:55Z","2020-07-19T10:01:03Z","2020-07-19T10:01:13Z","2020-07-19T10:01:24Z","2020-07-19T10:01:32Z","2020-07-19T10:01:42Z","2020-07-19T10:01:51Z","2020-07-19T10:01:59Z","2020-07-19T10:02:07Z","2020-07-19T10:02:15Z","2020-07-19T10:02:23Z","2020-07-19T10:02:31Z","2020-07-19T10:02:39Z","2020-07-19T10:02:47Z","2020-07-19T10:02:54Z","2020-07-19T10:03:02Z","2020-07-19T10:03:11Z","2020-07-19T10:03:18Z","2020-07-19T10:03:26Z","2020-07-19T10:03:34Z","2020-07-19T10:06:24Z","2020-07-19T10:06:35Z","2020-07-19T10:06:44Z","2020-07-19T10:06:52Z","2020-07-19T10:07:00Z","2020-07-19T10:07:08Z","2020-07-19T10:07:17Z","2020-07-19T10:07:26Z","2020-07-19T10:07:37Z","2020-07-19T10:07:45Z","2020-07-19T10:07:54Z","2020-07-19T10:08:04Z","2020-07-19T10:08:14Z","2020-07-19T10:08:22Z","2020-07-19T10:08:31Z","2020-07-19T10:08:39Z","2020-07-19T10:08:48Z","2020-07-19T10:08:57Z","2020-07-19T10:09:08Z","2020-07-19T10:09:17Z","2020-07-19T10:09:25Z","2020-07-19T10:09:34Z","2020-07-19T10:09:45Z","2020-07-19T10:09:56Z","2020-07-19T10:10:06Z","2020-07-19T10:10:14Z","2020-07-19T10:10:24Z","2020-07-19T10:10:33Z","2020-07-19T10:11:31Z","2020-07-19T10:11:40Z","2020-07-19T10:11:57Z","2020-07-19T10:12:25Z","2020-07-19T10:12:35Z","2020-07-19T10:12:45Z","2020-07-19T10:13:10Z","2020-07-19T10:13:25Z","2020-07-19T10:13:47Z","2020-07-19T10:13:57Z","2020-07-19T10:14:07Z","2020-07-19T10:14:20Z","2020-07-19T10:14:33Z","2020-07-19T10:14:43Z","2020-07-19T10:15:08Z","2020-07-19T10:15:20Z","2020-07-19T10:15:32Z","2020-07-19T10:15:42Z","2020-07-19T10:15:54Z","2020-07-19T10:16:07Z","2020-07-19T10:16:19Z","2020-07-19T10:16:29Z","2020-07-19T10:16:38Z","2020-07-19T10:17:00Z","2020-07-19T10:17:41Z","2020-07-19T10:17:59Z","2020-07-19T10:19:07Z","2020-07-19T10:19:50Z","2020-07-19T10:20:05Z","2020-07-19T10:20:22Z","2020-07-19T10:20:35Z","2020-07-19T10:21:00Z","2020-07-19T10:21:19Z","2020-07-19T10:22:14Z","2020-07-19T10:22:45Z","2020-07-19T10:23:05Z","2020-07-19T10:23:21Z","2020-07-19T10:23:36Z","2020-07-19T10:24:13Z","2020-07-19T10:24:51Z","2020-07-19T10:25:14Z","2020-07-19T10:25:45Z","2020-07-19T10:26:13Z","2020-07-19T10:26:44Z","2020-07-19T10:27:20Z","2020-07-19T10:27:31Z","2020-07-19T10:27:50Z","2020-07-19T10:28:38Z","2020-07-19T10:30:02Z","2020-07-19T10:30:29Z","2020-07-19T10:30:59Z","2020-07-19T10:31:28Z","2020-07-19T10:31:54Z","2020-07-19T10:32:03Z","2020-07-19T10:32:11Z","2020-07-19T10:32:19Z","2020-07-19T10:32:26Z","2020-07-19T10:32:34Z","2020-07-19T10:32:43Z","2020-07-19T10:32:51Z","2020-07-19T10:32:59Z","2020-07-19T10:33:07Z","2020-07-19T10:33:14Z","2020-07-19T10:33:21Z","2020-07-19T10:33:29Z","2020-07-19T10:33:54Z","2020-07-19T10:34:02Z","2020-07-19T10:34:09Z","2020-07-19T10:34:15Z","2020-07-19T10:34:22Z","2020-07-19T10:34:34Z","2020-07-19T10:34:43Z","2020-07-19T10:34:51Z","2020-07-19T10:34:59Z","2020-07-19T10:35:07Z","2020-07-19T10:35:15Z","2020-07-19T10:35:23Z","2020-07-19T10:35:30Z","2020-07-19T10:35:40Z","2020-07-19T10:35:49Z","2020-07-19T10:35:57Z","2020-07-19T10:36:05Z","2020-07-19T10:36:12Z","2020-07-19T10:36:20Z","2020-07-19T10:36:27Z","2020-07-19T10:36:36Z","2020-07-19T10:36:44Z","2020-07-19T10:36:53Z","2020-07-19T10:37:01Z","2020-07-19T10:37:08Z","2020-07-19T10:37:15Z","2020-07-19T10:37:22Z","2020-07-19T10:37:30Z","2020-07-19T10:37:40Z","2020-07-19T10:37:47Z","2020-07-19T10:37:55Z","2020-07-19T10:38:03Z","2020-07-19T10:38:10Z","2020-07-19T10:38:18Z","2020-07-19T10:38:25Z","2020-07-19T10:38:32Z","2020-07-19T10:38:42Z","2020-07-19T10:38:48Z","2020-07-19T10:38:55Z","2020-07-19T10:39:01Z","2020-07-19T10:39:07Z","2020-07-19T10:39:14Z","2020-07-19T10:39:21Z","2020-07-19T10:39:28Z","2020-07-19T10:39:34Z","2020-07-19T10:39:40Z","2020-07-19T10:39:47Z","2020-07-19T10:39:53Z","2020-07-19T10:40:05Z","2020-07-19T10:40:11Z","2020-07-19T10:40:18Z","2020-07-19T10:40:35Z","2020-07-19T10:40:42Z","2020-07-19T10:40:48Z","2020-07-19T10:40:55Z","2020-07-19T10:41:08Z","2020-07-19T10:41:15Z","2020-07-19T10:41:22Z","2020-07-19T10:41:29Z","2020-07-19T10:41:36Z","2020-07-19T10:41:43Z","2020-07-19T10:41:55Z","2020-07-19T10:42:05Z","2020-07-19T10:42:11Z","2020-07-19T10:42:17Z","2020-07-19T10:42:32Z","2020-07-19T10:42:38Z","2020-07-19T10:42:44Z"]}},"geometry":{"type":"LineString","coordinates":[[-6.928956164047122,61.63186990655959,30.2],[-6.92894141189754,61.6318673081696,29.49],[-6.929133022204042,61.631878204643726,29.59],[-6.929301414638758,61.6318450961262,30.82],[-6.92951750010252,61.63180964067578,31.24],[-6.92972662858665,61.63176798261702,32.04],[-6.929908096790314,61.63171651773155,33.7],[-6.93008285947144,61.63165792822838,33.88],[-6.930252341553569,61.631586933508515,34.95],[-6.930394414812326,61.63151375949383,36.33],[-6.930593568831682,61.631442345678806,37.41],[-6.930757099762559,61.63136288523674,37.63],[-6.930943261831999,61.63128141313791,37.35],[-6.931047281250358,61.63119189441204,37.57],[-6.931163538247347,61.63111075758934,38.2],[-6.931291026994586,61.631019562482834,38.96],[-6.931417677551508,61.63093683309853,40.22],[-6.931552877649665,61.63085661828518,40.25],[-6.931701488792896,61.63077455945313,40.65],[-6.931818081066012,61.63068906404078,41.54],[-6.931964596733451,61.63060641847551,41.81],[-6.932134833186865,61.63054430857301,41.7],[-6.932329293340445,61.630486054345965,42.14],[-6.932543786242604,61.63042821921408,42.77],[-6.93271066993475,61.630379520356655,44.73],[-6.932890880852938,61.63033350370824,44.38],[-6.933070924133062,61.63029142655432,43.86],[-6.933256331831217,61.63023157976568,42.86],[-6.933436039835215,61.630187993869185,42.12],[-6.933636367321014,61.63014457561076,41.25],[-6.933822277933359,61.63010073825717,41.85],[-6.934018163010478,61.63006226532161,40.59],[-6.934203403070569,61.630025804042816,41.58],[-6.934392834082246,61.62998045794666,41.11],[-6.934586372226477,61.62993301637471,41.26],[-6.93476976826787,61.62988347932696,42.04],[-6.934969257563353,61.62985146045685,41.02],[-6.935161706060171,61.629815166816115,40.99],[-6.935349795967341,61.6297815553844,40.69],[-6.935529839247465,61.62975154817104,40.24],[-6.935727903619409,61.62971617653966,40.07],[-6.935934936627746,61.62968340329826,39.19],[-6.936138449236751,61.629643086344004,39.62],[-6.93632947281003,61.6296137496829,39.12],[-6.936535080894828,61.62958709523082,38.85],[-6.936735324561596,61.6295741032809,38.34],[-6.936928359791637,61.62956580519676,39.52],[-6.937114354223013,61.6295587643981,37.24],[-6.937314011156559,61.62955096922815,37.97],[-6.937519367784262,61.6295569203794,38.01],[-6.937728328630328,61.629562033340335,38.54],[-6.937923543155193,61.62956806831062,36.5],[-6.938134767115116,61.629569325596094,35.56],[-6.93835387006402,61.62957058288157,35.69],[-6.938565177842975,61.62957075051963,35.38],[-6.938777156174183,61.62957024760544,36.66],[-6.938970442861319,61.62957628257573,35.84],[-6.939181834459305,61.629583574831486,36.43],[-6.939389035105705,61.62958910688758,36.63],[-6.939595146104693,61.629589358344674,37.55],[-6.939797569066286,61.62959614768624,37.17],[-6.939977528527379,61.629592375829816,35.85],[-6.940157152712345,61.62960570305586,36.32],[-6.940353959798813,61.62959975190461,37.61],[-6.940551018342376,61.62961098365486,36.93],[-6.940751345828176,61.629615845158696,36.69],[-6.940963827073574,61.62961794063449,37.73],[-6.94118401966989,61.62962548434734,36.23],[-6.941383508965373,61.629621712490916,37.06],[-6.941610742360354,61.62963512353599,36.59],[-6.941837975755334,61.62964283488691,36.36],[-6.942072752863169,61.62965574301779,36.55],[-6.942303339019418,61.62965985015035,37.71],[-6.94250576198101,61.629655323922634,36.64],[-6.942707933485508,61.62965037859976,37.93],[-6.942913038656116,61.629648534581065,36.95],[-6.943119317293167,61.62965741939843,38.19],[-6.943345461040735,61.629654401913285,37.78],[-6.943541346117854,61.62965264171362,38.99],[-6.943752570077777,61.62966479547322,38.23],[-6.943948371335864,61.6296708304435,37.62],[-6.944140568375588,61.629675440490246,37.61],[-6.944358162581921,61.62967418320477,38.06],[-6.944568883627653,61.629681307822466,37.52],[-6.944755548611283,61.629677871242166,38.4],[-6.944970963522792,61.62969086319208,37.19],[-6.945173135027289,61.62970410659909,38.25],[-6.945388969033957,61.62970435805619,36.04],[-6.94562123157084,61.62971701472998,36.93],[-6.945824408903718,61.62972506135702,37.41],[-6.946015516296029,61.62974710576236,37.88],[-6.946224644780159,61.62975573912263,37.2],[-6.946429833769798,61.62974752485752,36.93],[-6.946651032194495,61.62975129671395,37.46],[-6.94687508046627,61.629752637818456,37.4],[-6.94707490503788,61.62976277992129,38.64],[-6.947260983288288,61.62976688705385,39.05],[-6.947470530867577,61.629771161824465,38.61],[-6.947670187801123,61.62976713851094,37.81],[-6.9478596188128,61.62977761588991,38.4],[-6.948064807802439,61.62978264503181,38.78],[-6.948264967650175,61.6297797113657,39.72],[-6.94848214276135,61.62977149710059,37.44],[-6.94868833757937,61.62976713851094,38.25],[-6.948888078331947,61.629775604233146,38.87],[-6.949094524607062,61.62977862171829,39.47],[-6.949307089671493,61.629779459908605,39.56],[-6.949499035254121,61.6297847405076,40.06],[-6.949691902846098,61.629781974479556,38.11],[-6.949887285009027,61.62978566251695,38.67],[-6.950093312188983,61.629782477393746,39.41],[-6.950309816747904,61.62979722954333,38.14],[-6.950516682118177,61.62980351597071,37.96],[-6.950720949098468,61.62981818430126,38.83],[-6.950923204421997,61.62982338108122,39.64],[-6.951131578534842,61.62983779795468,38.26],[-6.951337940990925,61.62983050569892,39.7],[-6.95153365842998,61.62983779795468,39.2],[-6.951736751943827,61.62984333001077,39.63],[-6.951960548758507,61.629846934229136,39.88],[-6.952168755233288,61.62986679933965,39.82],[-6.952395904809237,61.629875265061855,40.52],[-6.952598914504051,61.629881132394075,40.08],[-6.952796559780836,61.62987995892763,41.22],[-6.953019350767136,61.62987191230059,40.95],[-6.953233843669295,61.62987660616636,40.04],[-6.953436518087983,61.62987392395735,41.16],[-6.953639192506671,61.62987451069057,40.72],[-6.953845303505659,61.629886496812105,42.03],[-6.954034566879273,61.62988029420376,42.38],[-6.954232966527343,61.62989412434399,42.24],[-6.954437987878919,61.62988540716469,42],[-6.954657509922981,61.629893789067864,42.18],[-6.954849790781736,61.629906529560685,43.09],[-6.955062439665198,61.62990250624716,42.04],[-6.955269305035472,61.62988708354533,41.83],[-6.955485809594393,61.62989211268723,42.29],[-6.95570164360106,61.629885993897915,42.49],[-6.955898031592369,61.62988322786987,42.13],[-6.956086959689856,61.6299007460475,42.85],[-6.956205228343606,61.629904517903924,42.09],[-6.95640916004777,61.6299176774919,43.42],[-6.956613259389997,61.62990091368556,44.55],[-6.956820879131556,61.629901668056846,45.43],[-6.957053141668439,61.62993754260242,46.71],[-6.957222539931536,61.63000292144716,48.14],[-6.957350950688124,61.63009621202946,48.56],[-6.957449270412326,61.630194867029786,49.32],[-6.957544321194291,61.63029167801142,50.59],[-6.957644484937191,61.63037667050958,51.49],[-6.957747330889106,61.63045738823712,52.3],[-6.957861324772239,61.63054279983044,53.02],[-6.957968110218644,61.630629217252135,53.58],[-6.95808713324368,61.63071110844612,54.78],[-6.958252424374223,61.63077849894762,56.08],[-6.958403382450342,61.63084454834461,57.04],[-6.958567835390568,61.630898443982005,58.27],[-6.95874142460525,61.63095334544778,58.47],[-6.958908978849649,61.63100606761873,60.07],[-6.959090027958155,61.63105560466647,61.15],[-6.959250792860985,61.63111603818834,62.06],[-6.959445755928755,61.63114068098366,60.92],[-6.959632588550448,61.63117588497698,62.76],[-6.959822354838252,61.631210250779986,64.28],[-6.960004661232233,61.63124788552523,64.62],[-6.960178418084979,61.631297590211034,64.56],[-6.960354605689645,61.63136011920869,65.4],[-6.960518807172775,61.631415355950594,67.38],[-6.960684349760413,61.63146095350385,68.41],[-6.960853412747383,61.63151878863573,69.52],[-6.96103404276073,61.63156480528414,69.17],[-6.961229257285595,61.631586430594325,70.83],[-6.961432350799441,61.631611827760935,71.36],[-6.961629493162036,61.63164426572621,71.3],[-6.96183929219842,61.6316741053015,71.46],[-6.962046157568693,61.631695814430714,73.98],[-6.962258471176028,61.63170889019966,73.4],[-6.962460726499558,61.631729090586305,73.54],[-6.962645296007395,61.631742333993316,73.9],[-6.962843611836433,61.63176387548447,75.35],[-6.963034467771649,61.63178944028914,76.18],[-6.963226078078151,61.631816094741225,76.27],[-6.963443839922547,61.631807796657085,77.38],[-6.963619273155928,61.631758930161595,78.51],[-6.963743744418025,61.63167301565409,80.12],[-6.963814571499825,61.63158534094691,80.7],[-6.963859163224697,61.63149230182171,81.49],[-6.963897971436381,61.63139155134559,82.33],[-6.963934684172273,61.631292225793004,82.94],[-6.96396142244339,61.63120320998132,84.31],[-6.963978270068765,61.63110983557999,83.31],[-6.963994530960918,61.63101579062641,84.74],[-6.964000649750233,61.63091730326414,84.92],[-6.963990675285459,61.630812948569655,86.36],[-6.963989250361919,61.63071932271123,86.92],[-6.963974749669433,61.630619410425425,87.46],[-6.963942060247064,61.63052343763411,88.25],[-6.963924961164594,61.63042671047151,89.39],[-6.963915154337883,61.6303288936615,89.79],[-6.963880704715848,61.63022965192795,90.51],[-6.963843572884798,61.63012479431927,91.09],[-6.96381482295692,61.63001323118806,92.19],[-6.963784145191312,61.62991365417838,92.75],[-6.963780876249075,61.629812736064196,93.22],[-6.963752545416355,61.62970578297973,94.73],[-6.963738379999995,61.62959447130561,95.24],[-6.963722119107842,61.629490703344345,96.06],[-6.96377819404006,61.62939179688692,97.04],[-6.963986484333873,61.62940017879009,98.9],[-6.964163342490792,61.62943999283016,99.31],[-6.964316479861736,61.62951333448291,99.54],[-6.964455116540194,61.62956798449159,99.75],[-6.964593250304461,61.6296399012208,99.86],[-6.964770695194602,61.629704190418124,101.53],[-6.964948307722807,61.629744255915284,102.1],[-6.965124327689409,61.629787255078554,102.99],[-6.965313171967864,61.62984433583915,104.01],[-6.965492628514767,61.62989747710526,104.45],[-6.965677449479699,61.629947014153004,106.08],[-6.965847434476018,61.629997892305255,106.02],[-6.966009037569165,61.630045836791396,107.33],[-6.966178938746452,61.63009679876268,107.67],[-6.966360155493021,61.630147425457835,108.31],[-6.966509772464633,61.63020417094231,108.94],[-6.966676488518715,61.6302580665797,110.16],[-6.966845970600843,61.630325708538294,110.65],[-6.967024924233556,61.63036074489355,111.69],[-6.967192981392145,61.63041137158871,111.78],[-6.967363217845559,61.63046048954129,113.76],[-6.967538651078939,61.630510445684195,114.47],[-6.967710899189115,61.63054866716266,114.35],[-6.967879962176085,61.630593510344625,115.53],[-6.968059586361051,61.63063676096499,115.99],[-6.968235271051526,61.63068747147918,116.1],[-6.96843140758574,61.6307261120528,118.44],[-6.968605164438486,61.630780678242445,118.54],[-6.968775987625122,61.63082543760538,119.4],[-6.968969944864512,61.6308709513396,120.61],[-6.969136828556657,61.63092073984444,121.99],[-6.969326762482524,61.63095870986581,122.82],[-6.969481576234102,61.63101210258901,122.28],[-6.969668744131923,61.63106189109385,124.79],[-6.969840656965971,61.631117295473814,125.04],[-6.969999577850103,61.6311682574451,126.05],[-6.970189847052097,61.63121628575027,126.12],[-6.970365950837731,61.631287448108196,127.7],[-6.970534846186638,61.6313252504915,127.96],[-6.970693180337548,61.631392640993,128.08],[-6.970843551680446,61.63145039230585,129.18],[-6.97098889388144,61.63150990381837,129.88],[-6.97111981920898,61.63157637231052,131.28],[-6.971257282420993,61.63165113888681,132.05],[-6.97139784693718,61.63172632455826,132.95],[-6.971574705094099,61.63177141919732,135.57],[-6.971762795001268,61.63181693293154,134.3],[-6.971933534368873,61.63187216967344,134.44],[-6.972096227109432,61.63193277083337,135.93],[-6.972269061952829,61.631991444155574,137.22],[-6.972432089969516,61.63204450160265,136.61],[-6.97260333225131,61.6321025043726,137.71],[-6.972769210115075,61.632156148552895,139.16],[-6.972926203161478,61.632210379466414,139.8],[-6.973076574504376,61.63227458484471,140.54],[-6.973224096000195,61.632340801879764,140.94],[-6.973363235592842,61.632422441616654,141.44],[-6.973519893363118,61.63249008357525,142.5],[-6.973683089017868,61.63256057538092,143.42],[-6.973851984366775,61.632611034438014,145.29],[-6.974044349044561,61.632647663354874,144.06],[-6.974230594933033,61.632689237594604,145.99],[-6.974431425333023,61.63267004303634,147.19],[-6.974657652899623,61.63264950737357,147.8],[-6.974876672029495,61.6326429694891,147.95],[-6.975090242922306,61.63262402638793,149.38],[-6.975282691419125,61.632597455754876,150.37],[-6.975493161007762,61.63258873857558,150.48],[-6.975697763264179,61.63257172331214,151.48],[-6.975905383005738,61.632565185427666,151.13],[-6.976105039939284,61.632565101608634,152.67],[-6.976308217272162,61.63256007246673,153.67],[-6.976508293300867,61.63255990482867,154.28],[-6.976698813959956,61.63255915045738,154.98],[-6.976887742057443,61.632561245933175,156.17],[-6.977098127827048,61.632566191256046,157.27],[-6.977301221340895,61.6325961984694,157.84],[-6.977476989850402,61.632631570100784,158.13],[-6.97767379693687,61.6326704621315,159.43],[-6.977838417515159,61.63271647877991,160.15],[-6.977952159941196,61.632798705250025,159.9],[-6.978052239865065,61.6327878087759,160.78],[-6.978014605119824,61.632796777412295,160.43],[-6.978188194334507,61.63280566222966,161.69],[-6.978333368897438,61.63276165723801,161.51],[-6.978524895384908,61.63277699612081,163.34],[-6.978637715801597,61.63269971497357,166.94],[-6.978672752156854,61.63262536749244,168.65],[-6.978824883699417,61.63257666863501,171.62],[-6.97886411100626,61.63247751072049,176.73],[-6.978857489302754,61.63237282074988,176.38],[-6.978757074102759,61.63228556513786,176.64],[-6.978707537055016,61.63219889625907,177.89],[-6.978684905916452,61.632098983973265,179.31],[-6.978723127394915,61.63201508112252,183.15],[-6.978736873716116,61.63193034008145,185.31],[-6.978800659999251,61.63185238838196,185.85],[-6.978796385228634,61.63176697678864,191.3],[-6.978730587288737,61.6316981613636,192.41],[-6.978634027764201,61.63161509670317,195.86],[-6.978549789637327,61.63153504952788,195.92],[-6.978478124365211,61.6314531583339,197.06],[-6.978314593434334,61.631402280181646,199.95],[-6.978159109130502,61.63134285248816,202.64],[-6.97804075665772,61.63126716390252,202.07],[-6.977916453033686,61.63119725883007,203.63],[-6.977769853547216,61.63113087415695,203.85],[-6.977622248232365,61.63106583058834,206.62],[-6.977488724514842,61.6310022957623,209.04],[-6.977360229939222,61.63092518225312,213.46],[-6.977284289896488,61.63083767518401,212.65],[-6.977234166115522,61.630752850323915,212.3],[-6.977174570783973,61.63066592998803,215.68],[-6.977102570235729,61.63058311678469,216.74],[-6.977023528888822,61.63049326278269,220.22],[-6.977006513625383,61.630408773198724,224.53],[-6.976936357095838,61.6303148958832,226.52],[-6.976915905252099,61.6302184201777,229.12],[-6.976949935778976,61.63014180958271,232.22],[-6.976921018213034,61.63005966693163,233.27],[-6.977047668769956,61.62999772466719,237.58],[-6.977111538872123,61.62992077879608,243.52],[-6.977217318490148,61.62982941605151,246.22],[-6.977351009845734,61.62974861450493,250],[-6.977524682879448,61.62971173413098,251.55],[-6.977689722552896,61.62976261228323,254.12],[-6.977883763611317,61.62978993728757,253.61],[-6.978048048913479,61.62984559312463,254.16],[-6.978217363357544,61.62987895309925,255.55],[-6.978395394980907,61.62990812212229,257.03],[-6.978590106591582,61.629921616986394,258.36],[-6.978758750483394,61.629968555644155,258.37],[-6.978923287242651,61.63001365028322,259.29],[-6.979106348007917,61.63005287759006,260.33],[-6.979293096810579,61.630082465708256,261.54],[-6.979493340477347,61.63011582568288,261.99],[-6.979693667963147,61.63016192615032,263.52],[-6.979905478656292,61.63019947707653,263.63],[-6.980114607140422,61.63025370799005,264.38],[-6.98030848056078,61.630285643041134,263.98],[-6.980509897693992,61.63032646290958,265.42],[-6.980706537142396,61.63036267273128,266.61],[-6.980885323137045,61.6304081864655,266.77],[-6.981086069718003,61.63045269437134,266.86],[-6.981276338919997,61.63048236630857,267.1],[-6.981468703597784,61.63051513954997,267.1],[-6.981664840131998,61.63055579178035,267.56],[-6.981848068535328,61.630598371848464,267.15],[-6.982025597244501,61.630634581670165,268.15],[-6.982208155095577,61.6306846216321,268.28],[-6.982174543663859,61.63067481480539,269.05],[-6.981996260583401,61.63063139654696,270.03],[-6.981806242838502,61.63058596663177,268.22],[-6.981600802391768,61.63056341931224,269.25],[-6.98141866363585,61.63052192889154,267.53],[-6.981212887912989,61.63048538379371,267.2],[-6.981017757207155,61.63045302964747,267.66],[-6.980816842988133,61.6304272133857,266.55],[-6.980639984831214,61.630385387688875,265.49],[-6.980448877438903,61.630345825105906,265.17],[-6.980271181091666,61.63030777126551,264.83],[-6.980097508057952,61.630274411290884,263.93],[-6.979914950206876,61.63025077432394,263.7],[-6.97973775677383,61.63020920008421,262.62],[-6.979526532813907,61.630168464034796,261.2],[-6.979336934164167,61.63012714125216,260.17],[-6.979155885055661,61.63009143434465,258.96],[-6.978961005806923,61.63004977628589,257.99],[-6.978777274489403,61.63001138716936,257.1],[-6.978609971702099,61.62996729835868,255.92],[-6.978434706106782,61.62993410602212,255.25],[-6.978249717503786,61.62989655509591,254.79],[-6.978060621768236,61.629871325567365,254.14],[-6.977919302880764,61.62981449626386,252.04],[-6.977751664817333,61.629766300320625,252.9],[-6.977615542709827,61.62969966419041,252],[-6.977452766150236,61.629665633663535,252.11],[-6.977323098108172,61.62974459119141,247.75],[-6.977214803919196,61.629813238978386,243.87],[-6.977110784500837,61.62989613600075,239.51],[-6.977042723447084,61.62996377795935,236.41],[-6.976933088153601,61.63002513349056,230.9],[-6.976788500323892,61.63009788841009,226.05],[-6.976672075688839,61.630163099616766,222.7],[-6.976790679618716,61.630216827616096,222.2],[-6.9769037514925,61.630252534523606,222.43],[-6.976892771199346,61.63035387173295,219.98],[-6.977009698748589,61.63042679429054,217.04],[-6.977123944088817,61.63050717674196,213.88],[-6.97724967263639,61.6305826138705,211.84],[-6.977379927411676,61.63067137822509,210.01],[-6.977469278499484,61.63077011704445,209.43],[-6.977573884651065,61.6308606415987,207.18],[-6.977681759744883,61.63094278424978,203.51],[-6.977810421958566,61.63100472651422,202.21],[-6.977911088615656,61.63110338151455,200.49],[-6.978046121075749,61.631164234131575,197.42],[-6.978189367800951,61.63124805316329,196.94],[-6.978325573727489,61.631325501948595,196.5],[-6.97850595228374,61.631392892450094,196.79],[-6.97863788343966,61.63143505342305,193.28],[-6.978747686371207,61.631511244922876,193.57],[-6.978877354413271,61.63158601149917,193.12],[-6.978911636397243,61.63166421465576,189.19],[-6.978844916447997,61.63175834342837,185.24],[-6.978769060224295,61.631847862154245,182.29],[-6.978719858452678,61.631942661479115,176.5],[-6.978676691651344,61.632035449147224,174.36],[-6.978609720245004,61.63211935199797,171.55],[-6.978490529581904,61.63219311274588,170.65],[-6.978397238999605,61.63227332755923,168.21],[-6.978389779105783,61.63236552849412,166.61],[-6.978235552087426,61.63242034614086,162.82],[-6.97806472890079,61.632455214858055,160.42],[-6.977929109707475,61.63245890289545,157.44],[-6.978036481887102,61.632534842938185,156.47],[-6.978148967027664,61.632628636434674,154.99],[-6.978214094415307,61.63272460922599,153.98],[-6.978183835744858,61.63280775770545,151.65],[-6.97798753157258,61.632782779634,150.62],[-6.977821066975594,61.63274958729744,149.52],[-6.977646807208657,61.63269393146038,149.39],[-6.977480510249734,61.63265101611614,147.9],[-6.977303987368941,61.632609609514475,147.22],[-6.977116903290153,61.632593013346195,146.7],[-6.976909535005689,61.63258253596723,145.28],[-6.976710967719555,61.63257817737758,145.14],[-6.976508460938931,61.632571471855044,144.19],[-6.976289777085185,61.63256702944636,142.78],[-6.976055754348636,61.63257624953985,141.86],[-6.97584293782711,61.632590079680085,141.5],[-6.97562693618238,61.63262000307441,140.02],[-6.975400373339653,61.63263634778559,140.99],[-6.975199626758695,61.632642382755876,139.02],[-6.974984044209123,61.63265126757324,138.08],[-6.974737029522657,61.63266249932349,137.91],[-6.974513232707977,61.632669288665056,137.56],[-6.974300500005484,61.63267431780696,136.61],[-6.974111823365092,61.632656464353204,135.45],[-6.97391870431602,61.632602736353874,134.8],[-6.973744779825211,61.63253660313785,133.62],[-6.97358594276011,61.63246317766607,132.9],[-6.973448395729065,61.63239142857492,132.24],[-6.97329081594944,61.63233577273786,131.58],[-6.973118400201201,61.63227860815823,131.24],[-6.972947074100375,61.632215324789286,129.51],[-6.972779268398881,61.632158663123846,128.74],[-6.97261406108737,61.63209370337427,128.07],[-6.97246260009706,61.63203896954656,127.55],[-6.972273588180542,61.63198038004339,126.75],[-6.972093461081386,61.63193226791918,125.72],[-6.971932863816619,61.63188683800399,125.17],[-6.971749048680067,61.63183042779565,124.33],[-6.971567748114467,61.63177854381502,123.67],[-6.971416035667062,61.631719870492816,122.52],[-6.97128351777792,61.6316497977823,122.01],[-6.971143456175923,61.63158140145242,121.02],[-6.970971543341875,61.631521889939904,120.04],[-6.970804072916508,61.63146925158799,119],[-6.970634423196316,61.63141996599734,118.24],[-6.970465611666441,61.6313701774925,116.94],[-6.970283640548587,61.631312342360616,116.32],[-6.970139387995005,61.631259536370635,115.75],[-6.969966553151608,61.6312010306865,114.54],[-6.969771003350616,61.63114788942039,113.94],[-6.969597162678838,61.63109910674393,112.8],[-6.969431955367327,61.63104387000203,112.08],[-6.969252666458488,61.630980083718896,111.31],[-6.969061056151986,61.630930714309216,110.91],[-6.968874894082546,61.630877908319235,109.26],[-6.968734078109264,61.63082493469119,108.42],[-6.968562165275216,61.63078285753727,107.87],[-6.968371225520968,61.630731392651796,106.97],[-6.968208281323314,61.63067825138569,106.52],[-6.968024466186762,61.63063575513661,106.38],[-6.967841489240527,61.630578339099884,105.21],[-6.967647364363074,61.630531065166,104.2],[-6.967464722692967,61.63048638962209,103.26],[-6.967279566451907,61.63044573739171,102.29],[-6.967094326391816,61.63039879873395,101.5],[-6.966932890936732,61.63034859113395,100.81],[-6.966755697503686,61.63028874434531,99.85],[-6.966579593718052,61.63023157976568,98.97],[-6.966412961483002,61.63018589839339,97.87],[-6.966236187145114,61.63013845682144,97.71],[-6.966061759740114,61.630080034956336,96.75],[-6.965877944603562,61.63002144545317,95.21],[-6.965692872181535,61.62996738217771,94.27],[-6.965536382049322,61.62991466000676,93.49],[-6.965370085090399,61.629867386072874,92.94],[-6.965194568037987,61.62982380017638,91.63],[-6.965007651597261,61.62977417930961,91.19],[-6.964802211150527,61.62973771803081,90.8],[-6.964628957211971,61.6296829842031,89.46],[-6.964444555342197,61.629618778824806,88.66],[-6.964314384385943,61.629549795761704,87.82],[-6.964169209823012,61.6294705029577,87.29],[-6.964019006118178,61.62939942441881,85.79],[-6.963828401640058,61.62936824373901,85.45],[-6.963661517947912,61.62941903807223,84.95],[-6.963665457442403,61.62952372804284,84.33],[-6.963701080530882,61.629624143242836,83.11],[-6.963744414970279,61.6297173500061,82.92],[-6.963767632842064,61.62981114350259,82.36],[-6.963782133534551,61.62990636192262,81.97],[-6.963792024180293,61.62999412044883,79.88],[-6.96383535861969,61.63009495474398,80.21],[-6.963845249265432,61.630199644714594,79.68],[-6.963848182931542,61.63029679097235,79.74],[-6.963880369439721,61.63040525279939,78.53],[-6.963925799354911,61.63050876930356,77.83],[-6.963943066075444,61.630605077371,76.59],[-6.963941892609,61.63070716895163,75.92],[-6.963963015004993,61.630819318816066,76.17],[-6.96398438885808,61.6309126932174,74.45],[-6.963988747447729,61.631008414551616,73.8],[-6.963981287553906,61.63111813366413,72.04],[-6.963964104652405,61.631211675703526,72.01],[-6.963947340846062,61.63130613975227,71.37],[-6.963893109932542,61.63141451776028,70.24],[-6.963836615905166,61.63150697015226,70.51],[-6.963774506002665,61.63160386495292,69.56],[-6.963716335594654,61.63169480860233,69.11],[-6.963583398610354,61.63176781497896,67.64],[-6.963393967598677,61.63179975003004,66.21],[-6.963177965953946,61.63180612027645,65.05],[-6.962964311242104,61.631789272651076,64.3],[-6.962760128080845,61.631771586835384,63.79],[-6.96255317889154,61.631761780008674,63.1],[-6.962354527786374,61.631748704239726,62.46],[-6.96216425858438,61.63172121159732,61.62],[-6.961952950805426,61.63170251995325,61.26],[-6.961752623319626,61.63168131373823,60.06],[-6.961566125974059,61.63167360238731,59.31],[-6.961364038288593,61.631654407829046,58.49],[-6.961153820157051,61.63163051940501,58.26],[-6.960967322811484,61.63160269148648,57.27],[-6.96080781519413,61.631550304591656,56.5],[-6.960631627589464,61.6314928047359,55.78],[-6.960447896271944,61.63143798708916,54.71],[-6.960278665646911,61.631382247433066,53.65],[-6.960115050897002,61.63132675923407,52.38],[-6.959935091435909,61.63127973675728,51.95],[-6.959752533584833,61.63124201819301,51.47],[-6.959568550810218,61.63119181059301,50.72],[-6.959381466731429,61.631148643791676,49.98],[-6.95919094607234,61.63112341426313,49],[-6.959030767902732,61.63107622414827,48.12],[-6.958856759592891,61.631021071225405,47.2],[-6.958671351894736,61.6309679299593,46.2],[-6.958486782386899,61.630915543064475,44.81],[-6.958319814875722,61.6308572050184,43.5],[-6.958159971982241,61.63079559803009,42.7],[-6.958030723035336,61.63072435185313,41.92],[-6.957906084135175,61.63065444678068,41.54],[-6.957802567631006,61.630562245845795,40.05],[-6.95769184269011,61.63047750480473,39.27],[-6.95759897120297,61.63039745762944,38.78],[-6.957497969269753,61.63032101467252,37.77],[-6.957391267642379,61.63023258559406,36.79],[-6.957428650930524,61.63014910183847,37.13],[-6.957551948726177,61.630073580890894,37.31],[-6.957646831870079,61.62998246960342,37.56],[-6.957785971462727,61.62990770302713,37.92],[-6.957951849326491,61.62984115071595,39.7],[-6.958085289224982,61.62977518513799,40.82],[-6.958272205665708,61.62973168306053,40.8],[-6.958356946706772,61.62966353818774,42.23],[-6.958507904782891,61.62962682545185,44.12],[-6.958685098215938,61.62957804277539,43.97],[-6.958890538662672,61.62954426370561,45.46],[-6.959094638004899,61.62952221930027,47],[-6.959285158663988,61.62949053570628,47.38],[-6.959466375410557,61.62948894314468,49.52],[-6.959653543308377,61.62949866615236,50.89],[-6.959841968491674,61.6294842492789,52.36],[-6.960019748657942,61.629439322277904,54.23],[-6.960159474983811,61.62937662564218,56.41],[-6.960354438051581,61.62934494204819,58.4],[-6.96056205779314,61.62932247854769,60.52],[-6.960759703069925,61.62932004779577,62.46],[-6.960962461307645,61.62931392900646,64.86],[-6.961108054965735,61.629276713356376,66.38],[-6.961115431040525,61.629179483279586,68.22],[-6.961115095764399,61.62908158265054,69.21],[-6.961055165156722,61.62898066453636,69.92],[-6.961029516533017,61.62888586521149,72.8],[-6.961235459893942,61.62884253077209,75.82],[-6.961450539529324,61.62880992516875,77.73],[-6.961649022996426,61.62878503091633,81.52],[-6.961841136217117,61.628768015652895,83.78],[-6.962007181718946,61.628717221319675,87.58],[-6.962179094552994,61.62868369370699,90.97],[-6.962288310751319,61.62860104814172,96.21],[-6.962394258007407,61.62852007895708,100.68],[-6.962507832795382,61.62845654413104,104.56],[-6.962538929656148,61.62837674841285,108.48],[-6.962591903284192,61.62828630767763,113.86],[-6.962678907439113,61.62819938734174,117.18],[-6.962709836661816,61.62811012007296,122.14],[-6.962770940735936,61.628047758713365,127.08],[-6.962918126955628,61.62800844758749,129.35],[-6.962922569364309,61.62792789749801,133.57],[-6.962950313463807,61.62783586420119,134.88],[-6.962968753650785,61.62773922085762,139.87],[-6.963002616539598,61.62763578817248,143.96],[-6.963008483871818,61.62754769437015,148.35],[-6.963032372295857,61.62745339795947,153.24],[-6.962943272665143,61.6273725964129,156.71],[-6.962906559929252,61.627300595864654,160.67],[-6.962864231318235,61.627216106280684,164.85],[-6.962873367592692,61.627127677202225,168.42],[-6.96289130486548,61.62703312933445,173.09],[-6.962875546887517,61.626953249797225,175.95],[-6.962746800854802,61.62687487900257,179.67],[-6.962672704830766,61.62678494118154,182.29],[-6.962619815021753,61.62668569944799,184.2],[-6.962581342086196,61.62660255096853,184.59],[-6.962509341537952,61.62651655264199,186.61],[-6.96241051889956,61.62642393261194,186.79],[-6.962333405390382,61.62633374333382,187.42],[-6.962219495326281,61.626256965100765,189.03],[-6.962116314098239,61.62617356516421,190.43],[-6.961999135091901,61.626091841608286,192.09],[-6.961890757083893,61.62600760348141,194.23],[-6.96172839961946,61.6259512770921,196.2],[-6.961581716313958,61.62588078528643,199.35],[-6.961464453488588,61.62580870091915,202.73],[-6.961378706619144,61.6257181763649,205.93],[-6.961247865110636,61.6256491933018,207.47],[-6.961092296987772,61.62558096460998,210.82],[-6.961019290611148,61.625488344579935,213.56],[-6.960910744965076,61.6254108119756,215.65],[-6.960808904841542,61.625326070934534,219.6],[-6.960703795775771,61.62527653388679,220.7],[-6.960593238472939,61.625189362093806,222.28],[-6.960496678948402,61.62509372457862,224.68],[-6.960509922355413,61.62499372847378,227.19],[-6.960451332852244,61.62492290139198,229.47],[-6.960365669801831,61.62484277039766,231.1],[-6.960304230451584,61.62475819699466,233.82],[-6.960281431674957,61.624661134555936,236.54],[-6.960239019244909,61.62457496859133,239.63],[-6.960234828293324,61.62452543154359,240.62],[-6.960260225459933,61.624464159831405,243.43],[-6.960203060880303,61.62436567246914,244.87],[-6.960041541606188,61.62432041019201,247.69],[-6.959869377315044,61.62428621202707,249.66],[-6.959687657654285,61.6242450568825,251.01],[-6.959713473916054,61.62421077489853,252.25],[-6.959856636822224,61.62415008991957,254.99],[-6.960034584626555,61.62410516291857,257.43],[-6.960223848000169,61.624127542600036,258.91],[-6.960378661751747,61.62415838800371,260.44],[-6.960574965924025,61.624154364690185,262.81],[-6.960698598995805,61.62413743324578,264.12],[-6.960565075278282,61.624069875106215,266.25],[-6.960526769980788,61.62397524341941,269.16],[-6.960419816896319,61.62390458397567,272.35],[-6.96060748770833,61.62389469332993,274.16],[-6.960797337815166,61.62388698197901,276.35],[-6.960774539038539,61.62382914684713,278.57],[-6.960775461047888,61.62377106025815,281.65],[-6.960940333083272,61.623777095228434,283.81],[-6.960938489064574,61.623717499896884,286.27],[-6.961136469617486,61.62370408885181,288.32],[-6.961299413815141,61.62370593287051,291.65],[-6.961305532604456,61.623621359467506,294.31],[-6.961405947804451,61.62360182963312,296.17],[-6.961296396329999,61.62354173138738,299.49],[-6.961141163483262,61.623501582071185,300.07],[-6.960976962000132,61.62346168421209,302.43],[-6.960776885971427,61.62343293428421,303.1],[-6.960602710023522,61.6233713272959,303.98],[-6.960418224334717,61.62332916632295,305.38],[-6.960537666454911,61.6233089659363,307.74],[-6.960400706157088,61.62324576638639,309.94],[-6.960247149690986,61.623191870749,311.66],[-6.960325688123703,61.62314116023481,313.65],[-6.960455356165767,61.62309690378606,317.52],[-6.960294675081968,61.623040325939655,319.11],[-6.960151176899672,61.62298550829291,322.53],[-6.959990663453937,61.622929433360696,325.08],[-6.959990579634905,61.62288316525519,328.22],[-6.960138184949756,61.62283815443516,331.02],[-6.960007259622216,61.622773949056864,333.07],[-6.959906592965126,61.62269365042448,336.06],[-6.959745576605201,61.62263120524585,338.65],[-6.959565952420235,61.622576052322984,341.11],[-6.959380712360144,61.62254948168993,342.67],[-6.959180049598217,61.62253548391163,343.15],[-6.959112407639623,61.622530706226826,343.76],[-6.959091452881694,61.622530706226826,344.25],[-6.959148617461324,61.622447138652205,346.34],[-6.959109138697386,61.62235686555505,349.65],[-6.959061278030276,61.62226600572467,351.79],[-6.959004197269678,61.622164668515325,353.68],[-6.958963377401233,61.6220673546195,355.79],[-6.958860028535128,61.62198563106358,357.3],[-6.95869255810976,61.62191438488662,358.17],[-6.958576804026961,61.62183475680649,359.54],[-6.958475131541491,61.6217565536499,360.6],[-6.958399107679725,61.62166452035308,361.67],[-6.958307409659028,61.621576929464936,361.96],[-6.95817950181663,61.62150526419282,363.12],[-6.958059053868055,61.62142580375075,364.2],[-6.957982610911131,61.621337877586484,364.02],[-6.957917148247361,61.62124693393707,364.5],[-6.957824528217316,61.62116470746696,365.19],[-6.957720424979925,61.6210815589875,365.66],[-6.957629816606641,61.620994973927736,366.01],[-6.957520432770252,61.62090922705829,365.83],[-6.957399733364582,61.62083395756781,365.5],[-6.957244668155909,61.620770674198866,366.3],[-6.957130087539554,61.62069263868034,365.97],[-6.956979380920529,61.62064343690872,365.61],[-6.956894723698497,61.620568837970495,365.03],[-6.956780143082142,61.62049968726933,364.9],[-6.956677297130227,61.620423160493374,362.94],[-6.956562967970967,61.62034487351775,362.93],[-6.956425840035081,61.62027823738754,362.63],[-6.95631243288517,61.62020162679255,361.78],[-6.956213861703873,61.62012149579823,361.32],[-6.956176562234759,61.620041616261005,360.76],[-6.956100706011057,61.619952684268355,360.5],[-6.956023927778006,61.619868110865355,359.5],[-6.955942288041115,61.61977448500693,358.97],[-6.955865258350968,61.6196930129081,358.67],[-6.955796778202057,61.61960609257221,357.49],[-6.95572461001575,61.619518250226974,356.38],[-6.955640707165003,61.61942571401596,356.1],[-6.955551523715258,61.61934373900294,354.76],[-6.955456724390388,61.61925656720996,354.76],[-6.955365194007754,61.61917710676789,353.32],[-6.955274920910597,61.61909303627908,352.25],[-6.955215996131301,61.61901189945638,351.51],[-6.955155478790402,61.61892590112984,349.99],[-6.955119939520955,61.61884241737425,348.55],[-6.955091776326299,61.61875960417092,347.5],[-6.955033103004098,61.61867645569146,345.46],[-6.954987505450845,61.618587942793965,345.02],[-6.954894717782736,61.61850328557193,342.73],[-6.954829255118966,61.618408318609,341.45],[-6.95472925901413,61.618320643901825,340.44],[-6.954652732238174,61.61823397502303,340.13],[-6.954592633992434,61.61814152263105,338.61],[-6.954553993418813,61.61804429255426,336.29],[-6.954512000083923,61.61795485764742,334.79],[-6.954434299841523,61.61787866614759,333.41],[-6.954324580729008,61.61781270056963,333.93],[-6.954326592385769,61.61771555431187,331.54],[-6.954317623749375,61.61765579134226,330.24],[-6.954383673146367,61.6176432184875,330.23],[-6.954312091693282,61.617553029209375,328.77],[-6.954252831637859,61.61745487712324,325.81],[-6.95421134121716,61.61736401729286,322.77],[-6.954203294590116,61.61727734841406,321.5],[-6.954126683995128,61.61718766205013,318.31],[-6.954081002622843,61.61708565428853,316.6],[-6.954036746174097,61.61698649637401,315.71],[-6.953970529139042,61.61689463071525,314.3],[-6.953930547460914,61.61679966375232,312.18],[-6.953882686793804,61.61670310422778,309.67],[-6.953833904117346,61.61660964600742,307.95],[-6.953797275200486,61.61650897935033,307.42],[-6.953758550807834,61.61642465740442,306.33],[-6.953696692362428,61.61633840762079,304.76],[-6.953644305467606,61.616248385980725,302.4],[-6.953604407608509,61.616160459816456,301.12],[-6.953559145331383,61.61607186309993,300.93],[-6.953544225543737,61.615985445678234,298.64],[-6.953460155054927,61.61589450202882,296.92],[-6.953415228053927,61.61580003798008,295.35],[-6.953355045989156,61.61570867523551,294.1],[-6.95331908762455,61.6156071703881,292.15],[-6.953279357403517,61.6155138798058,290.54],[-6.95320475846529,61.615426456555724,288.84],[-6.953171147033572,61.61532511934638,287.21],[-6.953134853392839,61.61522939801216,286.89],[-6.95307576097548,61.61513124592602,285.1],[-6.953050615265966,61.615033680573106,284.69],[-6.953006610274315,61.6149475146085,283.24],[-6.95295162498951,61.614857241511345,282.06],[-6.952903009951115,61.61476420238614,281.01],[-6.952874343842268,61.61467392928898,279.63],[-6.952824639156461,61.614578291773796,278.34],[-6.952795553952456,61.61447636783123,276.99],[-6.952713914215565,61.61438936367631,275.66],[-6.952657336369157,61.6142931394279,274.17],[-6.95262623950839,61.6141998488456,273.63],[-6.952611235901713,61.61411267705262,270.77],[-6.952530769631267,61.61402282305062,269.66],[-6.952547365799546,61.61392919719219,267.99],[-6.952511742711067,61.61383582279086,266.31],[-6.952450554817915,61.61374429240823,264.58],[-6.95236430503428,61.613651840016246,263.11],[-6.952317534014583,61.61355662159622,261.85],[-6.952249221503735,61.613462660461664,260.39],[-6.952167162671685,61.61337456665933,259.27],[-6.95212097838521,61.61327674984932,258.67],[-6.95210731588304,61.61318832077086,257.18],[-6.952055683359504,61.61310031078756,256.85],[-6.95205551572144,61.61300014704466,254.35],[-6.95200371555984,61.61290191113949,253.28],[-6.951973205432296,61.61280585452914,251.9],[-6.951949317008257,61.612717090174556,251.57],[-6.951912855729461,61.61262723617256,249.87],[-6.951826941221952,61.6125353705138,248.75],[-6.951779667288065,61.61244157701731,248.29],[-6.951763154938817,61.612339317798615,246.96],[-6.951721413061023,61.61224183626473,246.4],[-6.951640276238322,61.61215960979462,245.99],[-6.951539441943169,61.61207034252584,245.71],[-6.951488815248013,61.61198719404638,245.84],[-6.95147599093616,61.6118928976357,244.62],[-6.951508596539497,61.61181083880365,243.44],[-6.951464340090752,61.61171947605908,243.04],[-6.9514290522784,61.61163238808513,243.31],[-6.951368870213628,61.611547479406,242.83],[-6.951262336224318,61.61149475723505,242.49],[-6.951265018433332,61.611387049779296,239.69],[-6.951231071725488,61.61127917468548,237.63],[-6.951203076168895,61.61118093878031,235.08],[-6.951171895489097,61.61108337342739,233.58],[-6.951074749231339,61.61099393852055,231.54],[-6.951028313487768,61.610899893566966,229.95],[-6.951091345399618,61.61081817001104,228.31],[-6.951119257137179,61.61071985028684,227.26],[-6.951186815276742,61.61063167266548,224.71],[-6.951193185523152,61.61053846590221,221.93],[-6.951111629605293,61.61046219058335,219.62],[-6.951056979596615,61.61036462523043,217.49],[-6.951067708432674,61.610267981886864,215.14],[-6.951037449762225,61.61016521975398,213.29],[-6.951021859422326,61.61006740294397,212.41],[-6.950909039005637,61.60998878069222,211.55],[-6.950865369290113,61.60989599302411,211.03],[-6.950878612697125,61.60979834385216,208.2],[-6.950858496129513,61.609699269756675,207.13],[-6.95085589773953,61.60960463806987,206.17],[-6.950817927718163,61.609504809603095,204.21],[-6.950726313516498,61.60941269248724,203.22],[-6.95073327049613,61.60931948572397,199.82],[-6.950718685984612,61.609219489619136,197.53],[-6.950678452849388,61.609127623960376,196.19],[-6.950677530840039,61.6090211737901,193.45],[-6.950709130614996,61.608931152150035,192.09],[-6.950595891103149,61.60884750075638,190.21],[-6.950472174212337,61.6087809484452,188.45],[-6.9504982419312,61.60870802588761,186.63],[-6.950511652976275,61.60861389711499,185.6],[-6.950493296608329,61.60851901397109,184.97],[-6.950465301051736,61.60842941142619,183.29],[-6.950504863634706,61.60834542475641,182.07],[-6.950495559722185,61.60823788493872,178.71],[-6.950531350448728,61.60814308561385,176.38],[-6.950579294934869,61.60805105231702,173.27],[-6.950526405125856,61.60795256495476,170.08],[-6.950480053201318,61.607858100906014,166.68],[-6.950443424284458,61.607760451734066,163.08],[-6.950420374050736,61.607673447579145,160.19],[-6.950445435941219,61.6075824201107,158.68],[-6.950352061539888,61.6075031273067,154.73],[-6.950373938307166,61.607414446771145,150.9],[-6.950356084853411,61.60732098855078,148.04],[-6.95033554919064,61.6072285361588,145.06],[-6.950349127873778,61.60713030025363,141.79],[-6.950300596654415,61.60703055560589,137.83],[-6.950291879475117,61.6069211717695,134.69],[-6.950274528935552,61.60682704299688,132.08],[-6.950294142588973,61.60674716345966,129.14],[-6.950317528098822,61.60666225478053,125.32],[-6.950256507843733,61.60658556036651,120.91],[-6.950165228918195,61.60655521787703,119.13],[-6.950121140107513,61.60650450736284,118.26],[-6.95012834854424,61.6064169164747,114.23],[-6.950127007439733,61.60632253624499,109.57],[-6.950158355757594,61.60623360425234,106.7],[-6.950181154534221,61.60614240914583,103.95],[-6.950067495927215,61.60606311634183,101.17],[-6.950186686590314,61.606010645627975,99.57],[-6.95027100853622,61.60592238418758,95.9],[-6.950306044891477,61.60581735894084,92.58],[-6.950324987992644,61.605733036994934,88.33],[-6.950373183935881,61.605637315660715,84.67],[-6.950217951089144,61.60559792071581,84.96],[-6.950190290808678,61.605529859662056,82.43],[-6.950230775400996,61.605445705354214,77.97],[-6.95027394220233,61.605354929342866,73.48],[-6.950287604704499,61.60526918247342,69.14],[-6.950323982164264,61.605182345956564,63.49],[-6.950495727360249,61.605146303772926,58.15],[-6.950687924399972,61.60517228767276,58.62],[-6.950873583555222,61.605190644040704,56.09],[-6.95103962905705,61.60513004288077,50],[-6.95116619579494,61.6050767339766,44.97],[-6.951324613764882,61.6050251852721,39.41],[-6.951454365625978,61.60494622774422,37.38],[-6.951421927660704,61.60483474843204,32.55],[-6.95147498510778,61.60473081283271,31.09],[-6.951348334550858,61.60465311259031,29.77],[-6.951204584911466,61.604566778987646,28.49],[-6.951061589643359,61.60448044538498,26.83],[-6.950914906337857,61.60441582091153,25.69],[-6.950808456167579,61.60432789474726,23.86],[-6.950716003775597,61.60423125140369,21.39],[-6.950641991570592,61.60413603298366,19.18],[-6.950591951608658,61.60402849316597,17.61],[-6.950519280508161,61.603930005803704,14.99],[-6.95045867934823,61.60383889451623,13.12],[-6.950401766225696,61.603747783228755,11.86],[-6.950362371280789,61.60366505384445,10.45],[-6.950320294126868,61.603569500148296,8.56],[-6.950264973565936,61.60346204414964,6.52],[-6.95020604878664,61.60336699336767,5.03],[-6.95018014870584,61.60327345132828,3.69],[-6.950358767062426,61.60325174219906,3.13],[-6.950554735958576,61.60326967947185,4.06],[-6.950753387063742,61.60328971222043,4.29],[-6.950965952128172,61.60331401973963,4.86],[-6.951153706759214,61.60333028063178,4.81],[-6.951357554644346,61.60334184765816,4.44],[-6.951567521318793,61.60336833447218,4.28],[-6.951781092211604,61.6033879481256,4.25],[-6.951989382505417,61.60339775495231,4.13],[-6.952195158228278,61.60341376438737,4.98],[-6.952392635867,61.60343823954463,5.11],[-6.952587682753801,61.60345332697034,5.65],[-6.95279966108501,61.603458942845464,6.14],[-6.952990936115384,61.60346841439605,6.44],[-6.953191682696343,61.603476628661156,6.58],[-6.953380862250924,61.603496661409736,6.64],[-6.95357951335609,61.60351627506316,6.83],[-6.953779337927699,61.6035208851099,7.25],[-6.953996261581779,61.60353354178369,7.35],[-6.954213855788112,61.603551814332604,7.17],[-6.954407645389438,61.603528847917914,7.14],[-6.954602105543017,61.60349590703845,7.44],[-6.954788770526648,61.603470677509904,7.54],[-6.954970490187407,61.60344863310456,7.99],[-6.955177187919617,61.603439999744296,7.95],[-6.95538061670959,61.60343807190657,8.29],[-6.955567030236125,61.603411668911576,7.84],[-6.955763753503561,61.60338853485882,7.2],[-6.955966511741281,61.6033636406064,6.61],[-6.956174047663808,61.60334394313395,5.6],[-6.956368591636419,61.603305554017425,5.71],[-6.956559112295508,61.60326766781509,6.58],[-6.956603704020381,61.60320111550391,6.11],[-6.956533631309867,61.60312106832862,5.22],[-6.956473616883159,61.603020653128624,3.86],[-6.956431036815047,61.60293457098305,3.31],[-6.956380493938923,61.60285527817905,2.63],[-6.956289550289512,61.6027819365263,2.25],[-6.956212520599365,61.60270180553198,1.87],[-6.956119816750288,61.60261815413833,1.14],[-6.956066340208054,61.602533580735326,1.09],[-6.955990651622415,61.60245311446488,0.54],[-6.955915214493871,61.60235186107457,0.38],[-6.955858217552304,61.60225664265454,0.22],[-6.955799711868167,61.602157317101955,0.3],[-6.95573391392827,61.60207089968026,0.15],[-6.955647496506572,61.601983392611146,-0.15],[-6.955600557848811,61.601886162534356,-0.62],[-6.955500561743975,61.60179630853236,-0.44],[-6.955442810431123,61.60170695744455,-0.61],[-6.955368546769023,61.601610062643886,-0.54],[-6.955266622826457,61.60150679759681,-0.53],[-6.955142989754677,61.601419458165765,-0.25],[-6.955051375553012,61.60133178345859,0.19],[-6.954950960353017,61.60124620422721,0.29],[-6.954849287867546,61.60115425474942,0.89],[-6.954719955101609,61.60106364637613,0.37],[-6.954605625942349,61.600986113771796,0.9],[-6.954469503834844,61.60088846459985,0.79],[-6.95433983579278,61.60080707632005,0.42],[-6.954228188842535,61.60072635859251,0.19],[-6.954096341505647,61.60064220428467,0.13],[-6.953952088952065,61.60056232474744,0.12],[-6.953697698190808,61.600473979488015,0.01]]}},{"type":"Feature","properties":{"name":"WP1 06_SV","type":"user","time":"2020-07-19T09:03:52Z","gpxx_WaypointExtension":"SymbolAndName","gpxx_DisplayMode":"SymbolAndName","wptx1_WaypointExtension":"SymbolAndName","wptx1_DisplayMode":"SymbolAndName","ctx_CreationTimeExtension":"2020-07-19T09:03:52Z","ctx_CreationTime":"2020-07-19T09:03:52Z","sym":"Flag, Blue"},"geometry":{"type":"Point","coordinates":[-6.957433009520173,61.63014801219106,37.12545]}},{"type":"Feature","properties":{"name":"WP2_SV","type":"user","time":"2020-08-29T18:47:09Z","gpxx_WaypointExtension":"SymbolAndName","gpxx_DisplayMode":"SymbolAndName","wptx1_WaypointExtension":"SymbolAndName","wptx1_DisplayMode":"SymbolAndName","ctx_CreationTimeExtension":"2020-08-29T18:47:09Z","ctx_CreationTime":"2020-08-29T18:47:09Z","sym":"Flag, Blue"},"geometry":{"type":"Point","coordinates":[-6.978219458833337,61.63283424451947,170.2734375]}},{"type":"Feature","properties":{"name":"WP3 05_SV","type":"user","time":"2020-07-19T08:33:40Z","gpxx_WaypointExtension":"SymbolAndName","gpxx_DisplayMode":"SymbolAndName","wptx1_WaypointExtension":"SymbolAndName","wptx1_DisplayMode":"SymbolAndName","ctx_CreationTimeExtension":"2020-07-19T08:33:40Z","ctx_CreationTime":"2020-07-19T08:33:40Z","sym":"Flag, Blue"},"geometry":{"type":"Point","coordinates":[-6.98230798356235,61.63068504072726,267.103333]}},{"type":"Feature","properties":{"name":"WP4 23_SV","type":"user","time":"2020-07-19T09:41:54Z","gpxx_WaypointExtension":"SymbolAndName","gpxx_DisplayMode":"SymbolAndName","wptx1_WaypointExtension":"SymbolAndName","wptx1_DisplayMode":"SymbolAndName","ctx_CreationTimeExtension":"2020-07-19T09:41:54Z","ctx_CreationTime":"2020-07-19T09:41:54Z","sym":"Flag, Blue"},"geometry":{"type":"Point","coordinates":[-6.959130009636283,61.622537998482585,343.865875]}},{"type":"Feature","properties":{"name":"WP5 58_SV","type":"user","time":"2020-07-19T10:16:46Z","gpxx_WaypointExtension":"SymbolAndName","gpxx_DisplayMode":"SymbolAndName","wptx1_WaypointExtension":"SymbolAndName","wptx1_DisplayMode":"SymbolAndName","ctx_CreationTimeExtension":"2020-07-19T10:16:46Z","ctx_CreationTime":"2020-07-19T10:16:46Z","sym":"Flag, Blue"},"geometry":{"type":"Point","coordinates":[-6.950235972180963,61.606769040226936,130.596664]}}]}