{"type":"FeatureCollection","features":[{"type":"Feature","properties":{"_gpxType":"trk","name":"24 Wanderung Nes Trongisvágur CS","time":"2020-07-19T13:11:59Z","gpxx_TrackExtension":"Blue","gpxx_DisplayColor":"Blue","coordinateProperties":{"times":["2020-07-19T13:11:59Z","2020-07-19T13:12:27Z","2020-07-19T13:12:35Z","2020-07-19T13:12:44Z","2020-07-19T13:12:53Z","2020-07-19T13:13:02Z","2020-07-19T13:13:15Z","2020-07-19T13:13:26Z","2020-07-19T13:13:35Z","2020-07-19T13:13:44Z","2020-07-19T13:13:59Z","2020-07-19T13:14:13Z","2020-07-19T13:14:27Z","2020-07-19T13:14:39Z","2020-07-19T13:14:52Z","2020-07-19T13:15:04Z","2020-07-19T13:15:19Z","2020-07-19T13:15:42Z","2020-07-19T13:16:35Z","2020-07-19T13:17:16Z","2020-07-19T13:18:15Z","2020-07-19T13:19:12Z","2020-07-19T13:19:31Z","2020-07-19T13:19:48Z","2020-07-19T13:19:58Z","2020-07-19T13:20:08Z","2020-07-19T13:20:17Z","2020-07-19T13:20:27Z","2020-07-19T13:21:31Z","2020-07-19T13:21:52Z","2020-07-19T13:22:00Z","2020-07-19T13:22:09Z","2020-07-19T13:22:18Z","2020-07-19T13:22:28Z","2020-07-19T13:22:39Z","2020-07-19T13:22:49Z","2020-07-19T13:23:00Z","2020-07-19T13:23:12Z","2020-07-19T13:23:22Z","2020-07-19T13:23:30Z","2020-07-19T13:23:40Z","2020-07-19T13:23:57Z","2020-07-19T13:24:06Z","2020-07-19T13:24:16Z","2020-07-19T13:24:27Z","2020-07-19T13:24:38Z","2020-07-19T13:24:51Z","2020-07-19T13:25:04Z","2020-07-19T13:25:17Z","2020-07-19T13:25:36Z","2020-07-19T13:25:52Z","2020-07-19T13:26:12Z","2020-07-19T13:26:28Z","2020-07-19T13:26:40Z","2020-07-19T13:26:50Z","2020-07-19T13:27:01Z","2020-07-19T13:27:10Z","2020-07-19T13:27:20Z","2020-07-19T13:27:33Z","2020-07-19T13:27:42Z","2020-07-19T13:27:51Z","2020-07-19T13:28:34Z","2020-07-19T13:28:47Z","2020-07-19T13:28:58Z","2020-07-19T13:29:17Z","2020-07-19T13:29:26Z","2020-07-19T13:29:36Z","2020-07-19T13:29:46Z","2020-07-19T13:29:57Z","2020-07-19T13:30:09Z","2020-07-19T13:30:22Z","2020-07-19T13:30:50Z","2020-07-19T13:31:02Z","2020-07-19T13:31:12Z","2020-07-19T13:31:26Z","2020-07-19T13:31:37Z","2020-07-19T13:31:51Z","2020-07-19T13:32:06Z","2020-07-19T13:32:35Z","2020-07-19T13:32:45Z","2020-07-19T13:32:59Z","2020-07-19T13:33:13Z","2020-07-19T13:33:35Z","2020-07-19T13:33:49Z","2020-07-19T13:34:18Z","2020-07-19T13:34:31Z","2020-07-19T13:34:45Z","2020-07-19T13:35:00Z","2020-07-19T13:35:14Z","2020-07-19T13:35:26Z","2020-07-19T13:36:24Z","2020-07-19T13:36:46Z","2020-07-19T13:37:15Z","2020-07-19T13:38:33Z","2020-07-19T13:39:16Z","2020-07-19T13:39:28Z","2020-07-19T13:39:56Z","2020-07-19T13:42:58Z","2020-07-19T13:43:14Z","2020-07-19T13:43:29Z","2020-07-19T13:43:42Z","2020-07-19T13:43:58Z","2020-07-19T13:44:16Z","2020-07-19T13:44:36Z","2020-07-19T13:44:55Z","2020-07-19T13:45:18Z","2020-07-19T13:45:28Z","2020-07-19T13:45:38Z","2020-07-19T13:45:46Z","2020-07-19T13:45:56Z","2020-07-19T13:46:06Z","2020-07-19T13:46:17Z","2020-07-19T13:46:36Z","2020-07-19T13:46:58Z","2020-07-19T13:47:24Z","2020-07-19T13:47:49Z","2020-07-19T13:48:14Z","2020-07-19T13:48:32Z","2020-07-19T13:48:45Z","2020-07-19T13:49:01Z","2020-07-19T13:49:19Z","2020-07-19T13:49:32Z","2020-07-19T13:49:42Z","2020-07-19T13:50:00Z","2020-07-19T13:51:18Z","2020-07-19T13:51:27Z","2020-07-19T13:51:36Z","2020-07-19T13:51:46Z","2020-07-19T13:51:55Z","2020-07-19T13:52:05Z","2020-07-19T13:52:15Z","2020-07-19T13:52:27Z","2020-07-19T13:52:38Z","2020-07-19T13:52:47Z","2020-07-19T13:53:17Z","2020-07-19T13:53:27Z","2020-07-19T13:53:42Z","2020-07-19T13:54:23Z","2020-07-19T13:54:32Z","2020-07-19T13:54:43Z","2020-07-19T13:55:16Z","2020-07-19T13:55:25Z","2020-07-19T13:55:33Z","2020-07-19T13:55:43Z","2020-07-19T13:55:51Z","2020-07-19T13:55:58Z","2020-07-19T13:56:04Z","2020-07-19T13:56:11Z","2020-07-19T13:56:18Z","2020-07-19T13:56:26Z","2020-07-19T13:56:34Z","2020-07-19T13:56:43Z","2020-07-19T13:56:51Z","2020-07-19T13:56:59Z","2020-07-19T13:57:07Z","2020-07-19T13:57:14Z","2020-07-19T13:57:22Z","2020-07-19T13:57:31Z","2020-07-19T13:57:43Z","2020-07-19T13:57:52Z","2020-07-19T13:58:02Z","2020-07-19T13:58:12Z","2020-07-19T13:58:21Z","2020-07-19T13:58:31Z","2020-07-19T13:58:40Z","2020-07-19T13:58:49Z","2020-07-19T13:58:59Z","2020-07-19T13:59:08Z","2020-07-19T13:59:21Z","2020-07-19T13:59:30Z","2020-07-19T13:59:40Z","2020-07-19T13:59:49Z","2020-07-19T13:59:59Z","2020-07-19T14:00:10Z","2020-07-19T14:00:20Z","2020-07-19T14:00:30Z","2020-07-19T14:00:43Z","2020-07-19T14:00:57Z","2020-07-19T14:01:09Z","2020-07-19T14:01:24Z","2020-07-19T14:01:35Z","2020-07-19T14:01:52Z","2020-07-19T14:02:03Z","2020-07-19T14:02:13Z","2020-07-19T14:02:26Z","2020-07-19T14:02:41Z","2020-07-19T14:02:50Z","2020-07-19T14:02:59Z","2020-07-19T14:03:09Z","2020-07-19T14:03:18Z","2020-07-19T14:03:26Z","2020-07-19T14:03:35Z","2020-07-19T14:03:42Z","2020-07-19T14:03:49Z","2020-07-19T14:03:57Z","2020-07-19T14:04:05Z","2020-07-19T14:04:13Z","2020-07-19T14:04:21Z","2020-07-19T14:04:29Z","2020-07-19T14:04:37Z","2020-07-19T14:04:45Z","2020-07-19T14:04:53Z","2020-07-19T14:05:01Z","2020-07-19T14:05:09Z","2020-07-19T14:05:20Z","2020-07-19T14:06:54Z","2020-07-19T14:07:46Z","2020-07-19T14:08:22Z","2020-07-19T14:09:17Z","2020-07-19T14:09:25Z","2020-07-19T14:09:32Z","2020-07-19T14:09:40Z","2020-07-19T14:10:40Z","2020-07-19T14:10:47Z","2020-07-19T14:10:54Z","2020-07-19T14:11:01Z","2020-07-19T14:11:07Z","2020-07-19T14:11:13Z","2020-07-19T14:11:19Z","2020-07-19T14:11:26Z","2020-07-19T14:11:33Z","2020-07-19T14:11:40Z","2020-07-19T14:11:47Z","2020-07-19T14:11:55Z","2020-07-19T14:12:03Z","2020-07-19T14:12:10Z","2020-07-19T14:12:18Z","2020-07-19T14:12:26Z","2020-07-19T14:12:34Z","2020-07-19T14:12:41Z","2020-07-19T14:12:48Z","2020-07-19T14:12:55Z","2020-07-19T14:13:02Z","2020-07-19T14:13:10Z","2020-07-19T14:13:17Z","2020-07-19T14:13:39Z","2020-07-19T14:13:45Z","2020-07-19T14:13:51Z","2020-07-19T14:13:57Z","2020-07-19T14:14:04Z","2020-07-19T14:14:11Z","2020-07-19T14:14:19Z","2020-07-19T14:14:28Z","2020-07-19T14:14:36Z","2020-07-19T14:14:44Z","2020-07-19T14:14:53Z","2020-07-19T14:15:01Z","2020-07-19T14:15:09Z","2020-07-19T14:15:17Z","2020-07-19T14:15:25Z","2020-07-19T14:15:33Z","2020-07-19T14:15:52Z","2020-07-19T14:16:00Z","2020-07-19T14:16:07Z","2020-07-19T14:16:14Z","2020-07-19T14:16:22Z","2020-07-19T14:16:29Z","2020-07-19T14:16:36Z","2020-07-19T14:16:44Z","2020-07-19T14:17:01Z","2020-07-19T14:17:08Z","2020-07-19T14:17:15Z","2020-07-19T14:17:23Z","2020-07-19T14:17:30Z","2020-07-19T14:17:36Z","2020-07-19T14:17:43Z","2020-07-19T14:17:51Z","2020-07-19T14:17:59Z","2020-07-19T14:18:08Z","2020-07-19T14:18:16Z","2020-07-19T14:18:29Z","2020-07-19T14:18:38Z","2020-07-19T14:18:46Z","2020-07-19T14:18:53Z","2020-07-19T14:19:01Z","2020-07-19T14:19:08Z","2020-07-19T14:19:14Z","2020-07-19T14:19:20Z","2020-07-19T14:19:42Z","2020-07-19T14:19:51Z","2020-07-19T14:19:58Z","2020-07-19T14:20:06Z","2020-07-19T14:21:59Z","2020-07-19T14:24:21Z","2020-07-19T14:24:27Z","2020-07-19T14:24:33Z","2020-07-19T14:24:40Z","2020-07-19T14:24:57Z","2020-07-19T14:25:04Z","2020-07-19T14:25:12Z","2020-07-19T14:25:19Z","2020-07-19T14:25:26Z","2020-07-19T14:25:34Z","2020-07-19T14:25:42Z","2020-07-19T14:25:48Z","2020-07-19T14:25:53Z","2020-07-19T14:26:00Z","2020-07-19T14:26:06Z","2020-07-19T14:26:14Z","2020-07-19T14:26:22Z","2020-07-19T14:26:30Z","2020-07-19T14:26:37Z","2020-07-19T14:26:45Z","2020-07-19T14:26:52Z","2020-07-19T14:27:03Z","2020-07-19T14:27:15Z","2020-07-19T14:27:24Z","2020-07-19T14:27:32Z","2020-07-19T14:27:39Z","2020-07-19T14:27:45Z","2020-07-19T14:27:52Z","2020-07-19T14:28:00Z","2020-07-19T14:28:07Z","2020-07-19T14:28:15Z","2020-07-19T14:28:22Z","2020-07-19T14:28:30Z","2020-07-19T14:28:39Z","2020-07-19T14:28:48Z","2020-07-19T14:28:56Z","2020-07-19T14:29:16Z","2020-07-19T14:29:24Z","2020-07-19T14:29:32Z","2020-07-19T14:29:40Z","2020-07-19T14:29:48Z","2020-07-19T14:29:57Z","2020-07-19T14:30:05Z","2020-07-19T14:30:11Z","2020-07-19T14:30:19Z","2020-07-19T14:30:28Z","2020-07-19T14:30:37Z","2020-07-19T14:30:45Z","2020-07-19T14:30:54Z","2020-07-19T14:31:02Z","2020-07-19T14:31:09Z","2020-07-19T14:31:16Z","2020-07-19T14:31:24Z","2020-07-19T14:31:30Z","2020-07-19T14:31:37Z","2020-07-19T14:31:44Z","2020-07-19T14:31:51Z","2020-07-19T14:31:59Z","2020-07-19T14:32:06Z","2020-07-19T14:32:14Z","2020-07-19T14:32:23Z","2020-07-19T14:32:32Z","2020-07-19T14:32:39Z","2020-07-19T14:32:47Z","2020-07-19T14:32:53Z","2020-07-19T14:33:00Z","2020-07-19T14:33:35Z","2020-07-19T14:33:47Z","2020-07-19T14:33:54Z","2020-07-19T14:34:01Z","2020-07-19T14:34:08Z","2020-07-19T14:34:16Z","2020-07-19T14:34:23Z","2020-07-19T14:34:29Z","2020-07-19T14:34:38Z","2020-07-19T14:36:52Z","2020-07-19T14:36:59Z","2020-07-19T14:37:06Z","2020-07-19T14:37:13Z","2020-07-19T14:37:20Z","2020-07-19T14:37:28Z","2020-07-19T14:37:34Z","2020-07-19T14:37:40Z","2020-07-19T14:37:46Z","2020-07-19T14:37:53Z","2020-07-19T14:38:01Z","2020-07-19T14:38:07Z","2020-07-19T14:38:26Z","2020-07-19T14:38:43Z","2020-07-19T14:38:50Z","2020-07-19T14:38:57Z","2020-07-19T14:39:04Z","2020-07-19T14:39:11Z","2020-07-19T14:39:19Z","2020-07-19T14:39:37Z","2020-07-19T14:39:45Z","2020-07-19T14:39:52Z","2020-07-19T14:39:59Z","2020-07-19T14:40:10Z","2020-07-19T14:40:19Z","2020-07-19T14:40:27Z","2020-07-19T14:40:35Z","2020-07-19T14:40:44Z","2020-07-19T14:40:55Z","2020-07-19T14:41:05Z","2020-07-19T14:41:14Z","2020-07-19T14:41:25Z","2020-07-19T14:41:36Z","2020-07-19T14:41:46Z","2020-07-19T14:41:54Z","2020-07-19T14:42:03Z","2020-07-19T14:42:13Z","2020-07-19T14:42:24Z","2020-07-19T14:42:37Z","2020-07-19T14:42:47Z","2020-07-19T14:42:58Z","2020-07-19T15:03:42Z","2020-07-19T15:04:05Z","2020-07-19T15:04:17Z","2020-07-19T15:04:28Z","2020-07-19T15:04:42Z","2020-07-19T15:04:54Z","2020-07-19T15:05:09Z","2020-07-19T15:05:19Z","2020-07-19T15:05:53Z","2020-07-19T15:06:26Z","2020-07-19T15:06:47Z","2020-07-19T15:07:07Z","2020-07-19T15:07:22Z","2020-07-19T15:07:46Z","2020-07-19T15:07:59Z","2020-07-19T15:08:15Z","2020-07-19T15:08:26Z","2020-07-19T15:08:41Z","2020-07-19T15:08:55Z","2020-07-19T15:09:08Z","2020-07-19T15:09:19Z","2020-07-19T15:09:39Z","2020-07-19T15:09:51Z","2020-07-19T15:10:06Z","2020-07-19T15:10:19Z","2020-07-19T15:10:35Z","2020-07-19T15:10:47Z","2020-07-19T15:10:59Z","2020-07-19T15:11:16Z","2020-07-19T15:11:32Z","2020-07-19T15:11:47Z","2020-07-19T15:12:03Z","2020-07-19T15:12:17Z","2020-07-19T15:12:35Z","2020-07-19T15:12:52Z","2020-07-19T15:13:03Z","2020-07-19T15:13:19Z","2020-07-19T15:13:36Z","2020-07-19T15:13:55Z","2020-07-19T15:14:15Z","2020-07-19T15:14:26Z","2020-07-19T15:14:37Z","2020-07-19T15:15:03Z","2020-07-19T15:15:16Z","2020-07-19T15:15:27Z","2020-07-19T15:15:37Z","2020-07-19T15:15:46Z","2020-07-19T15:15:58Z","2020-07-19T15:16:15Z","2020-07-19T15:16:54Z","2020-07-19T15:17:56Z","2020-07-19T15:18:09Z","2020-07-19T15:18:21Z","2020-07-19T15:18:31Z","2020-07-19T15:18:41Z","2020-07-19T15:18:52Z","2020-07-19T15:19:04Z","2020-07-19T15:19:15Z","2020-07-19T15:19:26Z","2020-07-19T15:19:39Z","2020-07-19T15:19:50Z","2020-07-19T15:20:01Z","2020-07-19T15:20:12Z","2020-07-19T15:20:25Z","2020-07-19T15:20:34Z","2020-07-19T15:20:50Z","2020-07-19T15:21:08Z","2020-07-19T15:21:27Z","2020-07-19T15:21:40Z","2020-07-19T15:21:57Z","2020-07-19T15:22:06Z","2020-07-19T15:22:18Z","2020-07-19T15:22:34Z","2020-07-19T15:22:47Z","2020-07-19T15:23:04Z","2020-07-19T15:23:14Z","2020-07-19T15:23:25Z","2020-07-19T15:23:39Z","2020-07-19T15:23:50Z","2020-07-19T15:24:04Z","2020-07-19T15:24:14Z","2020-07-19T15:26:04Z","2020-07-19T15:26:27Z","2020-07-19T15:26:38Z","2020-07-19T15:26:49Z","2020-07-19T15:26:59Z","2020-07-19T15:27:09Z","2020-07-19T15:27:20Z","2020-07-19T15:27:29Z","2020-07-19T15:27:40Z","2020-07-19T15:27:51Z","2020-07-19T15:28:00Z","2020-07-19T15:28:11Z","2020-07-19T15:28:18Z","2020-07-19T15:28:26Z","2020-07-19T15:28:35Z","2020-07-19T15:28:44Z","2020-07-19T15:28:54Z","2020-07-19T15:29:05Z","2020-07-19T15:29:15Z","2020-07-19T15:29:25Z","2020-07-19T15:29:38Z","2020-07-19T15:29:48Z","2020-07-19T15:29:57Z","2020-07-19T15:30:07Z","2020-07-19T15:30:16Z","2020-07-19T15:30:30Z","2020-07-19T15:30:53Z","2020-07-19T15:31:19Z","2020-07-19T15:31:30Z","2020-07-19T15:31:36Z","2020-07-19T15:31:43Z","2020-07-19T15:31:50Z","2020-07-19T15:31:57Z","2020-07-19T15:32:04Z","2020-07-19T15:32:11Z","2020-07-19T15:32:18Z","2020-07-19T15:32:25Z","2020-07-19T15:32:32Z","2020-07-19T15:32:38Z","2020-07-19T15:32:44Z","2020-07-19T15:32:51Z","2020-07-19T15:32:58Z","2020-07-19T15:33:06Z","2020-07-19T15:33:14Z"]}},"geometry":{"type":"LineString","coordinates":[[-6.935481308028102,61.59059037454426,-1.17],[-6.935313334688544,61.590517619624734,-1.84],[-6.935154749080539,61.59046028740704,-1.46],[-6.934980656951666,61.59041594713926,-0.67],[-6.934815868735313,61.59036356024444,0.05],[-6.934626772999764,61.59031653776765,1.94],[-6.934445556253195,61.590263564139605,4.22],[-6.934250174090266,61.590275298804045,6.67],[-6.934047918766737,61.590249482542276,7.83],[-6.933877095580101,61.59019818529487,9.37],[-6.9337148219347,61.590137500315905,12.56],[-6.933555398136377,61.59008075483143,15.5],[-6.933393962681294,61.5900098439306,18.1],[-6.933242501690984,61.589939603582025,20.01],[-6.933086849749088,61.58986886031926,22.56],[-6.932947123423219,61.58979711122811,23.56],[-6.932798009365797,61.58973231911659,25.74],[-6.932591646909714,61.58968387171626,30.09],[-6.932453513145447,61.58970004878938,33.13],[-6.932496512308717,61.58965663053095,31.32],[-6.932387631386519,61.58974103629589,35.27],[-6.932228961959481,61.589796021580696,38.75],[-6.932050259783864,61.589749082922935,42.17],[-6.931892177090049,61.589705077931285,45.06],[-6.931807938963175,61.589620001614094,46.51],[-6.931680282577872,61.58954246900976,47.62],[-6.931559583172202,61.58946426585317,48.21],[-6.931431004777551,61.58938581123948,49.1],[-6.931368140503764,61.58937407657504,49.32],[-6.931272251531482,61.58929092809558,49.91],[-6.931138979271054,61.589219430461526,50.26],[-6.931012328714132,61.58913209103048,51.26],[-6.930891713127494,61.58906176686287,52.26],[-6.930786017328501,61.588976606726646,53.25],[-6.930642267689109,61.588909635320306,53.96],[-6.930534644052386,61.58882522955537,54.75],[-6.93041461519897,61.58876337110996,55.66],[-6.930311769247055,61.58869723789394,56.45],[-6.930224094539881,61.58861358650029,57.52],[-6.930135078728199,61.588519206270576,58.18],[-6.929999040439725,61.58845089375973,59.53],[-6.929899295791984,61.58836833201349,61.62],[-6.929762251675129,61.58830353990197,63.17],[-6.929663931950927,61.58823346719146,65.03],[-6.92958883009851,61.588156186044216,66.95],[-6.929453546181321,61.588094830513,69.48],[-6.929294792935252,61.58802350051701,71.54],[-6.929180882871151,61.58793658018112,73.17],[-6.929055908694863,61.58786256797612,75.49],[-6.92887544631958,61.587879583239555,78.79],[-6.928687104955316,61.58793448470533,81.76],[-6.928498931229115,61.5880015399307,84.62],[-6.928265579044819,61.587989553809166,88.52],[-6.928180335089564,61.58790581859648,90.48],[-6.928136497735977,61.58781562931836,91.98],[-6.928118392825127,61.587721668183804,93.24],[-6.928166504949331,61.587633322924376,94.26],[-6.928235990926623,61.58755084499717,95.29],[-6.928263567388058,61.587465265765786,95.74],[-6.928276978433132,61.58737163990736,96.47],[-6.928232973441482,61.58728279173374,97.65],[-6.928137168288231,61.5872158203274,98.74],[-6.928112609311938,61.58712479285896,99.71],[-6.928083691745997,61.58702286891639,101.34],[-6.92805552855134,61.58691683784127,103.11],[-6.927983108907938,61.58682648092508,104.97],[-6.927916137501597,61.58673796802759,107.06],[-6.927837515249848,61.58665280789137,108.23],[-6.927733076736331,61.586585668846965,110.08],[-6.92759670317173,61.58650729805231,112.51],[-6.927436189725995,61.5864422544837,115],[-6.927279867231846,61.58637570217252,116.67],[-6.92712027579546,61.58629850484431,119.45],[-6.926974933594465,61.58622516319156,121.57],[-6.926786256954074,61.58616271801293,124.52],[-6.926615433767438,61.586102368310094,126.53],[-6.926437905058265,61.58604562282562,129.36],[-6.92625685594976,61.58598963171244,131.38],[-6.926059881225228,61.585933808237314,134.16],[-6.925898194313049,61.5858843550086,136.88],[-6.925708008930087,61.58585149794817,139.89],[-6.925542717799544,61.585811683908105,143.76],[-6.925370218232274,61.585754100233316,146.22],[-6.925180619582534,61.58570037223399,149.25],[-6.924996804445982,61.58567958511412,151.61],[-6.924839811399579,61.585622085258365,152.88],[-6.924637136980891,61.585586462169886,156.34],[-6.924448125064373,61.58554228954017,159.91],[-6.924263052642345,61.58549476414919,163.23],[-6.924111004918814,61.58542293123901,165.49],[-6.923933392390609,61.585388984531164,168.27],[-6.923768101260066,61.5854474902153,172.08],[-6.923550507053733,61.585457464680076,176.52],[-6.923406254500151,61.585469199344516,179.66],[-6.923604737967253,61.585496021434665,180.7],[-6.92373507656157,61.58557640388608,182.48],[-6.923792492598295,61.58565854653716,185.44],[-6.92378930747509,61.585695426911116,187.42],[-6.923734238371253,61.58570841886103,189.71],[-6.923606414347887,61.58567748963833,192.58],[-6.923680678009987,61.58575234003365,195.68],[-6.923733903095126,61.58583917655051,198.47],[-6.923878155648708,61.585905561223626,201.73],[-6.92377757281065,61.5859120991081,204.65],[-6.923578921705484,61.5858618915081,208.11],[-6.923452522605658,61.58581059426069,209],[-6.923315059393644,61.58573515713215,210.41],[-6.92313895560801,61.585693499073386,210.83],[-6.922967042773962,61.5856425371021,210.95],[-6.922794794663787,61.58559434115887,210.93],[-6.922606285661459,61.585543882101774,212.4],[-6.92240646108985,61.585500463843346,214.18],[-6.922170845791698,61.58547624014318,218.19],[-6.922004967927933,61.58540382049978,221.26],[-6.921886615455151,61.58543952740729,223.08],[-6.921899439767003,61.58548990264535,225.02],[-6.921871611848474,61.58557062037289,229.3],[-6.921717803925276,61.58551228232682,233.09],[-6.92163591273129,61.585498452186584,235.09],[-6.92150398157537,61.58549468033016,238.51],[-6.921388311311603,61.58550934866071,243.27],[-6.921242047101259,61.58553105778992,245.85],[-6.921056471765041,61.58550264313817,246.91],[-6.920923534780741,61.58545268699527,248.04],[-6.92071926780045,61.58538479357958,250.37],[-6.920542912557721,61.58532419241965,250.87],[-6.920412825420499,61.58525872975588,252.77],[-6.920264549553394,61.585200475528836,254.92],[-6.920131025835872,61.58513819798827,256.5],[-6.91997554153204,61.58508740365505,258.2],[-6.919822739437223,61.58502487465739,260.29],[-6.919655939564109,61.58497198484838,261.99],[-6.919463407248259,61.58494055271149,263.64],[-6.91927288658917,61.58491129986942,265.23],[-6.919095190241933,61.58486989326775,267.82],[-6.91893232986331,61.58482052385807,269.56],[-6.91875547170639,61.584786493331194,272.74],[-6.918574506416917,61.58474341034889,274.55],[-6.91840854473412,61.58469990827143,276.83],[-6.918283654376864,61.584630673751235,279.58],[-6.918087182566524,61.58461726270616,280.73],[-6.917906049638987,61.584587255492806,282.22],[-6.91773371770978,61.58454350195825,283],[-6.917543699964881,61.584517853334546,284.39],[-6.917364746332169,61.584469405934215,286],[-6.917191576212645,61.58440310508013,285.94],[-6.917048078030348,61.584343845024705,286.26],[-6.916893348097801,61.58427578397095,286.4],[-6.916700815781951,61.584228090941906,286.31],[-6.916552539914846,61.584180649369955,287.43],[-6.916401414200664,61.584130860865116,288.46],[-6.916263028979302,61.58407034352422,290.32],[-6.916100755333901,61.58400932326913,290.81],[-6.915933955460787,61.583952410146594,291.68],[-6.91582121886313,61.58387596718967,292.94],[-6.915658358484507,61.58382182009518,293.37],[-6.915502790361643,61.58376733772457,293.88],[-6.915358873084188,61.58370648510754,294.89],[-6.915255859494209,61.58362543210387,296.07],[-6.915079671889544,61.58357807435095,296.83],[-6.914918906986713,61.58351261168718,297.58],[-6.914748754352331,61.58345569856465,298.15],[-6.914598383009434,61.58339727669954,298.87],[-6.914420183748007,61.5833511762321,300.02],[-6.914314571768045,61.58327096141875,301.26],[-6.91419655457139,61.58318638801575,302.23],[-6.914034951478243,61.583125200122595,302.92],[-6.91384669393301,61.583087146282196,304.08],[-6.913686348125339,61.5830316580832,305.58],[-6.913521559908986,61.582981534302235,306.9],[-6.913382839411497,61.582909282296896,308.71],[-6.913220901042223,61.58284557983279,309.35],[-6.913041109219194,61.582852033898234,310.51],[-6.912859976291657,61.58282110467553,312.17],[-6.912688231095672,61.58277232199907,314.04],[-6.912517575547099,61.582713229581714,315.8],[-6.912359828129411,61.58266109414399,317.47],[-6.912193028256297,61.582621866837144,319.59],[-6.912004686892033,61.58258414827287,321.37],[-6.911858590319753,61.58253435976803,323.37],[-6.91170109435916,61.58248197287321,325.17],[-6.911525577306747,61.58242338337004,328.33],[-6.911387611180544,61.58235817216337,330.56],[-6.911218129098415,61.582315089181066,332.12],[-6.911047892645001,61.582273095846176,334.35],[-6.910889390856028,61.582218278199434,336.18],[-6.910695768892765,61.582189528271556,337.83],[-6.910515055060387,61.58216253854334,338.57],[-6.9103451538831,61.58211920410395,340.42],[-6.910179359838367,61.582071678712964,341.09],[-6.910018678754568,61.58202423714101,341.02],[-6.909857746213675,61.58195173367858,341.79],[-6.909703519195318,61.58189071342349,342.3],[-6.909570498391986,61.58182114362717,342.71],[-6.90940897911787,61.58177328296006,343.35],[-6.909239077940583,61.58171477727592,343.64],[-6.909066243097186,61.58166842535138,344.48],[-6.9089100882411,61.58161302097142,345.42],[-6.908759213984013,61.58153926022351,345.69],[-6.908589145168662,61.58146818168461,346.36],[-6.908438773825765,61.5814102627337,346.7],[-6.908266106620431,61.5813515894115,347.6],[-6.908125039190054,61.58127028495073,347.13],[-6.907954383641481,61.58121186308563,346.93],[-6.90782924182713,61.58114103600383,346.55],[-6.907857656478882,61.58112318255007,346.15],[-6.907859249040484,61.58113776706159,346.29],[-6.907767383381724,61.5811184886843,346.51],[-6.907686330378056,61.581084625795484,346.54],[-6.907514669001102,61.58101849257946,346.5],[-6.907322723418474,61.58095629885793,345.67],[-6.907153073698282,61.5808922611177,345.89],[-6.906990548595786,61.58083870075643,345.47],[-6.906796339899302,61.5807886607945,344.86],[-6.906616296619177,61.58073325641453,344.72],[-6.906446311622858,61.580673241987824,344.65],[-6.906282026320696,61.58061934635043,344.08],[-6.906145485118032,61.580561846494675,344.25],[-6.905992263928056,61.58049336634576,344.05],[-6.905839629471302,61.5804292447865,344.17],[-6.905685570091009,61.58037685789168,344.24],[-6.905520278960466,61.58033335581422,343.22],[-6.905350042507052,61.58029865473509,342.06],[-6.905164215713739,61.58024903386831,340.92],[-6.905053658410907,61.580175859853625,340.67],[-6.90489649772644,61.580107379704714,339.79],[-6.904741683974862,61.58004669472575,339.23],[-6.904637245461345,61.57997871749103,339.36],[-6.904493579640985,61.57992054708302,340.21],[-6.904362486675382,61.57984904944897,341.1],[-6.904223598539829,61.579771265387535,341.03],[-6.904094433411956,61.57969683408737,341.51],[-6.903930734843016,61.57962542027235,341.15],[-6.903793187811971,61.579547971487045,341.35],[-6.903659328818321,61.57947923988104,341.91],[-6.903552375733852,61.57940363511443,342.44],[-6.903435280546546,61.579329119995236,342.85],[-6.903307037428021,61.57926281914115,343.21],[-6.903203269466758,61.579190818592906,343.78],[-6.903077121824026,61.57912451773882,345.52],[-6.902918620035052,61.57907263375819,345.25],[-6.902805548161268,61.57900574617088,346.42],[-6.902651153504849,61.57893190160394,348.06],[-6.902535315603018,61.578856967389584,348.65],[-6.902390895411372,61.57879829406738,349.82],[-6.90221143886447,61.578740291297436,350.57],[-6.902083782479167,61.57866468653083,351.72],[-6.901972806081176,61.578583465889096,352.55],[-6.901834504678845,61.578519847244024,353.2],[-6.901677679270506,61.57844575121999,353.5],[-6.901536276564002,61.57837802544236,354.23],[-6.901393365114927,61.57829378731549,354.78],[-6.901247771456838,61.578230587765574,355.66],[-6.901097064837813,61.57817015424371,356.78],[-6.900933785364032,61.57810242846608,357.73],[-6.900775283575058,61.57804082147777,358.72],[-6.900634383782744,61.57796957530081,359.36],[-6.900488035753369,61.57789866439998,360.1],[-6.900395918637514,61.5778181143105,361.66],[-6.900299610570073,61.577756172046065,361.87],[-6.900108503177762,61.57772155478597,363.01],[-6.899967351928353,61.577656511217356,363.06],[-6.899798372760415,61.577599262818694,363.1],[-6.899633333086968,61.577529441565275,363.21],[-6.899477681145072,61.57746288925409,363.69],[-6.89932563342154,61.577395498752594,364],[-6.899187667295337,61.5773262642324,363.11],[-6.899014497175813,61.577286031097174,363.56],[-6.898893965408206,61.57720489427447,364.27],[-6.898716185241938,61.577172707766294,364.05],[-6.898535303771496,61.57715066336095,362.86],[-6.898372862488031,61.57709836028516,363.95],[-6.898170355707407,61.577063826844096,364.56],[-6.897974470630288,61.57703130505979,364.21],[-6.897757379338145,61.57702401280403,363.85],[-6.897533079609275,61.576999789103866,363.34],[-6.897337781265378,61.5769705362618,362.92],[-6.897152289748192,61.57693843357265,362.2],[-6.896981215104461,61.576927956193686,361.17],[-6.896762447431684,61.576919658109546,360.6],[-6.896570082753897,61.57692418433726,360.21],[-6.896373694762588,61.576913706958294,361.63],[-6.896276297047734,61.57684371806681,361.03],[-6.896123830229044,61.5768545307219,361.36],[-6.895951582118869,61.576813040301204,361.87],[-6.895774975419045,61.576770041137934,362.26],[-6.895595854148269,61.57674791291356,362.71],[-6.895449087023735,61.5767390280962,363.62],[-6.895258398726583,61.57671866007149,364.16],[-6.895053293555975,61.576686054468155,364.16],[-6.894850870594382,61.576651856303215,363.75],[-6.894674180075526,61.57664087601006,363.21],[-6.894494807347655,61.57660659402609,362.66],[-6.894304538145661,61.57654465176165,363.5],[-6.894125919789076,61.576497964560986,363.02],[-6.893979152664542,61.57644524239004,362.68],[-6.893836576491594,61.576383048668504,362.19],[-6.893684696406126,61.576335690915585,362.2],[-6.893532816320658,61.57630702480674,361.81],[-6.89334824681282,61.57626788131893,361.03],[-6.893160324543715,61.57622697763145,360.29],[-6.89298908226192,61.57617132179439,360.21],[-6.892857905477285,61.576111977919936,360.77],[-6.892685992643237,61.57605514861643,361.27],[-6.892542745918036,61.57598943449557,362.67],[-6.892389860004187,61.575933108106256,361.93],[-6.892190454527736,61.57590662129223,361.13],[-6.891971938312054,61.57586915418506,360.25],[-6.891770018264651,61.57584384083748,359.91],[-6.891597853973508,61.575792375952005,359.93],[-6.891398280858994,61.57575490884483,359.57],[-6.891199462115765,61.575727919116616,359.52],[-6.891009863466024,61.57570612616837,360.09],[-6.89082789234817,61.57567989081144,360.25],[-6.890668384730816,61.5756129194051,360.68],[-6.890497477725148,61.57556195743382,361.69],[-6.890325983986259,61.57551560550928,362.92],[-6.89016723074019,61.575460033491254,364.08],[-6.889987355098128,61.575441006571054,364.11],[-6.889788620173931,61.57541158609092,364.22],[-6.889566164463759,61.575403958559036,364.07],[-6.889360304921866,61.57540622167289,363.77],[-6.889144135639072,61.57538794912398,364.35],[-6.888946490362287,61.5753610432148,364.55],[-6.888743732124567,61.57535567879677,363.06],[-6.888513145968318,61.57534746453166,361.88],[-6.888340478762984,61.575312092900276,361.65],[-6.888127913698554,61.57528258860111,361.58],[-6.887940410524607,61.575253922492266,362.48],[-6.88773044385016,61.57520170323551,363.3],[-6.887556100264192,61.57514898106456,363.57],[-6.887346636503935,61.57513917423785,363.04],[-6.88714262098074,61.575125344097614,362.53],[-6.886917483061552,61.57512852922082,362.11],[-6.886698799207807,61.575117548927665,362.07],[-6.886506183072925,61.5751086641103,361.75],[-6.88633251003921,61.57505560666323,361.65],[-6.886135954409838,61.57501420006156,361.5],[-6.885929591953754,61.57499626278877,361.64],[-6.885727252811194,61.57500355504453,361.61],[-6.885508736595511,61.57500539906323,361.09],[-6.885312767699361,61.57497178763151,360.33],[-6.885149488225579,61.57494152896106,360.37],[-6.884965505450964,61.57493205741048,360.86],[-6.88476056791842,61.57492568716407,361.36],[-6.884561749175191,61.57490238547325,360.58],[-6.884369133040309,61.57487975433469,361.4],[-6.88417911529541,61.57485703937709,360.35],[-6.883983984589577,61.57482644543052,360.31],[-6.883809138089418,61.57481043599546,360.47],[-6.883638147264719,61.57479249872267,361.56],[-6.883448632434011,61.57476014457643,361.42],[-6.883268672972918,61.57472653314471,361.82],[-6.883087372407317,61.5746976993978,362.03],[-6.882887380197644,61.57466157339513,362.13],[-6.882686130702496,61.574622597545385,362.11],[-6.88250751234591,61.574580520391464,361.79],[-6.882341969758272,61.574541041627526,361.67],[-6.882255971431732,61.57450416125357,362.16],[-6.882041059434414,61.57449192367494,361.99],[-6.88183662481606,61.574474489316344,361.96],[-6.881623975932598,61.57445713877678,361.99],[-6.881425073370338,61.5744439791888,362.37],[-6.88121167011559,61.57442185096443,362.72],[-6.881028944626451,61.57437709160149,362.73],[-6.880837669596076,61.574335768818855,362.59],[-6.880641030147672,61.5743004810065,362.23],[-6.880437852814794,61.57427541911602,361.99],[-6.880241548642516,61.57425815239549,361.63],[-6.880055973306298,61.574229737743735,361.37],[-6.879913648590446,61.574194030836225,361.39],[-6.879729833453894,61.57417919486761,360.08],[-6.879547946155071,61.57412295229733,359.1],[-6.879369327798486,61.57407618127763,358.49],[-6.879182914271951,61.57404139637947,358.08],[-6.879016701132059,61.573999151587486,357.21],[-6.878863731399179,61.57395405694842,356.04],[-6.878691148012877,61.57394517213106,355.91],[-6.878527449443936,61.573877362534404,353.8],[-6.878383615985513,61.57381667755544,352.8],[-6.87822125852108,61.57375263981521,351.15],[-6.878082789480686,61.57371341250837,349.31],[-6.877951445057988,61.5736426692456,347.89],[-6.877786070108414,61.57359170727432,346.49],[-6.877606781199575,61.57355189323425,345.06],[-6.877411231398583,61.57351518049836,344.15],[-6.877278629690409,61.57345759682357,342.34],[-6.877182237803936,61.57338316552341,340.23],[-6.877089366316795,61.57330303452909,338.15],[-6.877002026885748,61.573213431984186,335.7],[-6.876916531473398,61.5731228236109,333.06],[-6.876771105453372,61.57304705120623,330.73],[-6.876610843464732,61.572976894676685,328.43],[-6.876451252028346,61.572928531095386,326.56],[-6.876296522095799,61.5728741325438,324.19],[-6.876159142702818,61.57281059771776,321.63],[-6.876074569299817,61.572719821706414,318.15],[-6.876009609550238,61.572628961876035,315.81],[-6.875845324248076,61.572567941620946,314.32],[-6.875909026712179,61.57243232242763,307.17],[-6.875951020047069,61.57236384227872,305.64],[-6.875866614282131,61.57227113842964,301.96],[-6.875778855755925,61.572197545319796,299.87],[-6.87568380497396,61.57212168909609,297.15],[-6.875629993155599,61.57202328555286,295.39],[-6.875555980950594,61.57193083316088,292.98],[-6.875529745593667,61.57183175906539,291.27],[-6.87552941031754,61.57174249179661,288.66],[-6.875415584072471,61.571767469868064,286.9],[-6.875279294326901,61.57180401496589,284.06],[-6.87510771676898,61.5718019194901,279.47],[-6.875027921050787,61.571724973618984,276.29],[-6.874953238293529,61.57167015597224,273.84],[-6.874887607991695,61.57159480266273,269.57],[-6.874772356823087,61.57150796614587,265.55],[-6.874840836971998,61.57142037525773,262.79],[-6.874713180586696,61.57137871719897,260.54],[-6.874670265242457,61.57129825092852,257.72],[-6.874502040445805,61.571298418566585,253.6],[-6.874514948576689,61.57120839692652,250.93],[-6.874460550025106,61.57112407498062,248.15],[-6.874458370730281,61.57102986238897,247.42],[-6.874448480084539,61.57092676497996,244.94],[-6.874423753470182,61.57082718797028,243.57],[-6.874319231137633,61.57076398842037,241],[-6.87430439516902,61.570666674524546,238.96],[-6.874228706583381,61.570577742531896,236.76],[-6.874134410172701,61.570509262382984,233.55],[-6.87405277043581,61.57043633982539,231.13],[-6.873872978612781,61.570425275713205,227.56],[-6.873749596998096,61.57034447416663,223.61],[-6.873702071607113,61.57025403343141,221.22],[-6.87359444797039,61.57020575366914,217.88],[-6.873528817668557,61.57012118026614,214.7],[-6.87343267723918,61.5700317453593,212.19],[-6.873335698619485,61.56994960270822,209.53],[-6.873220279812813,61.56988816335797,205.61],[-6.873066388070583,61.56986025162041,201.67],[-6.872990280389786,61.56978506594896,197.75],[-6.872908053919673,61.569698648527265,195.79],[-6.872828509658575,61.569617008790374,193.88],[-6.872740667313337,61.56952841207385,190.04],[-6.872653160244227,61.569448532536626,187.38],[-6.872520307078958,61.569373682141304,185.53],[-6.872373456135392,61.569294640794396,183.31],[-6.87225996516645,61.56920629553497,181.63],[-6.8722521699965,61.569116776809096,179.62],[-6.872171871364117,61.569041926413774,177.21],[-6.872043292969465,61.56900747679174,174.29],[-6.871868865564466,61.56895726919174,171.31],[-6.871711118146777,61.56891812570393,168.01],[-6.87150944955647,61.56892256811261,165.09],[-6.871349774301052,61.568880155682564,163.58],[-6.871219351887703,61.568803042173386,161.27],[-6.871080379933119,61.56873766332865,158.25],[-6.870936378836632,61.56867907382548,155.7],[-6.870809979736805,61.568606151267886,153.13],[-6.870672767981887,61.56853700056672,150.74],[-6.870537148788571,61.568469777703285,148.28],[-6.870416617020965,61.56839140690863,145.86],[-6.870290469378233,61.56831655651331,143.23],[-6.870158454403281,61.568246399983764,140.63],[-6.870094919577241,61.56816593371332,136.63],[-6.870083101093769,61.56807918101549,134.66],[-6.870123501867056,61.5679890755564,132.33],[-6.870013196021318,61.5679111238569,127.94],[-6.87008117325604,61.56783048994839,126.74],[-6.87003624625504,61.56774432398379,123.9],[-6.8700020480901,61.56765698455274,121.11],[-6.869918145239353,61.5675797034055,119.18],[-6.869820998981595,61.56749915331602,116.97],[-6.869735838845372,61.56743863597512,113.68],[-6.869670543819666,61.567355655133724,110.99],[-6.869555460289121,61.56728130765259,107.7],[-6.869463846087456,61.56720109283924,105.26],[-6.869398802518845,61.56711501069367,103.09],[-6.869286065921187,61.56703152693808,101.36],[-6.869197301566601,61.56694125384092,99.91],[-6.869242396205664,61.566875372081995,97.86],[-6.869431743398309,61.56684243120253,97.09],[-6.86957792378962,61.56684192828834,98.74],[-6.869432413950563,61.566765904426575,96.2],[-6.869380613788962,61.56666347756982,93.88],[-6.869370806962252,61.56656985171139,91.75],[-6.869325712323189,61.566475136205554,89.48],[-6.869351696223021,61.56638067215681,87.68],[-6.869408693164587,61.56628453172743,85.84],[-6.869415482506156,61.566191744059324,84.46],[-6.869411375373602,61.566088646650314,82.33],[-6.869421098381281,61.56599669717252,81.29],[-6.869477508589625,61.56590927392244,79.38],[-6.869511874392629,61.56580802053213,77.47],[-6.869523609057069,61.565707521513104,77.38],[-6.869533080607653,61.56560853123665,76.81],[-6.869511287659407,61.56550954096019,75.12],[-6.869461666792631,61.565417256206274,72.83],[-6.869363347068429,61.56532438471913,71.08],[-6.869284892454743,61.565235955640674,69.02],[-6.869268463924527,61.565128080546856,67.1],[-6.869230410084128,61.56503655016422,65.5],[-6.869212305173278,61.564943762496114,63.46],[-6.869176849722862,61.56484670005739,60.74],[-6.869166120886803,61.56475885771215,59.44],[-6.869180286303163,61.56466665677726,57.53],[-6.869169808924198,61.564574372023344,55.97],[-6.86918799765408,61.564483093097806,53.65],[-6.869045337662101,61.56441913917661,53.44],[-6.868970822542906,61.56435023993254,51.92],[-6.86883662827313,61.564280753955245,51.21],[-6.868651974946261,61.56426600180566,50.47],[-6.868431447073817,61.56424630433321,49.66],[-6.868232544511557,61.56422182917595,49.09],[-6.868022829294205,61.56420439481735,48.59],[-6.867836080491543,61.56418679282069,48.03],[-6.867633573710918,61.56417706981301,47.26],[-6.867432240396738,61.5641741361469,46.83],[-6.867222860455513,61.56417648307979,46.47],[-6.867005852982402,61.564169777557254,45.82],[-6.866799322888255,61.564169861376286,45.38],[-6.866618609055877,61.5641831047833,44.78],[-6.866423478350043,61.56419643200934,44.65],[-6.866239663213491,61.56420171260834,44],[-6.866043945774436,61.56418344005942,43.51],[-6.865872116759419,61.56413138844073,43.27]]}},{"type":"Feature","properties":{"name":"WP1 05_NT","type":"user","time":"2020-07-19T13:36:01Z","gpxx_WaypointExtension":"SymbolAndName","gpxx_DisplayMode":"SymbolAndName","wptx1_WaypointExtension":"SymbolAndName","wptx1_DisplayMode":"SymbolAndName","ctx_CreationTimeExtension":"2020-07-19T13:36:01Z","ctx_CreationTime":"2020-07-19T13:36:01Z","sym":"Flag, Blue"},"geometry":{"type":"Point","coordinates":[-6.924014026299119,61.58538403920829,167.252899]}},{"type":"Feature","properties":{"name":"WP2 11_NT","type":"user","time":"2020-07-19T14:24:13Z","gpxx_WaypointExtension":"SymbolAndName","gpxx_DisplayMode":"SymbolAndName","wptx1_WaypointExtension":"SymbolAndName","wptx1_DisplayMode":"SymbolAndName","ctx_CreationTimeExtension":"2020-07-19T14:24:13Z","ctx_CreationTime":"2020-07-19T14:24:13Z","sym":"Flag, Blue"},"geometry":{"type":"Point","coordinates":[-6.896241009235382,61.57687297090888,361.379486]}},{"type":"Feature","properties":{"name":"WP3 14_NT","type":"user","time":"2020-07-19T15:16:02Z","gpxx_WaypointExtension":"SymbolAndName","gpxx_DisplayMode":"SymbolAndName","wptx1_WaypointExtension":"SymbolAndName","wptx1_DisplayMode":"SymbolAndName","ctx_CreationTimeExtension":"2020-07-19T15:16:02Z","ctx_CreationTime":"2020-07-19T15:16:02Z","sym":"Flag, Blue"},"geometry":{"type":"Point","coordinates":[-6.872261976823211,61.56909196637571,179.907944]}}]}