{"type":"FeatureCollection","features":[{"type":"Feature","properties":{"_gpxType":"trk","name":"25 Wanderung Tvøroyri Hvannhagi CS 001","time":"2020-07-18T09:01:46Z","gpxx_TrackExtension":"Blue","gpxx_DisplayColor":"Blue","coordinateProperties":{"times":["2020-07-18T09:01:46Z","2020-07-18T09:02:05Z","2020-07-18T09:02:12Z","2020-07-18T09:02:19Z","2020-07-18T09:02:27Z","2020-07-18T09:02:34Z","2020-07-18T09:02:42Z","2020-07-18T09:02:55Z","2020-07-18T09:03:02Z","2020-07-18T09:03:10Z","2020-07-18T09:03:18Z","2020-07-18T09:03:29Z","2020-07-18T09:03:36Z","2020-07-18T09:03:47Z","2020-07-18T09:03:55Z","2020-07-18T09:04:05Z","2020-07-18T09:04:13Z","2020-07-18T09:04:21Z","2020-07-18T09:04:30Z","2020-07-18T09:04:44Z","2020-07-18T09:04:53Z","2020-07-18T09:05:02Z","2020-07-18T09:05:14Z","2020-07-18T09:05:25Z","2020-07-18T09:05:34Z","2020-07-18T09:05:42Z","2020-07-18T09:05:51Z","2020-07-18T09:06:02Z","2020-07-18T09:06:13Z","2020-07-18T09:06:26Z","2020-07-18T09:06:38Z","2020-07-18T09:06:54Z","2020-07-18T09:07:10Z","2020-07-18T09:07:25Z","2020-07-18T09:07:37Z","2020-07-18T09:07:45Z","2020-07-18T09:07:53Z","2020-07-18T09:08:02Z","2020-07-18T09:08:09Z","2020-07-18T09:08:19Z","2020-07-18T09:08:27Z","2020-07-18T09:08:34Z","2020-07-18T09:08:41Z","2020-07-18T09:08:48Z","2020-07-18T09:08:55Z","2020-07-18T09:09:02Z","2020-07-18T09:09:09Z","2020-07-18T09:09:15Z","2020-07-18T09:09:21Z","2020-07-18T09:09:28Z","2020-07-18T09:09:34Z","2020-07-18T09:09:41Z","2020-07-18T09:09:48Z","2020-07-18T09:09:55Z","2020-07-18T09:10:02Z","2020-07-18T09:10:08Z","2020-07-18T09:10:14Z","2020-07-18T09:10:20Z","2020-07-18T09:10:26Z","2020-07-18T09:10:34Z","2020-07-18T09:10:41Z","2020-07-18T09:10:49Z","2020-07-18T09:10:56Z","2020-07-18T09:11:03Z","2020-07-18T09:11:10Z","2020-07-18T09:11:17Z","2020-07-18T09:11:25Z","2020-07-18T09:11:31Z","2020-07-18T09:11:38Z","2020-07-18T09:11:45Z","2020-07-18T09:11:52Z","2020-07-18T09:11:58Z","2020-07-18T09:12:04Z","2020-07-18T09:12:11Z","2020-07-18T09:12:18Z","2020-07-18T09:12:24Z","2020-07-18T09:12:31Z","2020-07-18T09:12:38Z","2020-07-18T09:12:44Z","2020-07-18T09:12:51Z","2020-07-18T09:12:58Z","2020-07-18T09:13:06Z","2020-07-18T09:13:13Z","2020-07-18T09:13:20Z","2020-07-18T09:13:27Z","2020-07-18T09:13:33Z","2020-07-18T09:13:40Z","2020-07-18T09:13:47Z","2020-07-18T09:13:54Z","2020-07-18T09:14:02Z","2020-07-18T09:14:10Z","2020-07-18T09:14:17Z","2020-07-18T09:14:24Z","2020-07-18T09:14:31Z","2020-07-18T09:14:38Z","2020-07-18T09:14:44Z","2020-07-18T09:14:51Z","2020-07-18T09:14:58Z","2020-07-18T09:15:05Z","2020-07-18T09:15:13Z","2020-07-18T09:15:21Z","2020-07-18T09:15:29Z","2020-07-18T09:15:37Z","2020-07-18T09:15:44Z","2020-07-18T09:15:51Z","2020-07-18T09:15:58Z","2020-07-18T09:16:05Z","2020-07-18T09:16:12Z","2020-07-18T09:16:21Z","2020-07-18T09:16:47Z","2020-07-18T09:16:59Z","2020-07-18T09:17:07Z","2020-07-18T09:17:15Z","2020-07-18T09:17:23Z","2020-07-18T09:17:37Z","2020-07-18T09:17:45Z","2020-07-18T09:17:53Z","2020-07-18T09:17:59Z","2020-07-18T09:18:06Z","2020-07-18T09:18:13Z","2020-07-18T09:18:20Z","2020-07-18T09:18:28Z","2020-07-18T09:18:36Z","2020-07-18T09:18:43Z","2020-07-18T09:18:55Z","2020-07-18T09:19:02Z","2020-07-18T09:19:10Z","2020-07-18T09:19:16Z","2020-07-18T09:19:23Z","2020-07-18T09:19:30Z","2020-07-18T09:19:38Z","2020-07-18T09:19:45Z","2020-07-18T09:19:53Z","2020-07-18T09:20:00Z","2020-07-18T09:20:07Z","2020-07-18T09:20:14Z","2020-07-18T09:20:21Z","2020-07-18T09:20:28Z","2020-07-18T09:20:35Z","2020-07-18T09:20:42Z","2020-07-18T09:20:49Z","2020-07-18T09:20:56Z","2020-07-18T09:21:04Z","2020-07-18T09:21:11Z","2020-07-18T09:21:17Z","2020-07-18T09:21:24Z","2020-07-18T09:21:30Z","2020-07-18T09:21:38Z","2020-07-18T09:21:46Z","2020-07-18T09:21:53Z","2020-07-18T09:22:00Z","2020-07-18T09:22:12Z","2020-07-18T09:22:24Z","2020-07-18T09:22:32Z","2020-07-18T09:22:41Z","2020-07-18T09:22:49Z","2020-07-18T09:23:18Z","2020-07-18T09:25:23Z","2020-07-18T09:25:37Z","2020-07-18T09:25:50Z","2020-07-18T09:26:02Z","2020-07-18T09:26:19Z","2020-07-18T09:26:39Z","2020-07-18T09:27:01Z","2020-07-18T09:27:20Z","2020-07-18T09:27:40Z","2020-07-18T09:27:52Z","2020-07-18T09:28:02Z","2020-07-18T09:28:10Z","2020-07-18T09:28:23Z","2020-07-18T09:28:33Z","2020-07-18T09:28:44Z","2020-07-18T09:28:55Z","2020-07-18T09:29:03Z","2020-07-18T09:29:11Z","2020-07-18T09:29:19Z","2020-07-18T09:29:28Z","2020-07-18T09:29:38Z","2020-07-18T09:29:49Z","2020-07-18T09:29:57Z","2020-07-18T09:30:06Z","2020-07-18T09:30:13Z","2020-07-18T09:30:21Z","2020-07-18T09:30:29Z","2020-07-18T09:30:37Z","2020-07-18T09:30:44Z","2020-07-18T09:30:53Z","2020-07-18T09:31:04Z","2020-07-18T09:31:11Z","2020-07-18T09:31:18Z","2020-07-18T09:31:28Z","2020-07-18T09:31:39Z","2020-07-18T09:31:47Z","2020-07-18T09:31:55Z","2020-07-18T09:32:02Z","2020-07-18T09:32:08Z","2020-07-18T09:32:14Z","2020-07-18T09:32:21Z","2020-07-18T09:32:27Z","2020-07-18T09:32:36Z","2020-07-18T09:32:47Z","2020-07-18T09:32:59Z","2020-07-18T09:33:16Z","2020-07-18T09:33:32Z","2020-07-18T09:33:47Z","2020-07-18T09:33:56Z","2020-07-18T09:34:06Z","2020-07-18T09:34:19Z","2020-07-18T09:34:29Z","2020-07-18T09:34:36Z","2020-07-18T09:34:43Z","2020-07-18T09:34:52Z","2020-07-18T09:34:59Z","2020-07-18T09:35:07Z","2020-07-18T09:35:15Z","2020-07-18T09:35:23Z","2020-07-18T09:35:30Z","2020-07-18T09:35:38Z","2020-07-18T09:35:47Z","2020-07-18T09:35:58Z","2020-07-18T09:36:06Z","2020-07-18T09:36:14Z","2020-07-18T09:36:22Z","2020-07-18T09:36:30Z","2020-07-18T09:36:39Z","2020-07-18T09:36:47Z","2020-07-18T09:36:54Z","2020-07-18T09:37:01Z","2020-07-18T09:37:08Z","2020-07-18T09:37:15Z","2020-07-18T09:37:22Z","2020-07-18T09:37:30Z","2020-07-18T09:37:37Z","2020-07-18T09:37:44Z","2020-07-18T09:37:51Z","2020-07-18T09:38:00Z","2020-07-18T09:38:21Z","2020-07-18T09:40:05Z","2020-07-18T09:40:13Z","2020-07-18T09:40:21Z","2020-07-18T09:40:30Z","2020-07-18T09:40:38Z","2020-07-18T09:40:46Z","2020-07-18T09:40:54Z","2020-07-18T09:41:02Z","2020-07-18T09:41:09Z","2020-07-18T09:41:17Z","2020-07-18T09:41:24Z","2020-07-18T09:41:31Z","2020-07-18T09:41:41Z","2020-07-18T09:41:51Z","2020-07-18T09:41:59Z","2020-07-18T09:42:07Z","2020-07-18T09:42:16Z","2020-07-18T09:42:25Z","2020-07-18T09:42:34Z","2020-07-18T09:42:42Z","2020-07-18T09:42:55Z","2020-07-18T09:43:03Z","2020-07-18T09:43:10Z","2020-07-18T09:43:17Z","2020-07-18T09:43:25Z","2020-07-18T09:43:33Z","2020-07-18T09:43:41Z","2020-07-18T09:43:50Z","2020-07-18T09:44:25Z","2020-07-18T09:45:29Z","2020-07-18T09:45:55Z","2020-07-18T09:46:31Z","2020-07-18T09:47:04Z","2020-07-18T09:47:27Z","2020-07-18T09:47:50Z","2020-07-18T09:48:18Z","2020-07-18T09:48:44Z","2020-07-18T09:48:57Z","2020-07-18T09:49:06Z","2020-07-18T09:49:18Z","2020-07-18T09:50:04Z","2020-07-18T09:50:15Z","2020-07-18T09:50:30Z","2020-07-18T09:50:43Z","2020-07-18T09:50:59Z","2020-07-18T09:51:11Z","2020-07-18T09:51:26Z","2020-07-18T09:51:49Z","2020-07-18T09:52:05Z","2020-07-18T09:52:14Z","2020-07-18T09:52:28Z","2020-07-18T09:52:42Z","2020-07-18T09:52:55Z","2020-07-18T09:53:31Z","2020-07-18T09:53:43Z","2020-07-18T09:53:59Z","2020-07-18T09:54:13Z","2020-07-18T09:54:23Z","2020-07-18T09:54:38Z","2020-07-18T09:54:50Z","2020-07-18T09:54:59Z","2020-07-18T09:55:09Z","2020-07-18T09:55:22Z","2020-07-18T09:55:36Z","2020-07-18T09:55:49Z","2020-07-18T09:55:58Z","2020-07-18T09:56:08Z","2020-07-18T09:56:18Z","2020-07-18T09:56:32Z","2020-07-18T09:56:47Z","2020-07-18T09:57:00Z","2020-07-18T09:58:39Z","2020-07-18T09:58:48Z","2020-07-18T09:59:01Z","2020-07-18T09:59:17Z","2020-07-18T09:59:38Z","2020-07-18T09:59:53Z","2020-07-18T10:00:06Z","2020-07-18T10:00:20Z","2020-07-18T10:00:31Z","2020-07-18T10:00:44Z","2020-07-18T10:00:54Z","2020-07-18T10:01:07Z","2020-07-18T10:01:17Z","2020-07-18T10:01:28Z","2020-07-18T10:01:39Z","2020-07-18T10:01:50Z","2020-07-18T10:02:01Z","2020-07-18T10:02:11Z","2020-07-18T10:02:22Z","2020-07-18T10:02:38Z","2020-07-18T10:02:53Z","2020-07-18T10:03:05Z","2020-07-18T10:03:18Z","2020-07-18T10:03:28Z","2020-07-18T10:03:38Z","2020-07-18T10:03:56Z","2020-07-18T10:04:08Z","2020-07-18T10:04:21Z","2020-07-18T10:04:34Z","2020-07-18T10:04:49Z","2020-07-18T10:05:28Z","2020-07-18T10:06:36Z","2020-07-18T10:06:53Z","2020-07-18T10:07:08Z","2020-07-18T10:07:23Z","2020-07-18T10:07:41Z","2020-07-18T10:07:54Z","2020-07-18T10:08:02Z","2020-07-18T10:08:10Z","2020-07-18T10:08:20Z","2020-07-18T10:08:31Z","2020-07-18T10:08:44Z","2020-07-18T10:08:59Z","2020-07-18T10:09:13Z","2020-07-18T10:09:25Z","2020-07-18T10:09:37Z","2020-07-18T10:09:49Z","2020-07-18T10:10:02Z","2020-07-18T10:10:12Z","2020-07-18T10:10:23Z","2020-07-18T10:10:35Z","2020-07-18T10:10:47Z","2020-07-18T10:11:02Z","2020-07-18T10:11:17Z","2020-07-18T10:11:36Z","2020-07-18T10:11:55Z","2020-07-18T10:12:08Z","2020-07-18T10:12:24Z","2020-07-18T10:12:38Z","2020-07-18T10:12:52Z","2020-07-18T10:13:05Z","2020-07-18T10:13:25Z","2020-07-18T10:13:37Z","2020-07-18T10:13:52Z","2020-07-18T10:14:09Z","2020-07-18T10:14:22Z","2020-07-18T10:14:35Z","2020-07-18T10:14:48Z","2020-07-18T10:15:00Z","2020-07-18T10:15:08Z","2020-07-18T10:15:20Z","2020-07-18T10:15:31Z","2020-07-18T10:15:42Z","2020-07-18T10:15:55Z","2020-07-18T10:16:14Z","2020-07-18T10:16:29Z","2020-07-18T10:16:42Z","2020-07-18T10:16:59Z","2020-07-18T10:17:13Z","2020-07-18T10:17:26Z","2020-07-18T10:17:40Z","2020-07-18T10:17:51Z","2020-07-18T10:18:04Z","2020-07-18T10:18:15Z","2020-07-18T10:18:24Z","2020-07-18T10:18:38Z","2020-07-18T10:18:50Z","2020-07-18T10:19:05Z","2020-07-18T10:19:17Z","2020-07-18T10:19:31Z","2020-07-18T10:19:43Z","2020-07-18T10:19:55Z","2020-07-18T10:20:33Z","2020-07-18T10:20:46Z","2020-07-18T10:20:57Z","2020-07-18T10:21:18Z","2020-07-18T10:21:43Z","2020-07-18T10:22:07Z","2020-07-18T10:22:30Z","2020-07-18T10:22:54Z","2020-07-18T10:23:33Z","2020-07-18T10:23:59Z","2020-07-18T10:24:22Z","2020-07-18T10:25:22Z","2020-07-18T10:26:35Z","2020-07-18T10:26:43Z","2020-07-18T10:26:52Z","2020-07-18T10:27:30Z","2020-07-18T10:27:38Z","2020-07-18T10:27:47Z","2020-07-18T10:27:55Z","2020-07-18T10:28:08Z","2020-07-18T10:28:18Z","2020-07-18T10:28:27Z","2020-07-18T10:28:37Z","2020-07-18T10:28:45Z","2020-07-18T10:29:19Z","2020-07-18T10:29:31Z","2020-07-18T10:29:41Z","2020-07-18T10:29:50Z","2020-07-18T10:29:59Z","2020-07-18T10:30:08Z","2020-07-18T10:30:18Z","2020-07-18T10:30:26Z","2020-07-18T10:30:36Z","2020-07-18T10:30:45Z","2020-07-18T10:30:55Z","2020-07-18T10:31:05Z","2020-07-18T10:31:14Z","2020-07-18T10:31:26Z","2020-07-18T10:31:36Z","2020-07-18T10:31:44Z","2020-07-18T10:31:52Z","2020-07-18T10:32:00Z","2020-07-18T10:32:07Z","2020-07-18T10:32:16Z","2020-07-18T10:32:23Z","2020-07-18T10:32:30Z","2020-07-18T10:32:38Z","2020-07-18T10:32:46Z","2020-07-18T10:32:53Z","2020-07-18T10:33:00Z","2020-07-18T10:33:07Z","2020-07-18T10:33:14Z","2020-07-18T10:33:22Z","2020-07-18T10:33:31Z","2020-07-18T10:33:39Z","2020-07-18T10:33:47Z","2020-07-18T10:33:56Z","2020-07-18T10:34:04Z","2020-07-18T10:34:12Z","2020-07-18T10:34:20Z","2020-07-18T10:34:28Z","2020-07-18T10:34:36Z","2020-07-18T10:34:44Z","2020-07-18T10:34:54Z","2020-07-18T10:35:02Z","2020-07-18T10:35:09Z","2020-07-18T10:35:16Z","2020-07-18T10:35:23Z","2020-07-18T10:35:31Z","2020-07-18T10:35:40Z","2020-07-18T10:35:51Z","2020-07-18T10:36:01Z","2020-07-18T10:36:11Z","2020-07-18T10:36:25Z","2020-07-18T10:36:37Z","2020-07-18T10:36:49Z","2020-07-18T10:37:03Z","2020-07-18T10:37:13Z","2020-07-18T10:37:20Z","2020-07-18T10:37:28Z","2020-07-18T10:37:36Z","2020-07-18T10:37:44Z","2020-07-18T10:37:52Z","2020-07-18T10:38:00Z","2020-07-18T10:38:08Z","2020-07-18T10:38:17Z","2020-07-18T10:38:25Z","2020-07-18T10:38:33Z","2020-07-18T10:38:41Z","2020-07-18T10:38:50Z","2020-07-18T10:38:58Z","2020-07-18T10:39:06Z","2020-07-18T10:39:14Z","2020-07-18T10:39:21Z","2020-07-18T10:39:30Z","2020-07-18T10:39:37Z","2020-07-18T10:39:47Z","2020-07-18T10:39:54Z","2020-07-18T10:40:04Z","2020-07-18T10:40:12Z","2020-07-18T10:40:20Z","2020-07-18T10:40:29Z","2020-07-18T10:40:37Z","2020-07-18T10:40:45Z","2020-07-18T10:40:53Z","2020-07-18T10:41:01Z","2020-07-18T10:41:10Z","2020-07-18T10:41:19Z","2020-07-18T10:41:28Z","2020-07-18T10:41:39Z","2020-07-18T10:41:48Z","2020-07-18T10:42:01Z","2020-07-18T10:42:14Z","2020-07-18T10:42:27Z","2020-07-18T10:42:38Z","2020-07-18T10:42:48Z","2020-07-18T10:43:03Z","2020-07-18T10:43:26Z","2020-07-18T10:43:51Z","2020-07-18T10:44:16Z","2020-07-18T10:44:46Z","2020-07-18T10:47:31Z","2020-07-18T10:47:41Z","2020-07-18T10:47:50Z","2020-07-18T10:47:59Z","2020-07-18T10:48:07Z","2020-07-18T10:48:14Z","2020-07-18T10:48:21Z","2020-07-18T10:48:27Z","2020-07-18T10:48:34Z","2020-07-18T10:48:40Z","2020-07-18T10:48:46Z","2020-07-18T10:48:52Z","2020-07-18T10:48:59Z","2020-07-18T10:49:06Z","2020-07-18T10:49:12Z","2020-07-18T10:49:18Z","2020-07-18T10:49:24Z","2020-07-18T10:49:30Z","2020-07-18T10:49:37Z","2020-07-18T10:49:43Z","2020-07-18T10:49:49Z","2020-07-18T10:49:55Z","2020-07-18T10:50:01Z","2020-07-18T10:50:07Z","2020-07-18T10:50:14Z","2020-07-18T10:50:21Z","2020-07-18T10:50:28Z","2020-07-18T10:50:35Z","2020-07-18T10:50:42Z","2020-07-18T10:50:49Z","2020-07-18T10:50:55Z","2020-07-18T10:51:01Z","2020-07-18T10:51:07Z","2020-07-18T10:51:13Z","2020-07-18T10:51:19Z","2020-07-18T10:51:26Z","2020-07-18T10:51:32Z","2020-07-18T10:51:39Z","2020-07-18T10:51:46Z","2020-07-18T10:51:53Z","2020-07-18T10:51:59Z","2020-07-18T10:52:06Z","2020-07-18T10:52:13Z","2020-07-18T10:52:19Z","2020-07-18T10:52:25Z","2020-07-18T10:52:31Z","2020-07-18T10:52:46Z","2020-07-18T10:52:53Z","2020-07-18T10:52:59Z","2020-07-18T10:53:06Z","2020-07-18T10:53:12Z","2020-07-18T10:53:19Z","2020-07-18T10:53:26Z","2020-07-18T10:53:32Z","2020-07-18T10:53:39Z","2020-07-18T10:54:12Z","2020-07-18T10:54:19Z","2020-07-18T10:54:25Z","2020-07-18T10:54:32Z","2020-07-18T10:54:38Z","2020-07-18T10:54:44Z","2020-07-18T10:54:51Z","2020-07-18T10:54:58Z","2020-07-18T10:55:05Z","2020-07-18T10:55:12Z","2020-07-18T10:55:19Z","2020-07-18T10:55:26Z","2020-07-18T10:55:32Z","2020-07-18T10:55:38Z","2020-07-18T10:55:45Z","2020-07-18T10:55:51Z","2020-07-18T10:55:57Z","2020-07-18T10:56:04Z","2020-07-18T10:56:10Z","2020-07-18T10:56:16Z","2020-07-18T10:56:22Z","2020-07-18T10:56:29Z","2020-07-18T10:56:35Z","2020-07-18T10:56:41Z","2020-07-18T10:56:48Z","2020-07-18T10:56:55Z","2020-07-18T10:57:01Z","2020-07-18T10:57:10Z","2020-07-18T10:57:31Z","2020-07-18T10:57:37Z","2020-07-18T10:57:44Z","2020-07-18T10:57:51Z","2020-07-18T10:57:58Z","2020-07-18T10:58:05Z","2020-07-18T10:58:12Z","2020-07-18T10:58:19Z","2020-07-18T10:58:25Z","2020-07-18T10:58:31Z","2020-07-18T10:58:37Z","2020-07-18T10:58:43Z","2020-07-18T10:58:49Z","2020-07-18T10:58:56Z","2020-07-18T10:59:02Z","2020-07-18T10:59:08Z","2020-07-18T10:59:15Z","2020-07-18T10:59:22Z","2020-07-18T10:59:29Z","2020-07-18T10:59:36Z","2020-07-18T10:59:43Z","2020-07-18T10:59:49Z","2020-07-18T10:59:56Z","2020-07-18T11:00:03Z","2020-07-18T11:00:09Z","2020-07-18T11:00:16Z","2020-07-18T11:00:23Z","2020-07-18T11:00:30Z","2020-07-18T11:00:36Z","2020-07-18T11:00:43Z","2020-07-18T11:00:49Z","2020-07-18T11:00:56Z","2020-07-18T11:01:05Z","2020-07-18T11:01:27Z","2020-07-18T11:01:35Z","2020-07-18T11:01:45Z","2020-07-18T11:01:52Z","2020-07-18T11:02:02Z","2020-07-18T11:02:11Z","2020-07-18T11:02:19Z","2020-07-18T11:02:27Z","2020-07-18T11:02:44Z","2020-07-18T11:02:56Z","2020-07-18T11:03:08Z","2020-07-18T11:03:24Z","2020-07-18T11:03:40Z","2020-07-18T11:03:54Z","2020-07-18T11:04:20Z","2020-07-18T11:05:32Z","2020-07-18T11:06:54Z","2020-07-18T11:07:03Z","2020-07-18T11:07:13Z","2020-07-18T11:07:23Z","2020-07-18T11:07:31Z","2020-07-18T11:07:38Z","2020-07-18T11:07:46Z","2020-07-18T11:07:54Z","2020-07-18T11:08:03Z","2020-07-18T11:08:28Z","2020-07-18T11:08:36Z","2020-07-18T11:08:44Z","2020-07-18T11:08:52Z","2020-07-18T11:09:01Z","2020-07-18T11:09:09Z","2020-07-18T11:09:16Z","2020-07-18T11:09:24Z","2020-07-18T11:09:33Z","2020-07-18T11:10:13Z","2020-07-18T11:10:50Z","2020-07-18T11:10:57Z","2020-07-18T11:11:04Z","2020-07-18T11:11:11Z","2020-07-18T11:11:18Z","2020-07-18T11:11:27Z","2020-07-18T11:11:43Z","2020-07-18T11:12:02Z","2020-07-18T11:12:24Z","2020-07-18T11:12:30Z","2020-07-18T11:12:37Z","2020-07-18T11:12:43Z","2020-07-18T11:12:50Z"]}},"geometry":{"type":"LineString","coordinates":[[-6.807213127613068,61.55481825582683,-17.88],[-6.807437678799033,61.5548628475517,17.83],[-6.807630630210042,61.55489972792566,18.02],[-6.807804722338915,61.554938703775406,17.67],[-6.807971019297838,61.55500148423016,17.45],[-6.808160031214356,61.55503207817674,17.19],[-6.808361196890473,61.55507524497807,17.81],[-6.808390617370606,61.55518379062414,18.77],[-6.808383828029037,61.5552981197834,19.43],[-6.808371841907501,61.55540599487722,20.94],[-6.808341583237052,61.55551940202713,22.88],[-6.808483153581619,61.55564018525183,23.93],[-6.808672584593296,61.555694499984384,24.72],[-6.808862518519163,61.55577412806451,26.82],[-6.809064019471407,61.555826431140304,27.15],[-6.809347411617637,61.555876806378365,28.42],[-6.809573471546173,61.55591259710491,29.16],[-6.809792574495077,61.555962385609746,29.25],[-6.810081247240305,61.55603438615799,29.5],[-6.810283921658993,61.55614770948887,31.29],[-6.810278138145804,61.556268241256475,33.98],[-6.810271181166172,61.55638173222542,36.08],[-6.810223907232285,61.55651827342808,38.58],[-6.810145955532789,61.556634195148945,41.38],[-6.810054844245315,61.55672488734126,43.4],[-6.80994713678956,61.55681340023875,45.19],[-6.809777989983559,61.556875593960285,46.88],[-6.809720322489739,61.556946923956275,48.84],[-6.809775223955512,61.557045662775636,51.64],[-6.809898186475039,61.55717767775059,54.17],[-6.810090048238635,61.55728932470083,57.53],[-6.810221392661333,61.557443048805,60.96],[-6.810194905847311,61.55762627720833,63.93],[-6.810174537822604,61.557751167565584,67.5],[-6.810309486463666,61.557774636894464,67.3],[-6.810492463409901,61.55777438543737,68.05],[-6.810718942433596,61.55775535851717,68.76],[-6.810949444770813,61.55773381702602,69.5],[-6.811151448637247,61.55771856196225,71.07],[-6.811377592384815,61.557707246392965,72.09],[-6.81160013191402,61.557704312726855,73.17],[-6.811814876273274,61.55771680176258,74.33],[-6.812043366953731,61.55773499049246,74.76],[-6.812281832098961,61.55775820836425,75.98],[-6.812503868713975,61.55779592692852,75.98],[-6.812729006633163,61.55782182700932,75.01],[-6.812958000227809,61.55785853974521,75.61],[-6.813209624961019,61.55788963660598,74.68],[-6.813427554443479,61.55786465853453,75.28],[-6.813688734546304,61.55788762494922,76.11],[-6.813881266862154,61.55793372541666,74.52],[-6.814097100868821,61.5579782333225,74.95],[-6.814325507730246,61.55800539068878,75.71],[-6.814543521031737,61.558066327124834,75.06],[-6.814769916236401,61.558109913021326,75.29],[-6.814995808526874,61.558167496696115,75.69],[-6.815193369984627,61.558215944096446,76.61],[-6.815392607823014,61.55823606066406,77.64],[-6.815598383545876,61.55827537178993,77.77],[-6.815779935568571,61.558321975171566,78],[-6.815977748483419,61.55837696045637,78.12],[-6.81619031354785,61.558437226340175,79.06],[-6.816354431211948,61.558509059250355,78.34],[-6.816536486148834,61.55858390964568,78.62],[-6.816696245223284,61.55865113250911,78.86],[-6.816868912428618,61.5587121527642,78.62],[-6.817038562148809,61.558799743652344,79.74],[-6.817228244617581,61.5588678047061,79.66],[-6.817352464422584,61.55896260403097,80.05],[-6.817491604015231,61.55905212275684,79.81],[-6.817635772749782,61.55913317576051,79.51],[-6.817749934270978,61.55924515798688,79.77],[-6.817868622019887,61.55933182686567,79.41],[-6.818005833774805,61.55940650962293,79.03],[-6.818152517080307,61.55951086431742,78.65],[-6.818279251456261,61.55959024094045,78.46],[-6.818415122106671,61.55966768972576,77.8],[-6.818557363003492,61.55975880101323,77.1],[-6.81867353618145,61.559841111302376,76.72],[-6.818798761814833,61.55992291867733,75.87],[-6.818933710455895,61.56000849790871,75.49],[-6.819078717380762,61.56011117622256,75.71],[-6.81921006180346,61.560216872021556,75.7],[-6.819299412891269,61.560311671346426,76.06],[-6.819367976859212,61.56042046844959,76.59],[-6.819438803941011,61.56052230857313,76.99],[-6.819526227191091,61.56062515452504,77.41],[-6.819613398984075,61.56071215867996,77.88],[-6.819731499999762,61.56079480424523,79.22],[-6.819885727018118,61.56088759191334,79.33],[-6.820037858560681,61.56098532490432,80.21],[-6.820181608200073,61.56107702292502,79.87],[-6.820341870188713,61.56117031350732,79.54],[-6.820493331179023,61.561253210529685,79.14],[-6.820620400831103,61.561349015682936,78.84],[-6.820717882364988,61.56143870204687,78.86],[-6.820771275088191,61.56153651885688,79.6],[-6.820839503780007,61.56164447776973,79.69],[-6.820908403024077,61.56173366121948,79.79],[-6.821004878729582,61.561834160238504,80.64],[-6.82107562199235,61.5619380120188,81.76],[-6.821155082434416,61.56204764731228,83.21],[-6.821230603381991,61.56215007416904,83.93],[-6.821316936984658,61.562246046960354,83.9],[-6.821412071585655,61.56233196146786,84.95],[-6.821504691615701,61.562438160181046,85.74],[-6.821609381586313,61.56253354623914,86.21],[-6.821732679381967,61.56261820346117,87.31],[-6.821855390444398,61.56272389926016,88.61],[-6.821932001039386,61.562799671664834,87.17],[-6.822006683796644,61.562909726053476,88.5],[-6.82210760191083,61.563009889796376,89.45],[-6.822240371257067,61.56309982761741,90.61],[-6.822363417595625,61.56319378875196,91.05],[-6.822456205263734,61.563287833705544,91.71],[-6.822583107277751,61.56337165273726,93.04],[-6.822726354002953,61.563445245847106,94.83],[-6.822803635150194,61.56353836879134,94.51],[-6.822891309857369,61.563633335754275,94.89],[-6.822972530499101,61.56373173929751,94.79],[-6.823058109730482,61.56382645480335,95.44],[-6.823139498010278,61.56392661854625,97.16],[-6.823250725865364,61.56401387415826,99.64],[-6.823429008945823,61.564082354307175,101.12],[-6.823739223182201,61.564196180552244,102.35],[-6.823914404958487,61.56426826491952,102.6],[-6.824120683595538,61.56433758325875,102.34],[-6.824278011918068,61.56441444531083,102.57],[-6.824425365775824,61.56450136564672,102.85],[-6.824572971090674,61.564580323174596,103.87],[-6.824741363525391,61.56466221436858,104.45],[-6.824910761788487,61.56471686437726,105.18],[-6.825047638267279,61.564798168838024,106.01],[-6.825209660455585,61.56485332176089,107.81],[-6.825372772291303,61.56491878442466,108.57],[-6.825527586042881,61.564987851306796,107.7],[-6.825706791132689,61.56503202393651,108.73],[-6.825889768078923,61.56508533284068,109.2],[-6.826073583215475,61.565141743049026,109.73],[-6.826259577646852,61.56521391123533,110.42],[-6.826432915404439,61.56527929008007,110.97],[-6.826601140201092,61.565352380275726,110.09],[-6.826796187087894,61.56542002223432,110.87],[-6.826969105750322,61.56549227423966,110.07],[-6.827159626409411,61.56554424203932,110.97],[-6.827340759336948,61.565599562600255,111.51],[-6.827493645250797,61.56565555371344,112.07],[-6.82767947204411,61.56570567749441,114.05],[-6.827872591093183,61.56577290035784,113.55],[-6.828035702928901,61.56582847237587,114.8],[-6.828210884705186,61.56588890589774,116.39],[-6.828336277976632,61.56598194502294,117.21],[-6.828536437824369,61.56603508628905,119.36],[-6.828678594902158,61.56611722894013,119.95],[-6.828855788335204,61.566173639148474,119.31],[-6.828996520489454,61.56624714843929,117.78],[-6.829143287613988,61.56631261110306,119.27],[-6.829214114695787,61.56634932383895,122.2],[-6.829221993684769,61.566403387114406,125.45],[-6.829142533242703,61.566448817029595,128.4],[-6.829175474122167,61.5664934925735,129.52],[-6.829130044206977,61.5666420198977,131.84],[-6.829269099980593,61.56678048893809,134.78],[-6.829422991722822,61.56685592606664,140.93],[-6.829466074705124,61.566922729834914,144.28],[-6.829562215134502,61.566985342651606,146.52],[-6.829705545678735,61.56705038622022,148],[-6.829817276448011,61.56713454052806,149.6],[-6.829944932833314,61.567208385095,150.91],[-6.83009329251945,61.5672776196152,153.28],[-6.830202173441649,61.567383985966444,154.24],[-6.830319855362177,61.567495968192816,151.72],[-6.830518590286374,61.56755321659148,152.49],[-6.830691760405898,61.56762412749231,153.71],[-6.830836599692702,61.56769839115441,154.23],[-6.830988731235266,61.56776477582753,156.32],[-6.831127284094691,61.56785370782018,158.25],[-6.83130213059485,61.567930318415165,160.25],[-6.831455267965794,61.568043138831854,161.65],[-6.831578565761447,61.568152606487274,161.23],[-6.831712005659938,61.56824665144086,163.47],[-6.831820551306009,61.568346563726664,164.29],[-6.831938736140728,61.568427197635174,165.05],[-6.832044934853911,61.56851696781814,166.93],[-6.832148870453239,61.56860631890595,168.16],[-6.832199664786458,61.568707739934325,168.62],[-6.832227911800146,61.5688229072839,168.8],[-6.832294631749392,61.56895031221211,170.41],[-6.83235858567059,61.56905684620142,170.64],[-6.832448523491621,61.569152902811766,171.25],[-6.832467634230852,61.56925415620208,170.32],[-6.832569809630513,61.56935842707753,169.07],[-6.832634350284934,61.56947619281709,169.59],[-6.832625968381763,61.56959127634764,168.73],[-6.832665363326669,61.569705940783024,170.13],[-6.832706015557051,61.569804763421416,172.12],[-6.832704758271575,61.56990693882108,172.13],[-6.832697885110974,61.570018669590354,172.88],[-6.832648096606135,61.57011212781072,170.62],[-6.832534437999129,61.57019619829953,172.52],[-6.83238985016942,61.57027532346547,174.2],[-6.832257080823183,61.57035185024142,176.43],[-6.832062201574445,61.57041312195361,178.67],[-6.831856928765774,61.57045176252723,182.49],[-6.831771517172456,61.570546478033066,186.97],[-6.831679735332727,61.57064379192889,187.86],[-6.831563981249929,61.570713613182306,190.07],[-6.831444874405861,61.57079139724374,192.92],[-6.831258963793516,61.57085996121168,197.13],[-6.831099539995194,61.570922238752246,197.14],[-6.830919245257974,61.57096364535391,197.84],[-6.830730820074678,61.570991557091475,198.39],[-6.830560667440295,61.57103514298797,197.21],[-6.8304084520787,61.571105467155576,197.12],[-6.830250872299075,61.57117411494255,199.26],[-6.83010402135551,61.57124645076692,198.88],[-6.829996649175882,61.57133303582668,201.77],[-6.829943340271711,61.57142339274287,202.89],[-6.829865304753184,61.57150436192751,204.96],[-6.829737145453692,61.57159136608243,207.15],[-6.829558610916138,61.57163134776056,204.14],[-6.829436486586928,61.57171248458326,203.75],[-6.829228531569243,61.57177861779928,203.61],[-6.829075142741203,61.57185137271881,203.79],[-6.828949833288789,61.57195782288909,205.15],[-6.828801473602653,61.5720434859395,207.33],[-6.828649677336216,61.57213266938925,210.12],[-6.828488325700164,61.57221397385001,208.34],[-6.828314820304513,61.57228605821729,206.62],[-6.828129747882485,61.572351939976215,206.42],[-6.827996391803026,61.57242737710476,207.52],[-6.82784166187048,61.57250231131911,207.88],[-6.82768433354795,61.57258344814181,207.33],[-6.8276213016361,61.57267011702061,208.15],[-6.827518120408058,61.57274932600558,208.76],[-6.827366156503558,61.57282568514347,210.58],[-6.827189549803734,61.57288075424731,211.18],[-6.827094834297895,61.57296306453645,210.73],[-6.82695141993463,61.57303866930306,211.08],[-6.826839856803417,61.57311310060322,208.27],[-6.826676409691572,61.573161128908396,206.74],[-6.826544813811779,61.57323690131307,208.3],[-6.826395029202104,61.57329515554011,207.15],[-6.826254548504949,61.57335919328034,206.26],[-6.826126640662551,61.5734373126179,207.1],[-6.82603276334703,61.5735271666199,203.15],[-6.825943328440189,61.57362112775445,201.44],[-6.825840398669243,61.573697067797184,200.2],[-6.825710143893957,61.57376219518483,198.33],[-6.825551725924015,61.57383327372372,197.43],[-6.825435217469931,61.57391516491771,196.56],[-6.825326504185796,61.573995128273964,194.96],[-6.825249223038554,61.57408716157079,192.64],[-6.825147718191147,61.57417919486761,190.73],[-6.825136905536056,61.574282543733716,189.83],[-6.825091056525707,61.57438153401017,188.57],[-6.825048225000501,61.57447264529765,186.32],[-6.824960298836231,61.57456518150866,183.38],[-6.824885196983814,61.57465570606291,181.72],[-6.824811436235905,61.57474648207426,180.5],[-6.824701214209199,61.57482611015439,179.91],[-6.824626531451941,61.574906995519996,178.77],[-6.824471801519394,61.57496818341315,177.18],[-6.824273150414228,61.57502258196473,175.38],[-6.824128227308393,61.575099444016814,173.87],[-6.82407533749938,61.57519809901714,172.27],[-6.824065446853638,61.57527035102248,171.28],[-6.82417893782258,61.57534939236939,166.46],[-6.824209867045283,61.575432792305946,160.67],[-6.824279855936766,61.57550035044551,155.69],[-6.82437926530838,61.57558240927756,152.26],[-6.824492421001196,61.575641836971045,149.49],[-6.824539359658957,61.57569816336036,146.11],[-6.824636086821556,61.575751304626465,142.41],[-6.824693670496345,61.575867561623454,138.77],[-6.824738010764122,61.575981890782714,137.34],[-6.824830798432231,61.57605598680675,135.76],[-6.824957951903343,61.57609764486551,134.43],[-6.825123662129045,61.576134441420436,131.79],[-6.825277889147401,61.57618003897369,129.29],[-6.825451981276274,61.576218511909246,128.35],[-6.825577793642879,61.57629596069455,127.66],[-6.825703354552388,61.57636620104313,127.46],[-6.825782312080264,61.57646250911057,128.39],[-6.825822545215488,61.57653593458235,126.97],[-6.826003678143024,61.57660868950188,124.61],[-6.826218254864216,61.57665361650288,124.61],[-6.826357897371054,61.57671648077667,122.93],[-6.826493851840496,61.5767768304795,121.12],[-6.826604828238487,61.5768582187593,119.85],[-6.826783362776041,61.57691580243409,120.05],[-6.826952174305916,61.57696626149118,120.16],[-6.827121572569013,61.57702719792724,120.22],[-6.827275464311242,61.577088134363294,120.08],[-6.827452909201384,61.57711612991989,119.46],[-6.827643932774663,61.57713037915528,119.72],[-6.827899245545268,61.577130211517215,121.6],[-6.828070990741253,61.5771621465683,121.98],[-6.82830099016428,61.57716021873057,121.65],[-6.828510453924537,61.57717681489885,121.76],[-6.828661914914846,61.57724521122873,121.4],[-6.828859811648727,61.57731654122472,120.37],[-6.829042453318834,61.57734537497163,120.23],[-6.829202966764569,61.57741326838732,120.02],[-6.829339424148202,61.57748417928815,119.97],[-6.829473366960883,61.57755299471319,118.48],[-6.829624241217971,61.57760672271252,116.32],[-6.829815432429314,61.577630024403334,114.16],[-6.829902771860361,61.577651062980294,112.94],[-6.830080132931471,61.57768693752587,112.26],[-6.830129083245993,61.577796153724194,113.63],[-6.830227486789227,61.57787377014756,113.2],[-6.830422030761838,61.57792045734823,113.02],[-6.830704165622592,61.577920876443386,111.99],[-6.830946570262313,61.57794711180031,110.48],[-6.831132816150785,61.57798843458295,110.37],[-6.831321995705366,61.57802112400532,110.86],[-6.831516791135073,61.57806311734021,109.37],[-6.831687279045582,61.57810251228511,108.84],[-6.831857347860932,61.57815355807543,107.65],[-6.832037391141057,61.57817794941366,107.12],[-6.832241658121347,61.57820292748511,106.82],[-6.832428406924009,61.57822639681399,104.28],[-6.832617670297623,61.578248273581266,104.96],[-6.832814309746027,61.5782465133816,104.44],[-6.833008853718638,61.57824601046741,105.6],[-6.83318629860878,61.578277945518494,105.16],[-6.833375729620457,61.57827450893819,105.56],[-6.833581421524286,61.57828942872584,104.8],[-6.833780743181706,61.57828104682267,106.93],[-6.833936898037791,61.57832010649145,106.41],[-6.83406874537468,61.578385485336185,106.2],[-6.834159940481186,61.57847131602466,105.96],[-6.834318106994033,61.57849897630513,102.59],[-6.834514075890183,61.57849847339094,100.01],[-6.83472303673625,61.57853728160262,94.02],[-6.834899475798011,61.57856569625437,91.15],[-6.835068287327886,61.578565360978246,86.85],[-6.835156967863441,61.5785744972527,88.04],[-6.835090247914195,61.578577095642686,88.14],[-6.834963764995337,61.5785610023886,91.88],[-6.834757486358285,61.57855471596122,96.76],[-6.834545088931918,61.578549686819315,100.19],[-6.834320537745953,61.57853191718459,107.96],[-6.834089029580355,61.57853568904102,110.34],[-6.833960451185703,61.578462179750204,110.62],[-6.83385768905282,61.57838833518326,109.13],[-6.833659624680877,61.578377690166235,104.44],[-6.833468517288566,61.578362016007304,104.37],[-6.833350248634815,61.57832614146173,105.09],[-6.833359468728304,61.57823184505105,108.47],[-6.833144640550017,61.578210638836026,109.75],[-6.832908689975739,61.57818641513586,107.52],[-6.832716492936015,61.57818918116391,107.97],[-6.832497138530016,61.578188594430685,107.96],[-6.832279544323683,61.57816587947309,108.53],[-6.83209321461618,61.57813461497426,108.98],[-6.831897161900997,61.578124556690454,110.13],[-6.831698594614863,61.57807216979563,108.23],[-6.831528525799513,61.57802221365273,109.94],[-6.831333478912711,61.57799078151584,111.73],[-6.831150585785508,61.57797577790916,111.23],[-6.830952102318406,61.57793277874589,111.56],[-6.830740626901388,61.57791123725474,114.06],[-6.830545412376523,61.57788936048746,113.92],[-6.830352880060673,61.57788039185107,114.45],[-6.830149032175541,61.57782322727144,115.09],[-6.829988937824965,61.57775835134089,113.47],[-6.829884499311447,61.5776785556227,114.9],[-6.829766482114792,61.577625749632716,113.29],[-6.829589875414968,61.5776042919606,115.99],[-6.829426847398281,61.57755358144641,118.93],[-6.829272201284766,61.57749122008681,119.76],[-6.82912090793252,61.577421398833394,120.58],[-6.828914796933532,61.577397007495165,119.55],[-6.828710697591305,61.577376471832395,119.92],[-6.82852478697896,61.57733900472522,120.71],[-6.828349940478802,61.57731167972088,120.87],[-6.828172244131565,61.577311512082815,121.54],[-6.828004270792007,61.577269518747926,120.99],[-6.827820120379329,61.577219646424055,120.35],[-6.827651979401708,61.57717505469918,118.93],[-6.827455507591367,61.577145382761955,118.44],[-6.827264735475183,61.577109256759286,118.3],[-6.827115789055824,61.57704739831388,118.37],[-6.827037921175361,61.57697455957532,117.66],[-6.826872210949659,61.57692871056497,118.14],[-6.826696526259184,61.576873138546944,118.39],[-6.826536180451512,61.576812621206045,119.7],[-6.826421851292253,61.576741207391024,119.75],[-6.826272066682577,61.57667566090822,121.18],[-6.826133178547025,61.57662184908986,122.25],[-6.825982304289937,61.57656108029187,122.82],[-6.82583486661315,61.57649578526616,125.17],[-6.825689943507314,61.576417246833444,124.99],[-6.82556513696909,61.57633384689689,125.58],[-6.825443347916007,61.576258577406406,125.43],[-6.825285516679287,61.57620602287352,125.57],[-6.825174791738391,61.576134441420436,127.4],[-6.825029533356428,61.57609412446618,130.34],[-6.824923837557435,61.57604048028588,131.44],[-6.824778746813536,61.57596009783447,134.29],[-6.824690233916044,61.57587728463113,135.59],[-6.824644133448601,61.57579489052296,138.57],[-6.824636086821556,61.57571626827121,142.46],[-6.82460498996079,61.57563420943916,147.29],[-6.824470041319728,61.575589114800096,150.33],[-6.824396783486009,61.575514348223805,153.78],[-6.824297457933426,61.575416531413794,160.77],[-6.824213555082679,61.57533849589527,164.47],[-6.824078857898712,61.575239254161716,167.22],[-6.824097381904721,61.57517555169761,166.13],[-6.82417499832809,61.57509927637875,167.75],[-6.824315646663308,61.57504688948393,169.26],[-6.824484625831246,61.57499852590263,171.46],[-6.824567271396518,61.57490850426257,173.8],[-6.824657963588834,61.574823427945375,175.15],[-6.824756199494004,61.57473030500114,175.46],[-6.824865248054266,61.57463793642819,177.68],[-6.824966333806515,61.574536096304655,180.44],[-6.825066078454256,61.57445135526359,182.71],[-6.825123494490981,61.57434239052236,183.65],[-6.825140845030546,61.57423879019916,184.96],[-6.825182670727372,61.57414575107396,186.36],[-6.825253497809172,61.57406335696578,187.65],[-6.825380232185125,61.57397735863924,188.56],[-6.825513923540711,61.57388155348599,190.39],[-6.825625989586115,61.573792872950435,191.09],[-6.825765045359731,61.57371726818383,195.01],[-6.825882392004132,61.57362515106797,195.18],[-6.825989345088601,61.57352574169636,197.45],[-6.826107362285256,61.57344066537917,199.1],[-6.826269468292594,61.573358019813895,198.47],[-6.8264280539006,61.573288617655635,201.65],[-6.82658982463181,61.5732195507735,199.55],[-6.826743129640818,61.57315107062459,201.32],[-6.826873468235135,61.57307697460055,201.6],[-6.827045883983374,61.57299374230206,205.96],[-6.827173456549645,61.572897685691714,204.88],[-6.827309746295214,61.57280556857586,204.19],[-6.827416783198714,61.572709092870355,200.28],[-6.827549384906888,61.57262879423797,202.31],[-6.827714927494526,61.57256877981126,202.06],[-6.827849959954619,61.572484290227294,200.77],[-6.827994966879487,61.57241480425,199.96],[-6.82813972234726,61.572342216968536,199.45],[-6.828276682645083,61.57227801159024,200.39],[-6.828441973775625,61.57221238128841,200.08],[-6.828604750335217,61.57214482314885,200.85],[-6.828728886321187,61.572063183411956,200.51],[-6.828844221308827,61.57199311070144,198.42],[-6.828953102231026,61.571917003020644,198.1],[-6.829057205468416,61.571841817349195,195.03],[-6.829222580417991,61.5717828925699,194.66],[-6.829360378906131,61.57170904800296,196.12],[-6.829512426629663,61.5716462675482,195.68],[-6.829697582870722,61.57158700749278,197.64],[-6.829811660572887,61.57150813378394,196.53],[-6.829917104914784,61.57143093645573,194.4],[-6.829986674711108,61.571330688893795,191.37],[-6.830079378560185,61.57123320735991,190.06],[-6.830238299444318,61.57117621041834,189.09],[-6.8303859885782,61.57110999338329,189.28],[-6.830552956089377,61.57104645855725,189.91],[-6.830761330202222,61.57100957818329,189.77],[-6.830947576090694,61.57097554765642,188.36],[-6.831133486703038,61.57093472778797,187.98],[-6.831275308504701,61.57087228260934,185.07],[-6.831415705382824,61.570808412507176,183.9],[-6.831530872732401,61.570725766941905,182.46],[-6.83170479722321,61.57066256739199,179.5],[-6.831804122775793,61.57058662734926,177.03],[-6.831868328154087,61.57049962319434,176.17],[-6.832010820508003,61.57043835148215,171.95],[-6.832171585410833,61.57037657685578,170.31],[-6.832279209047556,61.57029309310019,168.45],[-6.83242061175406,61.570220505818725,164.16],[-6.832483811303973,61.57012595795095,163.4],[-6.832522368058562,61.570031912997365,163.67],[-6.832519853487611,61.56993535347283,164.89],[-6.832492360845208,61.56982940621674,162.82],[-6.832468304783106,61.56972865574062,160.23],[-6.832473501563072,61.56962228938937,161.95],[-6.832476099953055,61.569510307163,163.7],[-6.832418013364077,61.56941123306751,163.11],[-6.832384318113327,61.569295059889555,163.17],[-6.8323062825948,61.56919799745083,163.81],[-6.832212824374437,61.569116273894906,163.7],[-6.832164796069264,61.56901393085718,164.33],[-6.832134202122688,61.56890530139208,162.78],[-6.832130681723356,61.56880455091596,161.19],[-6.832109726965427,61.56870153732598,160.78],[-6.832025907933712,61.56860942021012,160.39],[-6.83193345554173,61.56852459535003,159.61],[-6.831818539649248,61.56844689510763,159.33],[-6.831726673990488,61.56835712492466,160.5],[-6.831617373973131,61.56825746409595,157.69],[-6.831481838598847,61.56818579882383,157.84],[-6.831362647935748,61.56809669919312,156.08],[-6.83125670067966,61.5680096950382,154.67],[-6.831131391227245,61.56792847439647,153.84],[-6.830988312140107,61.567845325917006,152.9],[-6.83082913979888,61.56778899952769,152.81],[-6.830679019913077,61.56771934591234,152.62],[-6.830520015209913,61.56765497289598,152.96],[-6.830371906980872,61.56759202480316,152.1],[-6.830237628892064,61.56752002425492,150.45],[-6.830168813467026,61.56743519939482,149.92],[-6.830082396045327,61.56734962016344,152.71],[-6.829955074936152,61.567270159721375,150.4],[-6.829834962263703,61.5671808924526,147.9],[-6.829719627276063,61.567119620740414,146.82],[-6.829591132700443,61.567039238289,144.14],[-6.829473450779915,61.56696011312306,142.51],[-6.829381752759218,61.56687285751104,144.26],[-6.829292485490441,61.56678996048868,143.77],[-6.829191735014319,61.56671938486397,141.02],[-6.829106071963906,61.566655011847615,135.99],[-6.829110765829682,61.56655442900956,130.26],[-6.829134905710816,61.56646616756916,123.71],[-6.829157285392284,61.56636977568269,118.82],[-6.82910037226975,61.5662984456867,116.85],[-6.828930722549558,61.56622971408069,116.24],[-6.828800048679113,61.56615897081792,116.93],[-6.828639283776283,61.566105829551816,116.55],[-6.828468712046742,61.56605117954314,115.23],[-6.828312892466784,61.56598035246134,114.06],[-6.828140560537577,61.56590860337019,113.5],[-6.827973173931241,61.56584984622896,113.35],[-6.827798411250114,61.56578832305968,112.11],[-6.827639322727919,61.565738786011934,113.33],[-6.827460452914238,61.56569327227771,112.35],[-6.827290300279856,61.565646501258016,110.91],[-6.827118052169681,61.565601490437984,109.98],[-6.826955024152994,61.56553468666971,108.97],[-6.826814711093903,61.56546645797789,108.63],[-6.826648246496916,61.565412897616625,108.94],[-6.826471807435155,61.56536855734885,109.26],[-6.82630492374301,61.565321534872055,108.75],[-6.826123623177409,61.56527048908174,108.14],[-6.825976436957717,61.565216928720474,107.34],[-6.82582170702517,61.56515557318926,107.02],[-6.825684159994125,61.565090361982584,106.8],[-6.825532615184784,61.56503546051681,106.38],[-6.825369587168098,61.56498625874519,106.01],[-6.825207145884633,61.56492012552917,105.53],[-6.825029449537396,61.564866816625,105.03],[-6.824870528653264,61.5648078918457,104.34],[-6.824711188673973,61.56473622657359,103.65],[-6.824548998847604,61.56466514803469,102.71],[-6.824391251429915,61.564596835523844,101.66],[-6.824254123494029,61.564514273777604,101.16],[-6.824113810434938,61.56444076448679,100.69],[-6.82396980933845,61.56437136232853,100.48],[-6.82383687235415,61.56430648639798,99.35],[-6.823694296181202,61.56424194574356,99.02],[-6.823539817705751,61.56417463906109,97.91],[-6.823394810780883,61.56411336734891,97.08],[-6.823271345347166,61.56402577646077,96.11],[-6.823145700618625,61.56394137069583,95.27],[-6.823064479976893,61.563843972980976,94.6],[-6.823000609874725,61.56375537626445,93.66],[-6.822929112240672,61.56366418115795,93.26],[-6.822830205783248,61.56356946565211,92.78],[-6.822721995413303,61.56348447315395,92.31],[-6.822628537192941,61.563401240855455,90.6],[-6.822535833343864,61.56332437880337,89.94],[-6.82238613255322,61.56323879957199,88.33],[-6.822263589128852,61.56314651481807,87.31],[-6.822171807289124,61.56306143850088,87.13],[-6.822068206965923,61.56296806409955,85.71],[-6.821980867534876,61.56288307160139,85.3],[-6.821890091523528,61.56277930364013,85.84],[-6.82178758084774,61.5626772120595,83.75],[-6.821697223931551,61.56259188428521,82.45],[-6.821628576144576,61.56249859370291,81.95],[-6.821540985256434,61.56240069307387,81.32],[-6.821468733251095,61.562307234853506,80.14],[-6.8213751912117,61.56222375109792,79.35],[-6.821253150701523,61.56213347800076,77.81],[-6.82116748765111,61.56204991042614,76.73],[-6.821090877056122,61.56196114607155,76.55],[-6.821014769375324,61.561857210472226,75.4],[-6.820924580097199,61.56176165677607,74.87],[-6.820847969502211,61.56166090629995,74.93],[-6.820771526545286,61.56156384386122,74.43],[-6.820664657279849,61.56146761961281,74.42],[-6.820541443303227,61.561378855258226,74.36],[-6.820427281782031,61.561301155015826,74.67],[-6.820310270413756,61.56122211366892,74.68],[-6.820165179669857,61.56114147976041,74.84],[-6.820041546598077,61.56106419861317,74.56],[-6.819931911304593,61.56098230741918,74.18],[-6.819789251312614,61.5608985722065,73.6],[-6.819681376218796,61.56081140041351,73.01],[-6.819604681804776,61.56072028912604,72.06],[-6.819507787004113,61.56062465161085,71.63],[-6.819443916901946,61.56052163802087,70.27],[-6.819388680160046,61.560423988848925,70.64],[-6.819321038201451,61.56033136881888,70.98],[-6.819243337959051,61.5602354798466,72.57],[-6.819135462865233,61.56013925559819,72.45],[-6.819006465375423,61.56007052399218,71.87],[-6.818906050175428,61.559985280036926,72.51],[-6.818757522851229,61.559906490147114,72.06],[-6.818635649979115,61.559837590903044,73],[-6.818525511771441,61.559757962822914,72.99],[-6.818406404927373,61.559680765494704,73.72],[-6.818271037191153,61.55959518626332,74.52],[-6.818113289773464,61.55950994230807,74.52],[-6.817979933694005,61.55942151322961,74.94],[-6.817841716110706,61.55933526344597,75.34],[-6.817694613710046,61.559246918186545,74.18],[-6.817576428875327,61.55916611663997,73.85],[-6.817452041432262,61.55909269116819,74.11],[-6.817326564341784,61.55901356600225,73.99],[-6.817200584337115,61.55893921852112,74.1],[-6.817049877718091,61.558859925717115,73.24],[-6.816913587972522,61.55878474004567,72.81],[-6.816776962950826,61.558715337887406,72.82],[-6.816622233018279,61.5586450137198,72.67],[-6.816456774249673,61.558586340397596,73.42],[-6.816290058195591,61.5585290081799,72.79],[-6.816134238615632,61.55845206230879,72.92],[-6.815978586673737,61.55839255079627,72.76],[-6.815808266401291,61.55834024772048,72.9],[-6.815616572275758,61.55828811228275,73.24],[-6.815428817644715,61.55822407454252,73.02],[-6.815259419381619,61.558160120621324,73.04],[-6.815069820731878,61.55810169875622,73.01],[-6.814868152141571,61.55805828049779,73.21],[-6.814683163538575,61.5580128505826,72.87],[-6.814510161057115,61.55795560218394,73],[-6.814291561022401,61.55790254473686,72.3],[-6.81410732679069,61.55786817893386,72.72],[-6.813902389258146,61.557828364893794,72.67],[-6.813745815306902,61.55777044594288,73.11],[-6.813635006546974,61.557687213644385,70.01],[-6.813466781750321,61.557622756808996,68.87],[-6.813316745683551,61.55755637213588,64.82],[-6.813172157853842,61.55748713761568,62.88],[-6.813010973855853,61.557419914752245,60.31],[-6.812851466238499,61.557354871183634,57.81],[-6.812707548961043,61.55729259364307,54.6],[-6.812561117112637,61.557224951684475,51.74],[-6.812377888709307,61.5571615844965,49.9],[-6.812215028330684,61.55711464583874,50.25],[-6.812010761350393,61.55712210573256,50.38],[-6.811756454408169,61.55715010128915,49.59],[-6.811457220464945,61.55709612183273,45.49],[-6.811080034822226,61.55692387372255,42.04],[-6.810873337090015,61.5568230394274,39.4],[-6.810672506690025,61.5567609295249,38.83],[-6.810501767322421,61.5567247197032,37.25],[-6.810320047661662,61.55667208135128,34.84],[-6.810202868655324,61.5565986558795,32.38],[-6.810248298570514,61.5564982406795,29.55],[-6.810296913608909,61.556391371414065,26.33],[-6.810336308553815,61.55629137530923,25.47],[-6.810383666306734,61.556205628439784,23.54],[-6.810451811179519,61.556096663698554,21.4],[-6.810489194467664,61.55599524267018,20.02],[-6.810328010469675,61.555964816361666,19.74],[-6.810130532830954,61.555952075868845,19.45],[-6.809917716309428,61.5559646487236,18.97],[-6.809727950021625,61.555934473872185,17.94],[-6.80952443741262,61.55590446665883,16.87],[-6.809263760223985,61.55588334426284,16.11],[-6.809051698073745,61.55586347915232,15.46],[-6.808846173807979,61.55585861764848,14.58],[-6.808615420013666,61.555789383128285,14.19],[-6.808428755030036,61.55570598319173,14.1],[-6.808401513844729,61.55559022910893,13.98],[-6.808435712009668,61.55548662878573,12.44],[-6.808466054499149,61.55539099127054,10.63],[-6.80849882774055,61.55528831295669,8.29],[-6.808494133874774,61.55519242398441,5.33],[-6.80854182690382,61.55510860495269,5.56],[-6.808360107243061,61.55509075149894,6.63],[-6.808210574090481,61.555078346282244,7.46],[-6.807998260483146,61.55501221306622,6.84],[-6.807804889976978,61.55496921390295,6.9],[-6.807597102597356,61.554927974939346,6.85],[-6.807410269975662,61.55489151366055,6.84],[-6.807199632748961,61.55485404655337,6.82]]}},{"type":"Feature","properties":{"name":"WP1 03_HV","type":"user","time":"2020-07-18T09:22:09Z","gpxx_WaypointExtension":"SymbolAndName","gpxx_DisplayMode":"SymbolAndName","wptx1_WaypointExtension":"SymbolAndName","wptx1_DisplayMode":"SymbolAndName","ctx_CreationTimeExtension":"2020-07-18T09:22:09Z","ctx_CreationTime":"2020-07-18T09:22:09Z","sym":"Flag, Blue"},"geometry":{"type":"Point","coordinates":[-6.828325968235731,61.56596903689206,117.267014]}},{"type":"Feature","properties":{"name":"WP2 06_HV","type":"user","time":"2020-07-18T09:45:10Z","gpxx_WaypointExtension":"SymbolAndName","gpxx_DisplayMode":"SymbolAndName","wptx1_WaypointExtension":"SymbolAndName","wptx1_DisplayMode":"SymbolAndName","ctx_CreationTimeExtension":"2020-07-18T09:45:10Z","ctx_CreationTime":"2020-07-18T09:45:10Z","sym":"Flag, Blue"},"geometry":{"type":"Point","coordinates":[-6.824065027758479,61.57521301880479,172.283539]}},{"type":"Feature","properties":{"name":"WP3 10_HV","type":"user","time":"2020-07-18T10:04:53Z","gpxx_WaypointExtension":"SymbolAndName","gpxx_DisplayMode":"SymbolAndName","wptx1_WaypointExtension":"SymbolAndName","wptx1_DisplayMode":"SymbolAndName","ctx_CreationTimeExtension":"2020-07-18T10:04:53Z","ctx_CreationTime":"2020-07-18T10:04:53Z","sym":"Flag, Blue"},"geometry":{"type":"Point","coordinates":[-6.835136013105512,61.578559996560216,88.125786]}}]}