{"type":"FeatureCollection","features":[{"type":"Feature","properties":{"_gpxType":"trk","name":"26 Rundweg Tvøroyri Frodba CS","time":"2020-07-18T11:15:47Z","gpxx_TrackExtension":"Blue","gpxx_DisplayColor":"Blue","coordinateProperties":{"times":["2020-07-18T11:15:47Z","2020-07-18T11:16:11Z","2020-07-18T11:16:18Z","2020-07-18T11:16:25Z","2020-07-18T11:16:31Z","2020-07-18T11:16:38Z","2020-07-18T11:16:44Z","2020-07-18T11:16:51Z","2020-07-18T11:16:58Z","2020-07-18T11:17:07Z","2020-07-18T11:17:14Z","2020-07-18T11:17:20Z","2020-07-18T11:17:27Z","2020-07-18T11:18:52Z","2020-07-18T11:18:59Z","2020-07-18T11:19:05Z","2020-07-18T11:19:12Z","2020-07-18T11:19:19Z","2020-07-18T11:19:26Z","2020-07-18T11:19:33Z","2020-07-18T11:19:39Z","2020-07-18T11:19:46Z","2020-07-18T11:19:53Z","2020-07-18T11:20:00Z","2020-07-18T11:20:07Z","2020-07-18T11:20:14Z","2020-07-18T11:20:21Z","2020-07-18T11:20:27Z","2020-07-18T11:20:33Z","2020-07-18T11:20:40Z","2020-07-18T11:20:47Z","2020-07-18T11:20:54Z","2020-07-18T11:21:01Z","2020-07-18T11:21:08Z","2020-07-18T11:21:15Z","2020-07-18T11:21:23Z","2020-07-18T11:21:30Z","2020-07-18T11:21:37Z","2020-07-18T11:21:44Z","2020-07-18T11:21:51Z","2020-07-18T11:21:58Z","2020-07-18T11:22:04Z","2020-07-18T11:22:11Z","2020-07-18T11:22:18Z","2020-07-18T11:22:24Z","2020-07-18T11:22:30Z","2020-07-18T11:22:37Z","2020-07-18T11:22:44Z","2020-07-18T12:28:43Z","2020-07-18T12:28:50Z","2020-07-18T12:28:56Z","2020-07-18T12:29:03Z","2020-07-18T12:29:10Z","2020-07-18T12:29:16Z","2020-07-18T12:29:24Z","2020-07-18T12:29:30Z","2020-07-18T12:29:36Z","2020-07-18T12:29:43Z","2020-07-18T12:29:50Z","2020-07-18T12:29:58Z","2020-07-18T12:30:06Z","2020-07-18T12:30:12Z","2020-07-18T12:30:18Z","2020-07-18T12:30:25Z","2020-07-18T12:30:32Z","2020-07-18T12:30:39Z","2020-07-18T12:30:47Z","2020-07-18T12:30:55Z","2020-07-18T12:31:03Z","2020-07-18T12:31:10Z","2020-07-18T12:31:16Z","2020-07-18T12:31:23Z","2020-07-18T12:31:31Z","2020-07-18T12:31:38Z","2020-07-18T12:31:45Z","2020-07-18T12:31:52Z","2020-07-18T12:31:59Z","2020-07-18T12:32:07Z","2020-07-18T12:32:14Z","2020-07-18T12:32:22Z","2020-07-18T12:32:29Z","2020-07-18T12:32:36Z","2020-07-18T12:32:43Z","2020-07-18T12:32:51Z","2020-07-18T12:32:59Z","2020-07-18T12:33:06Z","2020-07-18T12:33:13Z","2020-07-18T12:33:20Z","2020-07-18T12:33:26Z","2020-07-18T12:33:32Z","2020-07-18T12:33:38Z","2020-07-18T12:33:44Z","2020-07-18T12:33:51Z","2020-07-18T12:33:58Z","2020-07-18T12:34:05Z","2020-07-18T12:34:11Z","2020-07-18T12:34:17Z","2020-07-18T12:34:24Z","2020-07-18T12:34:31Z","2020-07-18T12:34:38Z","2020-07-18T12:34:44Z","2020-07-18T12:34:51Z","2020-07-18T12:34:58Z","2020-07-18T12:35:05Z","2020-07-18T12:35:11Z","2020-07-18T12:35:17Z","2020-07-18T12:35:24Z","2020-07-18T12:35:30Z","2020-07-18T12:35:37Z","2020-07-18T12:35:43Z","2020-07-18T12:35:49Z","2020-07-18T12:35:56Z","2020-07-18T12:36:03Z","2020-07-18T12:36:10Z","2020-07-18T12:36:17Z","2020-07-18T12:36:23Z","2020-07-18T12:36:29Z","2020-07-18T12:36:35Z","2020-07-18T12:36:41Z","2020-07-18T12:36:48Z","2020-07-18T12:36:54Z","2020-07-18T12:37:00Z","2020-07-18T12:37:07Z","2020-07-18T12:37:14Z","2020-07-18T12:37:20Z","2020-07-18T12:37:26Z","2020-07-18T12:37:33Z","2020-07-18T12:37:40Z","2020-07-18T12:37:47Z","2020-07-18T12:37:53Z","2020-07-18T12:37:59Z","2020-07-18T12:38:06Z","2020-07-18T12:38:13Z","2020-07-18T12:38:19Z","2020-07-18T12:38:25Z","2020-07-18T12:38:31Z","2020-07-18T12:38:37Z","2020-07-18T12:38:44Z","2020-07-18T12:38:51Z","2020-07-18T12:38:57Z","2020-07-18T12:39:03Z","2020-07-18T12:39:10Z","2020-07-18T12:39:17Z","2020-07-18T12:39:24Z","2020-07-18T12:39:30Z","2020-07-18T12:39:36Z","2020-07-18T12:39:43Z","2020-07-18T12:39:50Z","2020-07-18T12:39:56Z","2020-07-18T12:40:02Z","2020-07-18T12:40:08Z","2020-07-18T12:40:15Z","2020-07-18T12:40:21Z","2020-07-18T12:40:27Z","2020-07-18T12:40:33Z","2020-07-18T12:40:39Z","2020-07-18T12:40:46Z","2020-07-18T12:40:53Z","2020-07-18T12:41:00Z","2020-07-18T12:41:06Z","2020-07-18T12:41:13Z","2020-07-18T12:41:19Z","2020-07-18T12:41:26Z","2020-07-18T12:41:32Z","2020-07-18T12:41:39Z","2020-07-18T12:41:46Z","2020-07-18T12:41:53Z","2020-07-18T12:41:59Z","2020-07-18T12:42:05Z","2020-07-18T12:42:12Z","2020-07-18T12:42:19Z","2020-07-18T12:42:26Z","2020-07-18T12:42:33Z","2020-07-18T12:42:40Z","2020-07-18T12:42:47Z","2020-07-18T12:42:54Z","2020-07-18T12:43:02Z","2020-07-18T12:43:09Z","2020-07-18T12:43:16Z","2020-07-18T12:43:23Z","2020-07-18T12:43:29Z","2020-07-18T12:43:35Z","2020-07-18T12:43:42Z","2020-07-18T12:43:49Z","2020-07-18T12:43:55Z","2020-07-18T12:44:01Z","2020-07-18T12:44:08Z","2020-07-18T12:44:15Z","2020-07-18T12:44:22Z","2020-07-18T12:45:09Z","2020-07-18T12:46:22Z","2020-07-18T12:46:29Z","2020-07-18T12:46:36Z","2020-07-18T12:46:43Z","2020-07-18T12:46:50Z","2020-07-18T12:46:57Z","2020-07-18T12:47:03Z","2020-07-18T12:47:10Z","2020-07-18T12:47:17Z","2020-07-18T12:47:24Z","2020-07-18T12:47:31Z","2020-07-18T12:47:38Z","2020-07-18T12:47:45Z","2020-07-18T12:47:53Z","2020-07-18T12:48:00Z","2020-07-18T12:48:06Z","2020-07-18T12:48:13Z","2020-07-18T12:48:20Z","2020-07-18T12:48:26Z","2020-07-18T12:48:33Z","2020-07-18T12:48:39Z","2020-07-18T12:48:46Z","2020-07-18T12:48:51Z","2020-07-18T12:48:58Z","2020-07-18T12:49:04Z","2020-07-18T12:49:11Z","2020-07-18T12:49:21Z","2020-07-18T12:49:31Z","2020-07-18T12:50:02Z","2020-07-18T12:50:09Z","2020-07-18T12:50:16Z","2020-07-18T12:50:23Z","2020-07-18T12:50:30Z","2020-07-18T12:50:38Z","2020-07-18T12:50:45Z","2020-07-18T12:50:52Z","2020-07-18T12:50:59Z","2020-07-18T12:51:06Z","2020-07-18T12:51:13Z","2020-07-18T12:51:20Z","2020-07-18T12:51:27Z","2020-07-18T12:51:34Z","2020-07-18T12:51:42Z","2020-07-18T12:51:55Z","2020-07-18T12:52:09Z","2020-07-18T12:52:24Z","2020-07-18T12:52:52Z","2020-07-18T12:53:04Z","2020-07-18T12:53:14Z","2020-07-18T12:53:24Z","2020-07-18T12:53:44Z","2020-07-18T12:53:58Z","2020-07-18T12:54:11Z","2020-07-18T12:54:23Z","2020-07-18T12:54:34Z","2020-07-18T12:54:46Z","2020-07-18T12:55:29Z","2020-07-18T12:55:36Z","2020-07-18T12:55:44Z","2020-07-18T12:56:26Z","2020-07-18T12:56:34Z","2020-07-18T12:56:41Z","2020-07-18T12:56:48Z","2020-07-18T12:56:56Z","2020-07-18T12:57:04Z","2020-07-18T12:57:12Z","2020-07-18T12:57:20Z","2020-07-18T12:57:44Z","2020-07-18T12:57:52Z","2020-07-18T12:58:00Z","2020-07-18T12:58:07Z","2020-07-18T12:58:15Z","2020-07-18T12:58:23Z","2020-07-18T12:58:32Z","2020-07-18T12:58:44Z","2020-07-18T12:58:52Z","2020-07-18T12:58:59Z","2020-07-18T12:59:06Z","2020-07-18T12:59:12Z","2020-07-18T12:59:18Z","2020-07-18T12:59:24Z","2020-07-18T12:59:31Z","2020-07-18T12:59:37Z","2020-07-18T12:59:44Z","2020-07-18T13:00:00Z","2020-07-18T13:00:07Z","2020-07-18T13:00:14Z","2020-07-18T13:00:21Z","2020-07-18T13:00:28Z","2020-07-18T13:00:35Z","2020-07-18T13:00:41Z","2020-07-18T13:00:47Z","2020-07-18T13:00:54Z","2020-07-18T13:01:01Z","2020-07-18T13:01:08Z","2020-07-18T13:01:16Z","2020-07-18T13:01:23Z","2020-07-18T13:01:31Z","2020-07-18T13:01:39Z","2020-07-18T13:01:47Z","2020-07-18T13:01:55Z","2020-07-18T13:02:03Z","2020-07-18T13:02:11Z","2020-07-18T13:02:19Z","2020-07-18T13:02:30Z","2020-07-18T13:04:03Z","2020-07-18T13:04:11Z","2020-07-18T13:04:24Z","2020-07-18T13:04:32Z","2020-07-18T13:04:39Z","2020-07-18T13:04:48Z","2020-07-18T13:04:56Z","2020-07-18T13:05:03Z","2020-07-18T13:05:12Z","2020-07-18T13:05:19Z","2020-07-18T13:05:27Z","2020-07-18T13:05:41Z","2020-07-18T13:06:33Z","2020-07-18T13:06:49Z","2020-07-18T13:06:56Z","2020-07-18T13:07:03Z","2020-07-18T13:07:11Z","2020-07-18T13:07:20Z","2020-07-18T13:08:46Z","2020-07-18T13:08:59Z","2020-07-18T13:09:12Z","2020-07-18T13:09:22Z","2020-07-18T13:10:33Z","2020-07-18T13:10:44Z","2020-07-18T13:10:53Z","2020-07-18T13:11:00Z","2020-07-18T13:11:06Z","2020-07-18T13:11:12Z","2020-07-18T13:11:19Z","2020-07-18T13:11:26Z","2020-07-18T13:11:33Z","2020-07-18T13:11:40Z","2020-07-18T13:11:47Z","2020-07-18T13:11:54Z","2020-07-18T13:12:01Z","2020-07-18T13:12:26Z","2020-07-18T13:12:41Z","2020-07-18T13:12:48Z","2020-07-18T13:12:55Z","2020-07-18T13:13:02Z","2020-07-18T13:13:08Z","2020-07-18T13:13:15Z","2020-07-18T13:13:22Z","2020-07-18T13:13:33Z","2020-07-18T13:13:39Z","2020-07-18T13:13:46Z","2020-07-18T13:13:52Z","2020-07-18T13:13:59Z","2020-07-18T13:14:06Z","2020-07-18T13:14:12Z","2020-07-18T13:14:18Z","2020-07-18T13:14:24Z","2020-07-18T13:14:30Z","2020-07-18T13:14:36Z","2020-07-18T13:14:42Z","2020-07-18T13:14:49Z","2020-07-18T13:14:55Z","2020-07-18T13:15:01Z","2020-07-18T13:15:08Z","2020-07-18T13:15:14Z","2020-07-18T13:15:20Z","2020-07-18T13:15:27Z","2020-07-18T13:15:33Z","2020-07-18T13:15:40Z","2020-07-18T13:15:47Z","2020-07-18T13:15:54Z","2020-07-18T13:16:00Z","2020-07-18T13:16:07Z","2020-07-18T13:16:14Z","2020-07-18T13:16:20Z","2020-07-18T13:16:26Z","2020-07-18T13:16:33Z","2020-07-18T13:16:40Z","2020-07-18T13:16:47Z","2020-07-18T13:16:54Z","2020-07-18T13:17:01Z","2020-07-18T13:17:08Z","2020-07-18T13:17:15Z","2020-07-18T13:17:22Z","2020-07-18T13:17:29Z","2020-07-18T13:17:36Z","2020-07-18T13:17:44Z","2020-07-18T13:18:15Z","2020-07-18T13:18:22Z","2020-07-18T13:18:29Z","2020-07-18T13:18:37Z","2020-07-18T13:19:56Z","2020-07-18T13:20:03Z","2020-07-18T13:20:10Z","2020-07-18T13:20:17Z","2020-07-18T13:20:24Z","2020-07-18T13:20:31Z","2020-07-18T13:20:38Z","2020-07-18T13:20:45Z","2020-07-18T13:20:51Z","2020-07-18T13:20:58Z","2020-07-18T13:21:04Z","2020-07-18T13:21:11Z","2020-07-18T13:21:17Z","2020-07-18T13:21:24Z","2020-07-18T13:21:30Z","2020-07-18T13:21:36Z","2020-07-18T13:21:43Z","2020-07-18T13:21:50Z","2020-07-18T13:21:57Z","2020-07-18T13:22:04Z","2020-07-18T13:22:11Z","2020-07-18T13:22:20Z","2020-07-18T13:22:27Z","2020-07-18T13:22:35Z","2020-07-18T13:22:42Z","2020-07-18T13:22:49Z","2020-07-18T13:22:56Z","2020-07-18T13:23:03Z","2020-07-18T13:23:10Z","2020-07-18T13:23:17Z","2020-07-18T13:23:24Z","2020-07-18T13:23:30Z","2020-07-18T13:23:37Z","2020-07-18T13:23:44Z","2020-07-18T13:23:51Z","2020-07-18T13:23:58Z","2020-07-18T13:24:06Z","2020-07-18T13:24:13Z","2020-07-18T13:24:21Z","2020-07-18T13:24:28Z","2020-07-18T13:24:35Z","2020-07-18T13:24:43Z","2020-07-18T13:24:50Z","2020-07-18T13:24:58Z","2020-07-18T13:25:05Z","2020-07-18T13:25:12Z","2020-07-18T13:25:20Z","2020-07-18T13:25:28Z","2020-07-18T13:25:35Z","2020-07-18T13:25:42Z","2020-07-18T13:25:49Z","2020-07-18T13:25:56Z","2020-07-18T13:26:04Z","2020-07-18T13:26:11Z","2020-07-18T13:26:18Z","2020-07-18T13:26:25Z","2020-07-18T13:26:33Z","2020-07-18T13:26:40Z","2020-07-18T13:26:48Z","2020-07-18T13:27:42Z","2020-07-18T13:27:49Z","2020-07-18T13:27:56Z","2020-07-18T13:28:03Z","2020-07-18T13:28:10Z","2020-07-18T13:28:16Z","2020-07-18T13:28:22Z","2020-07-18T13:28:28Z","2020-07-18T13:28:35Z","2020-07-18T13:28:42Z","2020-07-18T13:28:49Z","2020-07-18T13:28:56Z","2020-07-18T13:29:03Z","2020-07-18T13:29:09Z","2020-07-18T13:29:16Z","2020-07-18T13:29:22Z","2020-07-18T13:29:29Z","2020-07-18T13:29:35Z","2020-07-18T13:29:42Z","2020-07-18T13:29:49Z","2020-07-18T13:29:56Z","2020-07-18T13:30:04Z","2020-07-18T13:30:16Z","2020-07-18T13:30:24Z","2020-07-18T13:30:31Z","2020-07-18T13:30:38Z","2020-07-18T13:30:45Z","2020-07-18T13:30:54Z","2020-07-18T13:31:02Z","2020-07-18T13:31:09Z","2020-07-18T13:31:15Z","2020-07-18T13:31:22Z","2020-07-18T13:31:28Z","2020-07-18T13:31:35Z","2020-07-18T13:31:42Z","2020-07-18T13:31:49Z","2020-07-18T13:31:55Z","2020-07-18T13:32:01Z","2020-07-18T13:32:07Z","2020-07-18T13:32:14Z","2020-07-18T13:32:21Z","2020-07-18T13:32:27Z","2020-07-18T13:32:33Z","2020-07-18T13:32:40Z","2020-07-18T13:32:46Z","2020-07-18T13:32:52Z","2020-07-18T13:32:59Z","2020-07-18T13:33:06Z","2020-07-18T13:33:13Z","2020-07-18T13:33:20Z","2020-07-18T13:33:26Z","2020-07-18T13:33:32Z","2020-07-18T13:33:39Z","2020-07-18T13:33:46Z","2020-07-18T13:33:53Z","2020-07-18T13:34:00Z","2020-07-18T13:34:06Z","2020-07-18T13:34:12Z","2020-07-18T13:34:18Z","2020-07-18T13:34:25Z","2020-07-18T13:34:31Z","2020-07-18T13:34:38Z","2020-07-18T13:34:44Z","2020-07-18T13:34:50Z","2020-07-18T13:34:57Z","2020-07-18T13:35:03Z","2020-07-18T13:35:09Z","2020-07-18T13:35:16Z","2020-07-18T13:35:22Z","2020-07-18T13:35:29Z","2020-07-18T13:35:36Z","2020-07-18T13:35:42Z","2020-07-18T13:36:37Z","2020-07-18T13:36:44Z","2020-07-18T13:37:32Z","2020-07-18T13:37:39Z","2020-07-18T13:37:45Z","2020-07-18T13:37:52Z","2020-07-18T13:37:58Z","2020-07-18T13:38:04Z","2020-07-18T13:38:11Z","2020-07-18T13:38:17Z","2020-07-18T13:38:24Z","2020-07-18T13:38:30Z","2020-07-18T13:38:36Z","2020-07-18T13:38:43Z","2020-07-18T13:38:49Z","2020-07-18T13:38:55Z","2020-07-18T13:39:01Z","2020-07-18T13:39:08Z","2020-07-18T13:39:14Z","2020-07-18T13:39:20Z","2020-07-18T13:39:27Z","2020-07-18T13:39:34Z","2020-07-18T13:39:41Z","2020-07-18T13:39:48Z","2020-07-18T13:39:55Z","2020-07-18T13:40:01Z","2020-07-18T13:40:08Z","2020-07-18T13:40:14Z","2020-07-18T13:40:20Z","2020-07-18T13:40:27Z","2020-07-18T13:40:33Z","2020-07-18T13:40:39Z","2020-07-18T13:40:45Z","2020-07-18T13:40:51Z","2020-07-18T13:40:57Z","2020-07-18T13:41:04Z","2020-07-18T13:41:11Z","2020-07-18T13:41:18Z","2020-07-18T13:41:25Z","2020-07-18T13:41:32Z","2020-07-18T13:41:39Z","2020-07-18T13:41:46Z","2020-07-18T13:41:53Z","2020-07-18T13:42:00Z","2020-07-18T13:42:07Z","2020-07-18T13:42:15Z","2020-07-18T13:43:26Z","2020-07-18T13:43:32Z","2020-07-18T13:43:38Z","2020-07-18T13:43:44Z","2020-07-18T13:43:50Z","2020-07-18T13:43:56Z","2020-07-18T13:44:02Z","2020-07-18T13:44:08Z","2020-07-18T13:44:14Z","2020-07-18T13:44:20Z","2020-07-18T13:44:26Z","2020-07-18T13:44:32Z","2020-07-18T13:44:38Z","2020-07-18T13:44:44Z","2020-07-18T13:44:50Z","2020-07-18T13:44:56Z","2020-07-18T13:45:02Z","2020-07-18T13:45:09Z","2020-07-18T13:45:17Z","2020-07-18T13:45:24Z","2020-07-18T13:45:31Z","2020-07-18T13:45:39Z","2020-07-18T13:45:46Z","2020-07-18T13:45:53Z","2020-07-18T13:45:59Z","2020-07-18T13:46:05Z","2020-07-18T13:46:12Z","2020-07-18T13:46:19Z","2020-07-18T13:46:26Z","2020-07-18T13:46:33Z","2020-07-18T13:46:40Z","2020-07-18T13:46:46Z","2020-07-18T13:46:56Z","2020-07-18T13:48:06Z","2020-07-18T13:48:12Z","2020-07-18T13:48:19Z","2020-07-18T13:48:25Z","2020-07-18T13:48:31Z","2020-07-18T13:48:37Z","2020-07-18T13:48:43Z","2020-07-18T13:48:49Z","2020-07-18T13:48:56Z","2020-07-18T13:49:02Z","2020-07-18T13:49:09Z","2020-07-18T13:49:15Z","2020-07-18T13:49:21Z","2020-07-18T13:49:27Z","2020-07-18T13:49:33Z","2020-07-18T13:49:40Z","2020-07-18T13:49:46Z","2020-07-18T13:49:53Z","2020-07-18T13:49:59Z","2020-07-18T13:50:05Z","2020-07-18T13:50:11Z","2020-07-18T13:50:17Z","2020-07-18T13:50:23Z","2020-07-18T13:50:29Z","2020-07-18T13:50:35Z","2020-07-18T13:50:41Z","2020-07-18T13:50:47Z","2020-07-18T13:50:53Z","2020-07-18T13:50:59Z","2020-07-18T13:51:05Z","2020-07-18T13:51:11Z","2020-07-18T13:51:17Z","2020-07-18T13:51:23Z","2020-07-18T13:51:29Z","2020-07-18T13:51:36Z","2020-07-18T13:51:42Z","2020-07-18T13:51:48Z","2020-07-18T13:51:54Z","2020-07-18T13:52:01Z","2020-07-18T13:52:07Z","2020-07-18T13:52:13Z","2020-07-18T13:52:19Z","2020-07-18T13:52:25Z","2020-07-18T13:52:31Z","2020-07-18T13:52:37Z","2020-07-18T13:52:43Z","2020-07-18T13:52:49Z","2020-07-18T13:52:55Z","2020-07-18T13:53:02Z","2020-07-18T13:53:08Z","2020-07-18T13:53:15Z","2020-07-18T13:53:21Z","2020-07-18T13:53:27Z","2020-07-18T13:53:33Z","2020-07-18T13:53:39Z","2020-07-18T13:53:45Z","2020-07-18T13:53:51Z","2020-07-18T13:53:57Z","2020-07-18T13:54:03Z","2020-07-18T13:54:09Z","2020-07-18T13:54:16Z","2020-07-18T13:54:22Z","2020-07-18T13:54:29Z","2020-07-18T13:54:35Z","2020-07-18T13:54:41Z","2020-07-18T13:54:48Z","2020-07-18T13:54:54Z","2020-07-18T13:55:00Z","2020-07-18T13:55:06Z","2020-07-18T13:55:12Z","2020-07-18T13:55:18Z","2020-07-18T13:55:24Z","2020-07-18T13:55:31Z","2020-07-18T13:55:37Z","2020-07-18T13:55:44Z","2020-07-18T13:55:50Z","2020-07-18T13:55:56Z","2020-07-18T13:56:03Z","2020-07-18T13:56:10Z","2020-07-18T13:56:18Z","2020-07-18T13:56:24Z","2020-07-18T13:56:30Z","2020-07-18T13:56:36Z","2020-07-18T13:56:42Z","2020-07-18T13:56:48Z","2020-07-18T13:56:55Z","2020-07-18T13:57:01Z","2020-07-18T13:57:07Z","2020-07-18T13:57:13Z","2020-07-18T13:57:19Z","2020-07-18T13:57:25Z","2020-07-18T13:57:31Z","2020-07-18T13:57:38Z","2020-07-18T13:57:44Z","2020-07-18T13:57:50Z","2020-07-18T13:57:56Z","2020-07-18T13:58:02Z","2020-07-18T13:58:08Z","2020-07-18T13:58:15Z","2020-07-18T13:58:22Z","2020-07-18T13:58:28Z","2020-07-18T13:58:34Z","2020-07-18T13:58:40Z","2020-07-18T13:58:46Z","2020-07-18T13:58:53Z","2020-07-18T13:59:00Z","2020-07-18T13:59:07Z","2020-07-18T13:59:14Z","2020-07-18T13:59:21Z","2020-07-18T13:59:42Z"]}},"geometry":{"type":"LineString","coordinates":[[-6.806963682174683,61.554811550304294,10.39],[-6.806722786277533,61.554765701293945,9.17],[-6.806514160707593,61.554709961637855,8.93],[-6.806315090507269,61.55466578900814,8.72],[-6.806140411645174,61.55462781898677,9.28],[-6.80594963952899,61.55458942987025,9.5],[-6.805774373933673,61.55454207211733,9.75],[-6.805601036176086,61.55447912402451,11.29],[-6.805423423647881,61.554443249478936,11.27],[-6.805254360660911,61.554390946403146,11.09],[-6.805070964619517,61.55431249178946,11.18],[-6.804944481700659,61.55423915013671,10.41],[-6.804808611050248,61.554167652502656,10.21],[-6.804595459252596,61.554112415760756,10.57],[-6.80441633798182,61.554023399949074,9.04],[-6.804277030751109,61.55394025146961,7.73],[-6.804145770147443,61.55385517515242,7.63],[-6.804020795971155,61.55377923510969,7.54],[-6.80386858060956,61.55370857566595,8.13],[-6.80370831862092,61.55361612327397,8.16],[-6.803546128794551,61.553553929552436,7.82],[-6.80336382240057,61.55348729342222,8.4],[-6.803203392773867,61.55343507416546,8.72],[-6.803017565980554,61.55337589792907,8.68],[-6.802843390032649,61.55331722460687,8.67],[-6.80268413387239,61.5532361716032,8.27],[-6.802521022036672,61.55315696261823,9.27],[-6.802380960434675,61.55307825654745,9.1],[-6.802213825285435,61.55300843529403,9.48],[-6.802039900794625,61.55294582247734,9.46],[-6.801866814494133,61.55288312584162,10.03],[-6.80167025886476,61.552823446691036,10.46],[-6.801498346030712,61.55276242643595,10.74],[-6.801323583349586,61.55269822105765,10.54],[-6.801179079338908,61.55263896100223,11.83],[-6.800978668034077,61.55258037149906,10.74],[-6.800773311406374,61.55250275507569,10.32],[-6.800578851252794,61.55242941342294,9.95],[-6.800397885963321,61.55235657468438,9.73],[-6.800236366689205,61.552284406498075,9.06],[-6.800050036981702,61.55220561660826,9.07],[-6.799882231280208,61.55214526690543,8.47],[-6.799683831632137,61.55207695439458,7.98],[-6.799501273781061,61.55200713314116,8.22],[-6.799349142238498,61.55194653198123,7.75],[-6.799201117828488,61.5518909599632,7.72],[-6.799042783677578,61.55182398855686,7.59],[-6.79885670542717,61.55178425833583,7.15],[-6.798568451777101,61.55162860639393,-1.65],[-6.798379104584456,61.551562305539846,-0.88],[-6.798212807625532,61.5514974296093,-1.05],[-6.798021616414189,61.55145124532282,-0.14],[-6.797865377739072,61.551384860649705,-0.11],[-6.797720706090331,61.551312524825335,0.58],[-6.797562958672643,61.55124748125672,-0.06],[-6.797409150749445,61.55118972994387,0.06],[-6.797248721122742,61.551141031086445,0.41],[-6.79707856848836,61.55109442770481,1.35],[-6.796914953738451,61.551013542339206,1.29],[-6.796744633466005,61.550946068018675,1.91],[-6.79656894877553,61.55086359009147,2.02],[-6.796398879960179,61.55079334974289,1.94],[-6.796216070652008,61.55072939582169,2.63],[-6.796068046241999,61.550671895965934,2.97],[-6.795910550281405,61.55062152072787,3.95],[-6.795748611912131,61.550558153539896,4.93],[-6.795576028525829,61.55048212967813,5.56],[-6.795396655797958,61.55041666701436,6.11],[-6.795219965279102,61.55034676194191,6.74],[-6.795034138485789,61.55027937144041,7.27],[-6.794884353876114,61.55021969228983,8.01],[-6.794726941734552,61.550152050331235,8.94],[-6.794524267315865,61.55009790323675,9.54],[-6.794330393895507,61.55003596097231,10.35],[-6.794144064188004,61.54997209087014,10.62],[-6.793974246829748,61.549921464174986,10.86],[-6.793832676485181,61.549841249361634,11.49],[-6.793663110584021,61.54977226629853,12.3],[-6.793508380651474,61.54970613308251,14.29],[-6.793331522494555,61.54964494518936,14.74],[-6.793176122009754,61.54957914724946,15.87],[-6.793023655191064,61.549520306289196,17.49],[-6.792853754013777,61.54945643618703,19.11],[-6.792703131213784,61.54938041232526,20.13],[-6.792545886710286,61.54930346645415,19.79],[-6.792396940290928,61.54922400601208,21.25],[-6.792226368561387,61.549157202243805,22.26],[-6.792041966691613,61.54909769073129,21.24],[-6.791884889826179,61.5490364190191,21.06],[-6.791716832667589,61.54897808097303,20.09],[-6.791548188775778,61.548922676593065,20.19],[-6.791392033919692,61.548874229192734,19.92],[-6.791226910427213,61.54881991446018,19.5],[-6.791061200201511,61.54876258224249,20.88],[-6.790916947647929,61.548688653856516,20.7],[-6.790756601840258,61.54862863942981,20.1],[-6.790591897442937,61.548569882288575,18.63],[-6.79043130017817,61.5485062636435,20.8],[-6.790259219706059,61.54843778349459,20.65],[-6.790102226659656,61.54837659560144,20.85],[-6.789941629394889,61.548320185393095,21.28],[-6.789779523387551,61.54825975187123,21.19],[-6.789616076275706,61.54819420538843,22.15],[-6.789461681619287,61.54813000001013,22.57],[-6.789323631674051,61.54806696809828,23.01],[-6.789182228967547,61.54800737276673,23.97],[-6.789024481549859,61.54793453402817,23.48],[-6.788898417726159,61.54785825870931,24.12],[-6.788768162950873,61.547782737761736,23.8],[-6.78863019682467,61.54770872555673,24.37],[-6.788477394729853,61.54763479717076,24.63],[-6.788353761658073,61.54755424708128,24.75],[-6.788229206576943,61.547481743618846,25.8],[-6.788085792213678,61.54740186408162,25.89],[-6.787965595722199,61.54731770977378,25.48],[-6.787840873003006,61.547240847721696,25.66],[-6.787712378427386,61.547164069488645,23.35],[-6.787551697343588,61.547094667330384,22.28],[-6.787437032908201,61.54701881110668,22.39],[-6.78730309009552,61.54693809337914,21.78],[-6.787173757329583,61.54686919413507,20.7],[-6.787025481462479,61.546809766441584,20.97],[-6.786866812035441,61.54674455523491,21.34],[-6.786704203113914,61.54667272232473,21.3],[-6.786530613899231,61.54660910367966,21.26],[-6.786371693015099,61.54655068181455,22.14],[-6.786185866221786,61.54649703763425,21.55],[-6.786013282835484,61.54644884169102,20.72],[-6.785828126594424,61.54640693217516,20.68],[-6.785614136606455,61.54635890386999,20.3],[-6.785428980365396,61.546315820887685,19.78],[-6.785232927650213,61.546274749562144,20.17],[-6.785036623477936,61.546228313818574,19.73],[-6.784845516085625,61.54620031826198,19.63],[-6.784643512219191,61.54616159386933,20.07],[-6.784445615485311,61.546122785657644,19.81],[-6.784273283556104,61.546094957739115,19.18],[-6.784093910828233,61.54605531133711,18.25],[-6.783900624141097,61.54602102935314,18.37],[-6.783699709922075,61.54598104767501,17.92],[-6.783524695783854,61.54594634659588,18.23],[-6.783328810706735,61.545905862003565,17.92],[-6.78313510492444,61.54587920755148,17.62],[-6.7829161696136,61.54584567993879,17.44],[-6.782730342820287,61.54581994749606,16.94],[-6.782520711421967,61.54578608460724,16.56],[-6.78231954574585,61.54576286673546,15.85],[-6.782101029530168,61.54574057087302,16.13],[-6.781910844147205,61.545739732682705,16.2],[-6.781721664592624,61.545752389356494,15.91],[-6.781520331278443,61.545775439590216,15.66],[-6.781324278563261,61.54580150730908,15.79],[-6.781124286353588,61.54580846428871,16.19],[-6.780948098748922,61.54583034105599,16.54],[-6.780749950557947,61.545877028256655,15.18],[-6.780604021623731,61.545941568911076,14.98],[-6.780430851504207,61.54599160887301,14.26],[-6.780239660292864,61.54604642651975,13.42],[-6.780103370547295,61.54612798243761,12.87],[-6.779951239004731,61.54619880951941,12.28],[-6.779765747487545,61.546262511983514,11.82],[-6.779599785804749,61.546320179477334,11.4],[-6.779444552958012,61.54639754444361,10.12],[-6.779305078089237,61.54647591523826,9.81],[-6.779131572693586,61.54653165489435,9.72],[-6.778979860246182,61.54659158550203,9.66],[-6.778832087293267,61.546668112277985,9],[-6.77865338511765,61.54672510921955,9.37],[-6.778499241918325,61.54678277671337,9.5],[-6.77833235822618,61.546849412843585,10.73],[-6.778177712112665,61.54690783470869,10.23],[-6.77799079567194,61.546980002895,10.63],[-6.777821565046907,61.54703892767429,10.57],[-6.777675468474627,61.547109503299,11.43],[-6.777530293911696,61.54717555269599,12.46],[-6.777362320572138,61.54723338782787,12.83],[-6.777207255363464,61.54729533009231,13.21],[-6.777015142142773,61.547361547127366,13.01],[-6.776834176853299,61.547413347288966,12.57],[-6.776628904044628,61.547461207956076,11.66],[-6.776425642892718,61.547495406121016,11.34],[-6.776216514408588,61.54752055183053,10.69],[-6.775985592976213,61.547519797459245,10.39],[-6.775768417865038,61.547544272616506,9.11],[-6.775552080944181,61.54754242859781,9.13],[-6.775341778993607,61.54752650298178,8.98],[-6.775132147595286,61.54749917797744,8.57],[-6.774931568652391,61.547450982034206,8.83],[-6.774748843163252,61.54739985242486,8.55],[-6.774696875363588,61.547370264306664,8.95],[-6.774497469887137,61.54735148884356,9.35],[-6.774314744397998,61.54729348607361,9.75],[-6.774139227345586,61.5472424402833,8.78],[-6.773953652009368,61.54719508253038,9.06],[-6.773771932348609,61.547137666493654,9.94],[-6.773604210466147,61.54709039255977,10.43],[-6.773438667878509,61.547042364254594,10.58],[-6.773236664012075,61.54698729515076,10.47],[-6.773037258535624,61.546940272673965,11.23],[-6.772839026525617,61.5468864608556,11.69],[-6.772667029872537,61.546836253255606,12.31],[-6.7724927701056,61.546780010685325,12.84],[-6.772325551137328,61.54672167263925,13.06],[-6.772142071276903,61.54668026603758,13.32],[-6.771957501769066,61.546624694019556,13.96],[-6.771780475974083,61.546575324609876,14.43],[-6.771567827090621,61.54651388525963,15.25],[-6.771373366937041,61.54645730741322,15.85],[-6.771208411082625,61.54640458524227,16.17],[-6.771026942878962,61.546351443976164,15.91],[-6.770861567929387,61.54631062410772,15.88],[-6.770669035613537,61.54627106152475,15.25],[-6.770501732826233,61.54623091220856,15.07],[-6.770319007337093,61.54619193635881,14.57],[-6.770135527476668,61.54615639708936,13.95],[-6.769951628521085,61.54611239209771,13.77],[-6.769775608554483,61.54608104377985,13.48],[-6.769548123702407,61.5460595022887,13.61],[-6.769350897520781,61.54600325971842,12.58],[-6.769155515357852,61.54596579261124,12.49],[-6.768953260034323,61.54593880288303,12.77],[-6.768737258389592,61.545917093753815,12.88],[-6.768532320857048,61.54588624835014,13.17],[-6.768320677801967,61.545858420431614,13.44],[-6.768096797168255,61.54582564719021,12.88],[-6.767874341458082,61.54579387977719,13.24],[-6.767671164125204,61.54576018452644,13.3],[-6.767467483878136,61.54571651481092,13.94],[-6.767246453091502,61.54567644931376,14.89],[-6.76704989746213,61.54563931748271,15.19],[-6.766874128952622,61.54559941962361,16.41],[-6.766676483675838,61.54555625282228,17.73],[-6.766474479809403,61.54556245543063,18.86],[-6.766248503699899,61.54555055312812,19.78],[-6.766038704663515,61.54551777988672,24.68],[-6.765855392441154,61.54547360725701,29.35],[-6.765729831531644,61.545479306951165,30.3],[-6.765681970864534,61.54558651149273,31.12],[-6.765636876225472,61.54568483121693,32.75],[-6.765609802678227,61.54578155837953,33.74],[-6.765400422737002,61.54583629220724,39.45],[-6.765186432749033,61.54588448815048,42.57],[-6.764975627884269,61.545901000499725,45.48],[-6.764794243499637,61.54594852589071,47.5],[-6.764614786952734,61.546005019918084,50.05],[-6.764461062848568,61.546063274145126,50.54],[-6.764380931854248,61.54614265076816,50.52],[-6.764332065358758,61.54623292386532,49.78],[-6.764257047325373,61.54632529243827,49.72],[-6.764313541352749,61.546273324638605,49.61],[-6.7643834464252,61.5461784414947,50.11],[-6.764438431710005,61.54607945121825,50.29],[-6.764548402279615,61.545995716005564,50.7],[-6.764710759744048,61.54593771323562,47.37],[-6.764886695891619,61.54588616453111,46.56],[-6.76509196870029,61.54584492556751,40.81],[-6.765285674482584,61.54580972157419,35.71],[-6.765490360558033,61.54579631052911,36.61],[-6.765588512644172,61.54571944847703,34.39],[-6.765644922852516,61.545625822618604,32.89],[-6.76569689065218,61.54553529806435,31.13],[-6.765772411599755,61.54544888064265,25.19],[-6.765954298898578,61.54546681791544,24.03],[-6.766128726303577,61.54549799859524,19.35],[-6.76633458584547,61.54552649706602,19.22],[-6.766270799562335,61.545449551194906,19.18],[-6.766107184812427,61.54540319927037,19.33],[-6.76591238938272,61.54535282403231,19.1],[-6.765733687207103,61.54530714266002,19.15],[-6.765552051365376,61.54527252539992,19.26],[-6.765357591211796,61.54524503275752,19.06],[-6.765150390565395,61.54522265307605,18.8],[-6.76496833562851,61.54521024785936,18.62],[-6.764775384217501,61.54522005468607,17.84],[-6.764580085873604,61.54524779878557,17.56],[-6.76438394933939,61.54527780599892,16.92],[-6.764200050383806,61.5453324560076,16.55],[-6.764013636857271,61.54538383707404,16.6],[-6.763841724023223,61.545440750196576,16.19],[-6.763651287183166,61.54549280181527,15.47],[-6.763482643291354,61.54553873464465,14.57],[-6.763295391574502,61.54557477682829,13.97],[-6.763086849823594,61.54560470022261,13.62],[-6.762868585065007,61.54563143849373,13.6],[-6.762665156275034,61.5456363838166,13.29],[-6.762446304783225,61.545633701607585,13.45],[-6.762227704748511,61.5456052031368,14.23],[-6.762012373656035,61.54556304216385,14.66],[-6.761810621246696,61.54551635496318,14.78],[-6.761622112244368,61.54546447098255,15.69],[-6.761417761445046,61.545417197048664,16.54],[-6.761209387332201,61.545371850952506,16.53],[-6.760987853631377,61.54531007632613,16.2],[-6.760788280516863,61.54525584541261,16.21],[-6.760624749585986,61.54518526978791,15.75],[-6.760698929429054,61.5450837649405,14.03],[-6.760805798694491,61.5450026281178,11.06],[-6.760841840878129,61.544910594820976,10.03],[-6.760824909433723,61.544817136600614,8.06],[-6.760791381821036,61.544730216264725,6.38],[-6.760775540024042,61.544634997844696,4.7],[-6.760728936642408,61.544536259025335,2.64],[-6.760695744305849,61.544443890452385,1.42],[-6.760570099577308,61.54436602257192,-1.42],[-6.760457446798682,61.54430248774588,-2.61],[-6.760454429313541,61.544207353144884,-0.87],[-6.760368011891842,61.54414180666208,-1.15],[-6.760416878387332,61.54412764124572,-1.23],[-6.760474210605025,61.54422093182802,-0.97],[-6.760489381849766,61.54431656934321,-0.54],[-6.760606225579977,61.544385803863406,0.13],[-6.760689038783312,61.54447054490447,0.64],[-6.760732289403677,61.54456961899996,2.1],[-6.760767074301839,61.54465469531715,4.44],[-6.760809738188982,61.54475645162165,7.63],[-6.760850222781301,61.54486516490579,9.99],[-6.760857682675123,61.544970190152526,11.83],[-6.760770427063108,61.54505820013583,14.09],[-6.760655175894499,61.54514034278691,15.97],[-6.760435570031405,61.54513891786337,15.7],[-6.760238176211715,61.54510899446905,16.81],[-6.760048242285848,61.545075718313456,15.96],[-6.759862415492535,61.545040514320135,17.1],[-6.759660663083196,61.54499491676688,16.37],[-6.759464526548982,61.54493138194084,16.38],[-6.759293116629124,61.54487279243767,16.69],[-6.759118102490902,61.54481546021998,16.89],[-6.758949877694249,61.54475427232683,17.15],[-6.758754076436162,61.5446968562901,19.53],[-6.758560705929995,61.54463927261531,24.55],[-6.758474037051201,61.54461337253451,23.84],[-6.758315367624164,61.54458621516824,23.71],[-6.758120488375425,61.544548496603966,24.68],[-6.757904570549727,61.5445398632437,24.65],[-6.757692759856582,61.54455260373652,24.55],[-6.757505591958761,61.54458244331181,25.13],[-6.757328063249588,61.544629549607635,24.59],[-6.757208537310362,61.5447037294507,25.55],[-6.757031595334411,61.544765923172235,24.61],[-6.756847612559795,61.54478176496923,23.12],[-6.756629515439272,61.544795259833336,21.46],[-6.756430864334106,61.544801546260715,20.42],[-6.756228022277355,61.54481680132449,19.36],[-6.756012523546815,61.54482736252248,18.6],[-6.755820075049996,61.5448316372931,17.81],[-6.755603067576885,61.54484529979527,16.85],[-6.755409361794591,61.54486499726772,16.8],[-6.755220601335168,61.544876396656036,16.64],[-6.75502136349678,61.54488234780729,16.51],[-6.754812905564904,61.54488620348275,16.48],[-6.75458986312151,61.544893411919475,16.28],[-6.754407472908497,61.544906068593264,15.32],[-6.7542346380651,61.54494387097657,15.74],[-6.754016960039735,61.544953091070056,14.07],[-6.753801042214036,61.544966250658035,13.38],[-6.753597194328904,61.54497781768441,13.39],[-6.753393262624741,61.54499433003366,12.83],[-6.753193270415068,61.54499625787139,12.48],[-6.752984058111906,61.545006819069386,11.52],[-6.752803344279528,61.54505434446037,10.8],[-6.752636292949319,61.54511461034417,9.71],[-6.752493046224117,61.5451720263809,9.16],[-6.752339573577046,61.545241847634315,8.35],[-6.752166906371713,61.54531099833548,8.04],[-6.752002956345677,61.5453668218106,8.25],[-6.751828864216805,61.54541166499257,8.91],[-6.751639852300286,61.545450892299414,9.43],[-6.751452935859561,61.54549280181527,9.68],[-6.751271216198802,61.54554242268205,10.06],[-6.751076420769095,61.54559204354882,9.44],[-6.75086016766727,61.54563060030341,10.39],[-6.750640729442239,61.545647867023945,11.21],[-6.750418692827225,61.545652728527784,11.34],[-6.750212917104363,61.545643005520105,12.69],[-6.750002447515726,61.545627834275365,11.89],[-6.749786864966154,61.54561928473413,11.1],[-6.749573377892375,61.54562179930508,9.99],[-6.749351508915424,61.54564803466201,8.76],[-6.749178841710091,61.54567753896117,8.76],[-6.748998546972871,61.545669408515096,8.32],[-6.748819425702095,61.54564124532044,9.03],[-6.748968958854675,61.54563646763563,7.51],[-6.749174986034632,61.54562305659056,8.51],[-6.749375900253654,61.54562364332378,9.52],[-6.749578574672341,61.54562599025667,10.72],[-6.749791977927089,61.54561375267804,11.11],[-6.749999597668648,61.54562171548605,11.82],[-6.750199338421226,61.54563386924565,11.68],[-6.750430092215538,61.545639988034964,11.87],[-6.750628240406513,61.545640574768186,10.54],[-6.750838039442897,61.54560428112745,9.63],[-6.7510243691504,61.5455761179328,9.71],[-6.751212039962411,61.54552532359958,9.68],[-6.751379929482937,61.545476792380214,7.5],[-6.751583525910974,61.54542817734182,9.62],[-6.751764826476574,61.54537486843765,7.35],[-6.751945121213794,61.54534075409174,6.82],[-6.752133294939995,61.545293061062694,6.48],[-6.752289198338985,61.545229610055685,6.99],[-6.752457255497575,61.54516339302063,7.52],[-6.752598909661174,61.545098600909114,8.63],[-6.752749364823103,61.545038083568215,9.07],[-6.752943908795714,61.544986702501774,9.47],[-6.753135519102216,61.54494160786271,9.68],[-6.753358729183674,61.54493146575987,11.38],[-6.753585627302527,61.544929537922144,11.11],[-6.753800287842751,61.544931968674064,10.82],[-6.754015116021037,61.54491696506739,12.11],[-6.754213264212012,61.544920736923814,14.15],[-6.754422644153237,61.54491419903934,13.76],[-6.75462749786675,61.544911013916135,15.48],[-6.754839643836021,61.54490816406906,14.6],[-6.755028739571571,61.54490724205971,16.11],[-6.755226301029325,61.544901290908456,15.36],[-6.75542687997222,61.544877737760544,13.33],[-6.755630392581224,61.544852843508124,17.1],[-6.755824936553836,61.544831385836005,15.98],[-6.756032723933458,61.54481302946806,17.44],[-6.756239673122764,61.5448073297739,18.05],[-6.756460703909397,61.5448038931936,18.94],[-6.756656756624579,61.54478721320629,19.88],[-6.756844762712717,61.544784447178245,21.2],[-6.75703302025795,61.54477346688509,22.66],[-6.757238628342748,61.544798696413636,25.1],[-6.757370140403509,61.54486541636288,24.93],[-6.757506430149078,61.54494320042431,25.11],[-6.757673900574446,61.54500572942197,25.33],[-6.757846567779779,61.54506708495319,26.06],[-6.758020576089621,61.54513464309275,27.23],[-6.758182682096958,61.54520354233682,27.83],[-6.758333975449204,61.54526883736253,28.95],[-6.758482586592436,61.545333629474044,30.23],[-6.758636813610792,61.54540127143264,31.35],[-6.75881065428257,61.54546924866736,31.4],[-6.758962869644165,61.54553362168372,30.73],[-6.759102763608098,61.54559874907136,31.06],[-6.75925238057971,61.54566605575383,33.98],[-6.759410044178367,61.545733446255326,34.65],[-6.75953820347786,61.54579580761492,34.62],[-6.759712882339954,61.54585875570774,34.72],[-6.759851099923253,61.54594047926366,35.08],[-6.760030640289187,61.546002672985196,35.65],[-6.760175647214055,61.5460663754493,36.6],[-6.760328616946936,61.54613577760756,37.4],[-6.760495081543922,61.546200485900044,37.83],[-6.760650230571628,61.546254716813564,38.11],[-6.760797249153256,61.54631020501256,40.35],[-6.760942339897156,61.54636745341122,40.23],[-6.761094639077783,61.54642746783793,40.66],[-6.761256074532867,61.546491757035255,40.96],[-6.761418851092458,61.54656132683158,40.53],[-6.761589171364904,61.546624191105366,41.72],[-6.761735184118152,61.54669635929167,41.25],[-6.761872479692102,61.54675436206162,42.19],[-6.762050427496433,61.54680272564292,41.92],[-6.762247234582901,61.54682284221053,41.87],[-6.762456949800253,61.5468589682132,42.18],[-6.762657193467021,61.546890400350094,42.33],[-6.762854587286711,61.54691755771637,43.4],[-6.76305977627635,61.54693029820919,43.92],[-6.76322347484529,61.54689031653106,44.13],[-6.763358758762479,61.54681990854442,47.27],[-6.76351860165596,61.5467466507107,47.92],[-6.763696800917387,61.54668504372239,47.35],[-6.763861505314708,61.54660818167031,47.43],[-6.764034759253264,61.546535762026906,47.47],[-6.764177838340402,61.546451440081,47.71],[-6.764401886612177,61.5464081056416,49.72],[-6.764627527445555,61.54643568210304,48.91],[-6.764831710606813,61.54647381976247,50.93],[-6.765015190467238,61.54651447199285,52.65],[-6.765235215425491,61.54654967598617,51.41],[-6.765414420515299,61.54658881947398,51.94],[-6.765603264793754,61.54662377201021,52.4],[-6.765799485146999,61.54666601680219,53.68],[-6.7660066857934,61.54672401957214,53.95],[-6.766167199239135,61.5467778313905,52.11],[-6.766327293589711,61.54682393185794,52.29],[-6.766495853662491,61.54687196016312,52.35],[-6.766684027388692,61.546907499432564,54.66],[-6.76688376814127,61.546954521909356,54.22],[-6.767058949917555,61.54700079001486,52.66],[-6.767231449484825,61.54705485329032,54.51],[-6.767407720908523,61.54712475836277,54.3],[-6.767549877986312,61.54719902202487,54.18],[-6.767679797485471,61.54726632870734,55.56],[-6.767819942906499,61.54733765870333,56.24],[-6.76799881272018,61.54739012941718,57.39],[-6.768181454390287,61.54743421822786,57.43],[-6.768380859866738,61.5474771335721,58.34],[-6.768564591184259,61.54750864952803,59.14],[-6.768746562302113,61.54754871502519,59.02],[-6.768926773220301,61.54758308082819,60.6],[-6.769122071564198,61.54761669225991,60.63],[-6.769309574738145,61.54766405001283,60.64],[-6.769488444551826,61.54771601781249,62.04],[-6.769665805622935,61.54775499366224,62.72],[-6.769842999055982,61.547799836844206,62.21],[-6.77003301680088,61.547836968675256,60.86],[-6.770244827494025,61.54786144383252,59.96],[-6.770420260727406,61.547893546521664,60.29],[-6.770623354241252,61.54794191010296,60.2],[-6.770781772211194,61.54799295589328,59.41],[-6.770934322848916,61.54805506579578,60.24],[-6.771096847951412,61.54812681488693,59.08],[-6.771250907331705,61.54818808659911,57.99],[-6.771429609507322,61.54824960976839,58.71],[-6.771616190671921,61.5483024995774,56.91],[-6.771763544529676,61.54835723340511,57.26],[-6.771939229220152,61.54841288924217,58.5],[-6.772127905860543,61.54847206547856,57.82],[-6.772299064323306,61.54851389117539,57.61],[-6.772508528083563,61.54857507906854,59.22],[-6.772668287158012,61.548627046868205,59.29],[-6.772856209427118,61.54867465607822,59.25],[-6.773060979321599,61.548731653019786,58],[-6.773210428655148,61.548791248351336,58.35],[-6.77340011112392,61.54884262941778,57.44],[-6.773564061149955,61.54890130273998,57.31],[-6.773736728355289,61.54896500520408,56.7],[-6.773935547098517,61.549018900841475,55.8],[-6.774095222353935,61.5490710362792,54.88],[-6.774302758276463,61.5491212438792,55.99],[-6.774475676938891,61.54918184503913,55.6],[-6.774663515388966,61.54923507012427,54.91],[-6.774856131523848,61.54928016476333,54.44],[-6.7750243563205,61.549337496981025,54.12],[-6.775218229740858,61.54938695020974,53.02],[-6.775405900552869,61.549419136717916,53.13],[-6.775592481717467,61.54947940260172,51.37],[-6.775756683200598,61.54953757300973,50.91],[-6.775928512215614,61.54958065599203,50.83],[-6.776123894378543,61.54962642118335,50.4],[-6.776311732828617,61.549684004858136,49.84],[-6.77650879137218,61.549737649038434,50.52],[-6.776724793016911,61.549785593524575,50.26],[-6.776923360303044,61.549841752275825,49.17],[-6.777106840163469,61.54990101233125,49.46],[-6.777305658906698,61.54994702897966,48.43],[-6.77747773937881,61.55000536702573,47.93],[-6.777650741860271,61.55005440115929,47.84],[-6.777854170650244,61.55009421519935,48.27],[-6.778036644682288,61.55013922601938,47.21],[-6.778213083744049,61.55018859542906,48.07],[-6.778409890830517,61.5502299182117,47.23],[-6.778584569692612,61.55028465203941,48.19],[-6.7787613440305,61.55033200979233,49.07],[-6.778965527191758,61.55035606585443,49.26],[-6.779166022315621,61.55039805918932,50],[-6.779342796653509,61.55044659040868,51.95],[-6.77953289821744,61.550489757210016,51.75],[-6.779729034751654,61.55052378773689,53.74],[-6.779914693906903,61.5505526214838,53.63],[-6.780114769935608,61.550579108297825,54.31],[-6.780316438525915,61.5506046731025,55.71],[-6.780535038560629,61.55061833560467,56.31],[-6.780741820111871,61.5506287291646,58.22],[-6.780935861170292,61.5506303217262,57.35],[-6.781174493953586,61.550637697800994,57.31],[-6.781370881944895,61.55062571167946,57.33],[-6.781573556363583,61.55061246827245,57.69],[-6.781763909384608,61.550584556534886,55.37],[-6.781931966543198,61.55053242109716,52.53],[-6.78209868259728,61.55048665590584,53.31],[-6.782254250720143,61.55042001977563,52.8],[-6.782432366162539,61.55035790987313,52.94],[-6.782575948163867,61.550293201580644,50.9],[-6.782739059999585,61.55022270977497,50.65],[-6.782880630344153,61.55015171505511,49.51],[-6.783019350841641,61.550080217421055,50.94],[-6.783175338059664,61.55001249164343,49.24],[-6.783324787393212,61.54994954355061,49.42],[-6.783458478748798,61.54987720772624,49.28],[-6.783613543957472,61.54982146807015,49.78],[-6.783760981634259,61.549764135852456,51.06],[-6.783925099298358,61.54971040785313,51.22],[-6.784108076244593,61.5496392454952,52.13],[-6.784274373203516,61.54958308674395,53.82],[-6.784470090642571,61.549549056217074,55.25],[-6.784677375108004,61.54951024800539,56.86],[-6.784894047304988,61.549519803375006,58.85],[-6.78511206060648,61.549551989883184,57.26],[-6.785299563780427,61.54957478865981,58.12],[-6.785497292876244,61.54959280975163,58.12],[-6.785708935931325,61.54960202984512,59.67],[-6.785919573158026,61.5496342163533,58.93],[-6.786113446578383,61.54968677088618,59.29],[-6.786298686638475,61.5497515629977,59.9],[-6.786506054922938,61.549794394522905,58.24],[-6.786699676886201,61.54983077198267,57.64],[-6.786859352141619,61.549887266010046,58.33],[-6.786841414868832,61.549903778359294,58.28],[-6.78700989112258,61.549963876605034,58.98],[-6.787193790078163,61.55002523213625,58],[-6.787354471161962,61.55009404756129,55.69],[-6.787519007921219,61.55016269534826,56.02],[-6.787687232717872,61.5502299182117,53.17],[-6.787847327068448,61.550286496058106,51.53],[-6.787997530773282,61.550345504656434,51.48],[-6.788172209635377,61.55041239224374,52.38],[-6.788312690332532,61.550473999232054,49.24],[-6.788491392508149,61.550540970638394,46.46],[-6.788653833791614,61.55060182325542,45.4],[-6.788803869858384,61.550677344202995,44.86],[-6.788961281999946,61.5507426392287,44.09],[-6.789112072438002,61.550817070528865,43.3],[-6.789289433509111,61.55088094063103,42.7],[-6.789434943348169,61.550945648923516,41.4],[-6.789592523127794,61.551018906757236,39.01],[-6.789736524224281,61.55108428560197,37.66],[-6.789914220571518,61.55115393921733,37.28],[-6.79007263854146,61.55121420510113,36.86],[-6.790231643244624,61.55126743018627,36.49],[-6.790374722331762,61.5513349045068,36.23],[-6.790531883016229,61.55139391310513,35.61],[-6.790678231045604,61.551453340798616,36.5],[-6.790840504691005,61.55151352286339,36.49],[-6.790998503565788,61.55157035216689,37.96],[-6.791165890172124,61.551627768203616,35.96],[-6.791332270950079,61.5516977570951,34.77],[-6.791504099965096,61.55174721032381,34.78],[-6.791687998920679,61.551788449287415,34.31],[-6.79187910631299,61.551831448450685,34.07],[-6.792071470990777,61.55186631716788,33.94],[-6.792243467643857,61.55190537683666,34.36],[-6.792465588077903,61.55193203128874,33.43],[-6.792661054059863,61.55197142623365,33.03],[-6.792840510606766,61.55201735906303,33.63],[-6.793029690161347,61.5520466119051,34],[-6.793248625472188,61.55208474956453,33.16],[-6.793446438387036,61.55212582089007,33.3],[-6.79363276809454,61.552168065682054,33.29],[-6.793814739212394,61.55221886001527,33.37],[-6.794009953737259,61.55227133072913,33.63],[-6.794196870177984,61.55234727077186,32.27],[-6.794372303411365,61.55238289386034,31.63],[-6.794547569006681,61.55242145061493,31.96],[-6.794718811288476,61.552487164735794,31.1],[-6.794900698587298,61.55252362601459,30.74],[-6.795093733817339,61.552580958232284,30.66],[-6.795277381315827,61.552616665139794,30.64],[-6.795503525063396,61.55264952220023,30.6],[-6.795666301622987,61.552714481949806,30.62],[-6.79583452641964,61.55276058241725,30.7],[-6.796019515022636,61.552799390628934,29.97],[-6.796211376786232,61.552839456126094,29.08],[-6.796408351510763,61.55287206172943,28.32],[-6.796605745330453,61.55291598290205,27.56],[-6.796783525496721,61.55295361764729,28.19],[-6.7969676759094,61.55301078222692,27.24],[-6.79716506972909,61.55304783023894,27.63],[-6.797368163242936,61.55308756045997,27.95],[-6.797544937580824,61.553133158013225,28.41],[-6.797752808779478,61.55316601507366,28.88],[-6.797924973070622,61.553222090005875,28.7],[-6.798103088513017,61.5532742254436,28.45],[-6.798323700204492,61.553312279284,28.86],[-6.798507682979107,61.553348237648606,27.63],[-6.798711447045207,61.55337522737682,28.16],[-6.798916049301624,61.55340791679919,27.5],[-6.799110341817141,61.55344136059284,27.7],[-6.799315446987748,61.55348293483257,27.89],[-6.799521390348673,61.553512774407864,27.12],[-6.799710653722286,61.553562227636576,27.01],[-6.799897570163012,61.553585194051266,27],[-6.8001105543226,61.55359818600118,26.25],[-6.800305601209402,61.55361570417881,26.66],[-6.800494277849793,61.553643280640244,26.68],[-6.800719331949949,61.553662810474634,26.26],[-6.800936087965965,61.55369306914508,24.96],[-6.801134990528226,61.55373103916645,25.55],[-6.801316710188985,61.55377361923456,24.41],[-6.801473619416356,61.55383522622287,23.78],[-6.80164335295558,61.55388803221285,23.18],[-6.801845608279109,61.553928181529045,21.39],[-6.802017269656062,61.5539634693414,20.55],[-6.802228661254048,61.553987776860595,19.28],[-6.802413985133171,61.55401979573071,18.05],[-6.802611043676734,61.55404712073505,17.43],[-6.802792930975556,61.55408098362386,16.71],[-6.80297682993114,61.5541154332459,14.49],[-6.80316835641861,61.554149966686964,14.12],[-6.803349824622273,61.55419087037444,13.39],[-6.80358175188303,61.554235043004155,12.99],[-6.803772607818246,61.554267313331366,12.04],[-6.803972013294697,61.55430134385824,11.36],[-6.804160522297025,61.55431785620749,10.8],[-6.804366298019886,61.55433436855674,9.85],[-6.804557405412197,61.554361106827855,9.17],[-6.804755888879299,61.55437803827226,6.93],[-6.804970465600491,61.55440142378211,5.46],[-6.805140953511,61.55445548705757,3.81],[-6.805309010669589,61.55450066551566,2.32],[-6.805522497743368,61.554519943892956,1.64],[-6.805699607357383,61.55455498024821,-0.23],[-6.805895073339343,61.55459437519312,0.19],[-6.806083079427481,61.554625974968076,0.31],[-6.806301176548004,61.554660173133016,0.34],[-6.806512400507927,61.554696299135685,0.36],[-6.806714572012425,61.55473460443318,0.38],[-6.806901069357991,61.55477701686323,0.46]]}},{"type":"Feature","properties":{"name":"WP1 02_FR","type":"user","time":"2020-07-18T12:35:54Z","gpxx_WaypointExtension":"SymbolAndName","gpxx_DisplayMode":"SymbolAndName","wptx1_WaypointExtension":"SymbolAndName","wptx1_DisplayMode":"SymbolAndName","ctx_CreationTimeExtension":"2020-07-18T12:35:54Z","ctx_CreationTime":"2020-07-18T12:35:54Z","sym":"Flag, Blue"},"geometry":{"type":"Point","coordinates":[-6.788382008671761,61.547574028372765,24.761345]}},{"type":"Feature","properties":{"name":"WP2 06_FR","type":"user","time":"2020-07-18T13:19:48Z","gpxx_WaypointExtension":"SymbolAndName","gpxx_DisplayMode":"SymbolAndName","wptx1_WaypointExtension":"SymbolAndName","wptx1_DisplayMode":"SymbolAndName","ctx_CreationTimeExtension":"2020-07-18T13:19:48Z","ctx_CreationTime":"2020-07-18T13:19:48Z","sym":"Flag, Blue"},"geometry":{"type":"Point","coordinates":[-6.748802997171879,61.54563495889306,7.32619]}},{"type":"Feature","properties":{"name":"WP3 08_FR","type":"user","time":"2020-07-18T13:47:03Z","gpxx_WaypointExtension":"SymbolAndName","gpxx_DisplayMode":"SymbolAndName","wptx1_WaypointExtension":"SymbolAndName","wptx1_DisplayMode":"SymbolAndName","ctx_CreationTimeExtension":"2020-07-18T13:47:03Z","ctx_CreationTime":"2020-07-18T13:47:03Z","sym":"Flag, Blue"},"geometry":{"type":"Point","coordinates":[-6.786850970238447,61.54989397153258,58.229431]}}]}