{"type":"FeatureCollection","features":[{"type":"Feature","properties":{"_gpxType":"trk","name":"IT Färöer – Wanderung 4/Wanderung 4","coordinateProperties":{}},"geometry":{"type":"LineString","coordinates":[[-6.8109226,61.5551673,0],[-6.8107724,61.5554484,0],[-6.8103862,61.556128,0],[-6.8102252,61.5564653,0],[-6.8098176,61.5568076,0],[-6.8102574,61.5570427,0],[-6.8103647,61.5572624,0],[-6.8108475,61.5574822,0],[-6.8106759,61.5579165,0],[-6.8111587,61.5578501,0],[-6.8120384,61.5577479,0],[-6.8128109,61.5577479,0],[-6.8142486,61.557942,0],[-6.8151498,61.5581771,0],[-6.8158364,61.5584121,0],[-6.8167806,61.5586983,0],[-6.8174887,61.5590457,0],[-6.8181968,61.5594545,0],[-6.8187761,61.5598633,0],[-6.8196344,61.5604458,0],[-6.8199134,61.5609056,0],[-6.8206215,61.5613143,0],[-6.8210936,61.5616924,0],[-6.8216944,61.5624486,0],[-6.8221664,61.5629493,0],[-6.8228102,61.5634499,0],[-6.8233252,61.5639915,0],[-6.823926,61.5643184,0],[-6.8247199,61.5646965,0],[-6.8256211,61.5650541,0],[-6.8265224,61.5653504,0],[-6.8273377,61.5656569,0],[-6.828196,61.5659328,0],[-6.8289471,61.5667195,0],[-6.8285608,61.5676798,0],[-6.8273163,61.5688445,0],[-6.8262863,61.5700091,0],[-6.8242264,61.5737069,0],[-6.8234539,61.5750552,0],[-6.8239689,61.5759745,0],[-6.8255138,61.5770163,0],[-6.829505,61.5786299,0],[-6.833539,61.5788955,0],[-6.8359423,61.5784052,0],[-6.8374443,61.5789772,0],[-6.8409634,61.579304,0],[-6.8418217,61.5795695,0],[-6.843195,61.5799576,0],[-6.8452978,61.5795899,0],[-6.8460703,61.5792427,0],[-6.8452978,61.5785278,0],[-6.8443966,61.577629,0],[-6.8433237,61.5766894,0],[-6.8423796,61.5756272,0],[-6.8408775,61.5746671,0],[-6.8383026,61.5734005,0],[-6.8370581,61.5726855,0],[-6.8360281,61.5716027,0],[-6.8343973,61.5705199,0],[-6.8322515,61.5689671,0],[-6.8306637,61.5678637,0],[-6.8299341,61.567169,0],[-6.8288183,61.5666786,0]]}}]}