{"type":"FeatureCollection","features":[{"type":"Feature","properties":{"_gpxType":"trk","name":"IT Färöer – Wanderung 2/Wanderung 2","coordinateProperties":{}},"geometry":{"type":"LineString","coordinates":[[-7.1788788,62.2419903,0],[-7.1843719,62.2453479,0],[-7.1855736,62.2481457,0],[-7.1871185,62.2515027,0],[-7.1883202,62.2554986,0],[-7.1891785,62.2598936,0],[-7.1895218,62.2637286,0],[-7.1886635,62.2680424,0],[-7.1866035,62.2704388,0],[-7.1836853,62.2721959,0],[-7.1783638,62.2745121,0],[-7.1757889,62.2758697,0],[-7.172184,62.2775467,0],[-7.1668625,62.2793035,0],[-7.1623993,62.2809004,0],[-7.1567345,62.2827368,0],[-7.1517563,62.2848925,0],[-7.1462631,62.2859303,0],[-7.1431732,62.2872076,0],[-7.1399117,62.2891234,0],[-7.1371651,62.2907199,0],[-7.1325302,62.2915181,0],[-7.1289253,62.2904006,0],[-7.1248055,62.2893629,0],[-7.1182823,62.288884,0],[-7.1138191,62.2874471,0],[-7.1107292,62.2860101,0],[-7.107296,62.2840143,0],[-7.106266,62.2819384,0],[-7.1042061,62.2800221,0],[-7.1004295,62.2786646,0],[-7.0975113,62.2777064,0],[-7.0939064,62.2765086,0],[-7.0937347,62.2744322,0],[-7.0957947,62.2721959,0],[-7.1009445,62.2723557,0],[-7.106781,62.2726751,0],[-7.1136475,62.2725953,0],[-7.1199989,62.2713972,0],[-7.1266937,62.2694803,0],[-7.1325302,62.2672436,0],[-7.1375084,62.2652465,0],[-7.1428299,62.2630895,0],[-7.1474648,62.2608524,0],[-7.1520996,62.2590146,0],[-7.1565628,62.257856,0],[-7.1581078,62.2557384,0],[-7.1622276,62.253261,0],[-7.1685791,62.2506235,0],[-7.1737289,62.2481457,0],[-7.1788788,62.2483056,0],[-7.1862602,62.2499042,0],[-7.1854019,62.2475862,0],[-7.1840286,62.2451881,0],[-7.1816254,62.2437491,0],[-7.1788788,62.2419903,0]]}}]}