{"type":"FeatureCollection","features":[{"type":"Feature","properties":{"_gpxType":"trk","name":"IT Färöer – Wanderung 5/Wanderung 5","coordinateProperties":{}},"geometry":{"type":"LineString","coordinates":[[-7.1956587,62.0482937,0],[-7.1956721,62.0476538,0],[-7.1957244,62.0474042,0],[-7.1960986,62.0466957,0],[-7.1959162,62.0465436,0],[-7.1978903,62.0463223,0],[-7.200036,62.0461413,0],[-7.2015381,62.0458797,0],[-7.203083,62.0453164,0],[-7.2025895,62.0449342,0],[-7.2020853,62.0446123,0],[-7.2017097,62.0443407,0],[-7.2012377,62.0438679,0],[-7.2007227,62.0434455,0],[-7.2002721,62.0428016,0],[-7.1999824,62.0423993,0],[-7.1994299,62.042017,0],[-7.1996257,62.0418057,0],[-7.2007012,62.0414838,0],[-7.2012162,62.0411216,0],[-7.2024071,62.0406237,0],[-7.2032815,62.0402338,0],[-7.2042632,62.0398943,0],[-7.2050571,62.0394717,0],[-7.2060442,62.0387574,0],[-7.2063017,62.0384153,0],[-7.2067738,62.038194,0],[-7.2073746,62.0373992,0],[-7.2076106,62.0372231,0],[-7.2074926,62.0370747,0],[-7.2079727,62.0365741,0],[-7.2082476,62.0362062,0],[-7.2084528,62.0358534,0],[-7.2088813,62.0353299,0],[-7.2095297,62.0348806,0],[-7.2096893,62.0347793,0],[-7.2099924,62.0344535,0],[-7.210034,62.0343856,0],[-7.2108427,62.0339278,0],[-7.2111471,62.033475,0],[-7.2116876,62.0329316,0],[-7.2121596,62.0324536,0],[-7.2121704,62.0323102,0],[-7.2125083,62.0322687,0],[-7.2129536,62.0319907,0],[-7.2132111,62.0316812,0],[-7.2136724,62.0313202,0],[-7.2139889,62.0310692,0],[-7.2141257,62.030823,0],[-7.2145072,62.0300898,0],[-7.2148891,62.0295534,0],[-7.2154019,62.0290637,0],[-7.2161293,62.0287049,0],[-7.2166872,62.0285287,0],[-7.2169662,62.0281891,0],[-7.2178137,62.027828,0],[-7.2186828,62.0273864,0],[-7.2195947,62.0270845,0],[-7.2199649,62.0268329,0],[-7.2217298,62.0261786,0],[-7.2230065,62.0256049,0],[-7.2244978,62.025152,0],[-7.227416,62.0242058,0],[-7.2278452,62.0238938,0],[-7.2286391,62.0236572,0],[-7.228961,62.0237428,0],[-7.230463,62.0232948,0],[-7.2320294,62.0226254,0],[-7.2316539,62.0215584,0],[-7.2301197,62.0209242,0],[-7.2330379,62.0206826,0],[-7.235527,62.0211255,0],[-7.2373724,62.023627,0],[-7.2392178,62.0240146,0],[-7.2398186,62.0245078,0],[-7.2411919,62.0249507,0],[-7.2445393,62.0259169,0],[-7.2443767,62.0259852,0],[-7.239604,62.0245229,0],[-7.2390568,62.0240196,0],[-7.2371644,62.0236269,0],[-7.2354865,62.0212095,0],[-7.2330735,62.0207738,0],[-7.2304738,62.0209846,0],[-7.2318128,62.0215424,0],[-7.2321732,62.0226609,0],[-7.2304577,62.0233603,0],[-7.2289503,62.0237856,0],[-7.2278184,62.0240158,0],[-7.2275314,62.0241467,0],[-7.2274107,62.0242385,0],[-7.2258121,62.0247569,0],[-7.2241357,62.0252853,0],[-7.2230494,62.0256099,0],[-7.2216976,62.0262164,0],[-7.2212014,62.0263988,0],[-7.219989,62.0268517,0],[-7.2195956,62.0271116,0],[-7.2186754,62.0274139,0],[-7.2178111,62.0278557,0],[-7.2169742,62.0282067,0],[-7.2166926,62.0285552,0],[-7.2161437,62.0287259,0],[-7.2154407,62.0290756,0],[-7.2149196,62.0295679,0],[-7.2145173,62.0301327,0],[-7.2140157,62.0310887,0],[-7.2132164,62.0317177,0],[-7.2129625,62.0320261,0],[-7.2125098,62.0322942,0],[-7.2122052,62.0323265,0],[-7.2121759,62.0324927,0],[-7.2116074,62.0330633,0],[-7.2111619,62.0335077,0],[-7.2108614,62.0339542,0],[-7.2100517,62.0343968,0],[-7.2100142,62.0344729,0],[-7.2097061,62.0347899,0],[-7.2089124,62.0353434,0],[-7.208515,62.0358356,0],[-7.2082758,62.0362471,0],[-7.2080076,62.0366018,0],[-7.2075677,62.0370696,0],[-7.2076857,62.0372382,0],[-7.207436,62.03742,0],[-7.2068113,62.0382191,0],[-7.2063285,62.038443,0],[-7.2060817,62.0388002,0],[-7.2050365,62.0395316,0],[-7.2042364,62.0399496,0],[-7.203244,62.0402917,0],[-7.2022589,62.0407309,0],[-7.2011228,62.0412359,0],[-7.2007173,62.041524,0],[-7.1996507,62.0418331,0],[-7.1994942,62.0420233,0],[-7.2000326,62.0423987,0],[-7.2003284,62.0428016,0],[-7.2007728,62.0434556,0],[-7.2013771,62.043971,0],[-7.2017527,62.044342,0],[-7.2022667,62.044706,0],[-7.2026502,62.0449487,0],[-7.2031225,62.0453259,0],[-7.20153,62.0458986,0],[-7.2000012,62.0461614,0],[-7.1977642,62.04635,0],[-7.1959568,62.0465524,0],[-7.1961361,62.0466831,0],[-7.1957661,62.047407,0],[-7.1957072,62.0476745,0],[-7.1957098,62.0482991,0]]}}]}