{"type":"FeatureCollection","features":[{"type":"Feature","properties":{"_gpxType":"trk","name":"IT Färöer – Wanderung 1/Wanderung 1","coordinateProperties":{}},"geometry":{"type":"LineString","coordinates":[[-6.8070173,62.0001693,0],[-6.8140984,61.9953437,0],[-6.8175316,61.994054,0],[-6.8199348,61.9922806,0],[-6.8216515,61.9913939,0],[-6.8245697,61.9903459,0],[-6.824913,61.9887335,0],[-6.8235397,61.9864761,0],[-6.8216515,61.9837347,0],[-6.8195915,61.9814769,0],[-6.8195915,61.9784124,0],[-6.8206215,61.9764768,0],[-6.8185616,61.9737345,0],[-6.814785,61.9693786,0],[-6.8122101,61.9672004,0],[-6.8094635,61.964538,0],[-6.805172,61.9607456,0],[-6.8001938,61.9577598,0],[-6.8024254,61.9571948,0],[-6.7977905,61.9544508,0],[-6.7966104,61.9539615,0],[-6.7951941,61.9534671,0],[-6.7939389,61.9529929,0],[-6.7931664,61.9526953,0],[-6.7926407,61.9523522,0],[-6.7925441,61.9518982,0]]}}]}