{"type":"FeatureCollection","features":[{"type":"Feature","properties":{"_gpxType":"trk","name":"IT Färöer – Stadtspaziergang 1 Tórshavn/Stadtspaziergang 1","coordinateProperties":{}},"geometry":{"type":"LineString","coordinates":[[-6.7691982,62.0092494,0],[-6.7694771,62.0093149,0],[-6.7697239,62.0094357,0],[-6.7698526,62.0095868,0],[-6.7701316,62.0097379,0],[-6.770432,62.0098738,0],[-6.7708182,62.01004,0],[-6.7715907,62.0102061,0],[-6.7720842,62.0102716,0],[-6.772449,62.0104931,0],[-6.7728567,62.0107046,0],[-6.7731571,62.0109262,0],[-6.7735434,62.0111376,0],[-6.7740154,62.0113894,0],[-6.7743373,62.011621,0],[-6.774509,62.0118526,0],[-6.7746592,62.0120439,0],[-6.7751741,62.0123259,0],[-6.7756033,62.0124769,0],[-6.776011,62.0125676,0],[-6.7763329,62.0127689,0],[-6.7766333,62.0132523,0],[-6.7765045,62.0134134,0],[-6.7767406,62.0135846,0],[-6.7768264,62.0137557,0],[-6.7769551,62.0140075,0],[-6.7769551,62.0141988,0],[-6.777041,62.0143498,0],[-6.7775345,62.0145109,0],[-6.7778134,62.0147224,0],[-6.7780709,62.0149238,0],[-6.7781675,62.0148331,0],[-6.7781889,62.0147173,0],[-6.7781246,62.0146167,0],[-6.7779636,62.014526,0],[-6.777792,62.0144153,0]]}}]}