{"type":"FeatureCollection","features":[{"type":"Feature","properties":{"_gpxType":"trk","name":"Tjørnuvík - Mýlingur","coordinateProperties":{}},"geometry":{"type":"LineString","coordinates":[[-7.14677,62.28888,7.4],[-7.14669,62.28888,7.12],[-7.14676,62.28889,7.33],[-7.14686,62.2889,7.63],[-7.14696,62.28892,7.79],[-7.147,62.28892,7.82],[-7.14708,62.28893,7.85],[-7.14728,62.28896,8],[-7.14732,62.28897,8],[-7.14734,62.28897,8],[-7.1475,62.28899,8],[-7.14754,62.289,8],[-7.14771,62.28903,8],[-7.14778,62.28904,8],[-7.14783,62.28905,8],[-7.14791,62.28907,8],[-7.14798,62.28909,8],[-7.14804,62.28911,8],[-7.14813,62.28914,7.73],[-7.14817,62.28916,7.59],[-7.14821,62.28917,7.45],[-7.14834,62.2892,7.12],[-7.14853,62.28925,7.51],[-7.14865,62.28928,7.98],[-7.14878,62.28932,8.65],[-7.14883,62.28934,8.84],[-7.14886,62.28935,8.93],[-7.1489,62.28936,9.01],[-7.14894,62.28937,9.05],[-7.14899,62.28938,9.08],[-7.14901,62.28938,9.1],[-7.14906,62.28938,9.14],[-7.14911,62.28938,9.18],[-7.14917,62.28938,9.24],[-7.14921,62.28938,9.32],[-7.14924,62.28937,9.39],[-7.14925,62.28937,9.41],[-7.14928,62.28937,9.46],[-7.14931,62.28937,9.51],[-7.14935,62.28937,9.57],[-7.14942,62.28938,9.72],[-7.14954,62.2894,10.18],[-7.1496,62.2894,10.4],[-7.14967,62.28941,10.69],[-7.14971,62.28941,10.83],[-7.14975,62.28941,10.71],[-7.14983,62.28937,10.27],[-7.14991,62.28932,10.11],[-7.14999,62.28928,10.19],[-7.15004,62.28925,10.6],[-7.15007,62.28924,10.84],[-7.15012,62.28922,11.31],[-7.15022,62.28917,12.54],[-7.1503,62.28915,13.02],[-7.15039,62.28912,13.3],[-7.15053,62.28907,13.88],[-7.1506,62.28904,14.32],[-7.15069,62.28899,14.97],[-7.15082,62.28894,15.9],[-7.15088,62.28892,16.34],[-7.15092,62.28891,16.62],[-7.15097,62.28888,16.79],[-7.15103,62.28885,16.58],[-7.15108,62.28884,16.72],[-7.15115,62.28882,16.83],[-7.15123,62.28879,16.87],[-7.1513,62.28877,17.08],[-7.15136,62.28874,17.06],[-7.15136,62.28874,17.06],[-7.15143,62.28871,17.42],[-7.15147,62.28869,17.67],[-7.15151,62.28866,17.7],[-7.15157,62.28864,18.2],[-7.15168,62.2886,19.12],[-7.1517,62.2886,19.48],[-7.15175,62.2886,20.37],[-7.15181,62.2886,21.44],[-7.15189,62.28857,22.46],[-7.15194,62.28854,22.9],[-7.15203,62.28852,25.25],[-7.15204,62.28851,25.42],[-7.15204,62.2885,25.29],[-7.15201,62.28849,24.25],[-7.152,62.28847,23.67],[-7.15201,62.28845,23.7],[-7.1521,62.28837,25.49],[-7.15214,62.2883,26.05],[-7.15219,62.28817,26.33],[-7.15222,62.28799,26.19],[-7.15222,62.28789,26.57],[-7.15238,62.28754,32.52],[-7.15231,62.28747,34.64],[-7.15181,62.28699,45.63],[-7.15192,62.2869,52.25],[-7.15225,62.28672,64.52],[-7.15288,62.28647,75.03],[-7.15321,62.28629,84.91],[-7.15327,62.28625,86.97],[-7.15333,62.28621,89.1],[-7.1534,62.28618,90.98],[-7.15349,62.28617,92.56],[-7.15359,62.28616,94.29],[-7.15369,62.28616,96.71],[-7.1538,62.28616,99.67],[-7.1539,62.28616,102.26],[-7.154,62.28615,103.9],[-7.15404,62.2861,103.76],[-7.15406,62.28606,104.31],[-7.15407,62.28601,104.73],[-7.15406,62.28596,104.75],[-7.15406,62.28594,104.84],[-7.15409,62.28591,105.67],[-7.15411,62.28586,106.42],[-7.15414,62.28582,107.33],[-7.15417,62.28578,108.06],[-7.15421,62.28573,108.78],[-7.15425,62.28569,109.5],[-7.15431,62.28565,110.58],[-7.15438,62.28562,111.84],[-7.15447,62.28559,113.51],[-7.15456,62.28558,115.23],[-7.15466,62.28559,117.26],[-7.15475,62.28561,119.5],[-7.15482,62.28564,121.79],[-7.15486,62.28569,123.65],[-7.15486,62.28573,124.3],[-7.15485,62.28578,124.82],[-7.15484,62.28583,125.34],[-7.15484,62.28588,125.25],[-7.15485,62.28593,125.36],[-7.15489,62.28595,126.32],[-7.15504,62.28596,129.74],[-7.15513,62.28594,131.39],[-7.15522,62.28592,133.09],[-7.15531,62.28589,134.74],[-7.15541,62.28588,135.92],[-7.15547,62.28587,136.68],[-7.15571,62.28587,139.27],[-7.15581,62.28587,140.35],[-7.15591,62.28586,141.01],[-7.156,62.28585,141.46],[-7.15608,62.28583,141.92],[-7.1565,62.28572,145.73],[-7.15658,62.28569,146.92],[-7.15666,62.28566,147.92],[-7.15672,62.28562,148.62],[-7.1568,62.28559,150.17],[-7.1569,62.28558,152.15],[-7.157,62.28558,151.23],[-7.15708,62.2856,148.45],[-7.15716,62.28564,146.37],[-7.15725,62.28566,146.58],[-7.15733,62.28569,149.85],[-7.15735,62.28569,150.58],[-7.15761,62.2858,156.03],[-7.15769,62.28583,156.39],[-7.15778,62.28585,157.76],[-7.15785,62.28584,164.4],[-7.1584,62.28565,191.14],[-7.15846,62.28561,191.19],[-7.15852,62.28558,190.3],[-7.15858,62.28553,189.83],[-7.15864,62.2855,191.85],[-7.15871,62.28546,196.23],[-7.15877,62.28543,199.3],[-7.15882,62.28538,201.99],[-7.15886,62.28534,203.68],[-7.1589,62.2853,205.01],[-7.15894,62.28526,206.35],[-7.15899,62.28521,208.07],[-7.15904,62.28517,209.6],[-7.15905,62.28515,210.05],[-7.15966,62.28487,227.49],[-7.15966,62.28487,227.49],[-7.15986,62.28477,237.65],[-7.15991,62.28472,241.02],[-7.15996,62.28468,241.03],[-7.16003,62.28465,241.39],[-7.16012,62.28462,242.55],[-7.16022,62.28461,244.59],[-7.16033,62.28461,245.74],[-7.16043,62.28462,245.45],[-7.16053,62.28462,244.88],[-7.16063,62.28463,246.72],[-7.16073,62.28464,249.43],[-7.16079,62.28465,251.05],[-7.16108,62.28454,257.65],[-7.16114,62.2845,259.62],[-7.1612,62.28447,260.94],[-7.16126,62.28443,261.17],[-7.16132,62.28439,260.74],[-7.16139,62.28436,260.91],[-7.16147,62.28433,263.04],[-7.16155,62.28431,265.41],[-7.16164,62.28428,267.9],[-7.16171,62.28425,270.81],[-7.16177,62.28421,273.67],[-7.1618,62.28416,274.63],[-7.16181,62.28412,275.18],[-7.16182,62.28409,275.67],[-7.16207,62.2839,282.45],[-7.16214,62.28387,283.73],[-7.1622,62.28383,284.97],[-7.16226,62.28379,286.74],[-7.16231,62.28375,288.48],[-7.16235,62.28371,289.9],[-7.16239,62.28367,291.42],[-7.16244,62.28362,293.42],[-7.16249,62.28359,294.82],[-7.16254,62.28354,293.91],[-7.16258,62.2835,293.15],[-7.1626,62.28349,293.14],[-7.16292,62.28324,298.42],[-7.16292,62.28324,298.42],[-7.16329,62.28309,306.35],[-7.16329,62.28309,306.35],[-7.16386,62.28286,313.35],[-7.16386,62.28286,313.35],[-7.1641,62.2827,314.59],[-7.16414,62.28265,313.52],[-7.16418,62.2826,312.49],[-7.16422,62.28256,312.01],[-7.16425,62.28251,311.1],[-7.1643,62.28247,312.75],[-7.16435,62.28243,314.9],[-7.16441,62.28239,317.13],[-7.1645,62.28237,320.09],[-7.16458,62.28234,323.35],[-7.16462,62.28233,324.83],[-7.16553,62.28201,331.15],[-7.1661,62.28181,334.35],[-7.1661,62.28181,334.35],[-7.16655,62.28156,339.41],[-7.16655,62.28156,339.41],[-7.16707,62.28134,343.23],[-7.16707,62.28134,343.23],[-7.16744,62.28116,348.54],[-7.16744,62.28116,348.54],[-7.16769,62.28105,348.36],[-7.16769,62.28105,348.36],[-7.16828,62.28092,348.71],[-7.16828,62.28092,348.71],[-7.16885,62.28077,359.58],[-7.16885,62.28077,359.58],[-7.16904,62.28065,364.23],[-7.16904,62.28065,364.23],[-7.16937,62.28057,367.51],[-7.16937,62.28057,367.51],[-7.16962,62.28046,369.16],[-7.16962,62.28046,369.16],[-7.16972,62.28037,370.01],[-7.16972,62.28036,370.12],[-7.16987,62.28021,371.66],[-7.16987,62.28021,371.66],[-7.17044,62.28,376],[-7.17044,62.28,376],[-7.17063,62.27988,377.68],[-7.17063,62.27988,377.68],[-7.1709,62.27976,380.66],[-7.17091,62.27976,380.69],[-7.17123,62.27967,381.95],[-7.17123,62.27967,381.95],[-7.17171,62.27963,381.91],[-7.17171,62.27963,381.91],[-7.172,62.27955,384.06],[-7.172,62.27955,384.06],[-7.1723,62.27942,384.73],[-7.1723,62.27942,384.73],[-7.17273,62.27934,393.27],[-7.17273,62.27934,393.27],[-7.17294,62.2792,395.2],[-7.17294,62.2792,395.2],[-7.17315,62.27909,394.34],[-7.17324,62.27906,392.89],[-7.17331,62.27902,391.42],[-7.17338,62.27898,391.5],[-7.17345,62.27895,392.83],[-7.17353,62.27892,394.7],[-7.17361,62.27889,396.96],[-7.17368,62.27886,396.53],[-7.17375,62.27883,396.11],[-7.17383,62.2788,395.68],[-7.17389,62.27877,395.45],[-7.17407,62.27867,397.82],[-7.17416,62.27863,397.57],[-7.17425,62.2786,397.54],[-7.17434,62.27858,398.16],[-7.17443,62.27857,398.88],[-7.17453,62.27857,399.97],[-7.17463,62.27856,401.13],[-7.17472,62.27854,402.23],[-7.17474,62.27853,402.6],[-7.17515,62.27845,410.83],[-7.17525,62.27844,413.34],[-7.17535,62.27842,414.76],[-7.17543,62.27839,415.41],[-7.1755,62.27836,416.2],[-7.17556,62.27832,416.63],[-7.17557,62.27832,416.88],[-7.1764,62.27804,410.61],[-7.1764,62.27804,410.61],[-7.17657,62.27792,408.25],[-7.17664,62.27788,407.45],[-7.17673,62.27787,408.77],[-7.17683,62.27785,410.54],[-7.17692,62.27784,412.51],[-7.177,62.27782,414.5],[-7.17764,62.27751,426.23],[-7.17764,62.27751,426.23],[-7.17834,62.27715,431.01],[-7.17834,62.27715,431.01],[-7.17894,62.27677,432.76],[-7.17894,62.27677,432.76],[-7.17925,62.27657,433.43],[-7.17925,62.27657,433.43],[-7.17956,62.27641,437.49],[-7.17957,62.27641,437.62],[-7.17993,62.2762,437.85],[-7.17993,62.2762,437.85],[-7.18051,62.27599,447.19],[-7.18052,62.27599,447.51],[-7.1816,62.27556,451.85],[-7.1817,62.27553,452.5],[-7.18178,62.27549,452.19],[-7.18185,62.27546,452.03],[-7.18193,62.27542,451.42],[-7.18201,62.27539,452.62],[-7.18204,62.27538,453.1],[-7.18214,62.27523,446.78],[-7.18221,62.27519,446.92],[-7.18227,62.27515,447.68],[-7.18233,62.27511,447.88],[-7.18238,62.27507,446.98],[-7.18242,62.27503,445.18],[-7.18246,62.27499,443.49],[-7.18251,62.27494,444.04],[-7.18256,62.2749,445.82],[-7.18261,62.27486,447.14],[-7.18266,62.27482,447.98],[-7.18272,62.27478,448.65],[-7.18278,62.27474,448.81],[-7.18286,62.2747,452.51],[-7.18292,62.27466,455.94],[-7.183,62.27464,459.79],[-7.1831,62.27462,461.89],[-7.18314,62.27462,461.46],[-7.18352,62.27453,462.79],[-7.18358,62.27449,463.68],[-7.18364,62.27446,464.59],[-7.18371,62.27442,465.84],[-7.1838,62.27439,467.46],[-7.18382,62.27437,467.83],[-7.18428,62.27419,474.9],[-7.18433,62.27415,475.13],[-7.18437,62.2741,474.92],[-7.18441,62.27405,474.56],[-7.18444,62.27401,474.14],[-7.18449,62.27397,473.54],[-7.18453,62.27392,472.42],[-7.1846,62.27389,471.47],[-7.18467,62.27386,471.34],[-7.18475,62.27382,472.65],[-7.18484,62.2738,476.58],[-7.18491,62.27376,479.99],[-7.18494,62.27372,481.79],[-7.18495,62.27371,482.36],[-7.18506,62.27361,486.65],[-7.18513,62.27358,487.52],[-7.18521,62.27355,488.38],[-7.18527,62.27351,488.94],[-7.18534,62.27347,489.45],[-7.18539,62.27343,489.81],[-7.18544,62.27338,490.17],[-7.18552,62.27335,490.74],[-7.18555,62.27334,490.96],[-7.18565,62.27326,491.14],[-7.18566,62.27322,490.75],[-7.1857,62.27317,490.49],[-7.18574,62.27313,490.31],[-7.18578,62.27308,489.95],[-7.18584,62.27304,490.05],[-7.18591,62.273,490.66],[-7.18598,62.27297,491.38],[-7.18607,62.27295,492.35],[-7.18617,62.27295,494.35],[-7.18626,62.27298,496.78],[-7.18634,62.273,499.16],[-7.18634,62.273,499.16],[-7.18708,62.27366,510.5],[-7.18708,62.27366,510.5],[-7.1884,62.27433,530.36],[-7.1884,62.27433,530.36],[-7.1893,62.27466,533.55],[-7.19019,62.27498,534.78],[-7.19109,62.27531,532.75],[-7.19199,62.27563,550.42],[-7.19199,62.27563,550.42],[-7.19274,62.276,555.04],[-7.19348,62.27636,562.16],[-7.19423,62.27673,562.63],[-7.19423,62.27673,562.63],[-7.19532,62.27711,572.34],[-7.19641,62.27748,596.24],[-7.19641,62.27748,596.24],[-7.19728,62.2778,582.27],[-7.19815,62.27812,590.63],[-7.19902,62.27844,604.54],[-7.19904,62.27844,604.62],[-7.19962,62.27888,618.5],[-7.20019,62.27931,626.92],[-7.20021,62.27931,627.14],[-7.20147,62.27977,637.5],[-7.20154,62.2798,638.02],[-7.20162,62.27984,638.33],[-7.20169,62.27987,637.2],[-7.2018,62.2799,630.92],[-7.20189,62.27993,624.92],[-7.20198,62.27995,619.55],[-7.20209,62.27995,615.45],[-7.20218,62.27992,613.64],[-7.20226,62.27988,613.37],[-7.20231,62.27984,614.48],[-7.20236,62.27979,616.1],[-7.20242,62.27974,617.54],[-7.20246,62.2797,618.6],[-7.20249,62.27966,619.64],[-7.20253,62.27962,620.64],[-7.2026,62.27957,621.55],[-7.20268,62.27953,621.77],[-7.20275,62.27948,622.32],[-7.20282,62.27945,622.21],[-7.20288,62.2794,621.43],[-7.20297,62.27937,620.15],[-7.20306,62.27933,619.04],[-7.20315,62.27931,620.14],[-7.20324,62.27928,621.87],[-7.20333,62.27925,624.24],[-7.20343,62.27922,624.58],[-7.20352,62.27918,625.22],[-7.20361,62.27915,625.67],[-7.20368,62.27911,626.8],[-7.20375,62.27908,627.59],[-7.20383,62.27905,628.37],[-7.2039,62.27901,629.71],[-7.20399,62.27899,630.14],[-7.20407,62.27895,631.56],[-7.20412,62.27893,632.27],[-7.20571,62.2787,628.5],[-7.20571,62.2787,628.5],[-7.20745,62.27879,605.4],[-7.20745,62.27879,605.4],[-7.20855,62.27896,619.54],[-7.20964,62.27913,623.53],[-7.21074,62.2793,600.57],[-7.21074,62.2793,600.57],[-7.21198,62.27947,592.58],[-7.21322,62.27964,617.56],[-7.21322,62.27964,617.56],[-7.21449,62.27983,621.76],[-7.21576,62.28002,588.32],[-7.21576,62.28002,588.32],[-7.21693,62.2802,575.73],[-7.2181,62.28037,577.07],[-7.2181,62.28037,577.07],[-7.21921,62.28047,572.42],[-7.22033,62.28056,570.82],[-7.22144,62.28066,569.48],[-7.22144,62.28066,569.48],[-7.22258,62.28077,569.66],[-7.22371,62.28088,547.87],[-7.22371,62.28088,547.87],[-7.2251,62.28103,271.83],[-7.2251,62.28103,271.83],[-7.2251,62.28103,271.83],[-7.22371,62.28088,547.87],[-7.22371,62.28088,547.87],[-7.22258,62.28077,569.66],[-7.22144,62.28066,569.48],[-7.22144,62.28066,569.48],[-7.22033,62.28056,570.82],[-7.21921,62.28047,572.42],[-7.2181,62.28037,577.07],[-7.2181,62.28037,577.07],[-7.21693,62.2802,575.73],[-7.21576,62.28002,588.32],[-7.21576,62.28002,588.32],[-7.21449,62.27983,621.76],[-7.21322,62.27964,617.56],[-7.21322,62.27964,617.56],[-7.21198,62.27947,592.58],[-7.21074,62.2793,600.57],[-7.21074,62.2793,600.57],[-7.20964,62.27913,623.53],[-7.20855,62.27896,619.54],[-7.20745,62.27879,605.4],[-7.20745,62.27879,605.4],[-7.20571,62.2787,628.5],[-7.20571,62.2787,628.5],[-7.20412,62.27893,632.27],[-7.20407,62.27895,631.56],[-7.20399,62.27899,630.14],[-7.2039,62.27901,629.71],[-7.20383,62.27905,628.37],[-7.20375,62.27908,627.59],[-7.20368,62.27911,626.8],[-7.20361,62.27915,625.67],[-7.20352,62.27918,625.22],[-7.20343,62.27922,624.58],[-7.20333,62.27925,624.24],[-7.20324,62.27928,621.87],[-7.20315,62.27931,620.14],[-7.20306,62.27933,619.04],[-7.20297,62.27937,620.15],[-7.20288,62.2794,621.43],[-7.20282,62.27945,622.21],[-7.20275,62.27948,622.32],[-7.20268,62.27953,621.77],[-7.2026,62.27957,621.55],[-7.20253,62.27962,620.64],[-7.20249,62.27966,619.64],[-7.20246,62.2797,618.6],[-7.20242,62.27974,617.54],[-7.20236,62.27979,616.1],[-7.20231,62.27984,614.48],[-7.20226,62.27988,613.37],[-7.20218,62.27992,613.64],[-7.20209,62.27995,615.45],[-7.20198,62.27995,619.55],[-7.20189,62.27993,624.92],[-7.2018,62.2799,630.92],[-7.20169,62.27987,637.2],[-7.20162,62.27984,638.33],[-7.20154,62.2798,638.02],[-7.20147,62.27977,637.5],[-7.20021,62.27931,627.14],[-7.20019,62.27931,626.92],[-7.19962,62.27888,618.5],[-7.19904,62.27844,604.62],[-7.19902,62.27844,604.54],[-7.19815,62.27812,590.63],[-7.19728,62.2778,582.27],[-7.19641,62.27748,596.24],[-7.19641,62.27748,596.24],[-7.19532,62.27711,572.34],[-7.19423,62.27673,562.63],[-7.19423,62.27673,562.63],[-7.19348,62.27636,562.16],[-7.19274,62.276,555.04],[-7.19199,62.27563,550.42],[-7.19199,62.27563,550.42],[-7.19109,62.27531,532.75],[-7.19019,62.27498,534.78],[-7.1893,62.27466,533.55],[-7.1884,62.27433,530.36],[-7.1884,62.27433,530.36],[-7.18708,62.27366,510.5],[-7.18708,62.27366,510.5],[-7.18634,62.273,499.16],[-7.18634,62.273,499.16],[-7.18626,62.27298,496.78],[-7.18617,62.27295,494.35],[-7.18607,62.27295,492.35],[-7.18598,62.27297,491.38],[-7.18591,62.273,490.66],[-7.18584,62.27304,490.05],[-7.18578,62.27308,489.95],[-7.18574,62.27313,490.31],[-7.1857,62.27317,490.49],[-7.18566,62.27322,490.75],[-7.18565,62.27326,491.14],[-7.18555,62.27334,490.96],[-7.18552,62.27335,490.74],[-7.18544,62.27338,490.17],[-7.18539,62.27343,489.81],[-7.18534,62.27347,489.45],[-7.18527,62.27351,488.94],[-7.18521,62.27355,488.38],[-7.18513,62.27358,487.52],[-7.18506,62.27361,486.65],[-7.18495,62.27371,482.36],[-7.18494,62.27372,481.79],[-7.18491,62.27376,479.99],[-7.18484,62.2738,476.58],[-7.18475,62.27382,472.65],[-7.18467,62.27386,471.34],[-7.1846,62.27389,471.47],[-7.18453,62.27392,472.42],[-7.18449,62.27397,473.54],[-7.18444,62.27401,474.14],[-7.18441,62.27405,474.56],[-7.18437,62.2741,474.92],[-7.18433,62.27415,475.13],[-7.18428,62.27419,474.9],[-7.18382,62.27437,467.83],[-7.1838,62.27439,467.46],[-7.18371,62.27442,465.84],[-7.18364,62.27446,464.59],[-7.18358,62.27449,463.68],[-7.18352,62.27453,462.79],[-7.18314,62.27462,461.46],[-7.1831,62.27462,461.89],[-7.183,62.27464,459.79],[-7.18292,62.27466,455.94],[-7.18286,62.2747,452.51],[-7.18278,62.27474,448.81],[-7.18272,62.27478,448.65],[-7.18266,62.27482,447.98],[-7.18261,62.27486,447.14],[-7.18256,62.2749,445.82],[-7.18251,62.27494,444.04],[-7.18246,62.27499,443.49],[-7.18242,62.27503,445.18],[-7.18238,62.27507,446.98],[-7.18233,62.27511,447.88],[-7.18227,62.27515,447.68],[-7.18221,62.27519,446.92],[-7.18214,62.27523,446.78],[-7.18204,62.27538,453.1],[-7.18201,62.27539,452.62],[-7.18193,62.27542,451.42],[-7.18185,62.27546,452.03],[-7.18178,62.27549,452.19],[-7.1817,62.27553,452.5],[-7.1816,62.27556,451.85],[-7.18052,62.27599,447.51],[-7.18051,62.27599,447.19],[-7.17993,62.2762,437.85],[-7.17993,62.2762,437.85],[-7.17957,62.27641,437.62],[-7.17956,62.27641,437.49],[-7.17925,62.27657,433.43],[-7.17925,62.27657,433.43],[-7.17894,62.27677,432.76],[-7.17894,62.27677,432.76],[-7.17834,62.27715,431.01],[-7.17834,62.27715,431.01],[-7.17764,62.27751,426.23],[-7.17764,62.27751,426.23],[-7.177,62.27782,414.5],[-7.17692,62.27784,412.51],[-7.17683,62.27785,410.54],[-7.17673,62.27787,408.77],[-7.17664,62.27788,407.45],[-7.17657,62.27792,408.25],[-7.1764,62.27804,410.61],[-7.1764,62.27804,410.61],[-7.17557,62.27832,416.88],[-7.17556,62.27832,416.63],[-7.1755,62.27836,416.2],[-7.17543,62.27839,415.41],[-7.17535,62.27842,414.76],[-7.17525,62.27844,413.34],[-7.17515,62.27845,410.83],[-7.17474,62.27853,402.6],[-7.17472,62.27854,402.23],[-7.17463,62.27856,401.13],[-7.17453,62.27857,399.97],[-7.17443,62.27857,398.88],[-7.17434,62.27858,398.16],[-7.17425,62.2786,397.54],[-7.17416,62.27863,397.57],[-7.17407,62.27867,397.82],[-7.17389,62.27877,395.45],[-7.17383,62.2788,395.68],[-7.17375,62.27883,396.11],[-7.17368,62.27886,396.53],[-7.17361,62.27889,396.96],[-7.17353,62.27892,394.7],[-7.17345,62.27895,392.83],[-7.17338,62.27898,391.5],[-7.17331,62.27902,391.42],[-7.17324,62.27906,392.89],[-7.17315,62.27909,394.34],[-7.17294,62.2792,395.2],[-7.17294,62.2792,395.2],[-7.17273,62.27934,393.27],[-7.17273,62.27934,393.27],[-7.1723,62.27942,384.73],[-7.1723,62.27942,384.73],[-7.172,62.27955,384.06],[-7.172,62.27955,384.06],[-7.17171,62.27963,381.91],[-7.17171,62.27963,381.91],[-7.17123,62.27967,381.95],[-7.17123,62.27967,381.95],[-7.17091,62.27976,380.69],[-7.1709,62.27976,380.66],[-7.17063,62.27988,377.68],[-7.17063,62.27988,377.68],[-7.17044,62.28,376],[-7.17044,62.28,376],[-7.16987,62.28021,371.66],[-7.16987,62.28021,371.66],[-7.16972,62.28036,370.12],[-7.16972,62.28037,370.01],[-7.16962,62.28046,369.16],[-7.16962,62.28046,369.16],[-7.16937,62.28057,367.51],[-7.16937,62.28057,367.51],[-7.16904,62.28065,364.23],[-7.16904,62.28065,364.23],[-7.16885,62.28077,359.58],[-7.16885,62.28077,359.58],[-7.16828,62.28092,348.71],[-7.16828,62.28092,348.71],[-7.16769,62.28105,348.36],[-7.16769,62.28105,348.36],[-7.16744,62.28116,348.54],[-7.16744,62.28116,348.54],[-7.16707,62.28134,343.23],[-7.16707,62.28134,343.23],[-7.16655,62.28156,339.41],[-7.16655,62.28156,339.41],[-7.1661,62.28181,334.35],[-7.1661,62.28181,334.35],[-7.16553,62.28201,331.15],[-7.16462,62.28233,324.83],[-7.16458,62.28234,323.35],[-7.1645,62.28237,320.09],[-7.16441,62.28239,317.13],[-7.16435,62.28243,314.9],[-7.1643,62.28247,312.75],[-7.16425,62.28251,311.1],[-7.16422,62.28256,312.01],[-7.16418,62.2826,312.49],[-7.16414,62.28265,313.52],[-7.1641,62.2827,314.59],[-7.16386,62.28286,313.35],[-7.16386,62.28286,313.35],[-7.16329,62.28309,306.35],[-7.16329,62.28309,306.35],[-7.16292,62.28324,298.42],[-7.16292,62.28324,298.42],[-7.1626,62.28349,293.14],[-7.16258,62.2835,293.15],[-7.16254,62.28354,293.91],[-7.16249,62.28359,294.82],[-7.16244,62.28362,293.42],[-7.16239,62.28367,291.42],[-7.16235,62.28371,289.9],[-7.16231,62.28375,288.48],[-7.16226,62.28379,286.74],[-7.1622,62.28383,284.97],[-7.16214,62.28387,283.73],[-7.16207,62.2839,282.45],[-7.16182,62.28409,275.67],[-7.16181,62.28412,275.18],[-7.1618,62.28416,274.63],[-7.16177,62.28421,273.67],[-7.16171,62.28425,270.81],[-7.16164,62.28428,267.9],[-7.16155,62.28431,265.41],[-7.16147,62.28433,263.04],[-7.16139,62.28436,260.91],[-7.16132,62.28439,260.74],[-7.16126,62.28443,261.17],[-7.1612,62.28447,260.94],[-7.16114,62.2845,259.62],[-7.16108,62.28454,257.65],[-7.16079,62.28465,251.05],[-7.16073,62.28464,249.43],[-7.16063,62.28463,246.72],[-7.16053,62.28462,244.88],[-7.16043,62.28462,245.45],[-7.16033,62.28461,245.74],[-7.16022,62.28461,244.59],[-7.16012,62.28462,242.55],[-7.16003,62.28465,241.39],[-7.15996,62.28468,241.03],[-7.15991,62.28472,241.02],[-7.15986,62.28477,237.65],[-7.15966,62.28487,227.49],[-7.15966,62.28487,227.49],[-7.15905,62.28515,210.05],[-7.15904,62.28517,209.6],[-7.15899,62.28521,208.07],[-7.15894,62.28526,206.35],[-7.1589,62.2853,205.01],[-7.15886,62.28534,203.68],[-7.15882,62.28538,201.99],[-7.15877,62.28543,199.3],[-7.15871,62.28546,196.23],[-7.15864,62.2855,191.85],[-7.15858,62.28553,189.83],[-7.15852,62.28558,190.3],[-7.15846,62.28561,191.19],[-7.1584,62.28565,191.14],[-7.15785,62.28584,164.4],[-7.15778,62.28585,157.76],[-7.15769,62.28583,156.39],[-7.15761,62.2858,156.03],[-7.15735,62.28569,150.58],[-7.15733,62.28569,149.85],[-7.15725,62.28566,146.58],[-7.15716,62.28564,146.37],[-7.15708,62.2856,148.45],[-7.157,62.28558,151.23],[-7.1569,62.28558,152.15],[-7.1568,62.28559,150.17],[-7.15672,62.28562,148.62],[-7.15666,62.28566,147.92],[-7.15658,62.28569,146.92],[-7.1565,62.28572,145.73],[-7.15608,62.28583,141.92],[-7.156,62.28585,141.46],[-7.15591,62.28586,141.01],[-7.15581,62.28587,140.35],[-7.15571,62.28587,139.27],[-7.15547,62.28587,136.68],[-7.15541,62.28588,135.92],[-7.15531,62.28589,134.74],[-7.15522,62.28592,133.09],[-7.15513,62.28594,131.39],[-7.15504,62.28596,129.74],[-7.15489,62.28595,126.32],[-7.15485,62.28593,125.36],[-7.15484,62.28588,125.25],[-7.15484,62.28583,125.34],[-7.15485,62.28578,124.82],[-7.15486,62.28573,124.3],[-7.15486,62.28569,123.65],[-7.15482,62.28564,121.79],[-7.15475,62.28561,119.5],[-7.15466,62.28559,117.26],[-7.15456,62.28558,115.23],[-7.15447,62.28559,113.51],[-7.15438,62.28562,111.84],[-7.15431,62.28565,110.58],[-7.15425,62.28569,109.5],[-7.15421,62.28573,108.78],[-7.15417,62.28578,108.06],[-7.15414,62.28582,107.33],[-7.15411,62.28586,106.42],[-7.15409,62.28591,105.67],[-7.15406,62.28594,104.84],[-7.15406,62.28596,104.75],[-7.15407,62.28601,104.73],[-7.15406,62.28606,104.31],[-7.15404,62.2861,103.76],[-7.154,62.28615,103.9],[-7.1539,62.28616,102.26],[-7.1538,62.28616,99.67],[-7.15369,62.28616,96.71],[-7.15359,62.28616,94.29],[-7.15349,62.28617,92.56],[-7.1534,62.28618,90.98],[-7.15333,62.28621,89.1],[-7.15327,62.28625,86.97],[-7.15321,62.28629,84.91],[-7.15288,62.28647,75.03],[-7.15225,62.28672,64.52],[-7.15192,62.2869,52.25],[-7.15181,62.28699,45.63],[-7.15231,62.28747,34.64],[-7.15238,62.28754,32.52],[-7.15222,62.28789,26.57],[-7.15222,62.28799,26.19],[-7.15219,62.28817,26.33],[-7.15214,62.2883,26.05],[-7.1521,62.28837,25.49],[-7.15201,62.28845,23.7],[-7.152,62.28847,23.67],[-7.15201,62.28849,24.25],[-7.15204,62.2885,25.29],[-7.15204,62.28851,25.42],[-7.15203,62.28852,25.25],[-7.15194,62.28854,22.9],[-7.15189,62.28857,22.46],[-7.15181,62.2886,21.44],[-7.15175,62.2886,20.37],[-7.1517,62.2886,19.48],[-7.15168,62.2886,19.12],[-7.15157,62.28864,18.2],[-7.15151,62.28866,17.7],[-7.15147,62.28869,17.67],[-7.15143,62.28871,17.42],[-7.15136,62.28874,17.06],[-7.15136,62.28874,17.06],[-7.1513,62.28877,17.08],[-7.15123,62.28879,16.87],[-7.15115,62.28882,16.83],[-7.15108,62.28884,16.72],[-7.15103,62.28885,16.58],[-7.15097,62.28888,16.79],[-7.15092,62.28891,16.62],[-7.15088,62.28892,16.34],[-7.15082,62.28894,15.9],[-7.15069,62.28899,14.97],[-7.1506,62.28904,14.32],[-7.15053,62.28907,13.88],[-7.15039,62.28912,13.3],[-7.1503,62.28915,13.02],[-7.15022,62.28917,12.54],[-7.15012,62.28922,11.31],[-7.15007,62.28924,10.84],[-7.15004,62.28925,10.6],[-7.14999,62.28928,10.19],[-7.14991,62.28932,10.11],[-7.14983,62.28937,10.27],[-7.14975,62.28941,10.71],[-7.14971,62.28941,10.83],[-7.14967,62.28941,10.69],[-7.1496,62.2894,10.4],[-7.14954,62.2894,10.18],[-7.14942,62.28938,9.72],[-7.14935,62.28937,9.57],[-7.14931,62.28937,9.51],[-7.14928,62.28937,9.46],[-7.14925,62.28937,9.41],[-7.14924,62.28937,9.39],[-7.14921,62.28938,9.32],[-7.14917,62.28938,9.24],[-7.14911,62.28938,9.18],[-7.14906,62.28938,9.14],[-7.14901,62.28938,9.1],[-7.14899,62.28938,9.08],[-7.14894,62.28937,9.05],[-7.1489,62.28936,9.01],[-7.14886,62.28935,8.93],[-7.14883,62.28934,8.84],[-7.14878,62.28932,8.65],[-7.14865,62.28928,7.98],[-7.14853,62.28925,7.51],[-7.14834,62.2892,7.12],[-7.14821,62.28917,7.45],[-7.14817,62.28916,7.59],[-7.14813,62.28914,7.73],[-7.14804,62.28911,8],[-7.14798,62.28909,8],[-7.14791,62.28907,8],[-7.14783,62.28905,8],[-7.14778,62.28904,8],[-7.14771,62.28903,8],[-7.14754,62.289,8],[-7.1475,62.28899,8],[-7.14734,62.28897,8],[-7.14732,62.28897,8],[-7.14728,62.28896,8],[-7.14708,62.28893,7.85],[-7.147,62.28892,7.82],[-7.14696,62.28892,7.79],[-7.14686,62.2889,7.63],[-7.14676,62.28889,7.33],[-7.14669,62.28888,7.12],[-7.14677,62.28888,7.4]]}}]}