<?xml version="1.0" encoding="utf-8"?><gpx creator="Garmin Desktop App" version="1.1" xsi:schemaLocation="http://www.topografix.com/GPX/1/1 http://www.topografix.com/GPX/1/1/gpx.xsd http://www.garmin.com/xmlschemas/WaypointExtension/v1 http://www8.garmin.com/xmlschemas/WaypointExtensionv1.xsd http://www.garmin.com/xmlschemas/TrackPointExtension/v1 http://www.garmin.com/xmlschemas/TrackPointExtensionv1.xsd http://www.garmin.com/xmlschemas/GpxExtensions/v3 http://www8.garmin.com/xmlschemas/GpxExtensionsv3.xsd http://www.garmin.com/xmlschemas/ActivityExtension/v1 http://www8.garmin.com/xmlschemas/ActivityExtensionv1.xsd http://www.garmin.com/xmlschemas/AdventuresExtensions/v1 http://www8.garmin.com/xmlschemas/AdventuresExtensionv1.xsd http://www.garmin.com/xmlschemas/PressureExtension/v1 http://www.garmin.com/xmlschemas/PressureExtensionv1.xsd http://www.garmin.com/xmlschemas/TripExtensions/v1 http://www.garmin.com/xmlschemas/TripExtensionsv1.xsd http://www.garmin.com/xmlschemas/TripMetaDataExtensions/v1 http://www.garmin.com/xmlschemas/TripMetaDataExtensionsv1.xsd http://www.garmin.com/xmlschemas/ViaPointTransportationModeExtensions/v1 http://www.garmin.com/xmlschemas/ViaPointTransportationModeExtensionsv1.xsd http://www.garmin.com/xmlschemas/CreationTimeExtension/v1 http://www.garmin.com/xmlschemas/CreationTimeExtensionsv1.xsd http://www.garmin.com/xmlschemas/AccelerationExtension/v1 http://www.garmin.com/xmlschemas/AccelerationExtensionv1.xsd http://www.garmin.com/xmlschemas/PowerExtension/v1 http://www.garmin.com/xmlschemas/PowerExtensionv1.xsd http://www.garmin.com/xmlschemas/VideoExtension/v1 http://www.garmin.com/xmlschemas/VideoExtensionv1.xsd" xmlns="http://www.topografix.com/GPX/1/1" xmlns:xsi="http://www.w3.org/2001/XMLSchema-instance" xmlns:wptx1="http://www.garmin.com/xmlschemas/WaypointExtension/v1" xmlns:gpxtrx="http://www.garmin.com/xmlschemas/GpxExtensions/v3" xmlns:gpxtpx="http://www.garmin.com/xmlschemas/TrackPointExtension/v1" xmlns:gpxx="http://www.garmin.com/xmlschemas/GpxExtensions/v3" xmlns:trp="http://www.garmin.com/xmlschemas/TripExtensions/v1" xmlns:adv="http://www.garmin.com/xmlschemas/AdventuresExtensions/v1" xmlns:prs="http://www.garmin.com/xmlschemas/PressureExtension/v1" xmlns:tmd="http://www.garmin.com/xmlschemas/TripMetaDataExtensions/v1" xmlns:vptm="http://www.garmin.com/xmlschemas/ViaPointTransportationModeExtensions/v1" xmlns:ctx="http://www.garmin.com/xmlschemas/CreationTimeExtension/v1" xmlns:gpxacc="http://www.garmin.com/xmlschemas/AccelerationExtension/v1" xmlns:gpxpx="http://www.garmin.com/xmlschemas/PowerExtension/v1" xmlns:vidx1="http://www.garmin.com/xmlschemas/VideoExtension/v1">

  <metadata>
    <link href="http://www.garmin.com">
      <text>Garmin International</text>
    </link>
    <time>2025-05-06T12:16:19Z</time>
    <bounds maxlat="62.154467236250639" maxlon="-6.94370822981" minlat="62.121341032907367" minlon="-7.04398806206882" />
  </metadata>

  <wpt lat="62.151930034160614" lon="-6.96254001930356">
    <ele>149.30729700000001</ele>
    <time>2020-07-21T14:01:25Z</time>
    <name>WP1 03_HL</name>
    <sym>Flag, Blue</sym>
    <type>user</type>
    <extensions>
      <gpxx:WaypointExtension>
        <gpxx:DisplayMode>SymbolAndName</gpxx:DisplayMode>
      </gpxx:WaypointExtension>
      <wptx1:WaypointExtension>
        <wptx1:DisplayMode>SymbolAndName</wptx1:DisplayMode>
      </wptx1:WaypointExtension>
      <ctx:CreationTimeExtension>
        <ctx:CreationTime>2020-07-21T14:01:25Z</ctx:CreationTime>
      </ctx:CreationTimeExtension>
    </extensions>
  </wpt>

  <wpt lat="62.143419971689582" lon="-6.989232022315264">
    <ele>504.63751200000002</ele>
    <time>2020-07-21T14:52:12Z</time>
    <name>WP2 12_HL</name>
    <sym>Flag, Blue</sym>
    <type>user</type>
    <extensions>
      <gpxx:WaypointExtension>
        <gpxx:DisplayMode>SymbolAndName</gpxx:DisplayMode>
      </gpxx:WaypointExtension>
      <wptx1:WaypointExtension>
        <wptx1:DisplayMode>SymbolAndName</wptx1:DisplayMode>
      </wptx1:WaypointExtension>
      <ctx:CreationTimeExtension>
        <ctx:CreationTime>2020-07-21T14:52:12Z</ctx:CreationTime>
      </ctx:CreationTimeExtension>
    </extensions>
  </wpt>

  <wpt lat="62.12949100881815" lon="-7.017432013526559">
    <ele>60.819564999999997</ele>
    <time>2020-07-21T16:06:45Z</time>
    <name>WP3 29_HL</name>
    <sym>Flag, Blue</sym>
    <type>user</type>
    <extensions>
      <gpxx:WaypointExtension>
        <gpxx:DisplayMode>SymbolAndName</gpxx:DisplayMode>
      </gpxx:WaypointExtension>
      <wptx1:WaypointExtension>
        <wptx1:DisplayMode>SymbolAndName</wptx1:DisplayMode>
      </wptx1:WaypointExtension>
      <ctx:CreationTimeExtension>
        <ctx:CreationTime>2020-07-21T16:06:45Z</ctx:CreationTime>
      </ctx:CreationTimeExtension>
    </extensions>
  </wpt>

  <trk>
    <name>11 Wanderung Hosvik Leynarvatn CS</name>
    <extensions>
      <gpxx:TrackExtension>
        <gpxx:DisplayColor>Blue</gpxx:DisplayColor>
      </gpxx:TrackExtension>
    </extensions>
    <trkseg>
      <trkpt lat="62.151818722486496" lon="-6.94370822981">
        <ele>18.1484375</ele>
        <time>2020-07-21T13:31:09Z</time>
      </trkpt>
      <trkpt lat="62.151785865426064" lon="-6.943931356072426">
        <ele>19.23828125</ele>
        <time>2020-07-21T13:31:40Z</time>
      </trkpt>
      <trkpt lat="62.151784943416715" lon="-6.944135623052716">
        <ele>20.046875</ele>
        <time>2020-07-21T13:31:50Z</time>
      </trkpt>
      <trkpt lat="62.151871947571635" lon="-6.944265123456717">
        <ele>19.828125</ele>
        <time>2020-07-21T13:31:59Z</time>
      </trkpt>
      <trkpt lat="62.151971776038408" lon="-6.944348691031337">
        <ele>19.28515625</ele>
        <time>2020-07-21T13:32:06Z</time>
      </trkpt>
      <trkpt lat="62.152073699980974" lon="-6.944364532828331">
        <ele>18.44921875</ele>
        <time>2020-07-21T13:32:13Z</time>
      </trkpt>
      <trkpt lat="62.152171265333891" lon="-6.944339219480753">
        <ele>17.79296875</ele>
        <time>2020-07-21T13:32:19Z</time>
      </trkpt>
      <trkpt lat="62.152273943647742" lon="-6.94433611817658">
        <ele>17.62109375</ele>
        <time>2020-07-21T13:32:25Z</time>
      </trkpt>
      <trkpt lat="62.152383746579289" lon="-6.944329077377915">
        <ele>17.4296875</ele>
        <time>2020-07-21T13:32:32Z</time>
      </trkpt>
      <trkpt lat="62.152481898665428" lon="-6.944283144548535">
        <ele>17.140625</ele>
        <time>2020-07-21T13:32:38Z</time>
      </trkpt>
      <trkpt lat="62.152581559494138" lon="-6.944203432649374">
        <ele>16.7578125</ele>
        <time>2020-07-21T13:32:45Z</time>
      </trkpt>
      <trkpt lat="62.152665378525853" lon="-6.944122044369578">
        <ele>16.4140625</ele>
        <time>2020-07-21T13:32:51Z</time>
      </trkpt>
      <trkpt lat="62.152757328003645" lon="-6.944047110155225">
        <ele>16.1640625</ele>
        <time>2020-07-21T13:32:58Z</time>
      </trkpt>
      <trkpt lat="62.152846259996295" lon="-6.944005703553557">
        <ele>16.0078125</ele>
        <time>2020-07-21T13:33:05Z</time>
      </trkpt>
      <trkpt lat="62.15293594636023" lon="-6.944105280563235">
        <ele>16.0390625</ele>
        <time>2020-07-21T13:33:14Z</time>
      </trkpt>
      <trkpt lat="62.153033260256052" lon="-6.944232853129506">
        <ele>17.07421875</ele>
        <time>2020-07-21T13:33:22Z</time>
      </trkpt>
      <trkpt lat="62.153146835044026" lon="-6.944385068491101">
        <ele>18.73046875</ele>
        <time>2020-07-21T13:33:32Z</time>
      </trkpt>
      <trkpt lat="62.153253620490432" lon="-6.944520939141512">
        <ele>20.30859375</ele>
        <time>2020-07-21T13:33:42Z</time>
      </trkpt>
      <trkpt lat="62.15337180532515" lon="-6.9444973859936">
        <ele>21.5859375</ele>
        <time>2020-07-21T13:33:51Z</time>
      </trkpt>
      <trkpt lat="62.153483284637332" lon="-6.944441478699446">
        <ele>22.6796875</ele>
        <time>2020-07-21T13:33:58Z</time>
      </trkpt>
      <trkpt lat="62.153605241328478" lon="-6.944355564191937">
        <ele>23.7734375</ele>
        <time>2020-07-21T13:34:04Z</time>
      </trkpt>
      <trkpt lat="62.15370062738657" lon="-6.944287503138185">
        <ele>24.6015625</ele>
        <time>2020-07-21T13:34:11Z</time>
      </trkpt>
      <trkpt lat="62.153795594349504" lon="-6.944212066009641">
        <ele>25.3828125</ele>
        <time>2020-07-21T13:34:18Z</time>
      </trkpt>
      <trkpt lat="62.153892740607262" lon="-6.944160517305136">
        <ele>27.296875</ele>
        <time>2020-07-21T13:34:25Z</time>
      </trkpt>
      <trkpt lat="62.153993574902415" lon="-6.944095976650715">
        <ele>29.21875</ele>
        <time>2020-07-21T13:34:32Z</time>
      </trkpt>
      <trkpt lat="62.154093654826283" lon="-6.944032609462738">
        <ele>31.01953125</ele>
        <time>2020-07-21T13:34:39Z</time>
      </trkpt>
      <trkpt lat="62.154202703386545" lon="-6.943984245881438">
        <ele>33.06640625</ele>
        <time>2020-07-21T13:34:47Z</time>
      </trkpt>
      <trkpt lat="62.154290964826941" lon="-6.943893302232027">
        <ele>34.37890625</ele>
        <time>2020-07-21T13:34:55Z</time>
      </trkpt>
      <trkpt lat="62.154379058629274" lon="-6.943939737975597">
        <ele>36.53125</ele>
        <time>2020-07-21T13:35:03Z</time>
      </trkpt>
      <trkpt lat="62.154396492987871" lon="-6.944136377424002">
        <ele>38.140625</ele>
        <time>2020-07-21T13:35:11Z</time>
      </trkpt>
      <trkpt lat="62.154379645362496" lon="-6.944333519786596">
        <ele>38.81640625</ele>
        <time>2020-07-21T13:35:19Z</time>
      </trkpt>
      <trkpt lat="62.15437931008637" lon="-6.944546336308122">
        <ele>39.93359375</ele>
        <time>2020-07-21T13:35:27Z</time>
      </trkpt>
      <trkpt lat="62.154412753880024" lon="-6.944755716249347">
        <ele>41.82421875</ele>
        <time>2020-07-21T13:35:39Z</time>
      </trkpt>
      <trkpt lat="62.154408227652311" lon="-6.94496501237154">
        <ele>42.7890625</ele>
        <time>2020-07-21T13:36:29Z</time>
      </trkpt>
      <trkpt lat="62.154373442754149" lon="-6.945183696225286">
        <ele>42.7421875</ele>
        <time>2020-07-21T13:36:36Z</time>
      </trkpt>
      <trkpt lat="62.15434075333178" lon="-6.945371115580201">
        <ele>42.6328125</ele>
        <time>2020-07-21T13:36:42Z</time>
      </trkpt>
      <trkpt lat="62.154313009232283" lon="-6.945567252114415">
        <ele>42.671875</ele>
        <time>2020-07-21T13:36:48Z</time>
      </trkpt>
      <trkpt lat="62.154283253476024" lon="-6.945795239880681">
        <ele>42.76171875</ele>
        <time>2020-07-21T13:36:56Z</time>
      </trkpt>
      <trkpt lat="62.154262131080031" lon="-6.946035632863641">
        <ele>42.95703125</ele>
        <time>2020-07-21T13:37:03Z</time>
      </trkpt>
      <trkpt lat="62.154239248484373" lon="-6.946245934814215">
        <ele>43.0390625</ele>
        <time>2020-07-21T13:37:10Z</time>
      </trkpt>
      <trkpt lat="62.154228519648314" lon="-6.946450285613537">
        <ele>43.3984375</ele>
        <time>2020-07-21T13:37:18Z</time>
      </trkpt>
      <trkpt lat="62.154212929308414" lon="-6.946683386340737">
        <ele>43.83984375</ele>
        <time>2020-07-21T13:37:28Z</time>
      </trkpt>
      <trkpt lat="62.154193902388215" lon="-6.946953032165766">
        <ele>44.52734375</ele>
        <time>2020-07-21T13:37:37Z</time>
      </trkpt>
      <trkpt lat="62.154174456372857" lon="-6.947169452905655">
        <ele>44.97265625</ele>
        <time>2020-07-21T13:37:44Z</time>
      </trkpt>
      <trkpt lat="62.154159117490053" lon="-6.947401883080602">
        <ele>45.5703125</ele>
        <time>2020-07-21T13:37:53Z</time>
      </trkpt>
      <trkpt lat="62.154155010357499" lon="-6.947625009343028">
        <ele>45.86328125</ele>
        <time>2020-07-21T13:38:09Z</time>
      </trkpt>
      <trkpt lat="62.154168421402574" lon="-6.947848638519645">
        <ele>46.4765625</ele>
        <time>2020-07-21T13:38:17Z</time>
      </trkpt>
      <trkpt lat="62.154185771942139" lon="-6.948132952675223">
        <ele>47.234375</ele>
        <time>2020-07-21T13:38:25Z</time>
      </trkpt>
      <trkpt lat="62.154209576547146" lon="-6.948370998725295">
        <ele>48.046875</ele>
        <time>2020-07-21T13:38:32Z</time>
      </trkpt>
      <trkpt lat="62.154227430000901" lon="-6.948590269312263">
        <ele>48.68359375</ele>
        <time>2020-07-21T13:38:38Z</time>
      </trkpt>
      <trkpt lat="62.154250983148813" lon="-6.948796212673187">
        <ele>49.39453125</ele>
        <time>2020-07-21T13:38:44Z</time>
      </trkpt>
      <trkpt lat="62.154278140515089" lon="-6.949010705575347">
        <ele>50.15625</ele>
        <time>2020-07-21T13:38:51Z</time>
      </trkpt>
      <trkpt lat="62.154309321194887" lon="-6.949207093566656">
        <ele>50.81640625</ele>
        <time>2020-07-21T13:38:58Z</time>
      </trkpt>
      <trkpt lat="62.154331030324101" lon="-6.949410522356629">
        <ele>51.15625</ele>
        <time>2020-07-21T13:39:05Z</time>
      </trkpt>
      <trkpt lat="62.154346955940127" lon="-6.949646892026067">
        <ele>51.359375</ele>
        <time>2020-07-21T13:39:12Z</time>
      </trkpt>
      <trkpt lat="62.154357265681028" lon="-6.949875969439745">
        <ele>51.4453125</ele>
        <time>2020-07-21T13:39:20Z</time>
      </trkpt>
      <trkpt lat="62.154385764151812" lon="-6.950092641636729">
        <ele>52.0703125</ele>
        <time>2020-07-21T13:39:27Z</time>
      </trkpt>
      <trkpt lat="62.15440965257585" lon="-6.950327586382628">
        <ele>52.67578125</ele>
        <time>2020-07-21T13:39:38Z</time>
      </trkpt>
      <trkpt lat="62.154416609555483" lon="-6.950565464794636">
        <ele>53.00390625</ele>
        <time>2020-07-21T13:39:46Z</time>
      </trkpt>
      <trkpt lat="62.154431780800223" lon="-6.950773168355227">
        <ele>53.39453125</ele>
        <time>2020-07-21T13:39:53Z</time>
      </trkpt>
      <trkpt lat="62.154442928731441" lon="-6.950986068695784">
        <ele>53.7734375</ele>
        <time>2020-07-21T13:40:00Z</time>
      </trkpt>
      <trkpt lat="62.154467236250639" lon="-6.951194945722818">
        <ele>54.2578125</ele>
        <time>2020-07-21T13:40:09Z</time>
      </trkpt>
      <trkpt lat="62.154445946216583" lon="-6.951403906568885">
        <ele>54.25</ele>
        <time>2020-07-21T13:40:23Z</time>
      </trkpt>
      <trkpt lat="62.154432786628604" lon="-6.951618315652013">
        <ele>54.3828125</ele>
        <time>2020-07-21T13:40:32Z</time>
      </trkpt>
      <trkpt lat="62.154420968145132" lon="-6.951848901808262">
        <ele>54.69921875</ele>
        <time>2020-07-21T13:40:42Z</time>
      </trkpt>
      <trkpt lat="62.154398337006569" lon="-6.952068926766515">
        <ele>54.9375</ele>
        <time>2020-07-21T13:40:54Z</time>
      </trkpt>
      <trkpt lat="62.154359444975853" lon="-6.952288951724768">
        <ele>55.09765625</ele>
        <time>2020-07-21T13:41:04Z</time>
      </trkpt>
      <trkpt lat="62.154337735846639" lon="-6.952483076602221">
        <ele>55.375</ele>
        <time>2020-07-21T13:41:13Z</time>
      </trkpt>
      <trkpt lat="62.154293395578861" lon="-6.952672759070993">
        <ele>55.625</ele>
        <time>2020-07-21T13:41:21Z</time>
      </trkpt>
      <trkpt lat="62.154231453314424" lon="-6.952861603349447">
        <ele>55.8671875</ele>
        <time>2020-07-21T13:41:31Z</time>
      </trkpt>
      <trkpt lat="62.154197506606579" lon="-6.953070899471641">
        <ele>56.37109375</ele>
        <time>2020-07-21T13:41:40Z</time>
      </trkpt>
      <trkpt lat="62.154156100004911" lon="-6.953270388767123">
        <ele>56.875</ele>
        <time>2020-07-21T13:41:48Z</time>
      </trkpt>
      <trkpt lat="62.154117207974195" lon="-6.953485803678632">
        <ele>57.19921875</ele>
        <time>2020-07-21T13:41:58Z</time>
      </trkpt>
      <trkpt lat="62.154089380055666" lon="-6.953651513904333">
        <ele>57.47265625</ele>
        <time>2020-07-21T13:42:08Z</time>
      </trkpt>
      <trkpt lat="62.154053002595901" lon="-6.95384337566793">
        <ele>57.79296875</ele>
        <time>2020-07-21T13:42:18Z</time>
      </trkpt>
      <trkpt lat="62.15402458794415" lon="-6.954038757830858">
        <ele>58.15234375</ele>
        <time>2020-07-21T13:42:28Z</time>
      </trkpt>
      <trkpt lat="62.154003381729126" lon="-6.95423330180347">
        <ele>58.82421875</ele>
        <time>2020-07-21T13:42:37Z</time>
      </trkpt>
      <trkpt lat="62.153968513011932" lon="-6.954433126375079">
        <ele>59.65625</ele>
        <time>2020-07-21T13:42:47Z</time>
      </trkpt>
      <trkpt lat="62.15393515303731" lon="-6.954638734459877">
        <ele>60.5546875</ele>
        <time>2020-07-21T13:43:05Z</time>
      </trkpt>
      <trkpt lat="62.153931632637978" lon="-6.954853478819132">
        <ele>61.50390625</ele>
        <time>2020-07-21T13:43:16Z</time>
      </trkpt>
      <trkpt lat="62.153858039528131" lon="-6.954973340034485">
        <ele>62.18359375</ele>
        <time>2020-07-21T13:43:38Z</time>
      </trkpt>
      <trkpt lat="62.153831971809268" lon="-6.955037042498589">
        <ele>62.59375</ele>
        <time>2020-07-21T13:46:44Z</time>
      </trkpt>
      <trkpt lat="62.153822248801589" lon="-6.955200070515275">
        <ele>63.578125</ele>
        <time>2020-07-21T13:47:23Z</time>
      </trkpt>
      <trkpt lat="62.153768688440323" lon="-6.955253882333636">
        <ele>64.4375</ele>
        <time>2020-07-21T13:50:04Z</time>
      </trkpt>
      <trkpt lat="62.153729628771544" lon="-6.955445576459169">
        <ele>66.28125</ele>
        <time>2020-07-21T13:50:14Z</time>
      </trkpt>
      <trkpt lat="62.153680343180895" lon="-6.955631906166673">
        <ele>68.296875</ele>
        <time>2020-07-21T13:50:23Z</time>
      </trkpt>
      <trkpt lat="62.153643295168877" lon="-6.955810356885195">
        <ele>70.09375</ele>
        <time>2020-07-21T13:50:32Z</time>
      </trkpt>
      <trkpt lat="62.153606247156858" lon="-6.95600557141006">
        <ele>72.0546875</ele>
        <time>2020-07-21T13:50:41Z</time>
      </trkpt>
      <trkpt lat="62.153568025678396" lon="-6.956215789541602">
        <ele>74.08984375</ele>
        <time>2020-07-21T13:50:51Z</time>
      </trkpt>
      <trkpt lat="62.153507340699434" lon="-6.95640329271555">
        <ele>76.30078125</ele>
        <time>2020-07-21T13:51:04Z</time>
      </trkpt>
      <trkpt lat="62.15346802957356" lon="-6.956609152257443">
        <ele>78.23828125</ele>
        <time>2020-07-21T13:51:17Z</time>
      </trkpt>
      <trkpt lat="62.153422851115465" lon="-6.956838816404343">
        <ele>80.625</ele>
        <time>2020-07-21T13:51:32Z</time>
      </trkpt>
      <trkpt lat="62.153400219976902" lon="-6.957063116133213">
        <ele>82.59375</ele>
        <time>2020-07-21T13:51:47Z</time>
      </trkpt>
      <trkpt lat="62.153313215821981" lon="-6.957182977348566">
        <ele>84.671875</ele>
        <time>2020-07-21T13:52:03Z</time>
      </trkpt>
      <trkpt lat="62.153250770643353" lon="-6.957356063649058">
        <ele>86.72265625</ele>
        <time>2020-07-21T13:52:18Z</time>
      </trkpt>
      <trkpt lat="62.153198551386595" lon="-6.957561504095793">
        <ele>88.75</ele>
        <time>2020-07-21T13:52:31Z</time>
      </trkpt>
      <trkpt lat="62.153183883056045" lon="-6.957758143544197">
        <ele>90.1875</ele>
        <time>2020-07-21T13:52:51Z</time>
      </trkpt>
      <trkpt lat="62.153138285502791" lon="-6.95800306275487">
        <ele>92.296875</ele>
        <time>2020-07-21T13:53:09Z</time>
      </trkpt>
      <trkpt lat="62.153091346845031" lon="-6.958165168762207">
        <ele>93.8828125</ele>
        <time>2020-07-21T13:53:21Z</time>
      </trkpt>
      <trkpt lat="62.153055723756552" lon="-6.958388043567538">
        <ele>95.97265625</ele>
        <time>2020-07-21T13:53:36Z</time>
      </trkpt>
      <trkpt lat="62.153029404580593" lon="-6.95859138853848">
        <ele>97.99609375</ele>
        <time>2020-07-21T13:53:58Z</time>
      </trkpt>
      <trkpt lat="62.153031500056386" lon="-6.958814933896065">
        <ele>99.8515625</ele>
        <time>2020-07-21T13:54:15Z</time>
      </trkpt>
      <trkpt lat="62.153025716543198" lon="-6.959004113450646">
        <ele>101.51171875</ele>
        <time>2020-07-21T13:55:00Z</time>
      </trkpt>
      <trkpt lat="62.152986656874418" lon="-6.959190191701055">
        <ele>103.30859375</ele>
        <time>2020-07-21T13:55:16Z</time>
      </trkpt>
      <trkpt lat="62.152952877804637" lon="-6.959389932453632">
        <ele>104.9296875</ele>
        <time>2020-07-21T13:55:35Z</time>
      </trkpt>
      <trkpt lat="62.152907866984606" lon="-6.959589589387178">
        <ele>106.72265625</ele>
        <time>2020-07-21T13:55:59Z</time>
      </trkpt>
      <trkpt lat="62.152890097349882" lon="-6.959802992641926">
        <ele>108.23828125</ele>
        <time>2020-07-21T13:56:17Z</time>
      </trkpt>
      <trkpt lat="62.152853971347213" lon="-6.959952525794506">
        <ele>109.6484375</ele>
        <time>2020-07-21T13:56:34Z</time>
      </trkpt>
      <trkpt lat="62.15276587754488" lon="-6.959949675947428">
        <ele>110.79296875</ele>
        <time>2020-07-21T13:56:48Z</time>
      </trkpt>
      <trkpt lat="62.152714412659407" lon="-6.960084876045585">
        <ele>112.5</ele>
        <time>2020-07-21T13:57:04Z</time>
      </trkpt>
      <trkpt lat="62.152631934732199" lon="-6.96018235757947">
        <ele>114.35546875</ele>
        <time>2020-07-21T13:57:19Z</time>
      </trkpt>
      <trkpt lat="62.15255725197494" lon="-6.96032552048564">
        <ele>116.484375</ele>
        <time>2020-07-21T13:57:37Z</time>
      </trkpt>
      <trkpt lat="62.152509810402989" lon="-6.960507491603494">
        <ele>118.5703125</ele>
        <time>2020-07-21T13:57:55Z</time>
      </trkpt>
      <trkpt lat="62.152433535084128" lon="-6.96071594953537">
        <ele>121.30078125</ele>
        <time>2020-07-21T13:58:15Z</time>
      </trkpt>
      <trkpt lat="62.152406880632043" lon="-6.960928598418832">
        <ele>123.046875</ele>
        <time>2020-07-21T13:58:29Z</time>
      </trkpt>
      <trkpt lat="62.152354661375284" lon="-6.96111517958343">
        <ele>124.91796875</ele>
        <time>2020-07-21T13:58:53Z</time>
      </trkpt>
      <trkpt lat="62.152295988053083" lon="-6.961244344711304">
        <ele>126.5390625</ele>
        <time>2020-07-21T13:59:27Z</time>
      </trkpt>
      <trkpt lat="62.152215857058764" lon="-6.961330426856875">
        <ele>128.2109375</ele>
        <time>2020-07-21T13:59:47Z</time>
      </trkpt>
      <trkpt lat="62.152183335274458" lon="-6.961553217843175">
        <ele>130.01953125</ele>
        <time>2020-07-21T14:00:04Z</time>
      </trkpt>
      <trkpt lat="62.1521379891783" lon="-6.961764274165034">
        <ele>131.93359375</ele>
        <time>2020-07-21T14:00:25Z</time>
      </trkpt>
      <trkpt lat="62.15209448710084" lon="-6.961956219747663">
        <ele>133.73828125</ele>
        <time>2020-07-21T14:00:39Z</time>
      </trkpt>
      <trkpt lat="62.152050398290157" lon="-6.96218035183847">
        <ele>135.765625</ele>
        <time>2020-07-21T14:01:00Z</time>
      </trkpt>
      <trkpt lat="62.151996502652764" lon="-6.962412279099226">
        <ele>138.02734375</ele>
        <time>2020-07-21T14:01:13Z</time>
      </trkpt>
      <trkpt lat="62.151918048039079" lon="-6.962567092850804">
        <ele>140.484375</ele>
        <time>2020-07-21T14:01:29Z</time>
      </trkpt>
      <trkpt lat="62.151841353625059" lon="-6.96273104287684">
        <ele>143.1171875</ele>
        <time>2020-07-21T14:01:39Z</time>
      </trkpt>
      <trkpt lat="62.151768766343594" lon="-6.962885018438101">
        <ele>145.6953125</ele>
        <time>2020-07-21T14:01:50Z</time>
      </trkpt>
      <trkpt lat="62.151692658662796" lon="-6.963002029806376">
        <ele>148.1015625</ele>
        <time>2020-07-21T14:02:01Z</time>
      </trkpt>
      <trkpt lat="62.151611102744937" lon="-6.963126584887505">
        <ele>150.75390625</ele>
        <time>2020-07-21T14:02:15Z</time>
      </trkpt>
      <trkpt lat="62.151517812162638" lon="-6.963231023401022">
        <ele>153.5234375</ele>
        <time>2020-07-21T14:02:26Z</time>
      </trkpt>
      <trkpt lat="62.151429550722241" lon="-6.963338814675808">
        <ele>156.23046875</ele>
        <time>2020-07-21T14:02:37Z</time>
      </trkpt>
      <trkpt lat="62.151379594579339" lon="-6.963518606498838">
        <ele>158.88671875</ele>
        <time>2020-07-21T14:02:47Z</time>
      </trkpt>
      <trkpt lat="62.151336092501879" lon="-6.963707786053419">
        <ele>161.5546875</ele>
        <time>2020-07-21T14:02:58Z</time>
      </trkpt>
      <trkpt lat="62.1512486692518" lon="-6.963786575943232">
        <ele>163.9609375</ele>
        <time>2020-07-21T14:03:10Z</time>
      </trkpt>
      <trkpt lat="62.151210531592369" lon="-6.964002242311835">
        <ele>166.65234375</ele>
        <time>2020-07-21T14:03:21Z</time>
      </trkpt>
      <trkpt lat="62.151119168847799" lon="-6.964084720239043">
        <ele>168.9609375</ele>
        <time>2020-07-21T14:03:32Z</time>
      </trkpt>
      <trkpt lat="62.151018418371677" lon="-6.96413098834455">
        <ele>171.03125</ele>
        <time>2020-07-21T14:03:41Z</time>
      </trkpt>
      <trkpt lat="62.150922864675522" lon="-6.964170634746552">
        <ele>172.9453125</ele>
        <time>2020-07-21T14:03:51Z</time>
      </trkpt>
      <trkpt lat="62.150855306535959" lon="-6.964333327487111">
        <ele>175.3359375</ele>
        <time>2020-07-21T14:04:06Z</time>
      </trkpt>
      <trkpt lat="62.150813061743975" lon="-6.964512029662728">
        <ele>177.41015625</ele>
        <time>2020-07-21T14:04:15Z</time>
      </trkpt>
      <trkpt lat="62.150721112266183" lon="-6.964598782360554">
        <ele>179.5546875</ele>
        <time>2020-07-21T14:04:26Z</time>
      </trkpt>
      <trkpt lat="62.150625307112932" lon="-6.964640691876411">
        <ele>181.40625</ele>
        <time>2020-07-21T14:04:38Z</time>
      </trkpt>
      <trkpt lat="62.150561353191733" lon="-6.964488476514816">
        <ele>181.3125</ele>
      </trkpt>
      <trkpt lat="62.150448113679886" lon="-6.964531810954213">
        <ele>183.41015625</ele>
      </trkpt>
      <trkpt lat="62.150368988513947" lon="-6.964626526460052">
        <ele>185.07421875</ele>
      </trkpt>
      <trkpt lat="62.150295060127974" lon="-6.964867422357202">
        <ele>187.49609375</ele>
      </trkpt>
      <trkpt lat="62.150215851143003" lon="-6.965027935802937">
        <ele>189.2890625</ele>
      </trkpt>
      <trkpt lat="62.150115100666881" lon="-6.96517369709909">
        <ele>191.1640625</ele>
      </trkpt>
      <trkpt lat="62.149964058771729" lon="-6.96529733017087">
        <ele>193.39453125</ele>
      </trkpt>
      <trkpt lat="62.149917203933001" lon="-6.965450718998909">
        <ele>194.67578125</ele>
      </trkpt>
      <trkpt lat="62.149918880313635" lon="-6.965556666254997">
        <ele>195.2109375</ele>
      </trkpt>
      <trkpt lat="62.149942014366388" lon="-6.965827234089375">
        <ele>196.68359375</ele>
      </trkpt>
      <trkpt lat="62.149868169799447" lon="-6.965976767241955">
        <ele>198.78515625</ele>
      </trkpt>
      <trkpt lat="62.149869929999113" lon="-6.965976767241955">
        <ele>198.76953125</ele>
      </trkpt>
      <trkpt lat="62.149848388507962" lon="-6.966027896851301">
        <ele>199.45703125</ele>
      </trkpt>
      <trkpt lat="62.149690557271242" lon="-6.966262171044946">
        <ele>203.265625</ele>
        <time>2020-07-21T14:06:52Z</time>
      </trkpt>
      <trkpt lat="62.149609504267573" lon="-6.966437269002199">
        <ele>206.0390625</ele>
      </trkpt>
      <trkpt lat="62.149487044662237" lon="-6.966772964224219">
        <ele>212.03125</ele>
      </trkpt>
      <trkpt lat="62.149346731603146" lon="-6.966951498761773">
        <ele>216.59765625</ele>
      </trkpt>
      <trkpt lat="62.149161491543055" lon="-6.967155430465937">
        <ele>221.8828125</ele>
      </trkpt>
      <trkpt lat="62.148959990590811" lon="-6.967377550899983">
        <ele>227.14453125</ele>
      </trkpt>
      <trkpt lat="62.14880894869566" lon="-6.967530436813831">
        <ele>230.38671875</ele>
      </trkpt>
      <trkpt lat="62.148746084421873" lon="-6.967489952221513">
        <ele>232.57421875</ele>
      </trkpt>
      <trkpt lat="62.148697637021542" lon="-6.967438571155071">
        <ele>234.37109375</ele>
      </trkpt>
      <trkpt lat="62.148656314238906" lon="-6.967485928907991">
        <ele>236.3046875</ele>
      </trkpt>
      <trkpt lat="62.148612895980477" lon="-6.967712324112654">
        <ele>239.01953125</ele>
      </trkpt>
      <trkpt lat="62.148580541834235" lon="-6.967807291075587">
        <ele>240.70703125</ele>
      </trkpt>
      <trkpt lat="62.14851432479918" lon="-6.967893959954381">
        <ele>243.6875</ele>
      </trkpt>
      <trkpt lat="62.148397481068969" lon="-6.967966631054878">
        <ele>248.58203125</ele>
      </trkpt>
      <trkpt lat="62.148372251540422" lon="-6.968065202236176">
        <ele>249.87109375</ele>
      </trkpt>
      <trkpt lat="62.148370239883661" lon="-6.968240635469556">
        <ele>250.46875</ele>
      </trkpt>
      <trkpt lat="62.148452550172806" lon="-6.968617402017117">
        <ele>248.36328125</ele>
      </trkpt>
      <trkpt lat="62.148479288443923" lon="-6.968767354264855">
        <ele>247.83203125</ele>
      </trkpt>
      <trkpt lat="62.148477276787162" lon="-6.968990312889218">
        <ele>248.5625</ele>
      </trkpt>
      <trkpt lat="62.148439390584826" lon="-6.969202123582363">
        <ele>250.4921875</ele>
      </trkpt>
      <trkpt lat="62.148409383371472" lon="-6.969476127997041">
        <ele>252.33984375</ele>
      </trkpt>
      <trkpt lat="62.148414328694344" lon="-6.969922045245767">
        <ele>253.58203125</ele>
      </trkpt>
      <trkpt lat="62.148352721706033" lon="-6.970385983586311">
        <ele>256.76171875</ele>
      </trkpt>
      <trkpt lat="62.148253731429577" lon="-6.970657808706164">
        <ele>260.1953125</ele>
      </trkpt>
      <trkpt lat="62.14824459515512" lon="-6.970814969390631">
        <ele>260.84375</ele>
      </trkpt>
      <trkpt lat="62.148283738642931" lon="-6.971166003495455">
        <ele>260.88671875</ele>
      </trkpt>
      <trkpt lat="62.148242248222232" lon="-6.97137052193284">
        <ele>262.453125</ele>
      </trkpt>
      <trkpt lat="62.148157591000199" lon="-6.971541931852698">
        <ele>264.78125</ele>
      </trkpt>
      <trkpt lat="62.148166475817561" lon="-6.971644274890423">
        <ele>264.9140625</ele>
      </trkpt>
      <trkpt lat="62.148099755868316" lon="-6.971914507448673">
        <ele>267.23828125</ele>
      </trkpt>
      <trkpt lat="62.147986432537436" lon="-6.972067561000586">
        <ele>269.8046875</ele>
      </trkpt>
      <trkpt lat="62.14788006618619" lon="-6.972414320334792">
        <ele>274.64453125</ele>
      </trkpt>
      <trkpt lat="62.147766323760152" lon="-6.972839701920748">
        <ele>281.703125</ele>
      </trkpt>
      <trkpt lat="62.147725587710738" lon="-6.973212361335754">
        <ele>285.515625</ele>
      </trkpt>
      <trkpt lat="62.147719720378518" lon="-6.973639922216535">
        <ele>289.203125</ele>
      </trkpt>
      <trkpt lat="62.147735729813576" lon="-6.973837399855256">
        <ele>290.0859375</ele>
      </trkpt>
      <trkpt lat="62.147773280739784" lon="-6.97399104014039">
        <ele>289.55859375</ele>
      </trkpt>
      <trkpt lat="62.147827008739114" lon="-6.97415029630065">
        <ele>288.296875</ele>
      </trkpt>
      <trkpt lat="62.147840419784188" lon="-6.974254483357072">
        <ele>288.546875</ele>
      </trkpt>
      <trkpt lat="62.147824075073004" lon="-6.974457241594791">
        <ele>291.08203125</ele>
      </trkpt>
      <trkpt lat="62.14782390743494" lon="-6.974572408944368">
        <ele>292.08203125</ele>
      </trkpt>
      <trkpt lat="62.147858859971166" lon="-6.974654803052545">
        <ele>291.08203125</ele>
      </trkpt>
      <trkpt lat="62.147888448089361" lon="-6.974726216867566">
        <ele>290.24609375</ele>
      </trkpt>
      <trkpt lat="62.147966315969825" lon="-6.97504447773099">
        <ele>289.4140625</ele>
      </trkpt>
      <trkpt lat="62.148010153323412" lon="-6.975217228755355">
        <ele>290.29296875</ele>
        <time>2020-07-21T14:15:33Z</time>
      </trkpt>
      <trkpt lat="62.148051224648952" lon="-6.975390398874879">
        <ele>291.16796875</ele>
        <time>2020-07-21T14:15:43Z</time>
      </trkpt>
      <trkpt lat="62.148081986233592" lon="-6.975553678348661">
        <ele>292.11328125</ele>
        <time>2020-07-21T14:15:52Z</time>
      </trkpt>
      <trkpt lat="62.148110568523407" lon="-6.975743025541306">
        <ele>293.31640625</ele>
        <time>2020-07-21T14:16:01Z</time>
      </trkpt>
      <trkpt lat="62.148135798051953" lon="-6.975956344977021">
        <ele>294.77734375</ele>
        <time>2020-07-21T14:16:12Z</time>
      </trkpt>
      <trkpt lat="62.148136887699366" lon="-6.976164048537612">
        <ele>296.7890625</ele>
        <time>2020-07-21T14:16:21Z</time>
      </trkpt>
      <trkpt lat="62.148162787780166" lon="-6.976372422650456">
        <ele>298.08984375</ele>
        <time>2020-07-21T14:17:06Z</time>
      </trkpt>
      <trkpt lat="62.148189442232251" lon="-6.976570570841432">
        <ele>299.2109375</ele>
        <time>2020-07-21T14:17:16Z</time>
      </trkpt>
      <trkpt lat="62.148234369233251" lon="-6.976743070408702">
        <ele>299.39453125</ele>
        <time>2020-07-21T14:17:27Z</time>
      </trkpt>
      <trkpt lat="62.148272842168808" lon="-6.976940967142582">
        <ele>299.94921875</ele>
        <time>2020-07-21T14:17:38Z</time>
      </trkpt>
      <trkpt lat="62.148320535197854" lon="-6.977115646004677">
        <ele>299.96875</ele>
        <time>2020-07-21T14:17:53Z</time>
      </trkpt>
      <trkpt lat="62.148400414735079" lon="-6.977209439501166">
        <ele>298.23046875</ele>
        <time>2020-07-21T14:18:08Z</time>
      </trkpt>
      <trkpt lat="62.148461937904358" lon="-6.977381184697151">
        <ele>297.67578125</ele>
        <time>2020-07-21T14:18:19Z</time>
      </trkpt>
      <trkpt lat="62.148513738065958" lon="-6.977565586566925">
        <ele>297.7265625</ele>
        <time>2020-07-21T14:18:34Z</time>
      </trkpt>
      <trkpt lat="62.148538632318377" lon="-6.977760633453727">
        <ele>298.76171875</ele>
        <time>2020-07-21T14:18:47Z</time>
      </trkpt>
      <trkpt lat="62.148609291762114" lon="-6.977847469970584">
        <ele>297.16796875</ele>
        <time>2020-07-21T14:19:04Z</time>
      </trkpt>
      <trkpt lat="62.148618008941412" lon="-6.977993985638022">
        <ele>298.21484375</ele>
        <time>2020-07-21T14:19:18Z</time>
      </trkpt>
      <trkpt lat="62.148617506027222" lon="-6.978225242346525">
        <ele>300.359375</ele>
        <time>2020-07-21T14:19:37Z</time>
      </trkpt>
      <trkpt lat="62.148620272055268" lon="-6.978423641994596">
        <ele>302.03515625</ele>
        <time>2020-07-21T14:19:48Z</time>
      </trkpt>
      <trkpt lat="62.148589426651597" lon="-6.978608798235655">
        <ele>304.83203125</ele>
        <time>2020-07-21T14:20:11Z</time>
      </trkpt>
      <trkpt lat="62.148593114688993" lon="-6.978822452947497">
        <ele>306.6171875</ele>
        <time>2020-07-21T14:20:38Z</time>
      </trkpt>
      <trkpt lat="62.148595964536071" lon="-6.979032084345818">
        <ele>308.39453125</ele>
        <time>2020-07-21T14:21:13Z</time>
      </trkpt>
      <trkpt lat="62.14860862120986" lon="-6.979235345497727">
        <ele>310.47265625</ele>
        <time>2020-07-21T14:21:25Z</time>
      </trkpt>
      <trkpt lat="62.148597473278642" lon="-6.979370210319758">
        <ele>312.765625</ele>
        <time>2020-07-21T14:21:41Z</time>
      </trkpt>
      <trkpt lat="62.148552881553769" lon="-6.979566514492035">
        <ele>317.25</ele>
        <time>2020-07-21T14:22:03Z</time>
      </trkpt>
      <trkpt lat="62.148520862683654" lon="-6.979774804785848">
        <ele>321.44140625</ele>
        <time>2020-07-21T14:22:17Z</time>
      </trkpt>
      <trkpt lat="62.148460932075977" lon="-6.979941017925739">
        <ele>326.22265625</ele>
        <time>2020-07-21T14:22:36Z</time>
      </trkpt>
      <trkpt lat="62.148413993418217" lon="-6.98003732599318">
        <ele>329.5234375</ele>
        <time>2020-07-21T14:23:16Z</time>
      </trkpt>
      <trkpt lat="62.148349033668637" lon="-6.980220722034574">
        <ele>334.859375</ele>
        <time>2020-07-21T14:23:31Z</time>
      </trkpt>
      <trkpt lat="62.148321541026235" lon="-6.980410320684314">
        <ele>338.76953125</ele>
        <time>2020-07-21T14:23:46Z</time>
      </trkpt>
      <trkpt lat="62.148247864097357" lon="-6.980561194941402">
        <ele>344.1171875</ele>
        <time>2020-07-21T14:24:03Z</time>
      </trkpt>
      <trkpt lat="62.148180976510048" lon="-6.980684828013182">
        <ele>348.82421875</ele>
        <time>2020-07-21T14:24:17Z</time>
      </trkpt>
      <trkpt lat="62.148116854950786" lon="-6.980837378650904">
        <ele>354.1484375</ele>
        <time>2020-07-21T14:24:33Z</time>
      </trkpt>
      <trkpt lat="62.148064887151122" lon="-6.980949863791466">
        <ele>358.33203125</ele>
        <time>2020-07-21T14:24:52Z</time>
      </trkpt>
      <trkpt lat="62.147974781692028" lon="-6.981057403609157">
        <ele>363.90625</ele>
        <time>2020-07-21T14:25:12Z</time>
      </trkpt>
      <trkpt lat="62.147882329300046" lon="-6.981212636455894">
        <ele>370.47265625</ele>
        <time>2020-07-21T14:25:30Z</time>
      </trkpt>
      <trkpt lat="62.147801779210567" lon="-6.981302574276924">
        <ele>375.35546875</ele>
        <time>2020-07-21T14:25:53Z</time>
      </trkpt>
      <trkpt lat="62.147708907723427" lon="-6.981419837102294">
        <ele>381.09375</ele>
        <time>2020-07-21T14:26:17Z</time>
      </trkpt>
      <trkpt lat="62.147623999044299" lon="-6.981495525687933">
        <ele>385.76171875</ele>
        <time>2020-07-21T14:26:55Z</time>
      </trkpt>
      <trkpt lat="62.147541353479028" lon="-6.981619745492935">
        <ele>390.984375</ele>
        <time>2020-07-21T14:27:20Z</time>
      </trkpt>
      <trkpt lat="62.147440519183874" lon="-6.98169912211597">
        <ele>396.2734375</ele>
        <time>2020-07-21T14:27:46Z</time>
      </trkpt>
      <trkpt lat="62.147338427603245" lon="-6.981781013309956">
        <ele>401.625</ele>
        <time>2020-07-21T14:28:08Z</time>
      </trkpt>
      <trkpt lat="62.147288136184216" lon="-6.981906490400434">
        <ele>405.5</ele>
        <time>2020-07-21T14:28:34Z</time>
      </trkpt>
      <trkpt lat="62.147244131192565" lon="-6.982047138735652">
        <ele>409.32421875</ele>
        <time>2020-07-21T14:29:01Z</time>
      </trkpt>
      <trkpt lat="62.147159390151501" lon="-6.982117462903261">
        <ele>413.7421875</ele>
        <time>2020-07-21T14:29:18Z</time>
      </trkpt>
      <trkpt lat="62.14710608124733" lon="-6.982191475108266">
        <ele>417.3984375</ele>
        <time>2020-07-21T14:30:02Z</time>
      </trkpt>
      <trkpt lat="62.147043468430638" lon="-6.982357269152999">
        <ele>423.3203125</ele>
        <time>2020-07-21T14:30:23Z</time>
      </trkpt>
      <trkpt lat="62.14700005017221" lon="-6.982554579153657">
        <ele>429.10546875</ele>
        <time>2020-07-21T14:30:49Z</time>
      </trkpt>
      <trkpt lat="62.146964007988572" lon="-6.982648624107242">
        <ele>432.8046875</ele>
        <time>2020-07-21T14:31:21Z</time>
      </trkpt>
      <trkpt lat="62.146900054067373" lon="-6.982778543606401">
        <ele>438.6875</ele>
        <time>2020-07-21T14:31:44Z</time>
      </trkpt>
      <trkpt lat="62.146865855902433" lon="-6.982931094244123">
        <ele>443.2890625</ele>
        <time>2020-07-21T14:32:17Z</time>
      </trkpt>
      <trkpt lat="62.146845487877727" lon="-6.983043411746621">
        <ele>446.3984375</ele>
        <time>2020-07-21T14:32:51Z</time>
      </trkpt>
      <trkpt lat="62.146760495379567" lon="-6.983117843046784">
        <ele>452.41796875</ele>
        <time>2020-07-21T14:33:24Z</time>
      </trkpt>
      <trkpt lat="62.146668881177902" lon="-6.98309663683176">
        <ele>457.12890625</ele>
        <time>2020-07-21T14:33:52Z</time>
      </trkpt>
      <trkpt lat="62.146590678021312" lon="-6.983185987919569">
        <ele>463.00390625</ele>
        <time>2020-07-21T14:34:12Z</time>
      </trkpt>
      <trkpt lat="62.146493531763554" lon="-6.983234938234091">
        <ele>469.21484375</ele>
        <time>2020-07-21T14:34:29Z</time>
      </trkpt>
      <trkpt lat="62.146422117948532" lon="-6.983290677890182">
        <ele>474.18359375</ele>
        <time>2020-07-21T14:34:46Z</time>
      </trkpt>
      <trkpt lat="62.146352799609303" lon="-6.983237117528915">
        <ele>477.02734375</ele>
        <time>2020-07-21T14:35:13Z</time>
      </trkpt>
      <trkpt lat="62.146263867616653" lon="-6.983173079788685">
        <ele>480.48828125</ele>
        <time>2020-07-21T14:35:47Z</time>
      </trkpt>
      <trkpt lat="62.146153226494789" lon="-6.983181545510888">
        <ele>485.62109375</ele>
        <time>2020-07-21T14:36:07Z</time>
      </trkpt>
      <trkpt lat="62.146072592586279" lon="-6.983371647074819">
        <ele>492.02734375</ele>
        <time>2020-07-21T14:36:28Z</time>
      </trkpt>
      <trkpt lat="62.146005285903811" lon="-6.983533836901188">
        <ele>497.125</ele>
        <time>2020-07-21T14:36:56Z</time>
      </trkpt>
      <trkpt lat="62.145933117717505" lon="-6.983657386153936">
        <ele>501.59765625</ele>
        <time>2020-07-21T14:37:18Z</time>
      </trkpt>
      <trkpt lat="62.145862625911832" lon="-6.983681190758944">
        <ele>504.58984375</ele>
        <time>2020-07-21T14:37:43Z</time>
      </trkpt>
      <trkpt lat="62.145789619535208" lon="-6.983667947351933">
        <ele>507.234375</ele>
        <time>2020-07-21T14:38:13Z</time>
      </trkpt>
      <trkpt lat="62.145702950656414" lon="-6.983619248494506">
        <ele>510.09765625</ele>
        <time>2020-07-21T14:38:37Z</time>
      </trkpt>
      <trkpt lat="62.145650396123528" lon="-6.983565269038081">
        <ele>511.68359375</ele>
        <time>2020-07-21T14:39:05Z</time>
      </trkpt>
      <trkpt lat="62.145568924024701" lon="-6.983645232394338">
        <ele>515.5234375</ele>
        <time>2020-07-21T14:39:29Z</time>
      </trkpt>
      <trkpt lat="62.145494828000665" lon="-6.98370348662138">
        <ele>518.7578125</ele>
        <time>2020-07-21T14:40:04Z</time>
      </trkpt>
      <trkpt lat="62.145413774996996" lon="-6.983816139400005">
        <ele>522.00390625</ele>
        <time>2020-07-21T14:40:21Z</time>
      </trkpt>
      <trkpt lat="62.145332302898169" lon="-6.983860731124878">
        <ele>524.5859375</ele>
        <time>2020-07-21T14:40:49Z</time>
      </trkpt>
      <trkpt lat="62.145251333713531" lon="-6.98394488543272">
        <ele>527.32421875</ele>
        <time>2020-07-21T14:41:19Z</time>
      </trkpt>
      <trkpt lat="62.145214872434735" lon="-6.984112607315183">
        <ele>529.1484375</ele>
        <time>2020-07-21T14:41:48Z</time>
      </trkpt>
      <trkpt lat="62.14515351690352" lon="-6.984251830726862">
        <ele>531.37890625</ele>
        <time>2020-07-21T14:42:53Z</time>
      </trkpt>
      <trkpt lat="62.145114624872804" lon="-6.984407231211662">
        <ele>533.01953125</ele>
        <time>2020-07-21T14:43:09Z</time>
      </trkpt>
      <trkpt lat="62.145090820267797" lon="-6.984584592282772">
        <ele>534.3125</ele>
        <time>2020-07-21T14:43:24Z</time>
      </trkpt>
      <trkpt lat="62.145037679001689" lon="-6.984783243387938">
        <ele>536.41015625</ele>
        <time>2020-07-21T14:43:44Z</time>
      </trkpt>
      <trkpt lat="62.14497372508049" lon="-6.984867481514812">
        <ele>538.33203125</ele>
        <time>2020-07-21T14:43:56Z</time>
      </trkpt>
      <trkpt lat="62.14487356133759" lon="-6.985077615827322">
        <ele>541.77734375</ele>
        <time>2020-07-21T14:44:08Z</time>
      </trkpt>
      <trkpt lat="62.144799465313554" lon="-6.985235195606947">
        <ele>544.26953125</ele>
        <time>2020-07-21T14:44:16Z</time>
      </trkpt>
      <trkpt lat="62.144735846668482" lon="-6.985430074855685">
        <ele>546.5703125</ele>
        <time>2020-07-21T14:44:26Z</time>
      </trkpt>
      <trkpt lat="62.144682956859469" lon="-6.985593773424625">
        <ele>548.41015625</ele>
        <time>2020-07-21T14:44:34Z</time>
      </trkpt>
      <trkpt lat="62.144642472267151" lon="-6.985776918008924">
        <ele>549.9765625</ele>
        <time>2020-07-21T14:44:44Z</time>
      </trkpt>
      <trkpt lat="62.144628055393696" lon="-6.985964337363839">
        <ele>551</ele>
        <time>2020-07-21T14:44:54Z</time>
      </trkpt>
      <trkpt lat="62.144614476710558" lon="-6.986224092543125">
        <ele>552.2734375</ele>
        <time>2020-07-21T14:45:08Z</time>
      </trkpt>
      <trkpt lat="62.144590253010392" lon="-6.986408578231931">
        <ele>553.51953125</ele>
        <time>2020-07-21T14:45:20Z</time>
      </trkpt>
      <trkpt lat="62.14452613145113" lon="-6.986583760008216">
        <ele>555.640625</ele>
        <time>2020-07-21T14:45:37Z</time>
      </trkpt>
      <trkpt lat="62.144479444250464" lon="-6.98679213412106">
        <ele>556.8828125</ele>
        <time>2020-07-21T14:45:48Z</time>
      </trkpt>
      <trkpt lat="62.144447593018413" lon="-6.986956670880318">
        <ele>557.60546875</ele>
        <time>2020-07-21T14:45:58Z</time>
      </trkpt>
      <trkpt lat="62.144375592470169" lon="-6.987000759691">
        <ele>558.9921875</ele>
        <time>2020-07-21T14:46:15Z</time>
      </trkpt>
      <trkpt lat="62.144292108714581" lon="-6.987126991152763">
        <ele>560.390625</ele>
        <time>2020-07-21T14:46:32Z</time>
      </trkpt>
      <trkpt lat="62.144221784546971" lon="-6.987255988642573">
        <ele>561.328125</ele>
        <time>2020-07-21T14:46:58Z</time>
      </trkpt>
      <trkpt lat="62.144163278862834" lon="-6.987415831536055">
        <ele>561.77734375</ele>
        <time>2020-07-21T14:47:26Z</time>
      </trkpt>
      <trkpt lat="62.14407317340374" lon="-6.987516414374113">
        <ele>562.49609375</ele>
        <time>2020-07-21T14:47:57Z</time>
      </trkpt>
      <trkpt lat="62.144009219482541" lon="-6.987637868151069">
        <ele>562.51171875</ele>
        <time>2020-07-21T14:48:22Z</time>
      </trkpt>
      <trkpt lat="62.143956078216434" lon="-6.987818665802479">
        <ele>561.765625</ele>
        <time>2020-07-21T14:48:51Z</time>
      </trkpt>
      <trkpt lat="62.143886424601078" lon="-6.987996362149715">
        <ele>560.86328125</ele>
        <time>2020-07-21T14:49:20Z</time>
      </trkpt>
      <trkpt lat="62.143860775977373" lon="-6.988068614155054">
        <ele>560.3828125</ele>
        <time>2020-07-21T14:49:55Z</time>
      </trkpt>
      <trkpt lat="62.143803779035807" lon="-6.988127119839191">
        <ele>560.1015625</ele>
        <time>2020-07-21T14:50:12Z</time>
      </trkpt>
      <trkpt lat="62.143775783479214" lon="-6.988263744860888">
        <ele>558.12890625</ele>
        <time>2020-07-21T14:50:30Z</time>
      </trkpt>
      <trkpt lat="62.143720295280218" lon="-6.988435238599777">
        <ele>555.1796875</ele>
        <time>2020-07-21T14:51:00Z</time>
      </trkpt>
      <trkpt lat="62.143641589209437" lon="-6.988577814772725">
        <ele>551.71875</ele>
        <time>2020-07-21T14:51:22Z</time>
      </trkpt>
      <trkpt lat="62.143587777391076" lon="-6.988772274926305">
        <ele>548.296875</ele>
        <time>2020-07-21T14:51:41Z</time>
      </trkpt>
      <trkpt lat="62.143517788499594" lon="-6.988968411460519">
        <ele>544.2109375</ele>
        <time>2020-07-21T14:51:55Z</time>
      </trkpt>
      <trkpt lat="62.143469927832484" lon="-6.989114759489894">
        <ele>541.23046875</ele>
        <time>2020-07-21T14:52:04Z</time>
      </trkpt>
      <trkpt lat="62.14338468387723" lon="-6.989294299855828">
        <ele>536.8359375</ele>
        <time>2020-07-21T14:52:17Z</time>
      </trkpt>
      <trkpt lat="62.143298266455531" lon="-6.989450789988041">
        <ele>532.5390625</ele>
        <time>2020-07-21T14:52:25Z</time>
      </trkpt>
      <trkpt lat="62.143220566213131" lon="-6.989591186866164">
        <ele>528.61328125</ele>
        <time>2020-07-21T14:52:32Z</time>
      </trkpt>
      <trkpt lat="62.143151331692934" lon="-6.989726135507226">
        <ele>524.9609375</ele>
        <time>2020-07-21T14:52:39Z</time>
      </trkpt>
      <trkpt lat="62.143076062202454" lon="-6.989851612597704">
        <ele>521.15234375</ele>
        <time>2020-07-21T14:52:46Z</time>
      </trkpt>
      <trkpt lat="62.142991404980421" lon="-6.989907938987017">
        <ele>517.71484375</ele>
        <time>2020-07-21T14:52:54Z</time>
      </trkpt>
      <trkpt lat="62.142932647839189" lon="-6.99006786569953">
        <ele>514.015625</ele>
        <time>2020-07-21T14:53:20Z</time>
      </trkpt>
      <trkpt lat="62.142868777737021" lon="-6.990211112424731">
        <ele>510.4609375</ele>
        <time>2020-07-21T14:54:30Z</time>
      </trkpt>
      <trkpt lat="62.142797112464905" lon="-6.990313036367297">
        <ele>507.203125</ele>
        <time>2020-07-21T14:54:37Z</time>
      </trkpt>
      <trkpt lat="62.142709102481604" lon="-6.990377577021718">
        <ele>503.89453125</ele>
        <time>2020-07-21T14:54:44Z</time>
      </trkpt>
      <trkpt lat="62.142632994800806" lon="-6.99044949375093">
        <ele>500.98828125</ele>
        <time>2020-07-21T14:54:52Z</time>
      </trkpt>
      <trkpt lat="62.14252713136375" lon="-6.990471873432398">
        <ele>497.640625</ele>
        <time>2020-07-21T14:55:04Z</time>
      </trkpt>
      <trkpt lat="62.142449766397476" lon="-6.990377996116877">
        <ele>495.91796875</ele>
        <time>2020-07-21T14:55:14Z</time>
      </trkpt>
      <trkpt lat="62.142372233793139" lon="-6.990430383011699">
        <ele>493.23828125</ele>
        <time>2020-07-21T14:55:23Z</time>
      </trkpt>
      <trkpt lat="62.142274752259254" lon="-6.990514872595668">
        <ele>489.87890625</ele>
        <time>2020-07-21T14:55:31Z</time>
      </trkpt>
      <trkpt lat="62.142178611829877" lon="-6.990565750747919">
        <ele>486.83203125</ele>
        <time>2020-07-21T14:55:40Z</time>
      </trkpt>
      <trkpt lat="62.142092864960432" lon="-6.99061805382371">
        <ele>484.69921875</ele>
        <time>2020-07-21T14:55:49Z</time>
      </trkpt>
      <trkpt lat="62.141993707045913" lon="-6.990735651925206">
        <ele>482.76953125</ele>
        <time>2020-07-21T14:56:07Z</time>
      </trkpt>
      <trkpt lat="62.142003765329719" lon="-6.991169080138207">
        <ele>483</ele>
        <time>2020-07-21T14:59:03Z</time>
      </trkpt>
      <trkpt lat="62.142019020393491" lon="-6.991359852254391">
        <ele>483.2578125</ele>
        <time>2020-07-21T14:59:11Z</time>
      </trkpt>
      <trkpt lat="62.142014158889651" lon="-6.991553641855717">
        <ele>483.22265625</ele>
        <time>2020-07-21T14:59:18Z</time>
      </trkpt>
      <trkpt lat="62.14200871065259" lon="-6.991750784218311">
        <ele>483.75390625</ele>
        <time>2020-07-21T14:59:26Z</time>
      </trkpt>
      <trkpt lat="62.142001586034894" lon="-6.991941053420305">
        <ele>484.296875</ele>
        <time>2020-07-21T14:59:39Z</time>
      </trkpt>
      <trkpt lat="62.142001753672957" lon="-6.992169795557857">
        <ele>485.078125</ele>
        <time>2020-07-21T15:00:02Z</time>
      </trkpt>
      <trkpt lat="62.14200284332037" lon="-6.992392502725124">
        <ele>485.85546875</ele>
        <time>2020-07-21T15:00:13Z</time>
      </trkpt>
      <trkpt lat="62.141979038715363" lon="-6.992579000070691">
        <ele>485.90625</ele>
        <time>2020-07-21T15:00:23Z</time>
      </trkpt>
      <trkpt lat="62.141976775601506" lon="-6.992782428860664">
        <ele>486.3125</ele>
        <time>2020-07-21T15:00:34Z</time>
      </trkpt>
      <trkpt lat="62.141961855813861" lon="-6.992989210411906">
        <ele>486.515625</ele>
        <time>2020-07-21T15:00:47Z</time>
      </trkpt>
      <trkpt lat="62.141900165006518" lon="-6.993145952001214">
        <ele>485.8203125</ele>
        <time>2020-07-21T15:00:58Z</time>
      </trkpt>
      <trkpt lat="62.141836797818542" lon="-6.993266819044948">
        <ele>484.90234375</ele>
        <time>2020-07-21T15:01:09Z</time>
      </trkpt>
      <trkpt lat="62.141747027635574" lon="-6.993340328335762">
        <ele>483.26171875</ele>
        <time>2020-07-21T15:01:22Z</time>
      </trkpt>
      <trkpt lat="62.141679637134075" lon="-6.993448790162802">
        <ele>481.91796875</ele>
        <time>2020-07-21T15:01:33Z</time>
      </trkpt>
      <trkpt lat="62.141614509746432" lon="-6.993591031059623">
        <ele>480.5234375</ele>
        <time>2020-07-21T15:01:47Z</time>
      </trkpt>
      <trkpt lat="62.141571259126067" lon="-6.993752047419548">
        <ele>479.44921875</ele>
        <time>2020-07-21T15:01:58Z</time>
      </trkpt>
      <trkpt lat="62.141523566097021" lon="-6.993923960253596">
        <ele>478.25390625</ele>
        <time>2020-07-21T15:02:12Z</time>
      </trkpt>
      <trkpt lat="62.141500096768141" lon="-6.994124706834555">
        <ele>477.23828125</ele>
        <time>2020-07-21T15:02:25Z</time>
      </trkpt>
      <trkpt lat="62.141467994078994" lon="-6.994339367374778">
        <ele>475.46484375</ele>
        <time>2020-07-21T15:02:37Z</time>
      </trkpt>
      <trkpt lat="62.141409404575825" lon="-6.994517482817173">
        <ele>473.3515625</ele>
        <time>2020-07-21T15:02:48Z</time>
      </trkpt>
      <trkpt lat="62.141362046822906" lon="-6.994717055931687">
        <ele>471.26953125</ele>
        <time>2020-07-21T15:02:59Z</time>
      </trkpt>
      <trkpt lat="62.141323741525412" lon="-6.99489064514637">
        <ele>469.4765625</ele>
        <time>2020-07-21T15:03:07Z</time>
      </trkpt>
      <trkpt lat="62.141295159235597" lon="-6.99509340338409">
        <ele>468.10546875</ele>
        <time>2020-07-21T15:03:16Z</time>
      </trkpt>
      <trkpt lat="62.141248807311058" lon="-6.995276212692261">
        <ele>466.36328125</ele>
        <time>2020-07-21T15:03:24Z</time>
      </trkpt>
      <trkpt lat="62.14121519587934" lon="-6.995462290942669">
        <ele>464.8828125</ele>
        <time>2020-07-21T15:03:33Z</time>
      </trkpt>
      <trkpt lat="62.141167586669326" lon="-6.995640490204096">
        <ele>463.08203125</ele>
        <time>2020-07-21T15:03:42Z</time>
      </trkpt>
      <trkpt lat="62.141122072935104" lon="-6.99579169973731">
        <ele>461.359375</ele>
        <time>2020-07-21T15:03:51Z</time>
      </trkpt>
      <trkpt lat="62.141030542552471" lon="-6.995886750519276">
        <ele>458.70703125</ele>
        <time>2020-07-21T15:04:01Z</time>
      </trkpt>
      <trkpt lat="62.140971785411239" lon="-6.99602672830224">
        <ele>456.62109375</ele>
        <time>2020-07-21T15:04:10Z</time>
      </trkpt>
      <trkpt lat="62.140889307484031" lon="-6.996126640588045">
        <ele>454.16015625</ele>
        <time>2020-07-21T15:04:18Z</time>
      </trkpt>
      <trkpt lat="62.14079836383462" lon="-6.996188163757324">
        <ele>451.68359375</ele>
        <time>2020-07-21T15:04:26Z</time>
      </trkpt>
      <trkpt lat="62.140714880079031" lon="-6.99621724896133">
        <ele>449.5390625</ele>
        <time>2020-07-21T15:04:35Z</time>
      </trkpt>
      <trkpt lat="62.140627959743142" lon="-6.996266953647137">
        <ele>447.2109375</ele>
        <time>2020-07-21T15:04:45Z</time>
      </trkpt>
      <trkpt lat="62.140561239793897" lon="-6.996448338031769">
        <ele>444.73828125</ele>
        <time>2020-07-21T15:04:52Z</time>
      </trkpt>
      <trkpt lat="62.140494184568524" lon="-6.996580269187689">
        <ele>442.51953125</ele>
        <time>2020-07-21T15:05:00Z</time>
      </trkpt>
      <trkpt lat="62.140436852350831" lon="-6.996754696592689">
        <ele>440.84765625</ele>
        <time>2020-07-21T15:05:08Z</time>
      </trkpt>
      <trkpt lat="62.140396451577544" lon="-6.996937086805701">
        <ele>439.5859375</ele>
        <time>2020-07-21T15:05:22Z</time>
      </trkpt>
      <trkpt lat="62.140405923128128" lon="-6.997065497562289">
        <ele>439.46875</ele>
        <time>2020-07-21T15:06:30Z</time>
      </trkpt>
      <trkpt lat="62.140405671671033" lon="-6.997272027656436">
        <ele>438.96875</ele>
        <time>2020-07-21T15:06:41Z</time>
      </trkpt>
      <trkpt lat="62.140392092987895" lon="-6.997456345707178">
        <ele>438.2734375</ele>
        <time>2020-07-21T15:06:50Z</time>
      </trkpt>
      <trkpt lat="62.140347165986896" lon="-6.997625660151243">
        <ele>437.0859375</ele>
        <time>2020-07-21T15:07:00Z</time>
      </trkpt>
      <trkpt lat="62.140289666131139" lon="-6.997761530801654">
        <ele>435.80078125</ele>
        <time>2020-07-21T15:07:11Z</time>
      </trkpt>
      <trkpt lat="62.14022227562964" lon="-6.99789572507143">
        <ele>434.4375</ele>
        <time>2020-07-21T15:07:26Z</time>
      </trkpt>
      <trkpt lat="62.140175588428974" lon="-6.998054897412658">
        <ele>433.50390625</ele>
        <time>2020-07-21T15:07:40Z</time>
      </trkpt>
      <trkpt lat="62.14009378105402" lon="-6.998141314834356">
        <ele>432.125</ele>
        <time>2020-07-21T15:07:53Z</time>
      </trkpt>
      <trkpt lat="62.140017924830317" lon="-6.998177776113153">
        <ele>430.90625</ele>
        <time>2020-07-21T15:08:08Z</time>
      </trkpt>
      <trkpt lat="62.139974506571889" lon="-6.998252710327506">
        <ele>430.19140625</ele>
        <time>2020-07-21T15:08:54Z</time>
      </trkpt>
      <trkpt lat="62.139928825199604" lon="-6.99821968562901">
        <ele>429.515625</ele>
        <time>2020-07-21T15:09:32Z</time>
      </trkpt>
      <trkpt lat="62.139869313687086" lon="-6.99815271422267">
        <ele>428.5078125</ele>
        <time>2020-07-21T15:09:52Z</time>
      </trkpt>
      <trkpt lat="62.13981281965971" lon="-6.998336361721158">
        <ele>427.44921875</ele>
        <time>2020-07-21T15:10:20Z</time>
      </trkpt>
      <trkpt lat="62.1397805493325" lon="-6.998519003391266">
        <ele>426.4765625</ele>
        <time>2020-07-21T15:10:38Z</time>
      </trkpt>
      <trkpt lat="62.139763282611966" lon="-6.998707512393594">
        <ele>425.7265625</ele>
        <time>2020-07-21T15:11:02Z</time>
      </trkpt>
      <trkpt lat="62.139731850475073" lon="-6.99887590482831">
        <ele>424.828125</ele>
        <time>2020-07-21T15:11:17Z</time>
      </trkpt>
      <trkpt lat="62.139690862968564" lon="-6.999031556770206">
        <ele>423.84375</ele>
        <time>2020-07-21T15:11:33Z</time>
      </trkpt>
      <trkpt lat="62.13961735367775" lon="-6.999156698584557">
        <ele>422.1640625</ele>
        <time>2020-07-21T15:11:43Z</time>
      </trkpt>
      <trkpt lat="62.139522721990943" lon="-6.999204475432634">
        <ele>420.1171875</ele>
        <time>2020-07-21T15:11:51Z</time>
      </trkpt>
      <trkpt lat="62.139426916837692" lon="-6.999191483482719">
        <ele>418.33984375</ele>
        <time>2020-07-21T15:11:59Z</time>
      </trkpt>
      <trkpt lat="62.139350641518831" lon="-6.999366665259004">
        <ele>416.03515625</ele>
        <time>2020-07-21T15:12:11Z</time>
      </trkpt>
      <trkpt lat="62.139306720346212" lon="-6.99956439435482">
        <ele>414.23828125</ele>
        <time>2020-07-21T15:12:19Z</time>
      </trkpt>
      <trkpt lat="62.139186188578606" lon="-6.999650727957487">
        <ele>411.5078125</ele>
      </trkpt>
      <trkpt lat="62.139018885791302" lon="-6.999863795936108">
        <ele>407.2734375</ele>
      </trkpt>
      <trkpt lat="62.138805733993649" lon="-7.0001370459795">
        <ele>401.86328125</ele>
      </trkpt>
      <trkpt lat="62.138773296028376" lon="-7.000241065397859">
        <ele>400.6953125</ele>
      </trkpt>
      <trkpt lat="62.138713784515858" lon="-7.000476596876979">
        <ele>398.3984375</ele>
      </trkpt>
      <trkpt lat="62.138629881665111" lon="-7.000838108360767">
        <ele>394.94921875</ele>
      </trkpt>
      <trkpt lat="62.138581182807684" lon="-7.000985881313682">
        <ele>393.11328125</ele>
      </trkpt>
      <trkpt lat="62.138443468138576" lon="-7.001235662028194">
        <ele>389.2109375</ele>
      </trkpt>
      <trkpt lat="62.13829418644309" lon="-7.001472618430853">
        <ele>385.484375</ele>
      </trkpt>
      <trkpt lat="62.138222185894847" lon="-7.00159658677876">
        <ele>383.7734375</ele>
      </trkpt>
      <trkpt lat="62.138167284429073" lon="-7.001746203750372">
        <ele>382.3984375</ele>
      </trkpt>
      <trkpt lat="62.138106096535921" lon="-7.001859275624156">
        <ele>381.1484375</ele>
      </trkpt>
      <trkpt lat="62.138032838702202" lon="-7.001948207616806">
        <ele>379.88671875</ele>
        <time>2020-07-21T15:15:33Z</time>
      </trkpt>
      <trkpt lat="62.137971483170986" lon="-7.002078462392092">
        <ele>378.7421875</ele>
        <time>2020-07-21T15:15:45Z</time>
      </trkpt>
      <trkpt lat="62.137917252257466" lon="-7.002253979444504">
        <ele>377.33203125</ele>
        <time>2020-07-21T15:15:56Z</time>
      </trkpt>
      <trkpt lat="62.137891771271825" lon="-7.002449948340654">
        <ele>376.359375</ele>
        <time>2020-07-21T15:16:06Z</time>
      </trkpt>
      <trkpt lat="62.13788372464478" lon="-7.002608869224787">
        <ele>375.6640625</ele>
        <time>2020-07-21T15:16:25Z</time>
      </trkpt>
      <trkpt lat="62.137804515659809" lon="-7.002610294148326">
        <ele>374.2578125</ele>
        <time>2020-07-21T15:16:42Z</time>
      </trkpt>
      <trkpt lat="62.137719439342618" lon="-7.002679361030459">
        <ele>372.52734375</ele>
        <time>2020-07-21T15:16:57Z</time>
      </trkpt>
      <trkpt lat="62.137639308348298" lon="-7.002742812037468">
        <ele>370.91796875</ele>
        <time>2020-07-21T15:17:10Z</time>
      </trkpt>
      <trkpt lat="62.137542329728603" lon="-7.002829564735293">
        <ele>368.9609375</ele>
        <time>2020-07-21T15:17:20Z</time>
      </trkpt>
      <trkpt lat="62.137451218441129" lon="-7.002861080691218">
        <ele>367.28515625</ele>
        <time>2020-07-21T15:17:27Z</time>
      </trkpt>
      <trkpt lat="62.137359520420432" lon="-7.002966441214085">
        <ele>365.41015625</ele>
        <time>2020-07-21T15:17:34Z</time>
      </trkpt>
      <trkpt lat="62.137302858754992" lon="-7.003142293542624">
        <ele>363.97265625</ele>
        <time>2020-07-21T15:17:42Z</time>
      </trkpt>
      <trkpt lat="62.137083504348993" lon="-7.003099378198385">
        <ele>360.140625</ele>
        <time>2020-07-21T15:17:49Z</time>
      </trkpt>
      <trkpt lat="62.136886613443494" lon="-7.003306914120913">
        <ele>355.78515625</ele>
      </trkpt>
      <trkpt lat="62.136676227673888" lon="-7.003508917987347">
        <ele>351.5625</ele>
      </trkpt>
      <trkpt lat="62.136484617367387" lon="-7.003749310970306">
        <ele>347.97265625</ele>
      </trkpt>
      <trkpt lat="62.13615546002984" lon="-7.004153653979302">
        <ele>341.29296875</ele>
      </trkpt>
      <trkpt lat="62.136050015687943" lon="-7.004465712234378">
        <ele>339.13671875</ele>
      </trkpt>
      <trkpt lat="62.135855220258236" lon="-7.00518311932683">
        <ele>335.16796875</ele>
      </trkpt>
      <trkpt lat="62.135719936341047" lon="-7.005769181996584">
        <ele>332.2109375</ele>
      </trkpt>
      <trkpt lat="62.135562691837549" lon="-7.006656657904387">
        <ele>326.76953125</ele>
      </trkpt>
      <trkpt lat="62.135457079857588" lon="-7.007231907919049">
        <ele>323.5859375</ele>
      </trkpt>
      <trkpt lat="62.135389102622867" lon="-7.007785364985466">
        <ele>320.18359375</ele>
      </trkpt>
      <trkpt lat="62.1353511326015" lon="-7.008059285581112">
        <ele>318.34375</ele>
      </trkpt>
      <trkpt lat="62.135302517563105" lon="-7.008202113211155">
        <ele>316.47265625</ele>
        <time>2020-07-21T15:28:40Z</time>
      </trkpt>
      <trkpt lat="62.135241078212857" lon="-7.008296325802803">
        <ele>314.15234375</ele>
        <time>2020-07-21T15:28:55Z</time>
      </trkpt>
      <trkpt lat="62.135213082656264" lon="-7.008489612489939">
        <ele>312.46875</ele>
        <time>2020-07-21T15:29:04Z</time>
      </trkpt>
      <trkpt lat="62.135205874219537" lon="-7.008690694347024">
        <ele>311.4296875</ele>
        <time>2020-07-21T15:29:13Z</time>
      </trkpt>
      <trkpt lat="62.135187517851591" lon="-7.008877275511622">
        <ele>310.1171875</ele>
        <time>2020-07-21T15:29:23Z</time>
      </trkpt>
      <trkpt lat="62.135139405727386" lon="-7.009015241637826">
        <ele>308.1171875</ele>
        <time>2020-07-21T15:29:35Z</time>
      </trkpt>
      <trkpt lat="62.135136723518372" lon="-7.009217999875546">
        <ele>307.48046875</ele>
        <time>2020-07-21T15:29:46Z</time>
      </trkpt>
      <trkpt lat="62.135062292218208" lon="-7.009339286014438">
        <ele>304.95703125</ele>
        <time>2020-07-21T15:30:00Z</time>
      </trkpt>
      <trkpt lat="62.135002445429564" lon="-7.009484209120274">
        <ele>302.8125</ele>
        <time>2020-07-21T15:30:11Z</time>
      </trkpt>
      <trkpt lat="62.134934887290001" lon="-7.00962083414197">
        <ele>300.45703125</ele>
        <time>2020-07-21T15:30:20Z</time>
      </trkpt>
      <trkpt lat="62.134856432676315" lon="-7.009708676487207">
        <ele>297.890625</ele>
        <time>2020-07-21T15:30:33Z</time>
      </trkpt>
      <trkpt lat="62.134809410199523" lon="-7.009880756959319">
        <ele>296.06640625</ele>
        <time>2020-07-21T15:30:45Z</time>
      </trkpt>
      <trkpt lat="62.13473791256547" lon="-7.010033056139946">
        <ele>293.37109375</ele>
        <time>2020-07-21T15:30:59Z</time>
      </trkpt>
      <trkpt lat="62.134676389396191" lon="-7.010160461068153">
        <ele>291.0703125</ele>
        <time>2020-07-21T15:31:11Z</time>
      </trkpt>
      <trkpt lat="62.13460891507566" lon="-7.010260038077831">
        <ele>288.47265625</ele>
        <time>2020-07-21T15:31:24Z</time>
      </trkpt>
      <trkpt lat="62.134535908699036" lon="-7.010368416085839">
        <ele>285.44140625</ele>
        <time>2020-07-21T15:31:38Z</time>
      </trkpt>
      <trkpt lat="62.134482013061643" lon="-7.010522224009037">
        <ele>283.03515625</ele>
        <time>2020-07-21T15:31:52Z</time>
      </trkpt>
      <trkpt lat="62.134391153231263" lon="-7.010500766336918">
        <ele>279.84375</ele>
        <time>2020-07-21T15:32:08Z</time>
      </trkpt>
      <trkpt lat="62.134295096620917" lon="-7.010540999472141">
        <ele>276.3203125</ele>
        <time>2020-07-21T15:32:24Z</time>
      </trkpt>
      <trkpt lat="62.134210104122758" lon="-7.010503113269806">
        <ele>273.35546875</ele>
        <time>2020-07-21T15:32:43Z</time>
      </trkpt>
      <trkpt lat="62.134136594831944" lon="-7.010568324476481">
        <ele>270.6328125</ele>
        <time>2020-07-21T15:32:57Z</time>
      </trkpt>
      <trkpt lat="62.133923107758164" lon="-7.01051794923842">
        <ele>263.078125</ele>
      </trkpt>
      <trkpt lat="62.13372889906168" lon="-7.010654155164957">
        <ele>255.6171875</ele>
      </trkpt>
      <trkpt lat="62.133504934608936" lon="-7.010927405208349">
        <ele>244.35546875</ele>
      </trkpt>
      <trkpt lat="62.133208131417632" lon="-7.011282462626696">
        <ele>229.97265625</ele>
      </trkpt>
      <trkpt lat="62.133059771731496" lon="-7.011451860889792">
        <ele>223.515625</ele>
      </trkpt>
      <trkpt lat="62.1329490467906" lon="-7.011692589148879">
        <ele>217.30078125</ele>
      </trkpt>
      <trkpt lat="62.132851649075747" lon="-7.012043036520481">
        <ele>209.16015625</ele>
      </trkpt>
      <trkpt lat="62.132686860859394" lon="-7.012491971254349">
        <ele>197.32421875</ele>
      </trkpt>
      <trkpt lat="62.132600359618664" lon="-7.012710906565189">
        <ele>191.03515625</ele>
      </trkpt>
      <trkpt lat="62.132457364350557" lon="-7.012907629832625">
        <ele>182.9921875</ele>
      </trkpt>
      <trkpt lat="62.132271118462086" lon="-7.013131678104401">
        <ele>173.6015625</ele>
      </trkpt>
      <trkpt lat="62.132163243368268" lon="-7.013284731656313">
        <ele>168.3359375</ele>
      </trkpt>
      <trkpt lat="62.132087470963597" lon="-7.013580445200205">
        <ele>162.98828125</ele>
      </trkpt>
      <trkpt lat="62.131895860657096" lon="-7.013809941709042">
        <ele>153.12890625</ele>
      </trkpt>
      <trkpt lat="62.131787985563278" lon="-7.013908177614212">
        <ele>147.921875</ele>
      </trkpt>
      <trkpt lat="62.131655132398009" lon="-7.014005910605192">
        <ele>141.75390625</ele>
      </trkpt>
      <trkpt lat="62.131584892049432" lon="-7.014142703264952">
        <ele>137.69921875</ele>
      </trkpt>
      <trkpt lat="62.131539462134242" lon="-7.014417042955756">
        <ele>133.14453125</ele>
      </trkpt>
      <trkpt lat="62.131456565111876" lon="-7.014701776206493">
        <ele>127.19921875</ele>
      </trkpt>
      <trkpt lat="62.131368387490511" lon="-7.014800095930696">
        <ele>122.9609375</ele>
      </trkpt>
      <trkpt lat="62.131226398050785" lon="-7.014887183904648">
        <ele>116.70703125</ele>
      </trkpt>
      <trkpt lat="62.131089773029089" lon="-7.014915850013495">
        <ele>111.0078125</ele>
      </trkpt>
      <trkpt lat="62.130998158827424" lon="-7.014944767579436">
        <ele>107.11328125</ele>
      </trkpt>
      <trkpt lat="62.130891960114241" lon="-7.015101425349712">
        <ele>101.53515625</ele>
      </trkpt>
      <trkpt lat="62.130740750581026" lon="-7.015429744496942">
        <ele>93.1796875</ele>
      </trkpt>
      <trkpt lat="62.13061829097569" lon="-7.015688745304942">
        <ele>86.984375</ele>
      </trkpt>
      <trkpt lat="62.13051569648087" lon="-7.015871135517955">
        <ele>82.15625</ele>
      </trkpt>
      <trkpt lat="62.130411425605416" lon="-7.015962079167366">
        <ele>80.1328125</ele>
      </trkpt>
      <trkpt lat="62.130305394530296" lon="-7.016001809388399">
        <ele>79.66015625</ele>
      </trkpt>
      <trkpt lat="62.130186874419451" lon="-7.015961073338985">
        <ele>79.59765625</ele>
      </trkpt>
      <trkpt lat="62.130097942426801" lon="-7.015876835212112">
        <ele>79.6640625</ele>
      </trkpt>
      <trkpt lat="62.130006412044168" lon="-7.015803325921297">
        <ele>79.546875</ele>
      </trkpt>
      <trkpt lat="62.129869870841503" lon="-7.015821095556021">
        <ele>78.9765625</ele>
      </trkpt>
      <trkpt lat="62.129817567765713" lon="-7.016007257625461">
        <ele>78.67578125</ele>
      </trkpt>
      <trkpt lat="62.129756296053529" lon="-7.01620071195066">
        <ele>78.5703125</ele>
      </trkpt>
      <trkpt lat="62.129696952179074" lon="-7.016262486577034">
        <ele>78.61328125</ele>
      </trkpt>
      <trkpt lat="62.129634087905288" lon="-7.016256786882877">
        <ele>79.00390625</ele>
      </trkpt>
      <trkpt lat="62.129592262208462" lon="-7.016435489058495">
        <ele>80.5859375</ele>
        <time>2020-07-21T16:05:43Z</time>
      </trkpt>
      <trkpt lat="62.129563512280583" lon="-7.016621315851808">
        <ele>81.6171875</ele>
        <time>2020-07-21T16:05:50Z</time>
      </trkpt>
      <trkpt lat="62.129528978839517" lon="-7.01682616956532">
        <ele>82.625</ele>
        <time>2020-07-21T16:05:57Z</time>
      </trkpt>
      <trkpt lat="62.129482040181756" lon="-7.016985761001706">
        <ele>83.9765625</ele>
        <time>2020-07-21T16:06:05Z</time>
      </trkpt>
      <trkpt lat="62.129432503134012" lon="-7.017148956656456">
        <ele>85.34375</ele>
        <time>2020-07-21T16:06:15Z</time>
      </trkpt>
      <trkpt lat="62.129498887807131" lon="-7.017291951924563">
        <ele>83.26953125</ele>
        <time>2020-07-21T16:06:29Z</time>
      </trkpt>
      <trkpt lat="62.129486901685596" lon="-7.017437126487494">
        <ele>83.30078125</ele>
        <time>2020-07-21T16:06:46Z</time>
      </trkpt>
      <trkpt lat="62.129489835351706" lon="-7.017524298280478">
        <ele>82.73828125</ele>
        <time>2020-07-21T16:07:30Z</time>
      </trkpt>
      <trkpt lat="62.129441387951374" lon="-7.017667964100838">
        <ele>83.2890625</ele>
        <time>2020-07-21T16:07:56Z</time>
      </trkpt>
      <trkpt lat="62.129425294697285" lon="-7.01766855083406">
        <ele>83.73046875</ele>
        <time>2020-07-21T16:08:57Z</time>
      </trkpt>
      <trkpt lat="62.129408866167068" lon="-7.017569560557604">
        <ele>84.76171875</ele>
        <time>2020-07-21T16:09:33Z</time>
      </trkpt>
      <trkpt lat="62.129318509250879" lon="-7.017480880022049">
        <ele>87.84765625</ele>
        <time>2020-07-21T16:09:41Z</time>
      </trkpt>
      <trkpt lat="62.129222704097629" lon="-7.017418183386326">
        <ele>90.98828125</ele>
        <time>2020-07-21T16:09:49Z</time>
      </trkpt>
      <trkpt lat="62.129235276952386" lon="-7.017315421253443">
        <ele>90.9375</ele>
        <time>2020-07-21T16:10:01Z</time>
      </trkpt>
      <trkpt lat="62.1292276494205" lon="-7.017300166189671">
        <ele>91.1875</ele>
        <time>2020-07-21T16:10:20Z</time>
      </trkpt>
      <trkpt lat="62.129137543961406" lon="-7.017309973016381">
        <ele>93.796875</ele>
        <time>2020-07-21T16:10:27Z</time>
      </trkpt>
      <trkpt lat="62.129052467644215" lon="-7.017276613041759">
        <ele>96.3671875</ele>
        <time>2020-07-21T16:10:33Z</time>
      </trkpt>
      <trkpt lat="62.128988178446889" lon="-7.017288766801357">
        <ele>98.21484375</ele>
        <time>2020-07-21T16:10:59Z</time>
      </trkpt>
      <trkpt lat="62.128869071602821" lon="-7.017281223088503">
        <ele>101.7265625</ele>
        <time>2020-07-21T16:11:15Z</time>
      </trkpt>
      <trkpt lat="62.128758849576116" lon="-7.017305111512542">
        <ele>105.9375</ele>
        <time>2020-07-21T16:11:24Z</time>
      </trkpt>
      <trkpt lat="62.128659943118691" lon="-7.017293209210038">
        <ele>110.86328125</ele>
        <time>2020-07-21T16:11:33Z</time>
      </trkpt>
      <trkpt lat="62.128545613959432" lon="-7.01728549785912">
        <ele>116.5390625</ele>
        <time>2020-07-21T16:11:47Z</time>
      </trkpt>
      <trkpt lat="62.128447461873293" lon="-7.017333190888166">
        <ele>121.1875</ele>
        <time>2020-07-21T16:12:08Z</time>
      </trkpt>
      <trkpt lat="62.128344615921378" lon="-7.017567716538906">
        <ele>124.41015625</ele>
        <time>2020-07-21T16:12:19Z</time>
      </trkpt>
      <trkpt lat="62.128239506855607" lon="-7.017808947712183">
        <ele>127.328125</ele>
        <time>2020-07-21T16:12:29Z</time>
      </trkpt>
      <trkpt lat="62.128181168809533" lon="-7.017991421744227">
        <ele>128.46484375</ele>
        <time>2020-07-21T16:12:37Z</time>
      </trkpt>
      <trkpt lat="62.12813020683825" lon="-7.018170040100813">
        <ele>129.25390625</ele>
        <time>2020-07-21T16:12:45Z</time>
      </trkpt>
      <trkpt lat="62.12806910276413" lon="-7.018374726176262">
        <ele>129.9296875</ele>
        <time>2020-07-21T16:12:52Z</time>
      </trkpt>
      <trkpt lat="62.128031384199858" lon="-7.018585363402963">
        <ele>129.23828125</ele>
        <time>2020-07-21T16:12:59Z</time>
      </trkpt>
      <trkpt lat="62.127984445542097" lon="-7.018764652311802">
        <ele>129.26953125</ele>
        <time>2020-07-21T16:13:06Z</time>
      </trkpt>
      <trkpt lat="62.127939853817225" lon="-7.018918544054031">
        <ele>129.69140625</ele>
        <time>2020-07-21T16:13:13Z</time>
      </trkpt>
      <trkpt lat="62.127942033112049" lon="-7.019208306446672">
        <ele>125.74609375</ele>
        <time>2020-07-21T16:13:39Z</time>
      </trkpt>
      <trkpt lat="62.127936920151114" lon="-7.019420452415943">
        <ele>122.96484375</ele>
        <time>2020-07-21T16:13:47Z</time>
      </trkpt>
      <trkpt lat="62.127908170223236" lon="-7.019620276987553">
        <ele>121.60546875</ele>
        <time>2020-07-21T16:13:54Z</time>
      </trkpt>
      <trkpt lat="62.127863327041268" lon="-7.019800236448646">
        <ele>121.39453125</ele>
        <time>2020-07-21T16:14:01Z</time>
      </trkpt>
      <trkpt lat="62.12779400870204" lon="-7.019974496215582">
        <ele>122.515625</ele>
        <time>2020-07-21T16:14:09Z</time>
      </trkpt>
      <trkpt lat="62.127720164135098" lon="-7.020146073773503">
        <ele>123.80078125</ele>
        <time>2020-07-21T16:14:16Z</time>
      </trkpt>
      <trkpt lat="62.127654617652297" lon="-7.0202861353755">
        <ele>125.0625</ele>
        <time>2020-07-21T16:14:23Z</time>
      </trkpt>
      <trkpt lat="62.127593345940113" lon="-7.02043566852808">
        <ele>125.91015625</ele>
        <time>2020-07-21T16:14:30Z</time>
      </trkpt>
      <trkpt lat="62.127546323463321" lon="-7.020647311583161">
        <ele>125.0078125</ele>
        <time>2020-07-21T16:14:38Z</time>
      </trkpt>
      <trkpt lat="62.127465941011906" lon="-7.020844537764788">
        <ele>125.671875</ele>
        <time>2020-07-21T16:14:45Z</time>
      </trkpt>
      <trkpt lat="62.127390755340457" lon="-7.021067831665278">
        <ele>125.234375</ele>
        <time>2020-07-21T16:14:53Z</time>
      </trkpt>
      <trkpt lat="62.127326549962163" lon="-7.02124041505158">
        <ele>125.01171875</ele>
        <time>2020-07-21T16:15:00Z</time>
      </trkpt>
      <trkpt lat="62.127280198037624" lon="-7.021422553807497">
        <ele>123.63671875</ele>
        <time>2020-07-21T16:15:07Z</time>
      </trkpt>
      <trkpt lat="62.127230828627944" lon="-7.021645847707987">
        <ele>121.48828125</ele>
        <time>2020-07-21T16:15:13Z</time>
      </trkpt>
      <trkpt lat="62.12718615308404" lon="-7.021865285933018">
        <ele>119.046875</ele>
        <time>2020-07-21T16:15:22Z</time>
      </trkpt>
      <trkpt lat="62.127122953534126" lon="-7.022067289799452">
        <ele>117.60546875</ele>
        <time>2020-07-21T16:15:36Z</time>
      </trkpt>
      <trkpt lat="62.127058664336801" lon="-7.022341294214129">
        <ele>114.94921875</ele>
        <time>2020-07-21T16:15:51Z</time>
      </trkpt>
      <trkpt lat="62.12698238901794" lon="-7.022561822086573">
        <ele>114.8984375</ele>
        <time>2020-07-21T16:16:03Z</time>
      </trkpt>
      <trkpt lat="62.126856576651335" lon="-7.022756449878216">
        <ele>117.609375</ele>
        <time>2020-07-21T16:16:13Z</time>
      </trkpt>
      <trkpt lat="62.126763537526131" lon="-7.022934146225452">
        <ele>118.99609375</ele>
        <time>2020-07-21T16:16:21Z</time>
      </trkpt>
      <trkpt lat="62.126658847555518" lon="-7.023111423477531">
        <ele>120.8046875</ele>
        <time>2020-07-21T16:16:30Z</time>
      </trkpt>
      <trkpt lat="62.126579806208611" lon="-7.023275457322598">
        <ele>121.69921875</ele>
        <time>2020-07-21T16:16:37Z</time>
      </trkpt>
      <trkpt lat="62.126508224755526" lon="-7.023491794243455">
        <ele>121.48828125</ele>
        <time>2020-07-21T16:16:45Z</time>
      </trkpt>
      <trkpt lat="62.126419879496098" lon="-7.023659013211727">
        <ele>122.44140625</ele>
        <time>2020-07-21T16:16:51Z</time>
      </trkpt>
      <trkpt lat="62.126332623884082" lon="-7.023844588547945">
        <ele>122.79296875</ele>
        <time>2020-07-21T16:16:57Z</time>
      </trkpt>
      <trkpt lat="62.126262215897441" lon="-7.024107612669468">
        <ele>120.94921875</ele>
        <time>2020-07-21T16:17:04Z</time>
      </trkpt>
      <trkpt lat="62.126206727698445" lon="-7.024328140541911">
        <ele>119.4765625</ele>
        <time>2020-07-21T16:17:12Z</time>
      </trkpt>
      <trkpt lat="62.126180492341518" lon="-7.024653274565935">
        <ele>115.390625</ele>
        <time>2020-07-21T16:17:24Z</time>
      </trkpt>
      <trkpt lat="62.126182252541184" lon="-7.024854607880116">
        <ele>112.22265625</ele>
        <time>2020-07-21T16:17:40Z</time>
      </trkpt>
      <trkpt lat="62.126166913658381" lon="-7.025058791041374">
        <ele>109.8359375</ele>
        <time>2020-07-21T16:17:45Z</time>
      </trkpt>
      <trkpt lat="62.126130117103457" lon="-7.025249060243368">
        <ele>108.48046875</ele>
        <time>2020-07-21T16:17:50Z</time>
      </trkpt>
      <trkpt lat="62.126090805977583" lon="-7.02547344379127">
        <ele>106.75390625</ele>
        <time>2020-07-21T16:17:56Z</time>
      </trkpt>
      <trkpt lat="62.12603934109211" lon="-7.025665389373899">
        <ele>105.96484375</ele>
        <time>2020-07-21T16:18:02Z</time>
      </trkpt>
      <trkpt lat="62.12600514292717" lon="-7.025879714637995">
        <ele>105.0625</ele>
        <time>2020-07-21T16:18:07Z</time>
      </trkpt>
      <trkpt lat="62.125967843458056" lon="-7.026084316894412">
        <ele>104.62109375</ele>
        <time>2020-07-21T16:18:12Z</time>
      </trkpt>
      <trkpt lat="62.125923335552216" lon="-7.026308448985219">
        <ele>104.2421875</ele>
        <time>2020-07-21T16:18:18Z</time>
      </trkpt>
      <trkpt lat="62.125877737998962" lon="-7.026516487821937">
        <ele>104.0234375</ele>
        <time>2020-07-21T16:18:25Z</time>
      </trkpt>
      <trkpt lat="62.125798277556896" lon="-7.026644982397556">
        <ele>105.953125</ele>
        <time>2020-07-21T16:18:43Z</time>
      </trkpt>
      <trkpt lat="62.125754188746214" lon="-7.02687531709671">
        <ele>105.9453125</ele>
        <time>2020-07-21T16:18:52Z</time>
      </trkpt>
      <trkpt lat="62.125719152390957" lon="-7.027050666511059">
        <ele>105.90625</ele>
        <time>2020-07-21T16:18:58Z</time>
      </trkpt>
      <trkpt lat="62.125678081065416" lon="-7.027241606265307">
        <ele>105.8828125</ele>
        <time>2020-07-21T16:19:05Z</time>
      </trkpt>
      <trkpt lat="62.125650923699141" lon="-7.027426930144429">
        <ele>105.5078125</ele>
        <time>2020-07-21T16:19:13Z</time>
      </trkpt>
      <trkpt lat="62.125630639493465" lon="-7.027654414996505">
        <ele>105.14453125</ele>
        <time>2020-07-21T16:19:21Z</time>
      </trkpt>
      <trkpt lat="62.125611025840044" lon="-7.027842421084642">
        <ele>104.90625</ele>
        <time>2020-07-21T16:19:27Z</time>
      </trkpt>
      <trkpt lat="62.125604068860412" lon="-7.02807929366827">
        <ele>104.0625</ele>
        <time>2020-07-21T16:19:35Z</time>
      </trkpt>
      <trkpt lat="62.125596525147557" lon="-7.028315076604486">
        <ele>103.328125</ele>
        <time>2020-07-21T16:19:42Z</time>
      </trkpt>
      <trkpt lat="62.125575989484787" lon="-7.02859427779913">
        <ele>102.953125</ele>
        <time>2020-07-21T16:19:48Z</time>
      </trkpt>
      <trkpt lat="62.125525530427694" lon="-7.02883224003017">
        <ele>103.53515625</ele>
        <time>2020-07-21T16:19:55Z</time>
      </trkpt>
      <trkpt lat="62.125483034178615" lon="-7.029025694355369">
        <ele>104.02734375</ele>
        <time>2020-07-21T16:20:02Z</time>
      </trkpt>
      <trkpt lat="62.125475071370602" lon="-7.02921386808157">
        <ele>103.3671875</ele>
        <time>2020-07-21T16:20:09Z</time>
      </trkpt>
      <trkpt lat="62.125436263158917" lon="-7.029385026544333">
        <ele>103.5703125</ele>
        <time>2020-07-21T16:20:15Z</time>
      </trkpt>
      <trkpt lat="62.125393515452743" lon="-7.029549647122622">
        <ele>103.90625</ele>
        <time>2020-07-21T16:20:21Z</time>
      </trkpt>
      <trkpt lat="62.125407010316849" lon="-7.029777634888887">
        <ele>102.45703125</ele>
        <time>2020-07-21T16:20:28Z</time>
      </trkpt>
      <trkpt lat="62.125404998660088" lon="-7.029997240751982">
        <ele>101.71484375</ele>
        <time>2020-07-21T16:20:35Z</time>
      </trkpt>
      <trkpt lat="62.125401059165597" lon="-7.030190695077181">
        <ele>101.33203125</ele>
        <time>2020-07-21T16:20:41Z</time>
      </trkpt>
      <trkpt lat="62.125399215146899" lon="-7.030396806076169">
        <ele>100.859375</ele>
        <time>2020-07-21T16:20:47Z</time>
      </trkpt>
      <trkpt lat="62.125403825193644" lon="-7.030605096369982">
        <ele>100.21875</ele>
        <time>2020-07-21T16:20:54Z</time>
      </trkpt>
      <trkpt lat="62.125400137156248" lon="-7.030828474089503">
        <ele>99.62890625</ele>
        <time>2020-07-21T16:21:01Z</time>
      </trkpt>
      <trkpt lat="62.125417236238718" lon="-7.031041877344251">
        <ele>98.4296875</ele>
        <time>2020-07-21T16:21:08Z</time>
      </trkpt>
      <trkpt lat="62.125417906790972" lon="-7.031279252842069">
        <ele>97.55859375</ele>
        <time>2020-07-21T16:21:14Z</time>
      </trkpt>
      <trkpt lat="62.125408686697483" lon="-7.031490979716182">
        <ele>97.02734375</ele>
        <time>2020-07-21T16:21:21Z</time>
      </trkpt>
      <trkpt lat="62.125416481867433" lon="-7.031704550608993">
        <ele>95.88671875</ele>
        <time>2020-07-21T16:21:28Z</time>
      </trkpt>
      <trkpt lat="62.125421091914177" lon="-7.031937902793288">
        <ele>94.671875</ele>
        <time>2020-07-21T16:21:35Z</time>
      </trkpt>
      <trkpt lat="62.125413129106164" lon="-7.032171674072743">
        <ele>93.77734375</ele>
        <time>2020-07-21T16:21:42Z</time>
      </trkpt>
      <trkpt lat="62.12541732005775" lon="-7.032373091205955">
        <ele>92.71875</ele>
        <time>2020-07-21T16:21:49Z</time>
      </trkpt>
      <trkpt lat="62.125413296744227" lon="-7.03258641064167">
        <ele>91.8203125</ele>
        <time>2020-07-21T16:21:56Z</time>
      </trkpt>
      <trkpt lat="62.125400137156248" lon="-7.032790761440992">
        <ele>91.21484375</ele>
        <time>2020-07-21T16:22:03Z</time>
      </trkpt>
      <trkpt lat="62.125385804101825" lon="-7.03299829736352">
        <ele>90.6328125</ele>
        <time>2020-07-21T16:22:09Z</time>
      </trkpt>
      <trkpt lat="62.125396700575948" lon="-7.033211030066013">
        <ele>89.33984375</ele>
        <time>2020-07-21T16:22:16Z</time>
      </trkpt>
      <trkpt lat="62.125390917062759" lon="-7.033436251804233">
        <ele>88.15234375</ele>
        <time>2020-07-21T16:22:23Z</time>
      </trkpt>
      <trkpt lat="62.125364765524864" lon="-7.033712519332767">
        <ele>87.21484375</ele>
        <time>2020-07-21T16:22:30Z</time>
      </trkpt>
      <trkpt lat="62.125335177406669" lon="-7.033948553726077">
        <ele>86.61328125</ele>
        <time>2020-07-21T16:22:36Z</time>
      </trkpt>
      <trkpt lat="62.125311875715852" lon="-7.034146785736084">
        <ele>85.90234375</ele>
        <time>2020-07-21T16:22:42Z</time>
      </trkpt>
      <trkpt lat="62.125305589288473" lon="-7.034376617521048">
        <ele>84.30078125</ele>
        <time>2020-07-21T16:22:49Z</time>
      </trkpt>
      <trkpt lat="62.125293603166938" lon="-7.034593960270286">
        <ele>82.9375</ele>
        <time>2020-07-21T16:22:55Z</time>
      </trkpt>
      <trkpt lat="62.125255297869444" lon="-7.034808872267604">
        <ele>82.24609375</ele>
        <time>2020-07-21T16:23:02Z</time>
      </trkpt>
      <trkpt lat="62.125214310362935" lon="-7.035019677132368">
        <ele>81.609375</ele>
        <time>2020-07-21T16:23:08Z</time>
      </trkpt>
      <trkpt lat="62.125186566263437" lon="-7.03520692884922">
        <ele>80.7890625</ele>
        <time>2020-07-21T16:23:14Z</time>
      </trkpt>
      <trkpt lat="62.125169802457094" lon="-7.03542779199779">
        <ele>79.40625</ele>
        <time>2020-07-21T16:23:21Z</time>
      </trkpt>
      <trkpt lat="62.125124037265778" lon="-7.035625437274575">
        <ele>78.859375</ele>
        <time>2020-07-21T16:23:27Z</time>
      </trkpt>
      <trkpt lat="62.125078942626715" lon="-7.035824172198772">
        <ele>78.109375</ele>
        <time>2020-07-21T16:23:33Z</time>
      </trkpt>
      <trkpt lat="62.125034937635064" lon="-7.036019135266542">
        <ele>77.1796875</ele>
        <time>2020-07-21T16:23:39Z</time>
      </trkpt>
      <trkpt lat="62.124999314546585" lon="-7.036219462752342">
        <ele>75.9296875</ele>
        <time>2020-07-21T16:23:46Z</time>
      </trkpt>
      <trkpt lat="62.124963607639074" lon="-7.036439571529627">
        <ele>74.3984375</ele>
        <time>2020-07-21T16:23:53Z</time>
      </trkpt>
      <trkpt lat="62.124902252107859" lon="-7.036637216806412">
        <ele>73.3046875</ele>
        <time>2020-07-21T16:24:01Z</time>
      </trkpt>
      <trkpt lat="62.124843159690499" lon="-7.03684969805181">
        <ele>71.62109375</ele>
        <time>2020-07-21T16:24:09Z</time>
      </trkpt>
      <trkpt lat="62.124790102243423" lon="-7.037088666111231">
        <ele>69.2890625</ele>
        <time>2020-07-21T16:24:16Z</time>
      </trkpt>
      <trkpt lat="62.124742325395346" lon="-7.037262171506882">
        <ele>67.56640625</ele>
        <time>2020-07-21T16:24:21Z</time>
      </trkpt>
      <trkpt lat="62.124685747548938" lon="-7.037422684952617">
        <ele>66.01953125</ele>
        <time>2020-07-21T16:24:27Z</time>
      </trkpt>
      <trkpt lat="62.124626655131578" lon="-7.037583785131574">
        <ele>64.6640625</ele>
        <time>2020-07-21T16:24:33Z</time>
      </trkpt>
      <trkpt lat="62.124567646533251" lon="-7.037806157022715">
        <ele>62.6015625</ele>
        <time>2020-07-21T16:24:41Z</time>
      </trkpt>
      <trkpt lat="62.124515511095524" lon="-7.038052333518863">
        <ele>59.87890625</ele>
        <time>2020-07-21T16:24:48Z</time>
      </trkpt>
      <trkpt lat="62.12445524521172" lon="-7.038236651569605">
        <ele>57.9609375</ele>
        <time>2020-07-21T16:24:54Z</time>
      </trkpt>
      <trkpt lat="62.124396068975329" lon="-7.038379814475775">
        <ele>56.62109375</ele>
        <time>2020-07-21T16:25:00Z</time>
      </trkpt>
      <trkpt lat="62.124326331540942" lon="-7.038547033444047">
        <ele>54.96484375</ele>
        <time>2020-07-21T16:25:06Z</time>
      </trkpt>
      <trkpt lat="62.124264556914568" lon="-7.038738140836358">
        <ele>52.77734375</ele>
        <time>2020-07-21T16:25:14Z</time>
      </trkpt>
      <trkpt lat="62.124208649620414" lon="-7.038906617090106">
        <ele>50.7734375</ele>
        <time>2020-07-21T16:25:20Z</time>
      </trkpt>
      <trkpt lat="62.124150898307562" lon="-7.039070734754205">
        <ele>48.85546875</ele>
        <time>2020-07-21T16:25:26Z</time>
      </trkpt>
      <trkpt lat="62.124080322682858" lon="-7.039235271513462">
        <ele>47.3984375</ele>
        <time>2020-07-21T16:25:33Z</time>
      </trkpt>
      <trkpt lat="62.124030031263828" lon="-7.039448004215956">
        <ele>45.11328125</ele>
        <time>2020-07-21T16:25:41Z</time>
      </trkpt>
      <trkpt lat="62.123980075120926" lon="-7.039682026952505">
        <ele>42.49609375</ele>
        <time>2020-07-21T16:25:48Z</time>
      </trkpt>
      <trkpt lat="62.123910170048475" lon="-7.039842959493399">
        <ele>40.875</ele>
        <time>2020-07-21T16:25:54Z</time>
      </trkpt>
      <trkpt lat="62.123840600252151" lon="-7.03996860422194">
        <ele>39.65234375</ele>
        <time>2020-07-21T16:26:00Z</time>
      </trkpt>
      <trkpt lat="62.123769940808415" lon="-7.040100786834955">
        <ele>38.34375</ele>
        <time>2020-07-21T16:26:06Z</time>
      </trkpt>
      <trkpt lat="62.123705567792058" lon="-7.040262641385198">
        <ele>36.578125</ele>
        <time>2020-07-21T16:26:13Z</time>
      </trkpt>
      <trkpt lat="62.123665669932961" lon="-7.040526838973165">
        <ele>33.21875</ele>
        <time>2020-07-21T16:26:20Z</time>
      </trkpt>
      <trkpt lat="62.123604062944651" lon="-7.040706211701036">
        <ele>31.06640625</ele>
        <time>2020-07-21T16:26:28Z</time>
      </trkpt>
      <trkpt lat="62.123535415157676" lon="-7.040872927755117">
        <ele>29.58203125</ele>
        <time>2020-07-21T16:26:34Z</time>
      </trkpt>
      <trkpt lat="62.123454948887229" lon="-7.040941407904029">
        <ele>29.1484375</ele>
        <time>2020-07-21T16:26:41Z</time>
      </trkpt>
      <trkpt lat="62.123378003016114" lon="-7.041038051247597">
        <ele>28.328125</ele>
        <time>2020-07-21T16:26:59Z</time>
      </trkpt>
      <trkpt lat="62.123323604464531" lon="-7.041127905249596">
        <ele>27.4609375</ele>
        <time>2020-07-21T16:27:24Z</time>
      </trkpt>
      <trkpt lat="62.12318672798574" lon="-7.041431581601501">
        <ele>24.12890625</ele>
      </trkpt>
      <trkpt lat="62.123120008036494" lon="-7.041732408106327">
        <ele>22.19140625</ele>
      </trkpt>
      <trkpt lat="62.123060077428818" lon="-7.041999874636531">
        <ele>21.3125</ele>
      </trkpt>
      <trkpt lat="62.122950023040175" lon="-7.042242782190442">
        <ele>20.484375</ele>
      </trkpt>
      <trkpt lat="62.12280803360045" lon="-7.042529443278909">
        <ele>20</ele>
      </trkpt>
      <trkpt lat="62.122666882351041" lon="-7.042748630046845">
        <ele>20</ele>
      </trkpt>
      <trkpt lat="62.122474601492286" lon="-7.043033195659518">
        <ele>20</ele>
      </trkpt>
      <trkpt lat="62.122270502150059" lon="-7.043261099606752">
        <ele>19.9921875</ele>
      </trkpt>
      <trkpt lat="62.122041424736381" lon="-7.043465534225106">
        <ele>20</ele>
      </trkpt>
      <trkpt lat="62.121936231851578" lon="-7.043602494522929">
        <ele>20</ele>
      </trkpt>
      <trkpt lat="62.121794745326042" lon="-7.0437076035887">
        <ele>20</ele>
      </trkpt>
      <trkpt lat="62.121677901595831" lon="-7.043779939413071">
        <ele>20</ele>
      </trkpt>
      <trkpt lat="62.121563572436571" lon="-7.043866943567991">
        <ele>20</ele>
      </trkpt>
      <trkpt lat="62.121455110609531" lon="-7.043915558606386">
        <ele>20</ele>
      </trkpt>
      <trkpt lat="62.121341032907367" lon="-7.04398806206882">
        <ele>20</ele>
      </trkpt>
    </trkseg>
  </trk>

</gpx>