<?xml version="1.0" encoding="utf-8"?> <gpx creator="Garmin Desktop App" version="1.1" xsi:schemaLocation="http://www.topografix.com/GPX/1/1 http://www.topografix.com/GPX/1/1/gpx.xsd http://www.garmin.com/xmlschemas/WaypointExtension/v1 http://www8.garmin.com/xmlschemas/WaypointExtensionv1.xsd http://www.garmin.com/xmlschemas/TrackPointExtension/v1 http://www.garmin.com/xmlschemas/TrackPointExtensionv1.xsd http://www.garmin.com/xmlschemas/GpxExtensions/v3 http://www8.garmin.com/xmlschemas/GpxExtensionsv3.xsd http://www.garmin.com/xmlschemas/ActivityExtension/v1 http://www8.garmin.com/xmlschemas/ActivityExtensionv1.xsd http://www.garmin.com/xmlschemas/AdventuresExtensions/v1 http://www8.garmin.com/xmlschemas/AdventuresExtensionv1.xsd http://www.garmin.com/xmlschemas/PressureExtension/v1 http://www.garmin.com/xmlschemas/PressureExtensionv1.xsd http://www.garmin.com/xmlschemas/TripExtensions/v1 http://www.garmin.com/xmlschemas/TripExtensionsv1.xsd http://www.garmin.com/xmlschemas/TripMetaDataExtensions/v1 http://www.garmin.com/xmlschemas/TripMetaDataExtensionsv1.xsd http://www.garmin.com/xmlschemas/ViaPointTransportationModeExtensions/v1 http://www.garmin.com/xmlschemas/ViaPointTransportationModeExtensionsv1.xsd http://www.garmin.com/xmlschemas/CreationTimeExtension/v1 http://www.garmin.com/xmlschemas/CreationTimeExtensionsv1.xsd http://www.garmin.com/xmlschemas/AccelerationExtension/v1 http://www.garmin.com/xmlschemas/AccelerationExtensionv1.xsd http://www.garmin.com/xmlschemas/PowerExtension/v1 http://www.garmin.com/xmlschemas/PowerExtensionv1.xsd http://www.garmin.com/xmlschemas/VideoExtension/v1 http://www.garmin.com/xmlschemas/VideoExtensionv1.xsd" xmlns="http://www.topografix.com/GPX/1/1" xmlns:xsi="http://www.w3.org/2001/XMLSchema-instance" xmlns:wptx1="http://www.garmin.com/xmlschemas/WaypointExtension/v1" xmlns:gpxtrx="http://www.garmin.com/xmlschemas/GpxExtensions/v3" xmlns:gpxtpx="http://www.garmin.com/xmlschemas/TrackPointExtension/v1" xmlns:gpxx="http://www.garmin.com/xmlschemas/GpxExtensions/v3" xmlns:trp="http://www.garmin.com/xmlschemas/TripExtensions/v1" xmlns:adv="http://www.garmin.com/xmlschemas/AdventuresExtensions/v1" xmlns:prs="http://www.garmin.com/xmlschemas/PressureExtension/v1" xmlns:tmd="http://www.garmin.com/xmlschemas/TripMetaDataExtensions/v1" xmlns:vptm="http://www.garmin.com/xmlschemas/ViaPointTransportationModeExtensions/v1" xmlns:ctx="http://www.garmin.com/xmlschemas/CreationTimeExtension/v1" xmlns:gpxacc="http://www.garmin.com/xmlschemas/AccelerationExtension/v1" xmlns:gpxpx="http://www.garmin.com/xmlschemas/PowerExtension/v1" xmlns:vidx1="http://www.garmin.com/xmlschemas/VideoExtension/v1">

 <metadata>
 <link href="http://www.garmin.com">
 <text>Garmin International</text>
 </link>
 <time>2021-01-27T13:52:58Z</time>
 <bounds maxlat="61.905015176162124" maxlon="-6.878128806129098" minlat="61.899266364052892" minlon="-6.931733675301075" />
 </metadata>

 <wpt lat="61.902921963483095" lon="-6.887093000113964">
 <ele>27.563127999999999</ele>
 <time>2020-07-28T09:28:44Z</time>
 <name>WP1 01_LB</name>
 <sym>Flag, Blue</sym>
 <type>user</type>
 <extensions>
 <gpxx:WaypointExtension>
 <gpxx:DisplayMode>SymbolAndName</gpxx:DisplayMode>
 </gpxx:WaypointExtension>
 <wptx1:WaypointExtension>
 <wptx1:DisplayMode>SymbolAndName</wptx1:DisplayMode>
 </wptx1:WaypointExtension>
 <ctx:CreationTimeExtension>
 <ctx:CreationTime>2020-07-28T09:28:44Z</ctx:CreationTime>
 </ctx:CreationTimeExtension>
 </extensions>
 </wpt>

 <wpt lat="61.903412975370884" lon="-6.910061007365584">
 <ele>90.666031000000004</ele>
 <time>2020-07-28T09:46:03Z</time>
 <name>WP2 03_LB</name>
 <sym>Flag, Blue</sym>
 <type>user</type>
 <extensions>
 <gpxx:WaypointExtension>
 <gpxx:DisplayMode>SymbolAndName</gpxx:DisplayMode>
 </gpxx:WaypointExtension>
 <wptx1:WaypointExtension>
 <wptx1:DisplayMode>SymbolAndName</wptx1:DisplayMode>
 </wptx1:WaypointExtension>
 <ctx:CreationTimeExtension>
 <ctx:CreationTime>2020-07-28T09:46:03Z</ctx:CreationTime>
 </ctx:CreationTimeExtension>
 </extensions>
 </wpt>

 <wpt lat="61.902926992624998" lon="-6.922288024798036">
 <ele>115.599411</ele>
 <time>2020-07-28T09:57:32Z</time>
 <name>WP3 05_LB</name>
 <sym>Flag, Blue</sym>
 <type>user</type>
 <extensions>
 <gpxx:WaypointExtension>
 <gpxx:DisplayMode>SymbolAndName</gpxx:DisplayMode>
 </gpxx:WaypointExtension>
 <wptx1:WaypointExtension>
 <wptx1:DisplayMode>SymbolAndName</wptx1:DisplayMode>
 </wptx1:WaypointExtension>
 <ctx:CreationTimeExtension>
 <ctx:CreationTime>2020-07-28T09:57:32Z</ctx:CreationTime>
 </ctx:CreationTimeExtension>
 </extensions>
 </wpt>

 <trk>
 <name>20 Wanderung Skopun Líraberg CS 001</name>
 <extensions>
 <gpxx:TrackExtension>
 <gpxx:DisplayColor>Blue</gpxx:DisplayColor>
 </gpxx:TrackExtension>
 </extensions>
 <trkseg>
 <trkpt lat="61.902830181643367" lon="-6.878356290981174">
 <ele>-25.379999999999999</ele>
 <time>2020-07-28T09:19:39Z</time>
 </trkpt>
 <trkpt lat="61.902727168053389" lon="-6.878316644579172">
 <ele>7.73</ele>
 <time>2020-07-28T09:19:57Z</time>
 </trkpt>
 <trkpt lat="61.902623567730188" lon="-6.878355201333761">
 <ele>7.05</ele>
 <time>2020-07-28T09:20:04Z</time>
 </trkpt>
 <trkpt lat="61.902521308511496" lon="-6.87839669175446">
 <ele>7.39</ele>
 <time>2020-07-28T09:20:11Z</time>
 </trkpt>
 <trkpt lat="61.902424581348896" lon="-6.878402810543776">
 <ele>7.42</ele>
 <time>2020-07-28T09:20:18Z</time>
 </trkpt>
 <trkpt lat="61.902330368757248" lon="-6.878389148041606">
 <ele>7.34</ele>
 <time>2020-07-28T09:20:25Z</time>
 </trkpt>
 <trkpt lat="61.90223322249949" lon="-6.878412449732423">
 <ele>7.14</ele>
 <time>2020-07-28T09:20:34Z</time>
 </trkpt>
 <trkpt lat="61.902143368497491" lon="-6.878566257655621">
 <ele>6.62</ele>
 <time>2020-07-28T09:21:47Z</time>
 </trkpt>
 <trkpt lat="61.902160383760929" lon="-6.878781337291002">
 <ele>6.8</ele>
 <time>2020-07-28T09:21:54Z</time>
 </trkpt>
 <trkpt lat="61.902209082618356" lon="-6.878983424976468">
 <ele>5.93</ele>
 <time>2020-07-28T09:22:29Z</time>
 </trkpt>
 <trkpt lat="61.902256440371275" lon="-6.879158858209848">
 <ele>4.82</ele>
 <time>2020-07-28T09:22:36Z</time>
 </trkpt>
 <trkpt lat="61.902354341000319" lon="-6.879274696111679">
 <ele>5.74</ele>
 <time>2020-07-28T09:22:43Z</time>
 </trkpt>
 <trkpt lat="61.902441009879112" lon="-6.879394305869937">
 <ele>5.86</ele>
 <time>2020-07-28T09:22:50Z</time>
 </trkpt>
 <trkpt lat="61.902495743706822" lon="-6.879566386342049">
 <ele>7.27</ele>
 <time>2020-07-28T09:22:57Z</time>
 </trkpt>
 <trkpt lat="61.902519799768925" lon="-6.879790518432856">
 <ele>8.470000000000001</ele>
 <time>2020-07-28T09:23:06Z</time>
 </trkpt>
 <trkpt lat="61.902585849165916" lon="-6.879958240315318">
 <ele>9.48</ele>
 <time>2020-07-28T09:23:14Z</time>
 </trkpt>
 <trkpt lat="61.902652569115162" lon="-6.880129734054208">
 <ele>10.73</ele>
 <time>2020-07-28T09:23:22Z</time>
 </trkpt>
 <trkpt lat="61.902713254094124" lon="-6.880348417907953">
 <ele>11.43</ele>
 <time>2020-07-28T09:23:29Z</time>
 </trkpt>
 <trkpt lat="61.902743093669415" lon="-6.880563497543335">
 <ele>12.82</ele>
 <time>2020-07-28T09:23:37Z</time>
 </trkpt>
 <trkpt lat="61.902801766991615" lon="-6.880723088979721">
 <ele>13.6</ele>
 <time>2020-07-28T09:23:46Z</time>
 </trkpt>
 <trkpt lat="61.902743764221668" lon="-6.880907574668527">
 <ele>14.25</ele>
 <time>2020-07-28T09:24:13Z</time>
 </trkpt>
 <trkpt lat="61.902663633227348" lon="-6.881076386198402">
 <ele>15.77</ele>
 <time>2020-07-28T09:24:23Z</time>
 </trkpt>
 <trkpt lat="61.90258945338428" lon="-6.881215609610081">
 <ele>16.149999999999999</ele>
 <time>2020-07-28T09:24:30Z</time>
 </trkpt>
 <trkpt lat="61.902492307126522" lon="-6.881402442231774">
 <ele>17.010000000000002</ele>
 <time>2020-07-28T09:24:38Z</time>
 </trkpt>
 <trkpt lat="61.902404129505157" lon="-6.881588017567992">
 <ele>17.949999999999999</ele>
 <time>2020-07-28T09:24:46Z</time>
 </trkpt>
 <trkpt lat="61.902329279109836" lon="-6.881758589297533">
 <ele>19.059999999999999</ele>
 <time>2020-07-28T09:24:54Z</time>
 </trkpt>
 <trkpt lat="61.902270186692476" lon="-6.88194458372891">
 <ele>20.43</ele>
 <time>2020-07-28T09:25:18Z</time>
 </trkpt>
 <trkpt lat="61.902185194194317" lon="-6.882087662816048">
 <ele>21.789999999999999</ele>
 <time>2020-07-28T09:25:26Z</time>
 </trkpt>
 <trkpt lat="61.902115540578961" lon="-6.882257647812367">
 <ele>22.800000000000001</ele>
 <time>2020-07-28T09:25:34Z</time>
 </trkpt>
 <trkpt lat="61.902050245553255" lon="-6.882439032196999">
 <ele>23.98</ele>
 <time>2020-07-28T09:25:41Z</time>
 </trkpt>
 <trkpt lat="61.902022669091821" lon="-6.882655955851078">
 <ele>25.27</ele>
 <time>2020-07-28T09:25:48Z</time>
 </trkpt>
 <trkpt lat="61.902018059045076" lon="-6.88286810182035">
 <ele>25.309999999999999</ele>
 <time>2020-07-28T09:25:55Z</time>
 </trkpt>
 <trkpt lat="61.902032643556595" lon="-6.883070021867752">
 <ele>26.07</ele>
 <time>2020-07-28T09:26:02Z</time>
 </trkpt>
 <trkpt lat="61.902031805366278" lon="-6.883289208635688">
 <ele>26.289999999999999</ele>
 <time>2020-07-28T09:26:09Z</time>
 </trkpt>
 <trkpt lat="61.90206223167479" lon="-6.883476292714477">
 <ele>26.559999999999999</ele>
 <time>2020-07-28T09:26:15Z</time>
 </trkpt>
 <trkpt lat="61.902092574164271" lon="-6.883669579401612">
 <ele>26.23</ele>
 <time>2020-07-28T09:26:21Z</time>
 </trkpt>
 <trkpt lat="61.902131382375956" lon="-6.883839061483741">
 <ele>25.82</ele>
 <time>2020-07-28T09:26:28Z</time>
 </trkpt>
 <trkpt lat="61.902187624946237" lon="-6.884024804458022">
 <ele>25.649999999999999</ele>
 <time>2020-07-28T09:26:35Z</time>
 </trkpt>
 <trkpt lat="61.902243196964264" lon="-6.884219432249665">
 <ele>25.600000000000001</ele>
 <time>2020-07-28T09:26:41Z</time>
 </trkpt>
 <trkpt lat="61.902315113693476" lon="-6.884398553520441">
 <ele>26.120000000000001</ele>
 <time>2020-07-28T09:26:48Z</time>
 </trkpt>
 <trkpt lat="61.902375295758247" lon="-6.884557558223605">
 <ele>26.390000000000001</ele>
 <time>2020-07-28T09:26:54Z</time>
 </trkpt>
 <trkpt lat="61.902444614097476" lon="-6.88469217158854">
 <ele>25.32</ele>
 <time>2020-07-28T09:27:00Z</time>
 </trkpt>
 <trkpt lat="61.902527511119843" lon="-6.884773559868336">
 <ele>24.75</ele>
 <time>2020-07-28T09:27:06Z</time>
 </trkpt>
 <trkpt lat="61.902605211362243" lon="-6.884947651997209">
 <ele>24.550000000000001</ele>
 <time>2020-07-28T09:27:13Z</time>
 </trkpt>
 <trkpt lat="61.902689281851053" lon="-6.885054269805551">
 <ele>23.989999999999998</ele>
 <time>2020-07-28T09:27:19Z</time>
 </trkpt>
 <trkpt lat="61.902763629332185" lon="-6.885199192911387">
 <ele>23.579999999999998</ele>
 <time>2020-07-28T09:27:26Z</time>
 </trkpt>
 <trkpt lat="61.90280931070447" lon="-6.885391641408205">
 <ele>23.66</ele>
 <time>2020-07-28T09:27:32Z</time>
 </trkpt>
 <trkpt lat="61.902859685942531" lon="-6.885569673031569">
 <ele>23.370000000000001</ele>
 <time>2020-07-28T09:27:38Z</time>
 </trkpt>
 <trkpt lat="61.902898913249373" lon="-6.88577544875443">
 <ele>23.98</ele>
 <time>2020-07-28T09:27:45Z</time>
 </trkpt>
 <trkpt lat="61.902945768088102" lon="-6.885960521176457">
 <ele>24.629999999999999</ele>
 <time>2020-07-28T09:27:53Z</time>
 </trkpt>
 <trkpt lat="61.902976362034678" lon="-6.886175181716681">
 <ele>25.109999999999999</ele>
 <time>2020-07-28T09:28:04Z</time>
 </trkpt>
 <trkpt lat="61.90297887660563" lon="-6.886383220553398">
 <ele>25.120000000000001</ele>
 <time>2020-07-28T09:28:11Z</time>
 </trkpt>
 <trkpt lat="61.902954820543528" lon="-6.886606430634856">
 <ele>25.190000000000001</ele>
 <time>2020-07-28T09:28:19Z</time>
 </trkpt>
 <trkpt lat="61.902932524681091" lon="-6.886830730363727">
 <ele>25.690000000000001</ele>
 <time>2020-07-28T09:28:26Z</time>
 </trkpt>
 <trkpt lat="61.902924813330173" lon="-6.887043798342347">
 <ele>26.140000000000001</ele>
 <time>2020-07-28T09:28:34Z</time>
 </trkpt>
 <trkpt lat="61.902919700369239" lon="-6.887214789167047">
 <ele>27.52</ele>
 <time>2020-07-28T09:28:52Z</time>
 </trkpt>
 <trkpt lat="61.90294953994453" lon="-6.88741042278707">
 <ele>29.050000000000001</ele>
 <time>2020-07-28T09:28:59Z</time>
 </trkpt>
 <trkpt lat="61.902968734502792" lon="-6.887630028650165">
 <ele>29.670000000000002</ele>
 <time>2020-07-28T09:29:06Z</time>
 </trkpt>
 <trkpt lat="61.902983821928501" lon="-6.887841420248151">
 <ele>31.350000000000001</ele>
 <time>2020-07-28T09:29:13Z</time>
 </trkpt>
 <trkpt lat="61.903003770858049" lon="-6.888068821281195">
 <ele>31.140000000000001</ele>
 <time>2020-07-28T09:29:20Z</time>
 </trkpt>
 <trkpt lat="61.903031263500452" lon="-6.888273423537612">
 <ele>31.850000000000001</ele>
 <time>2020-07-28T09:29:27Z</time>
 </trkpt>
 <trkpt lat="61.903063617646694" lon="-6.888467716053128">
 <ele>33.020000000000003</ele>
 <time>2020-07-28T09:29:34Z</time>
 </trkpt>
 <trkpt lat="61.903103683143854" lon="-6.888681370764971">
 <ele>33.850000000000001</ele>
 <time>2020-07-28T09:29:42Z</time>
 </trkpt>
 <trkpt lat="61.903134863823652" lon="-6.88888605684042">
 <ele>34.780000000000001</ele>
 <time>2020-07-28T09:29:49Z</time>
 </trkpt>
 <trkpt lat="61.903173672035336" lon="-6.889069536700845">
 <ele>35.130000000000003</ele>
 <time>2020-07-28T09:29:55Z</time>
 </trkpt>
 <trkpt lat="61.903204852715135" lon="-6.88926131464541">
 <ele>35.710000000000001</ele>
 <time>2020-07-28T09:30:01Z</time>
 </trkpt>
 <trkpt lat="61.903236452490091" lon="-6.889463067054749">
 <ele>37.659999999999997</ele>
 <time>2020-07-28T09:30:08Z</time>
 </trkpt>
 <trkpt lat="61.903265370056033" lon="-6.889659957960248">
 <ele>38.18</ele>
 <time>2020-07-28T09:30:24Z</time>
 </trkpt>
 <trkpt lat="61.903295377269387" lon="-6.889870343729854">
 <ele>38.880000000000003</ele>
 <time>2020-07-28T09:30:31Z</time>
 </trkpt>
 <trkpt lat="61.903318846598268" lon="-6.890062037855387">
 <ele>38.82</ele>
 <time>2020-07-28T09:30:37Z</time>
 </trkpt>
 <trkpt lat="61.903347764164209" lon="-6.890259264037013">
 <ele>39.5</ele>
 <time>2020-07-28T09:30:44Z</time>
 </trkpt>
 <trkpt lat="61.903376933187246" lon="-6.890462692826986">
 <ele>40.020000000000003</ele>
 <time>2020-07-28T09:30:51Z</time>
 </trkpt>
 <trkpt lat="61.9034069404006" lon="-6.890677269548178">
 <ele>40.710000000000001</ele>
 <time>2020-07-28T09:30:58Z</time>
 </trkpt>
 <trkpt lat="61.903435606509447" lon="-6.890880195423961">
 <ele>40.950000000000003</ele>
 <time>2020-07-28T09:31:04Z</time>
 </trkpt>
 <trkpt lat="61.903470307588577" lon="-6.891101812943816">
 <ele>41.869999999999997</ele>
 <time>2020-07-28T09:31:11Z</time>
 </trkpt>
 <trkpt lat="61.903503835201263" lon="-6.891324184834957">
 <ele>42.649999999999999</ele>
 <time>2020-07-28T09:31:18Z</time>
 </trkpt>
 <trkpt lat="61.903529483824968" lon="-6.891530631110072">
 <ele>43.880000000000003</ele>
 <time>2020-07-28T09:31:25Z</time>
 </trkpt>
 <trkpt lat="61.903546499088407" lon="-6.89172400161624">
 <ele>44.210000000000001</ele>
 <time>2020-07-28T09:31:32Z</time>
 </trkpt>
 <trkpt lat="61.903575835749507" lon="-6.89193313010037">
 <ele>43.759999999999998</ele>
 <time>2020-07-28T09:31:39Z</time>
 </trkpt>
 <trkpt lat="61.903604585677385" lon="-6.892151813954115">
 <ele>45.539999999999999</ele>
 <time>2020-07-28T09:31:46Z</time>
 </trkpt>
 <trkpt lat="61.903619337826967" lon="-6.892360523343086">
 <ele>45.880000000000003</ele>
 <time>2020-07-28T09:31:53Z</time>
 </trkpt>
 <trkpt lat="61.90363216213882" lon="-6.892558420076966">
 <ele>46</ele>
 <time>2020-07-28T09:31:59Z</time>
 </trkpt>
 <trkpt lat="61.90364783629775" lon="-6.892747264355421">
 <ele>46.609999999999999</ele>
 <time>2020-07-28T09:32:05Z</time>
 </trkpt>
 <trkpt lat="61.903663342818618" lon="-6.892926888540387">
 <ele>46.579999999999998</ele>
 <time>2020-07-28T09:32:11Z</time>
 </trkpt>
 <trkpt lat="61.903694104403257" lon="-6.893133921548724">
 <ele>48.020000000000003</ele>
 <time>2020-07-28T09:32:18Z</time>
 </trkpt>
 <trkpt lat="61.903717238456011" lon="-6.893314383924007">
 <ele>47.789999999999999</ele>
 <time>2020-07-28T09:32:24Z</time>
 </trkpt>
 <trkpt lat="61.903729224577546" lon="-6.893519992008805">
 <ele>47.969999999999999</ele>
 <time>2020-07-28T09:32:31Z</time>
 </trkpt>
 <trkpt lat="61.903760153800249" lon="-6.893726186826825">
 <ele>49.18</ele>
 <time>2020-07-28T09:32:39Z</time>
 </trkpt>
 <trkpt lat="61.903786137700081" lon="-6.893910504877567">
 <ele>51.380000000000003</ele>
 <time>2020-07-28T09:32:46Z</time>
 </trkpt>
 <trkpt lat="61.903820587322116" lon="-6.894097002223134">
 <ele>50.909999999999997</ele>
 <time>2020-07-28T09:32:54Z</time>
 </trkpt>
 <trkpt lat="61.903833327814937" lon="-6.894297078251839">
 <ele>51.329999999999998</ele>
 <time>2020-07-28T09:33:23Z</time>
 </trkpt>
 <trkpt lat="61.903863586485386" lon="-6.894473433494568">
 <ele>52.090000000000003</ele>
 <time>2020-07-28T09:33:30Z</time>
 </trkpt>
 <trkpt lat="61.903876829892397" lon="-6.894671162590385">
 <ele>52.829999999999998</ele>
 <time>2020-07-28T09:33:39Z</time>
 </trkpt>
 <trkpt lat="61.903891582041979" lon="-6.894864700734615">
 <ele>53.490000000000002</ele>
 <time>2020-07-28T09:33:46Z</time>
 </trkpt>
 <trkpt lat="61.903914799913764" lon="-6.895075589418411">
 <ele>54.380000000000003</ele>
 <time>2020-07-28T09:34:03Z</time>
 </trkpt>
 <trkpt lat="61.903930893167853" lon="-6.895279688760638">
 <ele>54.140000000000001</ele>
 <time>2020-07-28T09:34:10Z</time>
 </trkpt>
 <trkpt lat="61.903958888724446" lon="-6.895474316552281">
 <ele>54.780000000000001</ele>
 <time>2020-07-28T09:34:17Z</time>
 </trkpt>
 <trkpt lat="61.903972132131457" lon="-6.895687468349934">
 <ele>56.299999999999997</ele>
 <time>2020-07-28T09:34:24Z</time>
 </trkpt>
 <trkpt lat="61.903977748006582" lon="-6.895874217152596">
 <ele>58.079999999999998</ele>
 <time>2020-07-28T09:34:40Z</time>
 </trkpt>
 <trkpt lat="61.903963079676032" lon="-6.896069012582302">
 <ele>56.700000000000003</ele>
 <time>2020-07-28T09:34:55Z</time>
 </trkpt>
 <trkpt lat="61.90396785736084" lon="-6.89629222266376">
 <ele>58.200000000000003</ele>
 <time>2020-07-28T09:35:02Z</time>
 </trkpt>
 <trkpt lat="61.903976323083043" lon="-6.896478217095137">
 <ele>59.979999999999997</ele>
 <time>2020-07-28T09:35:08Z</time>
 </trkpt>
 <trkpt lat="61.903978167101741" lon="-6.896690530702472">
 <ele>59.530000000000001</ele>
 <time>2020-07-28T09:35:15Z</time>
 </trkpt>
 <trkpt lat="61.904022926464677" lon="-6.896839309483767">
 <ele>59.789999999999999</ele>
 <time>2020-07-28T09:37:22Z</time>
 </trkpt>
 <trkpt lat="61.904022842645645" lon="-6.897062351927161">
 <ele>59.189999999999998</ele>
 <time>2020-07-28T09:37:29Z</time>
 </trkpt>
 <trkpt lat="61.904031224548817" lon="-6.897280113771558">
 <ele>60.920000000000002</ele>
 <time>2020-07-28T09:37:36Z</time>
 </trkpt>
 <trkpt lat="61.904049664735794" lon="-6.897489158436656">
 <ele>62.299999999999997</ele>
 <time>2020-07-28T09:37:43Z</time>
 </trkpt>
 <trkpt lat="61.904047401621938" lon="-6.897682193666697">
 <ele>60.909999999999997</ele>
 <time>2020-07-28T09:37:50Z</time>
 </trkpt>
 <trkpt lat="61.904027368873358" lon="-6.897899368777871">
 <ele>61.600000000000001</ele>
 <time>2020-07-28T09:37:57Z</time>
 </trkpt>
 <trkpt lat="61.904016053304076" lon="-6.898113358765841">
 <ele>62.670000000000002</ele>
 <time>2020-07-28T09:38:04Z</time>
 </trkpt>
 <trkpt lat="61.904008509591222" lon="-6.898340005427599">
 <ele>60.659999999999997</ele>
 <time>2020-07-28T09:38:11Z</time>
 </trkpt>
 <trkpt lat="61.904017562046647" lon="-6.898535219952464">
 <ele>61.649999999999999</ele>
 <time>2020-07-28T09:38:17Z</time>
 </trkpt>
 <trkpt lat="61.904037510976195" lon="-6.89874853938818">
 <ele>61.530000000000001</ele>
 <time>2020-07-28T09:38:24Z</time>
 </trkpt>
 <trkpt lat="61.904049161821604" lon="-6.898947525769472">
 <ele>60.25</ele>
 <time>2020-07-28T09:38:30Z</time>
 </trkpt>
 <trkpt lat="61.904057208448648" lon="-6.899151708930731">
 <ele>61.840000000000003</ele>
 <time>2020-07-28T09:38:36Z</time>
 </trkpt>
 <trkpt lat="61.904068691655993" lon="-6.899349773302674">
 <ele>61.710000000000001</ele>
 <time>2020-07-28T09:38:42Z</time>
 </trkpt>
 <trkpt lat="61.904074056074023" lon="-6.899549933150411">
 <ele>60.960000000000001</ele>
 <time>2020-07-28T09:38:48Z</time>
 </trkpt>
 <trkpt lat="61.904077660292387" lon="-6.899755373597145">
 <ele>62.57</ele>
 <time>2020-07-28T09:38:54Z</time>
 </trkpt>
 <trkpt lat="61.904078666120768" lon="-6.899960311129689">
 <ele>61.340000000000003</ele>
 <time>2020-07-28T09:39:00Z</time>
 </trkpt>
 <trkpt lat="61.904064752161503" lon="-6.900154184550047">
 <ele>63.060000000000002</ele>
 <time>2020-07-28T09:39:06Z</time>
 </trkpt>
 <trkpt lat="61.904054190963507" lon="-6.900344621390104">
 <ele>63.270000000000003</ele>
 <time>2020-07-28T09:39:12Z</time>
 </trkpt>
 <trkpt lat="61.90403969027102" lon="-6.900532627478242">
 <ele>63.219999999999999</ele>
 <time>2020-07-28T09:39:18Z</time>
 </trkpt>
 <trkpt lat="61.904031056910753" lon="-6.900733541697264">
 <ele>62.299999999999997</ele>
 <time>2020-07-28T09:39:25Z</time>
 </trkpt>
 <trkpt lat="61.904003564268351" lon="-6.90093076787889">
 <ele>63.649999999999999</ele>
 <time>2020-07-28T09:39:32Z</time>
 </trkpt>
 <trkpt lat="61.903957212343812" lon="-6.90114819444716">
 <ele>63.859999999999999</ele>
 <time>2020-07-28T09:39:51Z</time>
 </trkpt>
 <trkpt lat="61.903934413567185" lon="-6.901360927149653">
 <ele>63.799999999999997</ele>
 <time>2020-07-28T09:39:59Z</time>
 </trkpt>
 <trkpt lat="61.903919912874699" lon="-6.901570642367005">
 <ele>66.060000000000002</ele>
 <time>2020-07-28T09:40:07Z</time>
 </trkpt>
 <trkpt lat="61.903898706659675" lon="-6.901763342320919">
 <ele>67.219999999999999</ele>
 <time>2020-07-28T09:40:14Z</time>
 </trkpt>
 <trkpt lat="61.903875572606921" lon="-6.901974650099874">
 <ele>67.659999999999997</ele>
 <time>2020-07-28T09:40:21Z</time>
 </trkpt>
 <trkpt lat="61.903855036944151" lon="-6.902172463014722">
 <ele>68.870000000000005</ele>
 <time>2020-07-28T09:40:28Z</time>
 </trkpt>
 <trkpt lat="61.90383986569941" lon="-6.902376646175981">
 <ele>70.200000000000003</ele>
 <time>2020-07-28T09:40:36Z</time>
 </trkpt>
 <trkpt lat="61.903821509331465" lon="-6.902607148513198">
 <ele>70.590000000000003</ele>
 <time>2020-07-28T09:41:12Z</time>
 </trkpt>
 <trkpt lat="61.90382519736886" lon="-6.902843937277794">
 <ele>71.859999999999999</ele>
 <time>2020-07-28T09:41:20Z</time>
 </trkpt>
 <trkpt lat="61.90383986569941" lon="-6.903050718829036">
 <ele>72.870000000000005</ele>
 <time>2020-07-28T09:41:27Z</time>
 </trkpt>
 <trkpt lat="61.903861239552498" lon="-6.903247777372599">
 <ele>74.269999999999996</ele>
 <time>2020-07-28T09:41:34Z</time>
 </trkpt>
 <trkpt lat="61.903876913711429" lon="-6.903460845351219">
 <ele>73.890000000000001</ele>
 <time>2020-07-28T09:41:59Z</time>
 </trkpt>
 <trkpt lat="61.903886385262012" lon="-6.903672320768237">
 <ele>74.379999999999995</ele>
 <time>2020-07-28T09:42:06Z</time>
 </trkpt>
 <trkpt lat="61.903904154896736" lon="-6.903867702931166">
 <ele>74.159999999999997</ele>
 <time>2020-07-28T09:42:12Z</time>
 </trkpt>
 <trkpt lat="61.903939275071025" lon="-6.904064007103443">
 <ele>74.409999999999997</ele>
 <time>2020-07-28T09:42:18Z</time>
 </trkpt>
 <trkpt lat="61.903984453529119" lon="-6.904256455600262">
 <ele>74.939999999999998</ele>
 <time>2020-07-28T09:42:24Z</time>
 </trkpt>
 <trkpt lat="61.90402502194047" lon="-6.90444597043097">
 <ele>75.890000000000001</ele>
 <time>2020-07-28T09:42:30Z</time>
 </trkpt>
 <trkpt lat="61.904066847637296" lon="-6.904635652899742">
 <ele>77.439999999999998</ele>
 <time>2020-07-28T09:42:37Z</time>
 </trkpt>
 <trkpt lat="61.904119988903403" lon="-6.904800441116095">
 <ele>79.599999999999994</ele>
 <time>2020-07-28T09:42:44Z</time>
 </trkpt>
 <trkpt lat="61.904176063835621" lon="-6.904979478567839">
 <ele>81.290000000000006</ele>
 <time>2020-07-28T09:42:52Z</time>
 </trkpt>
 <trkpt lat="61.90424001775682" lon="-6.905170753598213">
 <ele>80.349999999999994</ele>
 <time>2020-07-28T09:42:59Z</time>
 </trkpt>
 <trkpt lat="61.904292572289705" lon="-6.905341157689691">
 <ele>81.019999999999996</ele>
 <time>2020-07-28T09:43:05Z</time>
 </trkpt>
 <trkpt lat="61.904340097680688" lon="-6.905518854036927">
 <ele>83.239999999999995</ele>
 <time>2020-07-28T09:43:12Z</time>
 </trkpt>
 <trkpt lat="61.904384270310402" lon="-6.905702082440257">
 <ele>81.760000000000005</ele>
 <time>2020-07-28T09:43:19Z</time>
 </trkpt>
 <trkpt lat="61.904420731589198" lon="-6.905885729938746">
 <ele>81.060000000000002</ele>
 <time>2020-07-28T09:43:25Z</time>
 </trkpt>
 <trkpt lat="61.904426934197545" lon="-6.906103575602174">
 <ele>79.780000000000001</ele>
 <time>2020-07-28T09:43:32Z</time>
 </trkpt>
 <trkpt lat="61.904423916712403" lon="-6.906316475942731">
 <ele>81.159999999999997</ele>
 <time>2020-07-28T09:43:39Z</time>
 </trkpt>
 <trkpt lat="61.904423581436276" lon="-6.906515965238214">
 <ele>82.840000000000003</ele>
 <time>2020-07-28T09:43:45Z</time>
 </trkpt>
 <trkpt lat="61.904414026066661" lon="-6.906731883063912">
 <ele>82.409999999999997</ele>
 <time>2020-07-28T09:43:52Z</time>
 </trkpt>
 <trkpt lat="61.904398184269667" lon="-6.906941514462233">
 <ele>82.799999999999997</ele>
 <time>2020-07-28T09:43:59Z</time>
 </trkpt>
 <trkpt lat="61.904369350522757" lon="-6.907146284356713">
 <ele>83.530000000000001</ele>
 <time>2020-07-28T09:44:06Z</time>
 </trkpt>
 <trkpt lat="61.904322244226933" lon="-6.907316604629159">
 <ele>84.469999999999999</ele>
 <time>2020-07-28T09:44:13Z</time>
 </trkpt>
 <trkpt lat="61.904280921444297" lon="-6.907515842467547">
 <ele>84.829999999999998</ele>
 <time>2020-07-28T09:44:20Z</time>
 </trkpt>
 <trkpt lat="61.904227780178189" lon="-6.907703680917621">
 <ele>85.640000000000001</ele>
 <time>2020-07-28T09:44:27Z</time>
 </trkpt>
 <trkpt lat="61.904175896197557" lon="-6.907897051423788">
 <ele>85.040000000000006</ele>
 <time>2020-07-28T09:44:34Z</time>
 </trkpt>
 <trkpt lat="61.904119905084372" lon="-6.908087572082877">
 <ele>85.900000000000006</ele>
 <time>2020-07-28T09:44:41Z</time>
 </trkpt>
 <trkpt lat="61.904058968648314" lon="-6.908254036679864">
 <ele>86.269999999999996</ele>
 <time>2020-07-28T09:44:48Z</time>
 </trkpt>
 <trkpt lat="61.903995266184211" lon="-6.908420585095882">
 <ele>86.659999999999997</ele>
 <time>2020-07-28T09:44:55Z</time>
 </trkpt>
 <trkpt lat="61.903923097997904" lon="-6.908586630597711">
 <ele>86.790000000000006</ele>
 <time>2020-07-28T09:45:02Z</time>
 </trkpt>
 <trkpt lat="61.903855204582214" lon="-6.908742031082511">
 <ele>87.090000000000003</ele>
 <time>2020-07-28T09:45:10Z</time>
 </trkpt>
 <trkpt lat="61.903787143528461" lon="-6.908915787935257">
 <ele>87.900000000000006</ele>
 <time>2020-07-28T09:45:17Z</time>
 </trkpt>
 <trkpt lat="61.903723441064358" lon="-6.909087030217052">
 <ele>88.609999999999999</ele>
 <time>2020-07-28T09:45:25Z</time>
 </trkpt>
 <trkpt lat="61.903656302019954" lon="-6.909265648573637">
 <ele>88.640000000000001</ele>
 <time>2020-07-28T09:45:33Z</time>
 </trkpt>
 <trkpt lat="61.903594695031643" lon="-6.909450720995665">
 <ele>88.909999999999997</ele>
 <time>2020-07-28T09:45:40Z</time>
 </trkpt>
 <trkpt lat="61.903534596785903" lon="-6.909641409292817">
 <ele>89.379999999999995</ele>
 <time>2020-07-28T09:45:47Z</time>
 </trkpt>
 <trkpt lat="61.903475504368544" lon="-6.909832349047065">
 <ele>90.730000000000004</ele>
 <time>2020-07-28T09:45:54Z</time>
 </trkpt>
 <trkpt lat="61.903419010341167" lon="-6.910044578835368">
 <ele>91.030000000000001</ele>
 <time>2020-07-28T09:46:02Z</time>
 </trkpt>
 <trkpt lat="61.903393529355526" lon="-6.910250270739198">
 <ele>90.299999999999997</ele>
 <time>2020-07-28T09:47:35Z</time>
 </trkpt>
 <trkpt lat="61.903345920145512" lon="-6.910417908802629">
 <ele>90.400000000000006</ele>
 <time>2020-07-28T09:47:42Z</time>
 </trkpt>
 <trkpt lat="61.903312476351857" lon="-6.910612788051367">
 <ele>90.060000000000002</ele>
 <time>2020-07-28T09:47:49Z</time>
 </trkpt>
 <trkpt lat="61.90328624099493" lon="-6.910823844373226">
 <ele>89.719999999999999</ele>
 <time>2020-07-28T09:47:56Z</time>
 </trkpt>
 <trkpt lat="61.903251959010959" lon="-6.911029703915119">
 <ele>88.019999999999996</ele>
 <time>2020-07-28T09:48:03Z</time>
 </trkpt>
 <trkpt lat="61.903238296508789" lon="-6.911241346970201">
 <ele>87.870000000000005</ele>
 <time>2020-07-28T09:48:09Z</time>
 </trkpt>
 <trkpt lat="61.903250114992261" lon="-6.911448128521442">
 <ele>88.359999999999999</ele>
 <time>2020-07-28T09:48:16Z</time>
 </trkpt>
 <trkpt lat="61.90326914191246" lon="-6.911666980013251">
 <ele>87.189999999999998</ele>
 <time>2020-07-28T09:48:23Z</time>
 </trkpt>
 <trkpt lat="61.903256988152862" lon="-6.911880383267999">
 <ele>88.950000000000003</ele>
 <time>2020-07-28T09:48:30Z</time>
 </trkpt>
 <trkpt lat="61.903190016746521" lon="-6.912019941955805">
 <ele>88.620000000000005</ele>
 <time>2020-07-28T09:48:37Z</time>
 </trkpt>
 <trkpt lat="61.903108125552535" lon="-6.91213846206665">
 <ele>87.859999999999999</ele>
 <time>2020-07-28T09:48:43Z</time>
 </trkpt>
 <trkpt lat="61.903020786121488" lon="-6.912224963307381">
 <ele>87.379999999999995</ele>
 <time>2020-07-28T09:48:49Z</time>
 </trkpt>
 <trkpt lat="61.902940403670073" lon="-6.912315571680665">
 <ele>88.049999999999997</ele>
 <time>2020-07-28T09:48:55Z</time>
 </trkpt>
 <trkpt lat="61.902862619608641" lon="-6.912440797314048">
 <ele>87.730000000000004</ele>
 <time>2020-07-28T09:49:02Z</time>
 </trkpt>
 <trkpt lat="61.902810065075755" lon="-6.91262855194509">
 <ele>85.989999999999995</ele>
 <time>2020-07-28T09:49:09Z</time>
 </trkpt>
 <trkpt lat="61.90277754329145" lon="-6.912798369303346">
 <ele>86.319999999999993</ele>
 <time>2020-07-28T09:49:15Z</time>
 </trkpt>
 <trkpt lat="61.90273747779429" lon="-6.912988722324371">
 <ele>85.650000000000006</ele>
 <time>2020-07-28T09:49:22Z</time>
 </trkpt>
 <trkpt lat="61.902684168890119" lon="-6.913172118365765">
 <ele>85.890000000000001</ele>
 <time>2020-07-28T09:49:29Z</time>
 </trkpt>
 <trkpt lat="61.902639158070087" lon="-6.913347970694304">
 <ele>85.890000000000001</ele>
 <time>2020-07-28T09:49:35Z</time>
 </trkpt>
 <trkpt lat="61.902593979611993" lon="-6.913503035902977">
 <ele>86.280000000000001</ele>
 <time>2020-07-28T09:49:41Z</time>
 </trkpt>
 <trkpt lat="61.902534971013665" lon="-6.91367955878377">
 <ele>87.170000000000002</ele>
 <time>2020-07-28T09:49:48Z</time>
 </trkpt>
 <trkpt lat="61.902481745928526" lon="-6.913844179362059">
 <ele>87.349999999999994</ele>
 <time>2020-07-28T09:49:54Z</time>
 </trkpt>
 <trkpt lat="61.902434723451734" lon="-6.914020450785756">
 <ele>87.269999999999996</ele>
 <time>2020-07-28T09:50:00Z</time>
 </trkpt>
 <trkpt lat="61.902388958260417" lon="-6.914197476580739">
 <ele>87.359999999999999</ele>
 <time>2020-07-28T09:50:06Z</time>
 </trkpt>
 <trkpt lat="61.902320813387632" lon="-6.914341561496258">
 <ele>88.469999999999999</ele>
 <time>2020-07-28T09:50:14Z</time>
 </trkpt>
 <trkpt lat="61.902234898880124" lon="-6.914387159049511">
 <ele>89.739999999999995</ele>
 <time>2020-07-28T09:50:21Z</time>
 </trkpt>
 <trkpt lat="61.902150241658092" lon="-6.914418926462531">
 <ele>91.150000000000006</ele>
 <time>2020-07-28T09:50:29Z</time>
 </trkpt>
 <trkpt lat="61.902056029066443" lon="-6.91446821205318">
 <ele>92.030000000000001</ele>
 <time>2020-07-28T09:50:36Z</time>
 </trkpt>
 <trkpt lat="61.90195033326745" lon="-6.914512719959021">
 <ele>92.890000000000001</ele>
 <time>2020-07-28T09:50:44Z</time>
 </trkpt>
 <trkpt lat="61.901856623589993" lon="-6.914587235078216">
 <ele>93.340000000000003</ele>
 <time>2020-07-28T09:50:51Z</time>
 </trkpt>
 <trkpt lat="61.901766266673803" lon="-6.914670970290899">
 <ele>94.120000000000005</ele>
 <time>2020-07-28T09:50:57Z</time>
 </trkpt>
 <trkpt lat="61.901669455692172" lon="-6.914748335257173">
 <ele>94.450000000000003</ele>
 <time>2020-07-28T09:51:04Z</time>
 </trkpt>
 <trkpt lat="61.901571890339255" lon="-6.914843888953328">
 <ele>94.989999999999995</ele>
 <time>2020-07-28T09:51:11Z</time>
 </trkpt>
 <trkpt lat="61.901486814022064" lon="-6.914944471791387">
 <ele>94.129999999999995</ele>
 <time>2020-07-28T09:51:18Z</time>
 </trkpt>
 <trkpt lat="61.901407018303871" lon="-6.915061650797725">
 <ele>95.079999999999998</ele>
 <time>2020-07-28T09:51:26Z</time>
 </trkpt>
 <trkpt lat="61.901328815147281" lon="-6.915194839239121">
 <ele>95.310000000000002</ele>
 <time>2020-07-28T09:51:35Z</time>
 </trkpt>
 <trkpt lat="61.90126670524478" lon="-6.915376810356975">
 <ele>96.310000000000002</ele>
 <time>2020-07-28T09:51:43Z</time>
 </trkpt>
 <trkpt lat="61.901217419654131" lon="-6.91557495854795">
 <ele>96.959999999999994</ele>
 <time>2020-07-28T09:51:50Z</time>
 </trkpt>
 <trkpt lat="61.901176599785686" lon="-6.915757767856121">
 <ele>98.310000000000002</ele>
 <time>2020-07-28T09:51:57Z</time>
 </trkpt>
 <trkpt lat="61.90113628283143" lon="-6.915942672640085">
 <ele>100.28</ele>
 <time>2020-07-28T09:52:04Z</time>
 </trkpt>
 <trkpt lat="61.901099402457476" lon="-6.916132522746921">
 <ele>100.54000000000001</ele>
 <time>2020-07-28T09:52:11Z</time>
 </trkpt>
 <trkpt lat="61.901051290333271" lon="-6.916305441409349">
 <ele>99.950000000000003</ele>
 <time>2020-07-28T09:52:18Z</time>
 </trkpt>
 <trkpt lat="61.901017427444458" lon="-6.916517755016685">
 <ele>102.73999999999999</ele>
 <time>2020-07-28T09:52:26Z</time>
 </trkpt>
 <trkpt lat="61.900980463251472" lon="-6.916725039482117">
 <ele>102.63</ele>
 <time>2020-07-28T09:52:33Z</time>
 </trkpt>
 <trkpt lat="61.900954227894545" lon="-6.916922936215997">
 <ele>103.59999999999999</ele>
 <time>2020-07-28T09:52:40Z</time>
 </trkpt>
 <trkpt lat="61.900940984487534" lon="-6.917112283408642">
 <ele>104.95</ele>
 <time>2020-07-28T09:52:47Z</time>
 </trkpt>
 <trkpt lat="61.900917179882526" lon="-6.917308252304792">
 <ele>105.47</ele>
 <time>2020-07-28T09:52:54Z</time>
 </trkpt>
 <trkpt lat="61.900918940082192" lon="-6.917522074654698">
 <ele>106.48999999999999</ele>
 <time>2020-07-28T09:53:02Z</time>
 </trkpt>
 <trkpt lat="61.900928327813745" lon="-6.917742853984237">
 <ele>105.95</ele>
 <time>2020-07-28T09:53:09Z</time>
 </trkpt>
 <trkpt lat="61.900946851819754" lon="-6.917958771809936">
 <ele>106.02</ele>
 <time>2020-07-28T09:53:16Z</time>
 </trkpt>
 <trkpt lat="61.900956071913242" lon="-6.918183155357838">
 <ele>105.58</ele>
 <time>2020-07-28T09:53:23Z</time>
 </trkpt>
 <trkpt lat="61.900954311713576" lon="-6.91841047257185">
 <ele>105.45999999999999</ele>
 <time>2020-07-28T09:53:30Z</time>
 </trkpt>
 <trkpt lat="61.900961520150304" lon="-6.918630078434944">
 <ele>105.2</ele>
 <time>2020-07-28T09:53:37Z</time>
 </trkpt>
 <trkpt lat="61.900971326977015" lon="-6.918859658762813">
 <ele>105.29000000000001</ele>
 <time>2020-07-28T09:53:44Z</time>
 </trkpt>
 <trkpt lat="61.9010014180094" lon="-6.919072810560465">
 <ele>106.52</ele>
 <time>2020-07-28T09:53:51Z</time>
 </trkpt>
 <trkpt lat="61.901043243706226" lon="-6.919256541877985">
 <ele>107.75</ele>
 <time>2020-07-28T09:53:58Z</time>
 </trkpt>
 <trkpt lat="61.901098899543285" lon="-6.919421665370464">
 <ele>107.91</ele>
 <time>2020-07-28T09:54:05Z</time>
 </trkpt>
 <trkpt lat="61.901150029152632" lon="-6.919595841318369">
 <ele>107.65000000000001</ele>
 <time>2020-07-28T09:54:12Z</time>
 </trkpt>
 <trkpt lat="61.901215324178338" lon="-6.919782087206841">
 <ele>106.67</ele>
 <time>2020-07-28T09:54:19Z</time>
 </trkpt>
 <trkpt lat="61.901279194280505" lon="-6.91995064727962">
 <ele>107.72</ele>
 <time>2020-07-28T09:54:26Z</time>
 </trkpt>
 <trkpt lat="61.901354044675827" lon="-6.920114178210497">
 <ele>108.06</ele>
 <time>2020-07-28T09:54:33Z</time>
 </trkpt>
 <trkpt lat="61.901439540088177" lon="-6.920264381915331">
 <ele>108.47</ele>
 <time>2020-07-28T09:54:40Z</time>
 </trkpt>
 <trkpt lat="61.90151397138834" lon="-6.920421123504639">
 <ele>106.18000000000001</ele>
 <time>2020-07-28T09:54:47Z</time>
 </trkpt>
 <trkpt lat="61.901590246707201" lon="-6.920578451827169">
 <ele>106.90000000000001</ele>
 <time>2020-07-28T09:54:54Z</time>
 </trkpt>
 <trkpt lat="61.901656463742256" lon="-6.920745000243187">
 <ele>106.89</ele>
 <time>2020-07-28T09:55:01Z</time>
 </trkpt>
 <trkpt lat="61.901722177863121" lon="-6.920913979411125">
 <ele>106.70999999999999</ele>
 <time>2020-07-28T09:55:08Z</time>
 </trkpt>
 <trkpt lat="61.901772636920214" lon="-6.921097626909614">
 <ele>106.16</ele>
 <time>2020-07-28T09:55:15Z</time>
 </trkpt>
 <trkpt lat="61.901820078492165" lon="-6.92128705792129">
 <ele>107.44</ele>
 <time>2020-07-28T09:55:22Z</time>
 </trkpt>
 <trkpt lat="61.901866933330894" lon="-6.921467101201415">
 <ele>108.7</ele>
 <time>2020-07-28T09:55:30Z</time>
 </trkpt>
 <trkpt lat="61.90190683118999" lon="-6.921651251614094">
 <ele>109.86</ele>
 <time>2020-07-28T09:55:38Z</time>
 </trkpt>
 <trkpt lat="61.9019391015172" lon="-6.921826768666506">
 <ele>110.45</ele>
 <time>2020-07-28T09:55:45Z</time>
 </trkpt>
 <trkpt lat="61.902002217248082" lon="-6.921977810561657">
 <ele>110.79000000000001</ele>
 <time>2020-07-28T09:55:52Z</time>
 </trkpt>
 <trkpt lat="61.902076648548245" lon="-6.922085685655475">
 <ele>111.42</ele>
 <time>2020-07-28T09:55:59Z</time>
 </trkpt>
 <trkpt lat="61.902165580540895" lon="-6.922046709805727">
 <ele>112.14</ele>
 <time>2020-07-28T09:56:07Z</time>
 </trkpt>
 <trkpt lat="61.902234144508839" lon="-6.921912515535951">
 <ele>114.54000000000001</ele>
 <time>2020-07-28T09:56:19Z</time>
 </trkpt>
 <trkpt lat="61.902316706255078" lon="-6.921832635998726">
 <ele>115.86</ele>
 <time>2020-07-28T09:56:27Z</time>
 </trkpt>
 <trkpt lat="61.902414774522185" lon="-6.921852165833116">
 <ele>116.76000000000001</ele>
 <time>2020-07-28T09:56:35Z</time>
 </trkpt>
 <trkpt lat="61.902509070932865" lon="-6.921895751729608">
 <ele>114.64</ele>
 <time>2020-07-28T09:56:42Z</time>
 </trkpt>
 <trkpt lat="61.902604792267084" lon="-6.921977726742625">
 <ele>112.89</ele>
 <time>2020-07-28T09:56:49Z</time>
 </trkpt>
 <trkpt lat="61.902686767280102" lon="-6.92205517552793">
 <ele>112.89</ele>
 <time>2020-07-28T09:56:56Z</time>
 </trkpt>
 <trkpt lat="61.902767065912485" lon="-6.922141760587692">
 <ele>113.67</ele>
 <time>2020-07-28T09:57:03Z</time>
 </trkpt>
 <trkpt lat="61.902854992076755" lon="-6.922236895188689">
 <ele>115.18000000000001</ele>
 <time>2020-07-28T09:57:11Z</time>
 </trkpt>
 <trkpt lat="61.902942918241024" lon="-6.922311494126916">
 <ele>116.04000000000001</ele>
 <time>2020-07-28T09:58:54Z</time>
 </trkpt>
 <trkpt lat="61.90297401510179" lon="-6.92249396815896">
 <ele>114.56999999999999</ele>
 <time>2020-07-28T09:59:03Z</time>
 </trkpt>
 <trkpt lat="61.902982899919152" lon="-6.922674598172307">
 <ele>115.43000000000001</ele>
 <time>2020-07-28T09:59:12Z</time>
 </trkpt>
 <trkpt lat="61.902988934889436" lon="-6.922878446057439">
 <ele>116.01000000000001</ele>
 <time>2020-07-28T09:59:21Z</time>
 </trkpt>
 <trkpt lat="61.902982816100121" lon="-6.92307592369616">
 <ele>116.84999999999999</ele>
 <time>2020-07-28T09:59:29Z</time>
 </trkpt>
 <trkpt lat="61.902969237416983" lon="-6.9232845492661">
 <ele>119.39</ele>
 <time>2020-07-28T09:59:39Z</time>
 </trkpt>
 <trkpt lat="61.90294224768877" lon="-6.923487223684788">
 <ele>121.16</ele>
 <time>2020-07-28T09:59:49Z</time>
 </trkpt>
 <trkpt lat="61.902919700369239" lon="-6.923705572262406">
 <ele>123.25</ele>
 <time>2020-07-28T09:59:59Z</time>
 </trkpt>
 <trkpt lat="61.902904780581594" lon="-6.923903888091445">
 <ele>124.34</ele>
 <time>2020-07-28T10:00:11Z</time>
 </trkpt>
 <trkpt lat="61.902894554659724" lon="-6.924099186435342">
 <ele>128.34</ele>
 <time>2020-07-28T10:00:22Z</time>
 </trkpt>
 <trkpt lat="61.902866307646036" lon="-6.924282750114799">
 <ele>130.40000000000001</ele>
 <time>2020-07-28T10:00:35Z</time>
 </trkpt>
 <trkpt lat="61.902822302654386" lon="-6.924466229975224">
 <ele>134.22999999999999</ele>
 <time>2020-07-28T10:00:52Z</time>
 </trkpt>
 <trkpt lat="61.902797492220998" lon="-6.924678962677717">
 <ele>137.53</ele>
 <time>2020-07-28T10:01:12Z</time>
 </trkpt>
 <trkpt lat="61.90276195295155" lon="-6.924877027049661">
 <ele>140.86000000000001</ele>
 <time>2020-07-28T10:01:29Z</time>
 </trkpt>
 <trkpt lat="61.902718199416995" lon="-6.925083892419934">
 <ele>146.69999999999999</ele>
 <time>2020-07-28T10:01:54Z</time>
 </trkpt>
 <trkpt lat="61.902668830007315" lon="-6.925294445827603">
 <ele>148.65000000000001</ele>
 <time>2020-07-28T10:02:10Z</time>
 </trkpt>
 <trkpt lat="61.902634212747216" lon="-6.925455210730434">
 <ele>150.66999999999999</ele>
 <time>2020-07-28T10:02:20Z</time>
 </trkpt>
 <trkpt lat="61.90258014947176" lon="-6.925588734447956">
 <ele>148.21000000000001</ele>
 <time>2020-07-28T10:02:30Z</time>
 </trkpt>
 <trkpt lat="61.902522062882781" lon="-6.925748912617564">
 <ele>147.06999999999999</ele>
 <time>2020-07-28T10:02:40Z</time>
 </trkpt>
 <trkpt lat="61.902435477823019" lon="-6.925814962014556">
 <ele>144.56999999999999</ele>
 <time>2020-07-28T10:02:51Z</time>
 </trkpt>
 <trkpt lat="61.902362471446395" lon="-6.925962567329407">
 <ele>144.93000000000001</ele>
 <time>2020-07-28T10:03:08Z</time>
 </trkpt>
 <trkpt lat="61.902270438149571" lon="-6.926020234823227">
 <ele>143.84999999999999</ele>
 <time>2020-07-28T10:03:17Z</time>
 </trkpt>
 <trkpt lat="61.902203550562263" lon="-6.926152165979147">
 <ele>145.09</ele>
 <time>2020-07-28T10:03:39Z</time>
 </trkpt>
 <trkpt lat="61.90212719142437" lon="-6.92628619261086">
 <ele>147.21000000000001</ele>
 <time>2020-07-28T10:03:49Z</time>
 </trkpt>
 <trkpt lat="61.902053765952587" lon="-6.926446622237563">
 <ele>148.27000000000001</ele>
 <time>2020-07-28T10:03:58Z</time>
 </trkpt>
 <trkpt lat="61.901979250833392" lon="-6.926587438210845">
 <ele>150.25</ele>
 <time>2020-07-28T10:04:08Z</time>
 </trkpt>
 <trkpt lat="61.901922086253762" lon="-6.926729008555412">
 <ele>150.59</ele>
 <time>2020-07-28T10:04:18Z</time>
 </trkpt>
 <trkpt lat="61.901843966916203" lon="-6.926803858950734">
 <ele>152.5</ele>
 <time>2020-07-28T10:04:28Z</time>
 </trkpt>
 <trkpt lat="61.901748161762953" lon="-6.926863119006157">
 <ele>154</ele>
 <time>2020-07-28T10:04:39Z</time>
 </trkpt>
 <trkpt lat="61.901663169264793" lon="-6.926960349082947">
 <ele>156.06999999999999</ele>
 <time>2020-07-28T10:04:51Z</time>
 </trkpt>
 <trkpt lat="61.901617990806699" lon="-6.927152629941702">
 <ele>156.83000000000001</ele>
 <time>2020-07-28T10:05:00Z</time>
 </trkpt>
 <trkpt lat="61.901568621397018" lon="-6.927323453128338">
 <ele>158.71000000000001</ele>
 <time>2020-07-28T10:05:09Z</time>
 </trkpt>
 <trkpt lat="61.901499638333917" lon="-6.927487906068564">
 <ele>159.90000000000001</ele>
 <time>2020-07-28T10:05:18Z</time>
 </trkpt>
 <trkpt lat="61.901440043002367" lon="-6.927663004025817">
 <ele>162.66999999999999</ele>
 <time>2020-07-28T10:05:30Z</time>
 </trkpt>
 <trkpt lat="61.901367204263806" lon="-6.927809352055192">
 <ele>163.71000000000001</ele>
 <time>2020-07-28T10:05:39Z</time>
 </trkpt>
 <trkpt lat="61.901298891752958" lon="-6.927951173856854">
 <ele>164</ele>
 <time>2020-07-28T10:05:47Z</time>
 </trkpt>
 <trkpt lat="61.901223203167319" lon="-6.928088301792741">
 <ele>164.59999999999999</ele>
 <time>2020-07-28T10:05:56Z</time>
 </trkpt>
 <trkpt lat="61.901167295873165" lon="-6.928262645378709">
 <ele>164.83000000000001</ele>
 <time>2020-07-28T10:06:05Z</time>
 </trkpt>
 <trkpt lat="61.901095630601048" lon="-6.928407987579703">
 <ele>165.91</ele>
 <time>2020-07-28T10:06:13Z</time>
 </trkpt>
 <trkpt lat="61.901023294776678" lon="-6.928554084151983">
 <ele>166.24000000000001</ele>
 <time>2020-07-28T10:06:22Z</time>
 </trkpt>
 <trkpt lat="61.900957832112908" lon="-6.928726583719254">
 <ele>167.81</ele>
 <time>2020-07-28T10:06:32Z</time>
 </trkpt>
 <trkpt lat="61.900882143527269" lon="-6.92883831448853">
 <ele>168.97</ele>
 <time>2020-07-28T10:06:43Z</time>
 </trkpt>
 <trkpt lat="61.900820955634117" lon="-6.928979214280844">
 <ele>171.13999999999999</ele>
 <time>2020-07-28T10:06:53Z</time>
 </trkpt>
 <trkpt lat="61.900775358080864" lon="-6.929146433249116">
 <ele>173.81999999999999</ele>
 <time>2020-07-28T10:07:03Z</time>
 </trkpt>
 <trkpt lat="61.900725569576025" lon="-6.929310467094183">
 <ele>174.71000000000001</ele>
 <time>2020-07-28T10:07:13Z</time>
 </trkpt>
 <trkpt lat="61.900655161589384" lon="-6.929448936134577">
 <ele>174.88999999999999</ele>
 <time>2020-07-28T10:07:23Z</time>
 </trkpt>
 <trkpt lat="61.900579305365682" lon="-6.929586483165622">
 <ele>175.21000000000001</ele>
 <time>2020-07-28T10:07:34Z</time>
 </trkpt>
 <trkpt lat="61.90050688572228" lon="-6.929747918620706">
 <ele>175.47999999999999</ele>
 <time>2020-07-28T10:07:43Z</time>
 </trkpt>
 <trkpt lat="61.900438740849495" lon="-6.929891919717193">
 <ele>176.22</ele>
 <time>2020-07-28T10:07:51Z</time>
 </trkpt>
 <trkpt lat="61.90037009306252" lon="-6.930034747347236">
 <ele>177.56999999999999</ele>
 <time>2020-07-28T10:07:59Z</time>
 </trkpt>
 <trkpt lat="61.900303876027465" lon="-6.930201547220349">
 <ele>178.38</ele>
 <time>2020-07-28T10:08:09Z</time>
 </trkpt>
 <trkpt lat="61.900230534374714" lon="-6.930362228304148">
 <ele>179.43000000000001</ele>
 <time>2020-07-28T10:08:21Z</time>
 </trkpt>
 <trkpt lat="61.900172447785735" lon="-6.93052064627409">
 <ele>182.69999999999999</ele>
 <time>2020-07-28T10:08:32Z</time>
 </trkpt>
 <trkpt lat="61.90009399317205" lon="-6.930662216618657">
 <ele>185.69</ele>
 <time>2020-07-28T10:08:44Z</time>
 </trkpt>
 <trkpt lat="61.900019058957696" lon="-6.930808480829001">
 <ele>187.06999999999999</ele>
 <time>2020-07-28T10:08:53Z</time>
 </trkpt>
 <trkpt lat="61.899956278502941" lon="-6.930964216589928">
 <ele>187.13</ele>
 <time>2020-07-28T10:09:01Z</time>
 </trkpt>
 <trkpt lat="61.899895761162043" lon="-6.931120036169887">
 <ele>187.83000000000001</ele>
 <time>2020-07-28T10:09:09Z</time>
 </trkpt>
 <trkpt lat="61.899826442822814" lon="-6.931262947618961">
 <ele>189.03999999999999</ele>
 <time>2020-07-28T10:09:19Z</time>
 </trkpt>
 <trkpt lat="61.899758968502283" lon="-6.931426813825965">
 <ele>189.69</ele>
 <time>2020-07-28T10:09:29Z</time>
 </trkpt>
 <trkpt lat="61.899698451161385" lon="-6.931617921218276">
 <ele>191.91</ele>
 <time>2020-07-28T10:09:53Z</time>
 </trkpt>
 <trkpt lat="61.899629384279251" lon="-6.931733675301075">
 <ele>192.31999999999999</ele>
 <time>2020-07-28T10:10:03Z</time>
 </trkpt>
 <trkpt lat="61.899537183344364" lon="-6.931677684187889">
 <ele>191.66999999999999</ele>
 <time>2020-07-28T10:10:18Z</time>
 </trkpt>
 <trkpt lat="61.899471301585436" lon="-6.931500323116779">
 <ele>191.02000000000001</ele>
 <time>2020-07-28T10:10:31Z</time>
 </trkpt>
 <trkpt lat="61.899396535009146" lon="-6.93137769587338">
 <ele>189.69</ele>
 <time>2020-07-28T10:10:41Z</time>
 </trkpt>
 <trkpt lat="61.899318248033524" lon="-6.931277113035321">
 <ele>189.09999999999999</ele>
 <time>2020-07-28T10:10:51Z</time>
 </trkpt>
 <trkpt lat="61.899266364052892" lon="-6.931253140792251">
 <ele>191.02000000000001</ele>
 <time>2020-07-28T10:11:16Z</time>
 </trkpt>
 <trkpt lat="61.899290587753057" lon="-6.931247944012284">
 <ele>187.99000000000001</ele>
 <time>2020-07-28T10:16:54Z</time>
 </trkpt>
 <trkpt lat="61.8993781786412" lon="-6.931351125240326">
 <ele>186.96000000000001</ele>
 <time>2020-07-28T10:17:04Z</time>
 </trkpt>
 <trkpt lat="61.899449424818158" lon="-6.931469980627298">
 <ele>188.75</ele>
 <time>2020-07-28T10:17:12Z</time>
 </trkpt>
 <trkpt lat="61.899522347375751" lon="-6.931571485474706">
 <ele>188.68000000000001</ele>
 <time>2020-07-28T10:17:21Z</time>
 </trkpt>
 <trkpt lat="61.899611027911305" lon="-6.931580454111099">
 <ele>188.72999999999999</ele>
 <time>2020-07-28T10:17:52Z</time>
 </trkpt>
 <trkpt lat="61.899701384827495" lon="-6.931540556252003">
 <ele>188.41</ele>
 <time>2020-07-28T10:18:04Z</time>
 </trkpt>
 <trkpt lat="61.899776989594102" lon="-6.931418012827635">
 <ele>186.25</ele>
 <time>2020-07-28T10:18:37Z</time>
 </trkpt>
 <trkpt lat="61.899835662916303" lon="-6.931267976760864">
 <ele>185.91</ele>
 <time>2020-07-28T10:18:45Z</time>
 </trkpt>
 <trkpt lat="61.899900622665882" lon="-6.931126657873392">
 <ele>184.72999999999999</ele>
 <time>2020-07-28T10:18:53Z</time>
 </trkpt>
 <trkpt lat="61.899956529960036" lon="-6.93098877556622">
 <ele>184.38999999999999</ele>
 <time>2020-07-28T10:19:00Z</time>
 </trkpt>
 <trkpt lat="61.900024088099599" lon="-6.930832704529166">
 <ele>183.81</ele>
 <time>2020-07-28T10:19:09Z</time>
 </trkpt>
 <trkpt lat="61.900083096697927" lon="-6.930684763938189">
 <ele>182.36000000000001</ele>
 <time>2020-07-28T10:19:19Z</time>
 </trkpt>
 <trkpt lat="61.900158869102597" lon="-6.930564232170582">
 <ele>180.02000000000001</ele>
 <time>2020-07-28T10:19:48Z</time>
 </trkpt>
 <trkpt lat="61.900216871872544" lon="-6.930401371791959">
 <ele>176.86000000000001</ele>
 <time>2020-07-28T10:20:00Z</time>
 </trkpt>
 <trkpt lat="61.900294153019786" lon="-6.930245300754905">
 <ele>175.84999999999999</ele>
 <time>2020-07-28T10:20:09Z</time>
 </trkpt>
 <trkpt lat="61.900354418903589" lon="-6.930095432326198">
 <ele>174.59</ele>
 <time>2020-07-28T10:20:16Z</time>
 </trkpt>
 <trkpt lat="61.900421055033803" lon="-6.929938858374953">
 <ele>172.69</ele>
 <time>2020-07-28T10:20:25Z</time>
 </trkpt>
 <trkpt lat="61.900495905429125" lon="-6.929812878370285">
 <ele>172.59999999999999</ele>
 <time>2020-07-28T10:20:33Z</time>
 </trkpt>
 <trkpt lat="61.900559775531292" lon="-6.929658399894834">
 <ele>172.30000000000001</ele>
 <time>2020-07-28T10:20:41Z</time>
 </trkpt>
 <trkpt lat="61.900625741109252" lon="-6.929501825943589">
 <ele>171.78999999999999</ele>
 <time>2020-07-28T10:20:49Z</time>
 </trkpt>
 <trkpt lat="61.900700507685542" lon="-6.929360087960959">
 <ele>171.15000000000001</ele>
 <time>2020-07-28T10:20:57Z</time>
 </trkpt>
 <trkpt lat="61.900756750255823" lon="-6.929199155420065">
 <ele>170.88</ele>
 <time>2020-07-28T10:21:05Z</time>
 </trkpt>
 <trkpt lat="61.900833277031779" lon="-6.92908943630755">
 <ele>170.16</ele>
 <time>2020-07-28T10:21:13Z</time>
 </trkpt>
 <trkpt lat="61.900910725817084" lon="-6.928985835984349">
 <ele>168.47</ele>
 <time>2020-07-28T10:21:25Z</time>
 </trkpt>
 <trkpt lat="61.900959340855479" lon="-6.928819790482521">
 <ele>165.49000000000001</ele>
 <time>2020-07-28T10:21:39Z</time>
 </trkpt>
 <trkpt lat="61.901014158502221" lon="-6.928614350035787">
 <ele>163.30000000000001</ele>
 <time>2020-07-28T10:21:49Z</time>
 </trkpt>
 <trkpt lat="61.901093367487192" lon="-6.928468756377697">
 <ele>161.97</ele>
 <time>2020-07-28T10:21:58Z</time>
 </trkpt>
 <trkpt lat="61.901166206225753" lon="-6.92834185436368">
 <ele>161.72</ele>
 <time>2020-07-28T10:22:06Z</time>
 </trkpt>
 <trkpt lat="61.901218593120575" lon="-6.928185950964689">
 <ele>160.83000000000001</ele>
 <time>2020-07-28T10:22:14Z</time>
 </trkpt>
 <trkpt lat="61.901283133774996" lon="-6.928036669269204">
 <ele>160.62</ele>
 <time>2020-07-28T10:22:22Z</time>
 </trkpt>
 <trkpt lat="61.901355050504208" lon="-6.927889650687575">
 <ele>160.63</ele>
 <time>2020-07-28T10:22:30Z</time>
 </trkpt>
 <trkpt lat="61.901419591158628" lon="-6.92772326990962">
 <ele>158.66999999999999</ele>
 <time>2020-07-28T10:22:38Z</time>
 </trkpt>
 <trkpt lat="61.901475079357624" lon="-6.927539873868227">
 <ele>156.61000000000001</ele>
 <time>2020-07-28T10:22:46Z</time>
 </trkpt>
 <trkpt lat="61.901528220623732" lon="-6.927377348765731">
 <ele>154.56999999999999</ele>
 <time>2020-07-28T10:22:54Z</time>
 </trkpt>
 <trkpt lat="61.901594018563628" lon="-6.92725027911365">
 <ele>153.38999999999999</ele>
 <time>2020-07-28T10:23:04Z</time>
 </trkpt>
 <trkpt lat="61.901627881452441" lon="-6.927082221955061">
 <ele>152.65000000000001</ele>
 <time>2020-07-28T10:23:11Z</time>
 </trkpt>
 <trkpt lat="61.901666605845094" lon="-6.926910728216171">
 <ele>151.77000000000001</ele>
 <time>2020-07-28T10:23:20Z</time>
 </trkpt>
 <trkpt lat="61.9017543643713" lon="-6.926842415705323">
 <ele>150.08000000000001</ele>
 <time>2020-07-28T10:23:29Z</time>
 </trkpt>
 <trkpt lat="61.901839943602681" lon="-6.926770498976111">
 <ele>148.56999999999999</ele>
 <time>2020-07-28T10:23:39Z</time>
 </trkpt>
 <trkpt lat="61.90192443318665" lon="-6.92669908516109">
 <ele>146.88999999999999</ele>
 <time>2020-07-28T10:23:49Z</time>
 </trkpt>
 <trkpt lat="61.902002217248082" lon="-6.926584923639894">
 <ele>146.44999999999999</ele>
 <time>2020-07-28T10:23:59Z</time>
 </trkpt>
 <trkpt lat="61.902065500617027" lon="-6.926435893401504">
 <ele>144.83000000000001</ele>
 <time>2020-07-28T10:24:09Z</time>
 </trkpt>
 <trkpt lat="61.902122581377625" lon="-6.926261214539409">
 <ele>142.62</ele>
 <time>2020-07-28T10:24:19Z</time>
 </trkpt>
 <trkpt lat="61.902183936908841" lon="-6.92616255953908">
 <ele>141.41999999999999</ele>
 <time>2020-07-28T10:24:33Z</time>
 </trkpt>
 <trkpt lat="61.902185780927539" lon="-6.925998777151108">
 <ele>139.31999999999999</ele>
 <time>2020-07-28T10:26:16Z</time>
 </trkpt>
 <trkpt lat="61.902277730405331" lon="-6.925986958667636">
 <ele>140.13</ele>
 <time>2020-07-28T10:26:24Z</time>
 </trkpt>
 <trkpt lat="61.90236808732152" lon="-6.925921831279993">
 <ele>141.58000000000001</ele>
 <time>2020-07-28T10:26:33Z</time>
 </trkpt>
 <trkpt lat="61.902443943545222" lon="-6.925799204036593">
 <ele>141.52000000000001</ele>
 <time>2020-07-28T10:26:43Z</time>
 </trkpt>
 <trkpt lat="61.90253522247076" lon="-6.925684623420239">
 <ele>143.16</ele>
 <time>2020-07-28T10:26:53Z</time>
 </trkpt>
 <trkpt lat="61.902599344030023" lon="-6.925553614273667">
 <ele>144.09</ele>
 <time>2020-07-28T10:27:02Z</time>
 </trkpt>
 <trkpt lat="61.90267151221633" lon="-6.925411708652973">
 <ele>145.12</ele>
 <time>2020-07-28T10:27:11Z</time>
 </trkpt>
 <trkpt lat="61.902705375105143" lon="-6.925223199650645">
 <ele>143.31</ele>
 <time>2020-07-28T10:27:21Z</time>
 </trkpt>
 <trkpt lat="61.902743764221668" lon="-6.925042485818267">
 <ele>138.75999999999999</ele>
 <time>2020-07-28T10:27:36Z</time>
 </trkpt>
 <trkpt lat="61.902772095054388" lon="-6.92485355772078">
 <ele>134.53999999999999</ele>
 <time>2020-07-28T10:27:49Z</time>
 </trkpt>
 <trkpt lat="61.902808304876089" lon="-6.924681477248669">
 <ele>130.06</ele>
 <time>2020-07-28T10:28:02Z</time>
 </trkpt>
 <trkpt lat="61.90283278003335" lon="-6.924490034580231">
 <ele>127.16</ele>
 <time>2020-07-28T10:28:13Z</time>
 </trkpt>
 <trkpt lat="61.902858763933182" lon="-6.924276715144515">
 <ele>123.58</ele>
 <time>2020-07-28T10:28:23Z</time>
 </trkpt>
 <trkpt lat="61.902865804731846" lon="-6.924072951078415">
 <ele>120.87</ele>
 <time>2020-07-28T10:28:33Z</time>
 </trkpt>
 <trkpt lat="61.902883993461728" lon="-6.923848735168576">
 <ele>117.76000000000001</ele>
 <time>2020-07-28T10:28:44Z</time>
 </trkpt>
 <trkpt lat="61.902907714247704" lon="-6.923638097941876">
 <ele>115.68000000000001</ele>
 <time>2020-07-28T10:28:52Z</time>
 </trkpt>
 <trkpt lat="61.902932859957218" lon="-6.923447158187628">
 <ele>113.75</ele>
 <time>2020-07-28T10:29:00Z</time>
 </trkpt>
 <trkpt lat="61.902949707582593" lon="-6.923244651407003">
 <ele>111.81</ele>
 <time>2020-07-28T10:29:09Z</time>
 </trkpt>
 <trkpt lat="61.902959765866399" lon="-6.923013394698501">
 <ele>110.11</ele>
 <time>2020-07-28T10:29:18Z</time>
 </trkpt>
 <trkpt lat="61.902966806665063" lon="-6.922782054170966">
 <ele>108.93000000000001</ele>
 <time>2020-07-28T10:29:29Z</time>
 </trkpt>
 <trkpt lat="61.902984408661723" lon="-6.922594467177987">
 <ele>109.09999999999999</ele>
 <time>2020-07-28T10:29:38Z</time>
 </trkpt>
 <trkpt lat="61.902952892705798" lon="-6.922397995367646">
 <ele>109.93000000000001</ele>
 <time>2020-07-28T10:29:51Z</time>
 </trkpt>
 <trkpt lat="61.902885837480426" lon="-6.922276373952627">
 <ele>108.98999999999999</ele>
 <time>2020-07-28T10:29:59Z</time>
 </trkpt>
 <trkpt lat="61.902792211622" lon="-6.922202697023749">
 <ele>107.23</ele>
 <time>2020-07-28T10:30:07Z</time>
 </trkpt>
 <trkpt lat="61.902706883847713" lon="-6.922114854678512">
 <ele>106.70999999999999</ele>
 <time>2020-07-28T10:30:13Z</time>
 </trkpt>
 <trkpt lat="61.902622729539871" lon="-6.921992478892207">
 <ele>107.56</ele>
 <time>2020-07-28T10:30:20Z</time>
 </trkpt>
 <trkpt lat="61.902533210813999" lon="-6.921891141682863">
 <ele>108.76000000000001</ele>
 <time>2020-07-28T10:30:27Z</time>
 </trkpt>
 <trkpt lat="61.902432376518846" lon="-6.921840012073517">
 <ele>109.34999999999999</ele>
 <time>2020-07-28T10:30:34Z</time>
 </trkpt>
 <trkpt lat="61.902338163927197" lon="-6.921828277409077">
 <ele>109.26000000000001</ele>
 <time>2020-07-28T10:30:41Z</time>
 </trkpt>
 <trkpt lat="61.90224252641201" lon="-6.921870270743966">
 <ele>107.93000000000001</ele>
 <time>2020-07-28T10:30:48Z</time>
 </trkpt>
 <trkpt lat="61.902160216122866" lon="-6.922010919079185">
 <ele>105.88</ele>
 <time>2020-07-28T10:30:57Z</time>
 </trkpt>
 <trkpt lat="61.902076900005341" lon="-6.922067329287529">
 <ele>104.65000000000001</ele>
 <time>2020-07-28T10:31:06Z</time>
 </trkpt>
 <trkpt lat="61.901990734040737" lon="-6.921980241313577">
 <ele>103.98999999999999</ele>
 <time>2020-07-28T10:31:13Z</time>
 </trkpt>
 <trkpt lat="61.901927283033729" lon="-6.921840514987707">
 <ele>103.27</ele>
 <time>2020-07-28T10:31:19Z</time>
 </trkpt>
 <trkpt lat="61.901883110404015" lon="-6.921654269099236">
 <ele>103.02</ele>
 <time>2020-07-28T10:31:25Z</time>
 </trkpt>
 <trkpt lat="61.901839608326554" lon="-6.921475566923618">
 <ele>101.81</ele>
 <time>2020-07-28T10:31:32Z</time>
 </trkpt>
 <trkpt lat="61.901816390454769" lon="-6.921295775100589">
 <ele>100.37</ele>
 <time>2020-07-28T10:31:58Z</time>
 </trkpt>
 <trkpt lat="61.901771882548928" lon="-6.921098046004772">
 <ele>99.859999999999999</ele>
 <time>2020-07-28T10:32:22Z</time>
 </trkpt>
 <trkpt lat="61.901715137064457" lon="-6.920925294980407">
 <ele>98.969999999999999</ele>
 <time>2020-07-28T10:32:28Z</time>
 </trkpt>
 <trkpt lat="61.901648584753275" lon="-6.920771235600114">
 <ele>99.310000000000002</ele>
 <time>2020-07-28T10:32:34Z</time>
 </trkpt>
 <trkpt lat="61.901579769328237" lon="-6.920625474303961">
 <ele>99.769999999999996</ele>
 <time>2020-07-28T10:32:40Z</time>
 </trkpt>
 <trkpt lat="61.901512797921896" lon="-6.920479964464903">
 <ele>99.560000000000002</ele>
 <time>2020-07-28T10:32:46Z</time>
 </trkpt>
 <trkpt lat="61.901432834565639" lon="-6.920355577021837">
 <ele>100.66</ele>
 <time>2020-07-28T10:32:52Z</time>
 </trkpt>
 <trkpt lat="61.901353038847446" lon="-6.920201685279608">
 <ele>100.75</ele>
 <time>2020-07-28T10:32:59Z</time>
 </trkpt>
 <trkpt lat="61.901281792670488" lon="-6.920042177662253">
 <ele>100.53</ele>
 <time>2020-07-28T10:33:05Z</time>
 </trkpt>
 <trkpt lat="61.901212222874165" lon="-6.919886106625199">
 <ele>100.65000000000001</ele>
 <time>2020-07-28T10:33:11Z</time>
 </trkpt>
 <trkpt lat="61.901155393570662" lon="-6.919716624543071">
 <ele>100.73</ele>
 <time>2020-07-28T10:33:17Z</time>
 </trkpt>
 <trkpt lat="61.901106107980013" lon="-6.919547645375133">
 <ele>100.91</ele>
 <time>2020-07-28T10:33:23Z</time>
 </trkpt>
 <trkpt lat="61.901067048311234" lon="-6.919376151636243">
 <ele>100.67</ele>
 <time>2020-07-28T10:33:30Z</time>
 </trkpt>
 <trkpt lat="61.901025222614408" lon="-6.919190241023898">
 <ele>100.11</ele>
 <time>2020-07-28T10:33:36Z</time>
 </trkpt>
 <trkpt lat="61.901006028056145" lon="-6.918976167216897">
 <ele>99.239999999999995</ele>
 <time>2020-07-28T10:33:42Z</time>
 </trkpt>
 <trkpt lat="61.90098624676466" lon="-6.918756393715739">
 <ele>98.989999999999995</ele>
 <time>2020-07-28T10:33:48Z</time>
 </trkpt>
 <trkpt lat="61.900978786870837" lon="-6.918550198897719">
 <ele>99.510000000000005</ele>
 <time>2020-07-28T10:33:54Z</time>
 </trkpt>
 <trkpt lat="61.900969818234444" lon="-6.918341657146812">
 <ele>99.400000000000006</ele>
 <time>2020-07-28T10:34:01Z</time>
 </trkpt>
 <trkpt lat="61.900964956730604" lon="-6.918136971071363">
 <ele>99.290000000000006</ele>
 <time>2020-07-28T10:34:07Z</time>
 </trkpt>
 <trkpt lat="61.900948863476515" lon="-6.91793505102396">
 <ele>99.469999999999999</ele>
 <time>2020-07-28T10:34:13Z</time>
 </trkpt>
 <trkpt lat="61.900932770222425" lon="-6.91774838604033">
 <ele>99.780000000000001</ele>
 <time>2020-07-28T10:34:19Z</time>
 </trkpt>
 <trkpt lat="61.900921706110239" lon="-6.917541269212961">
 <ele>99.120000000000005</ele>
 <time>2020-07-28T10:34:25Z</time>
 </trkpt>
 <trkpt lat="61.900921370834112" lon="-6.917341109365225">
 <ele>98.609999999999999</ele>
 <time>2020-07-28T10:34:31Z</time>
 </trkpt>
 <trkpt lat="61.900938302278519" lon="-6.917150085791946">
 <ele>97.629999999999995</ele>
 <time>2020-07-28T10:34:37Z</time>
 </trkpt>
 <trkpt lat="61.90095984376967" lon="-6.916954116895795">
 <ele>96.939999999999998</ele>
 <time>2020-07-28T10:34:43Z</time>
 </trkpt>
 <trkpt lat="61.900985827669501" lon="-6.91675060428679">
 <ele>96.299999999999997</ele>
 <time>2020-07-28T10:34:49Z</time>
 </trkpt>
 <trkpt lat="61.901021786034107" lon="-6.916568381711841">
 <ele>95.709999999999994</ele>
 <time>2020-07-28T10:34:55Z</time>
 </trkpt>
 <trkpt lat="61.901057492941618" lon="-6.916358331218362">
 <ele>95.340000000000003</ele>
 <time>2020-07-28T10:35:01Z</time>
 </trkpt>
 <trkpt lat="61.90109328366816" lon="-6.916161859408021">
 <ele>93.840000000000003</ele>
 <time>2020-07-28T10:35:07Z</time>
 </trkpt>
 <trkpt lat="61.901135193184018" lon="-6.915988270193338">
 <ele>93.189999999999998</ele>
 <time>2020-07-28T10:35:13Z</time>
 </trkpt>
 <trkpt lat="61.901176599785686" lon="-6.915818536654115">
 <ele>92.140000000000001</ele>
 <time>2020-07-28T10:35:19Z</time>
 </trkpt>
 <trkpt lat="61.901224292814732" lon="-6.915627932175994">
 <ele>90.840000000000003</ele>
 <time>2020-07-28T10:35:25Z</time>
 </trkpt>
 <trkpt lat="61.901270812377334" lon="-6.915430538356304">
 <ele>90.019999999999996</ele>
 <time>2020-07-28T10:35:31Z</time>
 </trkpt>
 <trkpt lat="61.901340968906879" lon="-6.915285615250468">
 <ele>90.109999999999999</ele>
 <time>2020-07-28T10:35:37Z</time>
 </trkpt>
 <trkpt lat="61.901412382721901" lon="-6.915164580568671">
 <ele>88.489999999999995</ele>
 <time>2020-07-28T10:35:43Z</time>
 </trkpt>
 <trkpt lat="61.901489999145269" lon="-6.915037427097559">
 <ele>88.620000000000005</ele>
 <time>2020-07-28T10:35:49Z</time>
 </trkpt>
 <trkpt lat="61.901578092947602" lon="-6.914931898936629">
 <ele>88.180000000000007</ele>
 <time>2020-07-28T10:35:55Z</time>
 </trkpt>
 <trkpt lat="61.901667276397347" lon="-6.914857551455498">
 <ele>87.930000000000007</ele>
 <time>2020-07-28T10:36:01Z</time>
 </trkpt>
 <trkpt lat="61.901762410998344" lon="-6.914789322763681">
 <ele>87.519999999999996</ele>
 <time>2020-07-28T10:36:07Z</time>
 </trkpt>
 <trkpt lat="61.901855869218707" lon="-6.914735259488225">
 <ele>86.579999999999998</ele>
 <time>2020-07-28T10:36:13Z</time>
 </trkpt>
 <trkpt lat="61.901951422914863" lon="-6.914679184556007">
 <ele>86.340000000000003</ele>
 <time>2020-07-28T10:36:19Z</time>
 </trkpt>
 <trkpt lat="61.902050832286477" lon="-6.914593186229467">
 <ele>85.689999999999998</ele>
 <time>2020-07-28T10:36:26Z</time>
 </trkpt>
 <trkpt lat="61.902150996029377" lon="-6.914527975022793">
 <ele>84.379999999999995</ele>
 <time>2020-07-28T10:36:33Z</time>
 </trkpt>
 <trkpt lat="61.902242945507169" lon="-6.914475923404098">
 <ele>84.230000000000004</ele>
 <time>2020-07-28T10:36:39Z</time>
 </trkpt>
 <trkpt lat="61.902332631871104" lon="-6.914424793794751">
 <ele>82.280000000000001</ele>
 <time>2020-07-28T10:36:45Z</time>
 </trkpt>
 <trkpt lat="61.902405889704823" lon="-6.914305603131652">
 <ele>81.700000000000003</ele>
 <time>2020-07-28T10:36:51Z</time>
 </trkpt>
 <trkpt lat="61.902458360418677" lon="-6.914134863764048">
 <ele>81.780000000000001</ele>
 <time>2020-07-28T10:36:58Z</time>
 </trkpt>
 <trkpt lat="61.90251175314188" lon="-6.91394635476172">
 <ele>81.689999999999998</ele>
 <time>2020-07-28T10:37:04Z</time>
 </trkpt>
 <trkpt lat="61.902560954913497" lon="-6.913770921528339">
 <ele>81.400000000000006</ele>
 <time>2020-07-28T10:37:10Z</time>
 </trkpt>
 <trkpt lat="61.902611246332526" lon="-6.913605378940702">
 <ele>80.75</ele>
 <time>2020-07-28T10:37:16Z</time>
 </trkpt>
 <trkpt lat="61.902658436447382" lon="-6.913418462499976">
 <ele>80.629999999999995</ele>
 <time>2020-07-28T10:37:22Z</time>
 </trkpt>
 <trkpt lat="61.902706883847713" lon="-6.913205897435546">
 <ele>80.390000000000001</ele>
 <time>2020-07-28T10:37:29Z</time>
 </trkpt>
 <trkpt lat="61.902753654867411" lon="-6.913019316270948">
 <ele>80.129999999999995</ele>
 <time>2020-07-28T10:37:35Z</time>
 </trkpt>
 <trkpt lat="61.902801766991615" lon="-6.912852097302675">
 <ele>80.459999999999994</ele>
 <time>2020-07-28T10:37:43Z</time>
 </trkpt>
 <trkpt lat="61.902851136401296" lon="-6.912649003788829">
 <ele>81.200000000000003</ele>
 <time>2020-07-28T10:38:04Z</time>
 </trkpt>
 <trkpt lat="61.90290411002934" lon="-6.912483293563128">
 <ele>82.010000000000005</ele>
 <time>2020-07-28T10:38:11Z</time>
 </trkpt>
 <trkpt lat="61.902978289872408" lon="-6.912365695461631">
 <ele>82.299999999999997</ele>
 <time>2020-07-28T10:38:17Z</time>
 </trkpt>
 <trkpt lat="61.903073927387595" lon="-6.912248935550451">
 <ele>81.060000000000002</ele>
 <time>2020-07-28T10:38:23Z</time>
 </trkpt>
 <trkpt lat="61.903151543810964" lon="-6.912154639139772">
 <ele>81.920000000000002</ele>
 <time>2020-07-28T10:38:28Z</time>
 </trkpt>
 <trkpt lat="61.903228489682078" lon="-6.912025976926088">
 <ele>82.260000000000005</ele>
 <time>2020-07-28T10:38:34Z</time>
 </trkpt>
 <trkpt lat="61.903296718373895" lon="-6.911873929202557">
 <ele>83.209999999999994</ele>
 <time>2020-07-28T10:38:41Z</time>
 </trkpt>
 <trkpt lat="61.903302418068051" lon="-6.911687515676022">
 <ele>83.540000000000006</ele>
 <time>2020-07-28T10:38:47Z</time>
 </trkpt>
 <trkpt lat="61.903280038386583" lon="-6.911492636427283">
 <ele>82.640000000000001</ele>
 <time>2020-07-28T10:38:53Z</time>
 </trkpt>
 <trkpt lat="61.903264783322811" lon="-6.9112828373909">
 <ele>82.560000000000002</ele>
 <time>2020-07-28T10:38:59Z</time>
 </trkpt>
 <trkpt lat="61.903268974274397" lon="-6.911087539047003">
 <ele>82.829999999999998</ele>
 <time>2020-07-28T10:39:05Z</time>
 </trkpt>
 <trkpt lat="61.903291270136833" lon="-6.910902131348848">
 <ele>83.280000000000001</ele>
 <time>2020-07-28T10:39:11Z</time>
 </trkpt>
 <trkpt lat="61.903327312320471" lon="-6.910708006471396">
 <ele>83.939999999999998</ele>
 <time>2020-07-28T10:39:18Z</time>
 </trkpt>
 <trkpt lat="61.903374083340168" lon="-6.910515893250704">
 <ele>84.459999999999994</ele>
 <time>2020-07-28T10:39:26Z</time>
 </trkpt>
 <trkpt lat="61.903408952057362" lon="-6.910306680947542">
 <ele>84.359999999999999</ele>
 <time>2020-07-28T10:39:42Z</time>
 </trkpt>
 <trkpt lat="61.903444742783904" lon="-6.910117669031024">
 <ele>84.200000000000003</ele>
 <time>2020-07-28T10:39:48Z</time>
 </trkpt>
 <trkpt lat="61.903492771089077" lon="-6.909922957420349">
 <ele>83.829999999999998</ele>
 <time>2020-07-28T10:39:55Z</time>
 </trkpt>
 <trkpt lat="61.903542224317789" lon="-6.909745093435049">
 <ele>83.480000000000004</ele>
 <time>2020-07-28T10:40:02Z</time>
 </trkpt>
 <trkpt lat="61.903590587899089" lon="-6.909550549462438">
 <ele>83.030000000000001</ele>
 <time>2020-07-28T10:40:28Z</time>
 </trkpt>
 <trkpt lat="61.903637526556849" lon="-6.909378804266453">
 <ele>82.689999999999998</ele>
 <time>2020-07-28T10:40:34Z</time>
 </trkpt>
 <trkpt lat="61.903697876259685" lon="-6.909191133454442">
 <ele>82.310000000000002</ele>
 <time>2020-07-28T10:40:40Z</time>
 </trkpt>
 <trkpt lat="61.903755879029632" lon="-6.909042354673147">
 <ele>81.829999999999998</ele>
 <time>2020-07-28T10:40:46Z</time>
 </trkpt>
 <trkpt lat="61.903813378885388" lon="-6.908868430182338">
 <ele>81.700000000000003</ele>
 <time>2020-07-28T10:41:08Z</time>
 </trkpt>
 <trkpt lat="61.903883116319776" lon="-6.908741276711226">
 <ele>81.290000000000006</ele>
 <time>2020-07-28T10:41:14Z</time>
 </trkpt>
 <trkpt lat="61.903939694166183" lon="-6.908565843477845">
 <ele>81.310000000000002</ele>
 <time>2020-07-28T10:41:20Z</time>
 </trkpt>
 <trkpt lat="61.904001552611589" lon="-6.908411616459489">
 <ele>80.670000000000002</ele>
 <time>2020-07-28T10:41:26Z</time>
 </trkpt>
 <trkpt lat="61.904061902314425" lon="-6.908262334764004">
 <ele>80.629999999999995</ele>
 <time>2020-07-28T10:41:32Z</time>
 </trkpt>
 <trkpt lat="61.904118228703737" lon="-6.908087572082877">
 <ele>80.140000000000001</ele>
 <time>2020-07-28T10:41:38Z</time>
 </trkpt>
 <trkpt lat="61.904171369969845" lon="-6.907916497439146">
 <ele>79.439999999999998</ele>
 <time>2020-07-28T10:41:44Z</time>
 </trkpt>
 <trkpt lat="61.90422585234046" lon="-6.907708961516619">
 <ele>79.159999999999997</ele>
 <time>2020-07-28T10:42:07Z</time>
 </trkpt>
 <trkpt lat="61.90429575741291" lon="-6.907530929893255">
 <ele>78.689999999999998</ele>
 <time>2020-07-28T10:42:14Z</time>
 </trkpt>
 <trkpt lat="61.904320819303393" lon="-6.907339068129659">
 <ele>78.099999999999994</ele>
 <time>2020-07-28T10:43:15Z</time>
 </trkpt>
 <trkpt lat="61.904363818466663" lon="-6.907151648774743">
 <ele>77.260000000000005</ele>
 <time>2020-07-28T10:43:21Z</time>
 </trkpt>
 <trkpt lat="61.904398016631603" lon="-6.906948890537024">
 <ele>76.819999999999993</ele>
 <time>2020-07-28T10:43:27Z</time>
 </trkpt>
 <trkpt lat="61.904427520930767" lon="-6.906751161441207">
 <ele>76.650000000000006</ele>
 <time>2020-07-28T10:43:33Z</time>
 </trkpt>
 <trkpt lat="61.904434813186526" lon="-6.906523006036878">
 <ele>76.069999999999993</ele>
 <time>2020-07-28T10:43:39Z</time>
 </trkpt>
 <trkpt lat="61.904429029673338" lon="-6.906306752935052">
 <ele>75.859999999999999</ele>
 <time>2020-07-28T10:43:45Z</time>
 </trkpt>
 <trkpt lat="61.904418300837278" lon="-6.906082956120372">
 <ele>75.780000000000001</ele>
 <time>2020-07-28T10:43:51Z</time>
 </trkpt>
 <trkpt lat="61.90439198166132" lon="-6.905861757695675">
 <ele>75.849999999999994</ele>
 <time>2020-07-28T10:43:57Z</time>
 </trkpt>
 <trkpt lat="61.904358621686697" lon="-6.905673919245601">
 <ele>76.079999999999998</ele>
 <time>2020-07-28T10:44:03Z</time>
 </trkpt>
 <trkpt lat="61.904304223135114" lon="-6.905462862923741">
 <ele>75.489999999999995</ele>
 <time>2020-07-28T10:44:12Z</time>
 </trkpt>
 <trkpt lat="61.904255775734782" lon="-6.905289525166154">
 <ele>75.370000000000005</ele>
 <time>2020-07-28T10:44:18Z</time>
 </trkpt>
 <trkpt lat="61.904199281707406" lon="-6.905105207115412">
 <ele>74.480000000000004</ele>
 <time>2020-07-28T10:44:24Z</time>
 </trkpt>
 <trkpt lat="61.904144547879696" lon="-6.904937820509076">
 <ele>73.480000000000004</ele>
 <time>2020-07-28T10:44:30Z</time>
 </trkpt>
 <trkpt lat="61.904095262289047" lon="-6.904763141646981">
 <ele>72.010000000000005</ele>
 <time>2020-07-28T10:44:36Z</time>
 </trkpt>
 <trkpt lat="61.904042540118098" lon="-6.904573878273368">
 <ele>70.870000000000005</ele>
 <time>2020-07-28T10:44:42Z</time>
 </trkpt>
 <trkpt lat="61.903997361660004" lon="-6.904372293502092">
 <ele>69.959999999999994</ele>
 <time>2020-07-28T10:44:48Z</time>
 </trkpt>
 <trkpt lat="61.903953943401575" lon="-6.904190322384238">
 <ele>69.900000000000006</ele>
 <time>2020-07-28T10:44:54Z</time>
 </trkpt>
 <trkpt lat="61.903915051370859" lon="-6.903975242748857">
 <ele>69.689999999999998</ele>
 <time>2020-07-28T10:45:00Z</time>
 </trkpt>
 <trkpt lat="61.903878673911095" lon="-6.903780363500118">
 <ele>69.689999999999998</ele>
 <time>2020-07-28T10:45:06Z</time>
 </trkpt>
 <trkpt lat="61.903848582878709" lon="-6.903587495908141">
 <ele>69.549999999999997</ele>
 <time>2020-07-28T10:45:12Z</time>
 </trkpt>
 <trkpt lat="61.903823688626289" lon="-6.903387922793627">
 <ele>69.260000000000005</ele>
 <time>2020-07-28T10:45:18Z</time>
 </trkpt>
 <trkpt lat="61.903808433562517" lon="-6.903205867856741">
 <ele>68.620000000000005</ele>
 <time>2020-07-28T10:45:41Z</time>
 </trkpt>
 <trkpt lat="61.903796615079045" lon="-6.90298299305141">
 <ele>67.090000000000003</ele>
 <time>2020-07-28T10:45:48Z</time>
 </trkpt>
 <trkpt lat="61.903787897899747" lon="-6.902760956436396">
 <ele>65.489999999999995</ele>
 <time>2020-07-28T10:45:54Z</time>
 </trkpt>
 <trkpt lat="61.903799381107092" lon="-6.902548894286156">
 <ele>64.319999999999993</ele>
 <time>2020-07-28T10:46:00Z</time>
 </trkpt>
 <trkpt lat="61.903821174055338" lon="-6.90233314409852">
 <ele>63.590000000000003</ele>
 <time>2020-07-28T10:46:06Z</time>
 </trkpt>
 <trkpt lat="61.903836764395237" lon="-6.902117310091853">
 <ele>62.469999999999999</ele>
 <time>2020-07-28T10:46:12Z</time>
 </trkpt>
 <trkpt lat="61.90386576578021" lon="-6.901908768340945">
 <ele>61.43</ele>
 <time>2020-07-28T10:46:18Z</time>
 </trkpt>
 <trkpt lat="61.903888396918774" lon="-6.901676757261157">
 <ele>60.530000000000001</ele>
 <time>2020-07-28T10:46:24Z</time>
 </trkpt>
 <trkpt lat="61.903918068856001" lon="-6.901457319036126">
 <ele>59.600000000000001</ele>
 <time>2020-07-28T10:46:30Z</time>
 </trkpt>
 <trkpt lat="61.903950003907084" lon="-6.901249196380377">
 <ele>58.810000000000002</ele>
 <time>2020-07-28T10:46:36Z</time>
 </trkpt>
 <trkpt lat="61.903967019170523" lon="-6.901046186685562">
 <ele>58.439999999999998</ele>
 <time>2020-07-28T10:46:42Z</time>
 </trkpt>
 <trkpt lat="61.903986968100071" lon="-6.900852899998426">
 <ele>57.909999999999997</ele>
 <time>2020-07-28T10:46:48Z</time>
 </trkpt>
 <trkpt lat="61.904007336124778" lon="-6.900660954415798">
 <ele>57.289999999999999</ele>
 <time>2020-07-28T10:46:54Z</time>
 </trkpt>
 <trkpt lat="61.904032062739134" lon="-6.900445790961385">
 <ele>56.82</ele>
 <time>2020-07-28T10:47:00Z</time>
 </trkpt>
 <trkpt lat="61.904064584523439" lon="-6.90023154951632">
 <ele>56.689999999999998</ele>
 <time>2020-07-28T10:47:06Z</time>
 </trkpt>
 <trkpt lat="61.904074642807245" lon="-6.900022337213159">
 <ele>56.799999999999997</ele>
 <time>2020-07-28T10:47:12Z</time>
 </trkpt>
 <trkpt lat="61.904072128236294" lon="-6.899796528741717">
 <ele>56.460000000000001</ele>
 <time>2020-07-28T10:47:18Z</time>
 </trkpt>
 <trkpt lat="61.904071541503072" lon="-6.899597039446235">
 <ele>56.329999999999998</ele>
 <time>2020-07-28T10:47:25Z</time>
 </trkpt>
 <trkpt lat="61.90404899418354" lon="-6.899368464946747">
 <ele>55.850000000000001</ele>
 <time>2020-07-28T10:47:36Z</time>
 </trkpt>
 <trkpt lat="61.904038935899734" lon="-6.899149194359779">
 <ele>55.270000000000003</ele>
 <time>2020-07-28T10:47:42Z</time>
 </trkpt>
 <trkpt lat="61.904021585360169" lon="-6.898928331211209">
 <ele>55.310000000000002</ele>
 <time>2020-07-28T10:47:48Z</time>
 </trkpt>
 <trkpt lat="61.904009850695729" lon="-6.898723980411887">
 <ele>55.049999999999997</ele>
 <time>2020-07-28T10:47:54Z</time>
 </trkpt>
 <trkpt lat="61.904007922858" lon="-6.898514768108726">
 <ele>55.469999999999999</ele>
 <time>2020-07-28T10:48:00Z</time>
 </trkpt>
 <trkpt lat="61.904017478227615" lon="-6.89830681309104">
 <ele>55.07</ele>
 <time>2020-07-28T10:48:06Z</time>
 </trkpt>
 <trkpt lat="61.904033487662673" lon="-6.898101791739464">
 <ele>55.270000000000003</ele>
 <time>2020-07-28T10:48:12Z</time>
 </trkpt>
 <trkpt lat="61.904059303924441" lon="-6.897898195311427">
 <ele>55.280000000000001</ele>
 <time>2020-07-28T10:48:18Z</time>
 </trkpt>
 <trkpt lat="61.904087048023939" lon="-6.897695101797581">
 <ele>54.82</ele>
 <time>2020-07-28T10:48:24Z</time>
 </trkpt>
 <trkpt lat="61.90407145768404" lon="-6.897468036040664">
 <ele>53.469999999999999</ele>
 <time>2020-07-28T10:48:33Z</time>
 </trkpt>
 <trkpt lat="61.904058298096061" lon="-6.897251447662711">
 <ele>52.619999999999997</ele>
 <time>2020-07-28T10:48:39Z</time>
 </trkpt>
 <trkpt lat="61.904036086052656" lon="-6.897018346935511">
 <ele>52.380000000000003</ele>
 <time>2020-07-28T10:48:45Z</time>
 </trkpt>
 <trkpt lat="61.904019238427281" lon="-6.896795807406306">
 <ele>51.899999999999999</ele>
 <time>2020-07-28T10:48:51Z</time>
 </trkpt>
 <trkpt lat="61.904013454914093" lon="-6.896599000319839">
 <ele>52.170000000000002</ele>
 <time>2020-07-28T10:48:57Z</time>
 </trkpt>
 <trkpt lat="61.903997110202909" lon="-6.896407138556242">
 <ele>51.590000000000003</ele>
 <time>2020-07-28T10:49:04Z</time>
 </trkpt>
 <trkpt lat="61.903981100767851" lon="-6.896210750564933">
 <ele>50.939999999999998</ele>
 <time>2020-07-28T10:49:23Z</time>
 </trkpt>
 <trkpt lat="61.903987051919103" lon="-6.895995335653424">
 <ele>50.450000000000003</ele>
 <time>2020-07-28T10:49:29Z</time>
 </trkpt>
 <trkpt lat="61.903980933129787" lon="-6.895760642364621">
 <ele>49.630000000000003</ele>
 <time>2020-07-28T10:49:35Z</time>
 </trkpt>
 <trkpt lat="61.903966683894396" lon="-6.895566266030073">
 <ele>49.490000000000002</ele>
 <time>2020-07-28T10:49:41Z</time>
 </trkpt>
 <trkpt lat="61.903926031664014" lon="-6.895374488085508">
 <ele>49.100000000000001</ele>
 <time>2020-07-28T10:49:48Z</time>
 </trkpt>
 <trkpt lat="61.90390876494348" lon="-6.895199390128255">
 <ele>48.719999999999999</ele>
 <time>2020-07-28T10:50:01Z</time>
 </trkpt>
 <trkpt lat="61.903899209573865" lon="-6.894989423453808">
 <ele>48.229999999999997</ele>
 <time>2020-07-28T10:50:07Z</time>
 </trkpt>
 <trkpt lat="61.903878590092063" lon="-6.894792784005404">
 <ele>46.780000000000001</ele>
 <time>2020-07-28T10:50:13Z</time>
 </trkpt>
 <trkpt lat="61.903876746073365" lon="-6.894621541723609">
 <ele>45.909999999999997</ele>
 <time>2020-07-28T10:50:19Z</time>
 </trkpt>
 <trkpt lat="61.903842128813267" lon="-6.894410736858845">
 <ele>44.799999999999997</ele>
 <time>2020-07-28T10:50:25Z</time>
 </trkpt>
 <trkpt lat="61.903806924819946" lon="-6.894204625859857">
 <ele>44.020000000000003</ele>
 <time>2020-07-28T10:50:31Z</time>
 </trkpt>
 <trkpt lat="61.903788819909096" lon="-6.893981080502272">
 <ele>43.740000000000002</ele>
 <time>2020-07-28T10:50:37Z</time>
 </trkpt>
 <trkpt lat="61.903775073587894" lon="-6.893765749409795">
 <ele>42.909999999999997</ele>
 <time>2020-07-28T10:50:43Z</time>
 </trkpt>
 <trkpt lat="61.903745569288731" lon="-6.893561398610473">
 <ele>41.350000000000001</ele>
 <time>2020-07-28T10:50:49Z</time>
 </trkpt>
 <trkpt lat="61.903716735541821" lon="-6.893369285389781">
 <ele>40.490000000000002</ele>
 <time>2020-07-28T10:50:54Z</time>
 </trkpt>
 <trkpt lat="61.903686141595244" lon="-6.893172226846218">
 <ele>40.57</ele>
 <time>2020-07-28T10:51:00Z</time>
 </trkpt>
 <trkpt lat="61.903664348646998" lon="-6.892972737550736">
 <ele>39.759999999999998</ele>
 <time>2020-07-28T10:51:06Z</time>
 </trkpt>
 <trkpt lat="61.903654877096415" lon="-6.892768470570445">
 <ele>39.039999999999999</ele>
 <time>2020-07-28T10:51:12Z</time>
 </trkpt>
 <trkpt lat="61.903636856004596" lon="-6.892564119771123">
 <ele>39.18</ele>
 <time>2020-07-28T10:51:18Z</time>
 </trkpt>
 <trkpt lat="61.90362386405468" lon="-6.892369324341416">
 <ele>38.350000000000001</ele>
 <time>2020-07-28T10:51:24Z</time>
 </trkpt>
 <trkpt lat="61.903608692809939" lon="-6.892141839489341">
 <ele>36.979999999999997</ele>
 <time>2020-07-28T10:51:31Z</time>
 </trkpt>
 <trkpt lat="61.90359846688807" lon="-6.891928436234593">
 <ele>36.210000000000001</ele>
 <time>2020-07-28T10:51:38Z</time>
 </trkpt>
 <trkpt lat="61.903362264856696" lon="-6.889902194961906">
 <ele>30.440000000000001</ele>
 <time>2020-07-28T10:53:39Z</time>
 </trkpt>
 <trkpt lat="61.903269225731492" lon="-6.889825332909823">
 <ele>30.079999999999998</ele>
 <time>2020-07-28T10:53:46Z</time>
 </trkpt>
 <trkpt lat="61.903236284852028" lon="-6.889650234952569">
 <ele>29.43</ele>
 <time>2020-07-28T10:53:52Z</time>
 </trkpt>
 <trkpt lat="61.903208959847689" lon="-6.889442866668105">
 <ele>28.469999999999999</ele>
 <time>2020-07-28T10:54:02Z</time>
 </trkpt>
 <trkpt lat="61.90326327458024" lon="-6.889269612729549">
 <ele>27.390000000000001</ele>
 <time>2020-07-28T10:54:09Z</time>
 </trkpt>
 <trkpt lat="61.9033482670784" lon="-6.889134161174297">
 <ele>26.940000000000001</ele>
 <time>2020-07-28T10:54:15Z</time>
 </trkpt>
 <trkpt lat="61.903433427214622" lon="-6.888997033238411">
 <ele>26.550000000000001</ele>
 <time>2020-07-28T10:54:21Z</time>
 </trkpt>
 <trkpt lat="61.903516491875052" lon="-6.888864263892174">
 <ele>26.109999999999999</ele>
 <time>2020-07-28T10:54:27Z</time>
 </trkpt>
 <trkpt lat="61.90361313521862" lon="-6.888740295544267">
 <ele>26.140000000000001</ele>
 <time>2020-07-28T10:54:33Z</time>
 </trkpt>
 <trkpt lat="61.903704330325127" lon="-6.888622110709548">
 <ele>27.050000000000001</ele>
 <time>2020-07-28T10:54:39Z</time>
 </trkpt>
 <trkpt lat="61.903796615079045" lon="-6.888510882854462">
 <ele>26.059999999999999</ele>
 <time>2020-07-28T10:54:45Z</time>
 </trkpt>
 <trkpt lat="61.903902310878038" lon="-6.888429578393698">
 <ele>25.66</ele>
 <time>2020-07-28T10:54:51Z</time>
 </trkpt>
 <trkpt lat="61.903988476842642" lon="-6.888297144323587">
 <ele>25.510000000000002</ele>
 <time>2020-07-28T10:54:57Z</time>
 </trkpt>
 <trkpt lat="61.904083611443639" lon="-6.888210391625762">
 <ele>25.329999999999998</ele>
 <time>2020-07-28T10:55:03Z</time>
 </trkpt>
 <trkpt lat="61.90416625700891" lon="-6.888133026659489">
 <ele>25.350000000000001</ele>
 <time>2020-07-28T10:55:09Z</time>
 </trkpt>
 <trkpt lat="61.904247226193547" lon="-6.888012830168009">
 <ele>25.300000000000001</ele>
 <time>2020-07-28T10:55:15Z</time>
 </trkpt>
 <trkpt lat="61.904336242005229" lon="-6.887899003922939">
 <ele>25.140000000000001</ele>
 <time>2020-07-28T10:55:21Z</time>
 </trkpt>
 <trkpt lat="61.904430286958814" lon="-6.887896070256829">
 <ele>26.579999999999998</ele>
 <time>2020-07-28T10:55:27Z</time>
 </trkpt>
 <trkpt lat="61.904515363276005" lon="-6.887984499335289">
 <ele>26.149999999999999</ele>
 <time>2020-07-28T10:55:33Z</time>
 </trkpt>
 <trkpt lat="61.904601193964481" lon="-6.888090614229441">
 <ele>27.550000000000001</ele>
 <time>2020-07-28T10:55:39Z</time>
 </trkpt>
 <trkpt lat="61.904686354100704" lon="-6.888224389404059">
 <ele>27.02</ele>
 <time>2020-07-28T10:55:45Z</time>
 </trkpt>
 <trkpt lat="61.904764724895358" lon="-6.88834123313427">
 <ele>28.989999999999998</ele>
 <time>2020-07-28T10:55:51Z</time>
 </trkpt>
 <trkpt lat="61.904843095690012" lon="-6.888256324455142">
 <ele>28.969999999999999</ele>
 <time>2020-07-28T10:55:57Z</time>
 </trkpt>
 <trkpt lat="61.904929932206869" lon="-6.888147359713912">
 <ele>29</ele>
 <time>2020-07-28T10:56:03Z</time>
 </trkpt>
 <trkpt lat="61.905015176162124" lon="-6.888081394135952">
 <ele>29.949999999999999</ele>
 <time>2020-07-28T10:56:09Z</time>
 </trkpt>
 <trkpt lat="61.904993047937751" lon="-6.888144593685865">
 <ele>28.850000000000001</ele>
 <time>2020-07-28T10:56:45Z</time>
 </trkpt>
 <trkpt lat="61.904901936650276" lon="-6.888219024986029">
 <ele>28.949999999999999</ele>
 <time>2020-07-28T10:56:51Z</time>
 </trkpt>
 <trkpt lat="61.904807388782501" lon="-6.888315919786692">
 <ele>28.57</ele>
 <time>2020-07-28T10:56:57Z</time>
 </trkpt>
 <trkpt lat="61.904712002724409" lon="-6.88829337246716">
 <ele>27.969999999999999</ele>
 <time>2020-07-28T10:57:03Z</time>
 </trkpt>
 <trkpt lat="61.904629860073328" lon="-6.888168985024095">
 <ele>27.43</ele>
 <time>2020-07-28T10:57:09Z</time>
 </trkpt>
 <trkpt lat="61.904557021334767" lon="-6.88803730532527">
 <ele>26.190000000000001</ele>
 <time>2020-07-28T10:57:15Z</time>
 </trkpt>
 <trkpt lat="61.904475213959813" lon="-6.887913839891553">
 <ele>25.77</ele>
 <time>2020-07-28T10:57:21Z</time>
 </trkpt>
 <trkpt lat="61.904377732425928" lon="-6.887863799929619">
 <ele>24.890000000000001</ele>
 <time>2020-07-28T10:57:27Z</time>
 </trkpt>
 <trkpt lat="61.904269605875015" lon="-6.887903781607747">
 <ele>24.870000000000001</ele>
 <time>2020-07-28T10:57:33Z</time>
 </trkpt>
 <trkpt lat="61.904172962531447" lon="-6.887935549020767">
 <ele>25.149999999999999</ele>
 <time>2020-07-28T10:57:39Z</time>
 </trkpt>
 <trkpt lat="61.90407631918788" lon="-6.88794351182878">
 <ele>23.190000000000001</ele>
 <time>2020-07-28T10:57:47Z</time>
 </trkpt>
 <trkpt lat="61.903983447700739" lon="-6.887952145189047">
 <ele>22.579999999999998</ele>
 <time>2020-07-28T10:57:53Z</time>
 </trkpt>
 <trkpt lat="61.90389602445066" lon="-6.887927167117596">
 <ele>22.510000000000002</ele>
 <time>2020-07-28T10:57:59Z</time>
 </trkpt>
 <trkpt lat="61.903814049437642" lon="-6.887794733047485">
 <ele>22.559999999999999</ele>
 <time>2020-07-28T10:58:06Z</time>
 </trkpt>
 <trkpt lat="61.903727212920785" lon="-6.887673949822784">
 <ele>22.010000000000002</ele>
 <time>2020-07-28T10:58:13Z</time>
 </trkpt>
 <trkpt lat="61.903640124946833" lon="-6.88752131536603">
 <ele>21.199999999999999</ele>
 <time>2020-07-28T10:58:20Z</time>
 </trkpt>
 <trkpt lat="61.903560580685735" lon="-6.887380499392748">
 <ele>20.59</ele>
 <time>2020-07-28T10:58:26Z</time>
 </trkpt>
 <trkpt lat="61.903476845473051" lon="-6.887251166626811">
 <ele>19.760000000000002</ele>
 <time>2020-07-28T10:58:32Z</time>
 </trkpt>
 <trkpt lat="61.903394870460033" lon="-6.887084115296602">
 <ele>19.02</ele>
 <time>2020-07-28T10:58:39Z</time>
 </trkpt>
 <trkpt lat="61.903306189924479" lon="-6.886940784752369">
 <ele>18.899999999999999</ele>
 <time>2020-07-28T10:58:45Z</time>
 </trkpt>
 <trkpt lat="61.903218263760209" lon="-6.886846320703626">
 <ele>18.620000000000001</ele>
 <time>2020-07-28T10:58:51Z</time>
 </trkpt>
 <trkpt lat="61.903138719499111" lon="-6.886743474751711">
 <ele>17.609999999999999</ele>
 <time>2020-07-28T10:58:57Z</time>
 </trkpt>
 <trkpt lat="61.903060264885426" lon="-6.886654626578093">
 <ele>16.510000000000002</ele>
 <time>2020-07-28T10:59:03Z</time>
 </trkpt>
 <trkpt lat="61.902989018708467" lon="-6.886515067890286">
 <ele>16.260000000000002</ele>
 <time>2020-07-28T10:59:09Z</time>
 </trkpt>
 <trkpt lat="61.902961861342192" lon="-6.886321445927024">
 <ele>15.699999999999999</ele>
 <time>2020-07-28T10:59:15Z</time>
 </trkpt>
 <trkpt lat="61.902944846078753" lon="-6.88610477373004">
 <ele>15.34</ele>
 <time>2020-07-28T10:59:22Z</time>
 </trkpt>
 <trkpt lat="61.902932189404964" lon="-6.885910481214523">
 <ele>14.67</ele>
 <time>2020-07-28T10:59:49Z</time>
 </trkpt>
 <trkpt lat="61.902869492769241" lon="-6.885734377428889">
 <ele>14.26</ele>
 <time>2020-07-28T10:59:56Z</time>
 </trkpt>
 <trkpt lat="61.902812998741865" lon="-6.885579563677311">
 <ele>14.19</ele>
 <time>2020-07-28T11:00:02Z</time>
 </trkpt>
 <trkpt lat="61.902755415067077" lon="-6.885389294475317">
 <ele>14.43</ele>
 <time>2020-07-28T11:00:10Z</time>
 </trkpt>
 <trkpt lat="61.902687689289451" lon="-6.885225428268313">
 <ele>14.619999999999999</ele>
 <time>2020-07-28T11:00:16Z</time>
 </trkpt>
 <trkpt lat="61.902613593265414" lon="-6.885073464363813">
 <ele>14.66</ele>
 <time>2020-07-28T11:00:22Z</time>
 </trkpt>
 <trkpt lat="61.902538994327188" lon="-6.884926864877343">
 <ele>15.48</ele>
 <time>2020-07-28T11:00:29Z</time>
 </trkpt>
 <trkpt lat="61.902499096468091" lon="-6.884806333109736">
 <ele>15.93</ele>
 <time>2020-07-28T11:00:40Z</time>
 </trkpt>
 <trkpt lat="61.902435645461082" lon="-6.884806249290705">
 <ele>14.85</ele>
 <time>2020-07-28T11:01:38Z</time>
 </trkpt>
 <trkpt lat="61.902379235252738" lon="-6.884670043364167">
 <ele>15.880000000000001</ele>
 <time>2020-07-28T11:01:44Z</time>
 </trkpt>
 <trkpt lat="61.902307653799653" lon="-6.884522689506412">
 <ele>16.550000000000001</ele>
 <time>2020-07-28T11:01:51Z</time>
 </trkpt>
 <trkpt lat="61.902232049033046" lon="-6.884371479973197">
 <ele>16.390000000000001</ele>
 <time>2020-07-28T11:01:57Z</time>
 </trkpt>
 <trkpt lat="61.902184523642063" lon="-6.884215325117111">
 <ele>15.869999999999999</ele>
 <time>2020-07-28T11:02:04Z</time>
 </trkpt>
 <trkpt lat="61.902130041271448" lon="-6.884024469181895">
 <ele>16.48</ele>
 <time>2020-07-28T11:02:11Z</time>
 </trkpt>
 <trkpt lat="61.902085281908512" lon="-6.88383269123733">
 <ele>16.899999999999999</ele>
 <time>2020-07-28T11:02:18Z</time>
 </trkpt>
 <trkpt lat="61.90206365659833" lon="-6.883639488369227">
 <ele>16.780000000000001</ele>
 <time>2020-07-28T11:02:24Z</time>
 </trkpt>
 <trkpt lat="61.902032727375627" lon="-6.88343002460897">
 <ele>17.550000000000001</ele>
 <time>2020-07-28T11:02:31Z</time>
 </trkpt>
 <trkpt lat="61.901997858658433" lon="-6.883192230015993">
 <ele>17.850000000000001</ele>
 <time>2020-07-28T11:02:38Z</time>
 </trkpt>
 <trkpt lat="61.901991739869118" lon="-6.882979916408658">
 <ele>16.59</ele>
 <time>2020-07-28T11:02:44Z</time>
 </trkpt>
 <trkpt lat="61.901989728212357" lon="-6.88277036882937">
 <ele>15.83</ele>
 <time>2020-07-28T11:02:50Z</time>
 </trkpt>
 <trkpt lat="61.902001546695828" lon="-6.88256953842938">
 <ele>14.85</ele>
 <time>2020-07-28T11:02:56Z</time>
 </trkpt>
 <trkpt lat="61.902055190876126" lon="-6.882380191236734">
 <ele>13.68</ele>
 <time>2020-07-28T11:03:03Z</time>
 </trkpt>
 <trkpt lat="61.902127526700497" lon="-6.88221238553524">
 <ele>12.300000000000001</ele>
 <time>2020-07-28T11:03:10Z</time>
 </trkpt>
 <trkpt lat="61.902202628552914" lon="-6.882063103839755">
 <ele>11.02</ele>
 <time>2020-07-28T11:03:17Z</time>
 </trkpt>
 <trkpt lat="61.902264906093478" lon="-6.881863530725241">
 <ele>9.390000000000001</ele>
 <time>2020-07-28T11:03:25Z</time>
 </trkpt>
 <trkpt lat="61.902342941612005" lon="-6.881705028936267">
 <ele>7.93</ele>
 <time>2020-07-28T11:03:32Z</time>
 </trkpt>
 <trkpt lat="61.902431454509497" lon="-6.881563626229763">
 <ele>7.12</ele>
 <time>2020-07-28T11:03:38Z</time>
 </trkpt>
 <trkpt lat="61.90252055414021" lon="-6.881427420303226">
 <ele>6.67</ele>
 <time>2020-07-28T11:03:44Z</time>
 </trkpt>
 <trkpt lat="61.902590794488788" lon="-6.881240839138627">
 <ele>6.21</ele>
 <time>2020-07-28T11:03:51Z</time>
 </trkpt>
 <trkpt lat="61.902662208303809" lon="-6.881084768101573">
 <ele>5.14</ele>
 <time>2020-07-28T11:03:59Z</time>
 </trkpt>
 <trkpt lat="61.902737142518163" lon="-6.880932552739978">
 <ele>3.95</ele>
 <time>2020-07-28T11:04:06Z</time>
 </trkpt>
 <trkpt lat="61.902726329863071" lon="-6.880700290203095">
 <ele>2.58</ele>
 <time>2020-07-28T11:04:14Z</time>
 </trkpt>
 <trkpt lat="61.902710404247046" lon="-6.88046651892364">
 <ele>1.57</ele>
 <time>2020-07-28T11:04:21Z</time>
 </trkpt>
 <trkpt lat="61.902652401477098" lon="-6.880237190052867">
 <ele>-0.09</ele>
 <time>2020-07-28T11:04:28Z</time>
 </trkpt>
 <trkpt lat="61.902584340423346" lon="-6.880076844245195">
 <ele>-0.71</ele>
 <time>2020-07-28T11:04:34Z</time>
 </trkpt>
 <trkpt lat="61.902512004598975" lon="-6.879911553114653">
 <ele>-1.85</ele>
 <time>2020-07-28T11:04:41Z</time>
 </trkpt>
 <trkpt lat="61.902437824755907" lon="-6.879764618352056">
 <ele>-2.15</ele>
 <time>2020-07-28T11:04:48Z</time>
 </trkpt>
 <trkpt lat="61.902349228039384" lon="-6.87970032915473">
 <ele>-0.73</ele>
 <time>2020-07-28T11:04:58Z</time>
 </trkpt>
 <trkpt lat="61.902401363477111" lon="-6.879703681915999">
 <ele>-2.29</ele>
 <time>2020-07-28T11:05:15Z</time>
 </trkpt>
 <trkpt lat="61.902353251352906" lon="-6.879496397450566">
 <ele>-3.92</ele>
 <time>2020-07-28T11:05:22Z</time>
 </trkpt>
 <trkpt lat="61.902379486709833" lon="-6.879372177645564">
 <ele>-3.95</ele>
 <time>2020-07-28T11:05:31Z</time>
 </trkpt>
 <trkpt lat="61.90236322581768" lon="-6.879271091893315">
 <ele>-4.04</ele>
 <time>2020-07-28T11:05:48Z</time>
 </trkpt>
 <trkpt lat="61.90225719474256" lon="-6.87921610660851">
 <ele>-4.3</ele>
 <time>2020-07-28T11:05:55Z</time>
 </trkpt>
 <trkpt lat="61.902183350175619" lon="-6.87907587736845">
 <ele>-3.99</ele>
 <time>2020-07-28T11:06:02Z</time>
 </trkpt>
 <trkpt lat="61.902148481458426" lon="-6.878869095817208">
 <ele>-2.89</ele>
 <time>2020-07-28T11:06:09Z</time>
 </trkpt>
 <trkpt lat="61.90211839042604" lon="-6.878632558509708">
 <ele>-3.45</ele>
 <time>2020-07-28T11:06:16Z</time>
 </trkpt>
 <trkpt lat="61.902132136747241" lon="-6.878439271822572">
 <ele>-3.24</ele>
 <time>2020-07-28T11:06:23Z</time>
 </trkpt>
 <trkpt lat="61.902221655473113" lon="-6.878350004553795">
 <ele>-3.24</ele>
 <time>2020-07-28T11:06:30Z</time>
 </trkpt>
 <trkpt lat="61.902317125350237" lon="-6.878292839974165">
 <ele>-3.25</ele>
 <time>2020-07-28T11:06:38Z</time>
 </trkpt>
 <trkpt lat="61.90241988748312" lon="-6.878253361210227">
 <ele>-3.76</ele>
 <time>2020-07-28T11:06:58Z</time>
 </trkpt>
 <trkpt lat="61.90252348780632" lon="-6.878231568261981">
 <ele>-3.26</ele>
 <time>2020-07-28T11:07:05Z</time>
 </trkpt>
 <trkpt lat="61.90262264572084" lon="-6.878208601847291">
 <ele>-4.18</ele>
 <time>2020-07-28T11:07:12Z</time>
 </trkpt>
 <trkpt lat="61.902727000415325" lon="-6.878200136125088">
 <ele>-3.05</ele>
 <time>2020-07-28T11:07:19Z</time>
 </trkpt>
 <trkpt lat="61.902826493605971" lon="-6.878177840262651">
 <ele>-4.17</ele>
 <time>2020-07-28T11:07:26Z</time>
 </trkpt>
 <trkpt lat="61.902921795845032" lon="-6.878128806129098">
 <ele>-3.95</ele>
 <time>2020-07-28T11:07:33Z</time>
 </trkpt>
 </trkseg>
 </trk>

</gpx>