<?xml version="1.0" encoding="utf-8"?><gpx creator="Garmin Desktop App" version="1.1" xsi:schemaLocation="http://www.topografix.com/GPX/1/1 http://www.topografix.com/GPX/1/1/gpx.xsd http://www.garmin.com/xmlschemas/WaypointExtension/v1 http://www8.garmin.com/xmlschemas/WaypointExtensionv1.xsd http://www.garmin.com/xmlschemas/TrackPointExtension/v1 http://www.garmin.com/xmlschemas/TrackPointExtensionv1.xsd http://www.garmin.com/xmlschemas/GpxExtensions/v3 http://www8.garmin.com/xmlschemas/GpxExtensionsv3.xsd http://www.garmin.com/xmlschemas/ActivityExtension/v1 http://www8.garmin.com/xmlschemas/ActivityExtensionv1.xsd http://www.garmin.com/xmlschemas/AdventuresExtensions/v1 http://www8.garmin.com/xmlschemas/AdventuresExtensionv1.xsd http://www.garmin.com/xmlschemas/PressureExtension/v1 http://www.garmin.com/xmlschemas/PressureExtensionv1.xsd http://www.garmin.com/xmlschemas/TripExtensions/v1 http://www.garmin.com/xmlschemas/TripExtensionsv1.xsd http://www.garmin.com/xmlschemas/TripMetaDataExtensions/v1 http://www.garmin.com/xmlschemas/TripMetaDataExtensionsv1.xsd http://www.garmin.com/xmlschemas/ViaPointTransportationModeExtensions/v1 http://www.garmin.com/xmlschemas/ViaPointTransportationModeExtensionsv1.xsd http://www.garmin.com/xmlschemas/CreationTimeExtension/v1 http://www.garmin.com/xmlschemas/CreationTimeExtensionsv1.xsd http://www.garmin.com/xmlschemas/AccelerationExtension/v1 http://www.garmin.com/xmlschemas/AccelerationExtensionv1.xsd http://www.garmin.com/xmlschemas/PowerExtension/v1 http://www.garmin.com/xmlschemas/PowerExtensionv1.xsd http://www.garmin.com/xmlschemas/VideoExtension/v1 http://www.garmin.com/xmlschemas/VideoExtensionv1.xsd" xmlns="http://www.topografix.com/GPX/1/1" xmlns:xsi="http://www.w3.org/2001/XMLSchema-instance" xmlns:wptx1="http://www.garmin.com/xmlschemas/WaypointExtension/v1" xmlns:gpxtrx="http://www.garmin.com/xmlschemas/GpxExtensions/v3" xmlns:gpxtpx="http://www.garmin.com/xmlschemas/TrackPointExtension/v1" xmlns:gpxx="http://www.garmin.com/xmlschemas/GpxExtensions/v3" xmlns:trp="http://www.garmin.com/xmlschemas/TripExtensions/v1" xmlns:adv="http://www.garmin.com/xmlschemas/AdventuresExtensions/v1" xmlns:prs="http://www.garmin.com/xmlschemas/PressureExtension/v1" xmlns:tmd="http://www.garmin.com/xmlschemas/TripMetaDataExtensions/v1" xmlns:vptm="http://www.garmin.com/xmlschemas/ViaPointTransportationModeExtensions/v1" xmlns:ctx="http://www.garmin.com/xmlschemas/CreationTimeExtension/v1" xmlns:gpxacc="http://www.garmin.com/xmlschemas/AccelerationExtension/v1" xmlns:gpxpx="http://www.garmin.com/xmlschemas/PowerExtension/v1" xmlns:vidx1="http://www.garmin.com/xmlschemas/VideoExtension/v1">

  <metadata>
    <link href="http://www.garmin.com">
      <text>Garmin International</text>
    </link>
    <time>2021-01-27T13:53:27Z</time>
    <bounds maxlat="61.590590374544263" maxlon="-6.865872116759419" minlat="61.564131388440728" minlon="-6.935481308028102" />
  </metadata>

  <wpt lat="61.585384039208293" lon="-6.924014026299119">
    <ele>167.25289900000001</ele>
    <time>2020-07-19T13:36:01Z</time>
    <name>WP1 05_NT</name>
    <sym>Flag, Blue</sym>
    <type>user</type>
    <extensions>
      <gpxx:WaypointExtension>
        <gpxx:DisplayMode>SymbolAndName</gpxx:DisplayMode>
      </gpxx:WaypointExtension>
      <wptx1:WaypointExtension>
        <wptx1:DisplayMode>SymbolAndName</wptx1:DisplayMode>
      </wptx1:WaypointExtension>
      <ctx:CreationTimeExtension>
        <ctx:CreationTime>2020-07-19T13:36:01Z</ctx:CreationTime>
      </ctx:CreationTimeExtension>
    </extensions>
  </wpt>

  <wpt lat="61.57687297090888" lon="-6.896241009235382">
    <ele>361.37948599999999</ele>
    <time>2020-07-19T14:24:13Z</time>
    <name>WP2 11_NT</name>
    <sym>Flag, Blue</sym>
    <type>user</type>
    <extensions>
      <gpxx:WaypointExtension>
        <gpxx:DisplayMode>SymbolAndName</gpxx:DisplayMode>
      </gpxx:WaypointExtension>
      <wptx1:WaypointExtension>
        <wptx1:DisplayMode>SymbolAndName</wptx1:DisplayMode>
      </wptx1:WaypointExtension>
      <ctx:CreationTimeExtension>
        <ctx:CreationTime>2020-07-19T14:24:13Z</ctx:CreationTime>
      </ctx:CreationTimeExtension>
    </extensions>
  </wpt>

  <wpt lat="61.569091966375709" lon="-6.872261976823211">
    <ele>179.90794399999999</ele>
    <time>2020-07-19T15:16:02Z</time>
    <name>WP3 14_NT</name>
    <sym>Flag, Blue</sym>
    <type>user</type>
    <extensions>
      <gpxx:WaypointExtension>
        <gpxx:DisplayMode>SymbolAndName</gpxx:DisplayMode>
      </gpxx:WaypointExtension>
      <wptx1:WaypointExtension>
        <wptx1:DisplayMode>SymbolAndName</wptx1:DisplayMode>
      </wptx1:WaypointExtension>
      <ctx:CreationTimeExtension>
        <ctx:CreationTime>2020-07-19T15:16:02Z</ctx:CreationTime>
      </ctx:CreationTimeExtension>
    </extensions>
  </wpt>

  <trk>
    <name>24 Wanderung Nes Trongisvágur CS</name>
    <extensions>
      <gpxx:TrackExtension>
        <gpxx:DisplayColor>Blue</gpxx:DisplayColor>
      </gpxx:TrackExtension>
    </extensions>
    <trkseg>
      <trkpt lat="61.590590374544263" lon="-6.935481308028102">
        <ele>-1.17</ele>
        <time>2020-07-19T13:11:59Z</time>
      </trkpt>
      <trkpt lat="61.590517619624734" lon="-6.935313334688544">
        <ele>-1.84</ele>
        <time>2020-07-19T13:12:27Z</time>
      </trkpt>
      <trkpt lat="61.590460287407041" lon="-6.935154749080539">
        <ele>-1.46</ele>
        <time>2020-07-19T13:12:35Z</time>
      </trkpt>
      <trkpt lat="61.590415947139263" lon="-6.934980656951666">
        <ele>-0.67</ele>
        <time>2020-07-19T13:12:44Z</time>
      </trkpt>
      <trkpt lat="61.590363560244441" lon="-6.934815868735313">
        <ele>0.05</ele>
        <time>2020-07-19T13:12:53Z</time>
      </trkpt>
      <trkpt lat="61.590316537767649" lon="-6.934626772999764">
        <ele>1.94</ele>
        <time>2020-07-19T13:13:02Z</time>
      </trkpt>
      <trkpt lat="61.590263564139605" lon="-6.934445556253195">
        <ele>4.22</ele>
        <time>2020-07-19T13:13:15Z</time>
      </trkpt>
      <trkpt lat="61.590275298804045" lon="-6.934250174090266">
        <ele>6.67</ele>
        <time>2020-07-19T13:13:26Z</time>
      </trkpt>
      <trkpt lat="61.590249482542276" lon="-6.934047918766737">
        <ele>7.83</ele>
        <time>2020-07-19T13:13:35Z</time>
      </trkpt>
      <trkpt lat="61.590198185294867" lon="-6.933877095580101">
        <ele>9.369999999999999</ele>
        <time>2020-07-19T13:13:44Z</time>
      </trkpt>
      <trkpt lat="61.590137500315905" lon="-6.9337148219347">
        <ele>12.56</ele>
        <time>2020-07-19T13:13:59Z</time>
      </trkpt>
      <trkpt lat="61.590080754831433" lon="-6.933555398136377">
        <ele>15.5</ele>
        <time>2020-07-19T13:14:13Z</time>
      </trkpt>
      <trkpt lat="61.590009843930602" lon="-6.933393962681294">
        <ele>18.100000000000001</ele>
        <time>2020-07-19T13:14:27Z</time>
      </trkpt>
      <trkpt lat="61.589939603582025" lon="-6.933242501690984">
        <ele>20.010000000000002</ele>
        <time>2020-07-19T13:14:39Z</time>
      </trkpt>
      <trkpt lat="61.589868860319257" lon="-6.933086849749088">
        <ele>22.559999999999999</ele>
        <time>2020-07-19T13:14:52Z</time>
      </trkpt>
      <trkpt lat="61.589797111228108" lon="-6.932947123423219">
        <ele>23.559999999999999</ele>
        <time>2020-07-19T13:15:04Z</time>
      </trkpt>
      <trkpt lat="61.589732319116592" lon="-6.932798009365797">
        <ele>25.739999999999998</ele>
        <time>2020-07-19T13:15:19Z</time>
      </trkpt>
      <trkpt lat="61.589683871716261" lon="-6.932591646909714">
        <ele>30.09</ele>
        <time>2020-07-19T13:15:42Z</time>
      </trkpt>
      <trkpt lat="61.589700048789382" lon="-6.932453513145447">
        <ele>33.130000000000003</ele>
        <time>2020-07-19T13:16:35Z</time>
      </trkpt>
      <trkpt lat="61.589656630530953" lon="-6.932496512308717">
        <ele>31.32</ele>
        <time>2020-07-19T13:17:16Z</time>
      </trkpt>
      <trkpt lat="61.589741036295891" lon="-6.932387631386519">
        <ele>35.270000000000003</ele>
        <time>2020-07-19T13:18:15Z</time>
      </trkpt>
      <trkpt lat="61.589796021580696" lon="-6.932228961959481">
        <ele>38.75</ele>
        <time>2020-07-19T13:19:12Z</time>
      </trkpt>
      <trkpt lat="61.589749082922935" lon="-6.932050259783864">
        <ele>42.170000000000002</ele>
        <time>2020-07-19T13:19:31Z</time>
      </trkpt>
      <trkpt lat="61.589705077931285" lon="-6.931892177090049">
        <ele>45.060000000000002</ele>
        <time>2020-07-19T13:19:48Z</time>
      </trkpt>
      <trkpt lat="61.589620001614094" lon="-6.931807938963175">
        <ele>46.509999999999998</ele>
        <time>2020-07-19T13:19:58Z</time>
      </trkpt>
      <trkpt lat="61.589542469009757" lon="-6.931680282577872">
        <ele>47.619999999999997</ele>
        <time>2020-07-19T13:20:08Z</time>
      </trkpt>
      <trkpt lat="61.589464265853167" lon="-6.931559583172202">
        <ele>48.210000000000001</ele>
        <time>2020-07-19T13:20:17Z</time>
      </trkpt>
      <trkpt lat="61.589385811239481" lon="-6.931431004777551">
        <ele>49.100000000000001</ele>
        <time>2020-07-19T13:20:27Z</time>
      </trkpt>
      <trkpt lat="61.589374076575041" lon="-6.931368140503764">
        <ele>49.32</ele>
        <time>2020-07-19T13:21:31Z</time>
      </trkpt>
      <trkpt lat="61.589290928095579" lon="-6.931272251531482">
        <ele>49.909999999999997</ele>
        <time>2020-07-19T13:21:52Z</time>
      </trkpt>
      <trkpt lat="61.589219430461526" lon="-6.931138979271054">
        <ele>50.259999999999998</ele>
        <time>2020-07-19T13:22:00Z</time>
      </trkpt>
      <trkpt lat="61.589132091030478" lon="-6.931012328714132">
        <ele>51.259999999999998</ele>
        <time>2020-07-19T13:22:09Z</time>
      </trkpt>
      <trkpt lat="61.589061766862869" lon="-6.930891713127494">
        <ele>52.259999999999998</ele>
        <time>2020-07-19T13:22:18Z</time>
      </trkpt>
      <trkpt lat="61.588976606726646" lon="-6.930786017328501">
        <ele>53.25</ele>
        <time>2020-07-19T13:22:28Z</time>
      </trkpt>
      <trkpt lat="61.588909635320306" lon="-6.930642267689109">
        <ele>53.960000000000001</ele>
        <time>2020-07-19T13:22:39Z</time>
      </trkpt>
      <trkpt lat="61.588825229555368" lon="-6.930534644052386">
        <ele>54.75</ele>
        <time>2020-07-19T13:22:49Z</time>
      </trkpt>
      <trkpt lat="61.588763371109962" lon="-6.93041461519897">
        <ele>55.659999999999997</ele>
        <time>2020-07-19T13:23:00Z</time>
      </trkpt>
      <trkpt lat="61.588697237893939" lon="-6.930311769247055">
        <ele>56.450000000000003</ele>
        <time>2020-07-19T13:23:12Z</time>
      </trkpt>
      <trkpt lat="61.588613586500287" lon="-6.930224094539881">
        <ele>57.520000000000003</ele>
        <time>2020-07-19T13:23:22Z</time>
      </trkpt>
      <trkpt lat="61.588519206270576" lon="-6.930135078728199">
        <ele>58.18</ele>
        <time>2020-07-19T13:23:30Z</time>
      </trkpt>
      <trkpt lat="61.588450893759727" lon="-6.929999040439725">
        <ele>59.530000000000001</ele>
        <time>2020-07-19T13:23:40Z</time>
      </trkpt>
      <trkpt lat="61.588368332013488" lon="-6.929899295791984">
        <ele>61.619999999999997</ele>
        <time>2020-07-19T13:23:57Z</time>
      </trkpt>
      <trkpt lat="61.588303539901972" lon="-6.929762251675129">
        <ele>63.170000000000002</ele>
        <time>2020-07-19T13:24:06Z</time>
      </trkpt>
      <trkpt lat="61.588233467191458" lon="-6.929663931950927">
        <ele>65.030000000000001</ele>
        <time>2020-07-19T13:24:16Z</time>
      </trkpt>
      <trkpt lat="61.588156186044216" lon="-6.92958883009851">
        <ele>66.950000000000003</ele>
        <time>2020-07-19T13:24:27Z</time>
      </trkpt>
      <trkpt lat="61.588094830513" lon="-6.929453546181321">
        <ele>69.480000000000004</ele>
        <time>2020-07-19T13:24:38Z</time>
      </trkpt>
      <trkpt lat="61.588023500517011" lon="-6.929294792935252">
        <ele>71.540000000000006</ele>
        <time>2020-07-19T13:24:51Z</time>
      </trkpt>
      <trkpt lat="61.587936580181122" lon="-6.929180882871151">
        <ele>73.170000000000002</ele>
        <time>2020-07-19T13:25:04Z</time>
      </trkpt>
      <trkpt lat="61.587862567976117" lon="-6.929055908694863">
        <ele>75.489999999999995</ele>
        <time>2020-07-19T13:25:17Z</time>
      </trkpt>
      <trkpt lat="61.587879583239555" lon="-6.92887544631958">
        <ele>78.790000000000006</ele>
        <time>2020-07-19T13:25:36Z</time>
      </trkpt>
      <trkpt lat="61.587934484705329" lon="-6.928687104955316">
        <ele>81.760000000000005</ele>
        <time>2020-07-19T13:25:52Z</time>
      </trkpt>
      <trkpt lat="61.588001539930701" lon="-6.928498931229115">
        <ele>84.620000000000005</ele>
        <time>2020-07-19T13:26:12Z</time>
      </trkpt>
      <trkpt lat="61.587989553809166" lon="-6.928265579044819">
        <ele>88.519999999999996</ele>
        <time>2020-07-19T13:26:28Z</time>
      </trkpt>
      <trkpt lat="61.587905818596482" lon="-6.928180335089564">
        <ele>90.480000000000004</ele>
        <time>2020-07-19T13:26:40Z</time>
      </trkpt>
      <trkpt lat="61.587815629318357" lon="-6.928136497735977">
        <ele>91.980000000000004</ele>
        <time>2020-07-19T13:26:50Z</time>
      </trkpt>
      <trkpt lat="61.587721668183804" lon="-6.928118392825127">
        <ele>93.239999999999995</ele>
        <time>2020-07-19T13:27:01Z</time>
      </trkpt>
      <trkpt lat="61.587633322924376" lon="-6.928166504949331">
        <ele>94.260000000000005</ele>
        <time>2020-07-19T13:27:10Z</time>
      </trkpt>
      <trkpt lat="61.587550844997168" lon="-6.928235990926623">
        <ele>95.290000000000006</ele>
        <time>2020-07-19T13:27:20Z</time>
      </trkpt>
      <trkpt lat="61.587465265765786" lon="-6.928263567388058">
        <ele>95.739999999999995</ele>
        <time>2020-07-19T13:27:33Z</time>
      </trkpt>
      <trkpt lat="61.58737163990736" lon="-6.928276978433132">
        <ele>96.469999999999999</ele>
        <time>2020-07-19T13:27:42Z</time>
      </trkpt>
      <trkpt lat="61.587282791733742" lon="-6.928232973441482">
        <ele>97.650000000000006</ele>
        <time>2020-07-19T13:27:51Z</time>
      </trkpt>
      <trkpt lat="61.587215820327401" lon="-6.928137168288231">
        <ele>98.739999999999995</ele>
        <time>2020-07-19T13:28:34Z</time>
      </trkpt>
      <trkpt lat="61.587124792858958" lon="-6.928112609311938">
        <ele>99.709999999999994</ele>
        <time>2020-07-19T13:28:47Z</time>
      </trkpt>
      <trkpt lat="61.587022868916392" lon="-6.928083691745997">
        <ele>101.34</ele>
        <time>2020-07-19T13:28:58Z</time>
      </trkpt>
      <trkpt lat="61.586916837841272" lon="-6.92805552855134">
        <ele>103.11</ele>
        <time>2020-07-19T13:29:17Z</time>
      </trkpt>
      <trkpt lat="61.586826480925083" lon="-6.927983108907938">
        <ele>104.97</ele>
        <time>2020-07-19T13:29:26Z</time>
      </trkpt>
      <trkpt lat="61.586737968027592" lon="-6.927916137501597">
        <ele>107.06</ele>
        <time>2020-07-19T13:29:36Z</time>
      </trkpt>
      <trkpt lat="61.586652807891369" lon="-6.927837515249848">
        <ele>108.23</ele>
        <time>2020-07-19T13:29:46Z</time>
      </trkpt>
      <trkpt lat="61.586585668846965" lon="-6.927733076736331">
        <ele>110.08</ele>
        <time>2020-07-19T13:29:57Z</time>
      </trkpt>
      <trkpt lat="61.586507298052311" lon="-6.92759670317173">
        <ele>112.51000000000001</ele>
        <time>2020-07-19T13:30:09Z</time>
      </trkpt>
      <trkpt lat="61.5864422544837" lon="-6.927436189725995">
        <ele>115</ele>
        <time>2020-07-19T13:30:22Z</time>
      </trkpt>
      <trkpt lat="61.586375702172518" lon="-6.927279867231846">
        <ele>116.67</ele>
        <time>2020-07-19T13:30:50Z</time>
      </trkpt>
      <trkpt lat="61.586298504844308" lon="-6.92712027579546">
        <ele>119.45</ele>
        <time>2020-07-19T13:31:02Z</time>
      </trkpt>
      <trkpt lat="61.586225163191557" lon="-6.926974933594465">
        <ele>121.56999999999999</ele>
        <time>2020-07-19T13:31:12Z</time>
      </trkpt>
      <trkpt lat="61.586162718012929" lon="-6.926786256954074">
        <ele>124.52</ele>
        <time>2020-07-19T13:31:26Z</time>
      </trkpt>
      <trkpt lat="61.586102368310094" lon="-6.926615433767438">
        <ele>126.53</ele>
        <time>2020-07-19T13:31:37Z</time>
      </trkpt>
      <trkpt lat="61.586045622825623" lon="-6.926437905058265">
        <ele>129.36000000000001</ele>
        <time>2020-07-19T13:31:51Z</time>
      </trkpt>
      <trkpt lat="61.585989631712437" lon="-6.92625685594976">
        <ele>131.38</ele>
        <time>2020-07-19T13:32:06Z</time>
      </trkpt>
      <trkpt lat="61.585933808237314" lon="-6.926059881225228">
        <ele>134.16</ele>
        <time>2020-07-19T13:32:35Z</time>
      </trkpt>
      <trkpt lat="61.585884355008602" lon="-6.925898194313049">
        <ele>136.88</ele>
        <time>2020-07-19T13:32:45Z</time>
      </trkpt>
      <trkpt lat="61.58585149794817" lon="-6.925708008930087">
        <ele>139.88999999999999</ele>
        <time>2020-07-19T13:32:59Z</time>
      </trkpt>
      <trkpt lat="61.585811683908105" lon="-6.925542717799544">
        <ele>143.75999999999999</ele>
        <time>2020-07-19T13:33:13Z</time>
      </trkpt>
      <trkpt lat="61.585754100233316" lon="-6.925370218232274">
        <ele>146.22</ele>
        <time>2020-07-19T13:33:35Z</time>
      </trkpt>
      <trkpt lat="61.585700372233987" lon="-6.925180619582534">
        <ele>149.25</ele>
        <time>2020-07-19T13:33:49Z</time>
      </trkpt>
      <trkpt lat="61.585679585114121" lon="-6.924996804445982">
        <ele>151.61000000000001</ele>
        <time>2020-07-19T13:34:18Z</time>
      </trkpt>
      <trkpt lat="61.585622085258365" lon="-6.924839811399579">
        <ele>152.88</ele>
        <time>2020-07-19T13:34:31Z</time>
      </trkpt>
      <trkpt lat="61.585586462169886" lon="-6.924637136980891">
        <ele>156.34</ele>
        <time>2020-07-19T13:34:45Z</time>
      </trkpt>
      <trkpt lat="61.585542289540172" lon="-6.924448125064373">
        <ele>159.91</ele>
        <time>2020-07-19T13:35:00Z</time>
      </trkpt>
      <trkpt lat="61.585494764149189" lon="-6.924263052642345">
        <ele>163.22999999999999</ele>
        <time>2020-07-19T13:35:14Z</time>
      </trkpt>
      <trkpt lat="61.585422931239009" lon="-6.924111004918814">
        <ele>165.49000000000001</ele>
        <time>2020-07-19T13:35:26Z</time>
      </trkpt>
      <trkpt lat="61.585388984531164" lon="-6.923933392390609">
        <ele>168.27000000000001</ele>
        <time>2020-07-19T13:36:24Z</time>
      </trkpt>
      <trkpt lat="61.585447490215302" lon="-6.923768101260066">
        <ele>172.08000000000001</ele>
        <time>2020-07-19T13:36:46Z</time>
      </trkpt>
      <trkpt lat="61.585457464680076" lon="-6.923550507053733">
        <ele>176.52000000000001</ele>
        <time>2020-07-19T13:37:15Z</time>
      </trkpt>
      <trkpt lat="61.585469199344516" lon="-6.923406254500151">
        <ele>179.66</ele>
        <time>2020-07-19T13:38:33Z</time>
      </trkpt>
      <trkpt lat="61.585496021434665" lon="-6.923604737967253">
        <ele>180.69999999999999</ele>
        <time>2020-07-19T13:39:16Z</time>
      </trkpt>
      <trkpt lat="61.58557640388608" lon="-6.92373507656157">
        <ele>182.47999999999999</ele>
        <time>2020-07-19T13:39:28Z</time>
      </trkpt>
      <trkpt lat="61.585658546537161" lon="-6.923792492598295">
        <ele>185.44</ele>
        <time>2020-07-19T13:39:56Z</time>
      </trkpt>
      <trkpt lat="61.585695426911116" lon="-6.92378930747509">
        <ele>187.41999999999999</ele>
        <time>2020-07-19T13:42:58Z</time>
      </trkpt>
      <trkpt lat="61.585708418861032" lon="-6.923734238371253">
        <ele>189.71000000000001</ele>
        <time>2020-07-19T13:43:14Z</time>
      </trkpt>
      <trkpt lat="61.585677489638329" lon="-6.923606414347887">
        <ele>192.58000000000001</ele>
        <time>2020-07-19T13:43:29Z</time>
      </trkpt>
      <trkpt lat="61.58575234003365" lon="-6.923680678009987">
        <ele>195.68000000000001</ele>
        <time>2020-07-19T13:43:42Z</time>
      </trkpt>
      <trkpt lat="61.585839176550508" lon="-6.923733903095126">
        <ele>198.47</ele>
        <time>2020-07-19T13:43:58Z</time>
      </trkpt>
      <trkpt lat="61.585905561223626" lon="-6.923878155648708">
        <ele>201.72999999999999</ele>
        <time>2020-07-19T13:44:16Z</time>
      </trkpt>
      <trkpt lat="61.5859120991081" lon="-6.92377757281065">
        <ele>204.65000000000001</ele>
        <time>2020-07-19T13:44:36Z</time>
      </trkpt>
      <trkpt lat="61.585861891508102" lon="-6.923578921705484">
        <ele>208.11000000000001</ele>
        <time>2020-07-19T13:44:55Z</time>
      </trkpt>
      <trkpt lat="61.585810594260693" lon="-6.923452522605658">
        <ele>209</ele>
        <time>2020-07-19T13:45:18Z</time>
      </trkpt>
      <trkpt lat="61.585735157132149" lon="-6.923315059393644">
        <ele>210.41</ele>
        <time>2020-07-19T13:45:28Z</time>
      </trkpt>
      <trkpt lat="61.585693499073386" lon="-6.92313895560801">
        <ele>210.83000000000001</ele>
        <time>2020-07-19T13:45:38Z</time>
      </trkpt>
      <trkpt lat="61.585642537102103" lon="-6.922967042773962">
        <ele>210.94999999999999</ele>
        <time>2020-07-19T13:45:46Z</time>
      </trkpt>
      <trkpt lat="61.585594341158867" lon="-6.922794794663787">
        <ele>210.93000000000001</ele>
        <time>2020-07-19T13:45:56Z</time>
      </trkpt>
      <trkpt lat="61.585543882101774" lon="-6.922606285661459">
        <ele>212.40000000000001</ele>
        <time>2020-07-19T13:46:06Z</time>
      </trkpt>
      <trkpt lat="61.585500463843346" lon="-6.92240646108985">
        <ele>214.18000000000001</ele>
        <time>2020-07-19T13:46:17Z</time>
      </trkpt>
      <trkpt lat="61.58547624014318" lon="-6.922170845791698">
        <ele>218.19</ele>
        <time>2020-07-19T13:46:36Z</time>
      </trkpt>
      <trkpt lat="61.585403820499778" lon="-6.922004967927933">
        <ele>221.25999999999999</ele>
        <time>2020-07-19T13:46:58Z</time>
      </trkpt>
      <trkpt lat="61.585439527407289" lon="-6.921886615455151">
        <ele>223.08000000000001</ele>
        <time>2020-07-19T13:47:24Z</time>
      </trkpt>
      <trkpt lat="61.58548990264535" lon="-6.921899439767003">
        <ele>225.02000000000001</ele>
        <time>2020-07-19T13:47:49Z</time>
      </trkpt>
      <trkpt lat="61.585570620372891" lon="-6.921871611848474">
        <ele>229.30000000000001</ele>
        <time>2020-07-19T13:48:14Z</time>
      </trkpt>
      <trkpt lat="61.585512282326818" lon="-6.921717803925276">
        <ele>233.09</ele>
        <time>2020-07-19T13:48:32Z</time>
      </trkpt>
      <trkpt lat="61.585498452186584" lon="-6.92163591273129">
        <ele>235.09</ele>
        <time>2020-07-19T13:48:45Z</time>
      </trkpt>
      <trkpt lat="61.585494680330157" lon="-6.92150398157537">
        <ele>238.50999999999999</ele>
        <time>2020-07-19T13:49:01Z</time>
      </trkpt>
      <trkpt lat="61.585509348660707" lon="-6.921388311311603">
        <ele>243.27000000000001</ele>
        <time>2020-07-19T13:49:19Z</time>
      </trkpt>
      <trkpt lat="61.585531057789922" lon="-6.921242047101259">
        <ele>245.84999999999999</ele>
        <time>2020-07-19T13:49:32Z</time>
      </trkpt>
      <trkpt lat="61.58550264313817" lon="-6.921056471765041">
        <ele>246.91</ele>
        <time>2020-07-19T13:49:42Z</time>
      </trkpt>
      <trkpt lat="61.585452686995268" lon="-6.920923534780741">
        <ele>248.03999999999999</ele>
        <time>2020-07-19T13:50:00Z</time>
      </trkpt>
      <trkpt lat="61.585384793579578" lon="-6.92071926780045">
        <ele>250.37</ele>
        <time>2020-07-19T13:51:18Z</time>
      </trkpt>
      <trkpt lat="61.585324192419648" lon="-6.920542912557721">
        <ele>250.87</ele>
        <time>2020-07-19T13:51:27Z</time>
      </trkpt>
      <trkpt lat="61.585258729755878" lon="-6.920412825420499">
        <ele>252.77000000000001</ele>
        <time>2020-07-19T13:51:36Z</time>
      </trkpt>
      <trkpt lat="61.585200475528836" lon="-6.920264549553394">
        <ele>254.91999999999999</ele>
        <time>2020-07-19T13:51:46Z</time>
      </trkpt>
      <trkpt lat="61.585138197988272" lon="-6.920131025835872">
        <ele>256.5</ele>
        <time>2020-07-19T13:51:55Z</time>
      </trkpt>
      <trkpt lat="61.585087403655052" lon="-6.91997554153204">
        <ele>258.19999999999999</ele>
        <time>2020-07-19T13:52:05Z</time>
      </trkpt>
      <trkpt lat="61.585024874657393" lon="-6.919822739437223">
        <ele>260.29000000000002</ele>
        <time>2020-07-19T13:52:15Z</time>
      </trkpt>
      <trkpt lat="61.58497198484838" lon="-6.919655939564109">
        <ele>261.99000000000001</ele>
        <time>2020-07-19T13:52:27Z</time>
      </trkpt>
      <trkpt lat="61.584940552711487" lon="-6.919463407248259">
        <ele>263.63999999999999</ele>
        <time>2020-07-19T13:52:38Z</time>
      </trkpt>
      <trkpt lat="61.584911299869418" lon="-6.91927288658917">
        <ele>265.23000000000002</ele>
        <time>2020-07-19T13:52:47Z</time>
      </trkpt>
      <trkpt lat="61.584869893267751" lon="-6.919095190241933">
        <ele>267.81999999999999</ele>
        <time>2020-07-19T13:53:17Z</time>
      </trkpt>
      <trkpt lat="61.58482052385807" lon="-6.91893232986331">
        <ele>269.56</ele>
        <time>2020-07-19T13:53:27Z</time>
      </trkpt>
      <trkpt lat="61.584786493331194" lon="-6.91875547170639">
        <ele>272.74000000000001</ele>
        <time>2020-07-19T13:53:42Z</time>
      </trkpt>
      <trkpt lat="61.584743410348892" lon="-6.918574506416917">
        <ele>274.55000000000001</ele>
        <time>2020-07-19T13:54:23Z</time>
      </trkpt>
      <trkpt lat="61.584699908271432" lon="-6.91840854473412">
        <ele>276.82999999999998</ele>
        <time>2020-07-19T13:54:32Z</time>
      </trkpt>
      <trkpt lat="61.584630673751235" lon="-6.918283654376864">
        <ele>279.57999999999998</ele>
        <time>2020-07-19T13:54:43Z</time>
      </trkpt>
      <trkpt lat="61.584617262706161" lon="-6.918087182566524">
        <ele>280.73000000000002</ele>
        <time>2020-07-19T13:55:16Z</time>
      </trkpt>
      <trkpt lat="61.584587255492806" lon="-6.917906049638987">
        <ele>282.22000000000003</ele>
        <time>2020-07-19T13:55:25Z</time>
      </trkpt>
      <trkpt lat="61.584543501958251" lon="-6.91773371770978">
        <ele>283</ele>
        <time>2020-07-19T13:55:33Z</time>
      </trkpt>
      <trkpt lat="61.584517853334546" lon="-6.917543699964881">
        <ele>284.38999999999999</ele>
        <time>2020-07-19T13:55:43Z</time>
      </trkpt>
      <trkpt lat="61.584469405934215" lon="-6.917364746332169">
        <ele>286</ele>
        <time>2020-07-19T13:55:51Z</time>
      </trkpt>
      <trkpt lat="61.584403105080128" lon="-6.917191576212645">
        <ele>285.94</ele>
        <time>2020-07-19T13:55:58Z</time>
      </trkpt>
      <trkpt lat="61.584343845024705" lon="-6.917048078030348">
        <ele>286.25999999999999</ele>
        <time>2020-07-19T13:56:04Z</time>
      </trkpt>
      <trkpt lat="61.584275783970952" lon="-6.916893348097801">
        <ele>286.39999999999998</ele>
        <time>2020-07-19T13:56:11Z</time>
      </trkpt>
      <trkpt lat="61.584228090941906" lon="-6.916700815781951">
        <ele>286.31</ele>
        <time>2020-07-19T13:56:18Z</time>
      </trkpt>
      <trkpt lat="61.584180649369955" lon="-6.916552539914846">
        <ele>287.43000000000001</ele>
        <time>2020-07-19T13:56:26Z</time>
      </trkpt>
      <trkpt lat="61.584130860865116" lon="-6.916401414200664">
        <ele>288.45999999999998</ele>
        <time>2020-07-19T13:56:34Z</time>
      </trkpt>
      <trkpt lat="61.584070343524218" lon="-6.916263028979302">
        <ele>290.31999999999999</ele>
        <time>2020-07-19T13:56:43Z</time>
      </trkpt>
      <trkpt lat="61.584009323269129" lon="-6.916100755333901">
        <ele>290.81</ele>
        <time>2020-07-19T13:56:51Z</time>
      </trkpt>
      <trkpt lat="61.583952410146594" lon="-6.915933955460787">
        <ele>291.68000000000001</ele>
        <time>2020-07-19T13:56:59Z</time>
      </trkpt>
      <trkpt lat="61.58387596718967" lon="-6.91582121886313">
        <ele>292.94</ele>
        <time>2020-07-19T13:57:07Z</time>
      </trkpt>
      <trkpt lat="61.583821820095181" lon="-6.915658358484507">
        <ele>293.37</ele>
        <time>2020-07-19T13:57:14Z</time>
      </trkpt>
      <trkpt lat="61.583767337724566" lon="-6.915502790361643">
        <ele>293.88</ele>
        <time>2020-07-19T13:57:22Z</time>
      </trkpt>
      <trkpt lat="61.583706485107541" lon="-6.915358873084188">
        <ele>294.88999999999999</ele>
        <time>2020-07-19T13:57:31Z</time>
      </trkpt>
      <trkpt lat="61.583625432103872" lon="-6.915255859494209">
        <ele>296.06999999999999</ele>
        <time>2020-07-19T13:57:43Z</time>
      </trkpt>
      <trkpt lat="61.583578074350953" lon="-6.915079671889544">
        <ele>296.82999999999998</ele>
        <time>2020-07-19T13:57:52Z</time>
      </trkpt>
      <trkpt lat="61.583512611687183" lon="-6.914918906986713">
        <ele>297.57999999999998</ele>
        <time>2020-07-19T13:58:02Z</time>
      </trkpt>
      <trkpt lat="61.583455698564649" lon="-6.914748754352331">
        <ele>298.14999999999998</ele>
        <time>2020-07-19T13:58:12Z</time>
      </trkpt>
      <trkpt lat="61.583397276699543" lon="-6.914598383009434">
        <ele>298.87</ele>
        <time>2020-07-19T13:58:21Z</time>
      </trkpt>
      <trkpt lat="61.5833511762321" lon="-6.914420183748007">
        <ele>300.01999999999998</ele>
        <time>2020-07-19T13:58:31Z</time>
      </trkpt>
      <trkpt lat="61.583270961418748" lon="-6.914314571768045">
        <ele>301.25999999999999</ele>
        <time>2020-07-19T13:58:40Z</time>
      </trkpt>
      <trkpt lat="61.583186388015747" lon="-6.91419655457139">
        <ele>302.23000000000002</ele>
        <time>2020-07-19T13:58:49Z</time>
      </trkpt>
      <trkpt lat="61.583125200122595" lon="-6.914034951478243">
        <ele>302.92000000000002</ele>
        <time>2020-07-19T13:58:59Z</time>
      </trkpt>
      <trkpt lat="61.583087146282196" lon="-6.91384669393301">
        <ele>304.07999999999998</ele>
        <time>2020-07-19T13:59:08Z</time>
      </trkpt>
      <trkpt lat="61.5830316580832" lon="-6.913686348125339">
        <ele>305.57999999999998</ele>
        <time>2020-07-19T13:59:21Z</time>
      </trkpt>
      <trkpt lat="61.582981534302235" lon="-6.913521559908986">
        <ele>306.89999999999998</ele>
        <time>2020-07-19T13:59:30Z</time>
      </trkpt>
      <trkpt lat="61.582909282296896" lon="-6.913382839411497">
        <ele>308.70999999999998</ele>
        <time>2020-07-19T13:59:40Z</time>
      </trkpt>
      <trkpt lat="61.582845579832792" lon="-6.913220901042223">
        <ele>309.35000000000002</ele>
        <time>2020-07-19T13:59:49Z</time>
      </trkpt>
      <trkpt lat="61.582852033898234" lon="-6.913041109219194">
        <ele>310.50999999999999</ele>
        <time>2020-07-19T13:59:59Z</time>
      </trkpt>
      <trkpt lat="61.582821104675531" lon="-6.912859976291657">
        <ele>312.17000000000002</ele>
        <time>2020-07-19T14:00:10Z</time>
      </trkpt>
      <trkpt lat="61.582772321999073" lon="-6.912688231095672">
        <ele>314.04000000000002</ele>
        <time>2020-07-19T14:00:20Z</time>
      </trkpt>
      <trkpt lat="61.582713229581714" lon="-6.912517575547099">
        <ele>315.80000000000001</ele>
        <time>2020-07-19T14:00:30Z</time>
      </trkpt>
      <trkpt lat="61.582661094143987" lon="-6.912359828129411">
        <ele>317.47000000000003</ele>
        <time>2020-07-19T14:00:43Z</time>
      </trkpt>
      <trkpt lat="61.582621866837144" lon="-6.912193028256297">
        <ele>319.58999999999997</ele>
        <time>2020-07-19T14:00:57Z</time>
      </trkpt>
      <trkpt lat="61.582584148272872" lon="-6.912004686892033">
        <ele>321.37</ele>
        <time>2020-07-19T14:01:09Z</time>
      </trkpt>
      <trkpt lat="61.582534359768033" lon="-6.911858590319753">
        <ele>323.37</ele>
        <time>2020-07-19T14:01:24Z</time>
      </trkpt>
      <trkpt lat="61.582481972873211" lon="-6.91170109435916">
        <ele>325.17000000000002</ele>
        <time>2020-07-19T14:01:35Z</time>
      </trkpt>
      <trkpt lat="61.582423383370042" lon="-6.911525577306747">
        <ele>328.32999999999998</ele>
        <time>2020-07-19T14:01:52Z</time>
      </trkpt>
      <trkpt lat="61.582358172163367" lon="-6.911387611180544">
        <ele>330.56</ele>
        <time>2020-07-19T14:02:03Z</time>
      </trkpt>
      <trkpt lat="61.582315089181066" lon="-6.911218129098415">
        <ele>332.12</ele>
        <time>2020-07-19T14:02:13Z</time>
      </trkpt>
      <trkpt lat="61.582273095846176" lon="-6.911047892645001">
        <ele>334.35000000000002</ele>
        <time>2020-07-19T14:02:26Z</time>
      </trkpt>
      <trkpt lat="61.582218278199434" lon="-6.910889390856028">
        <ele>336.18000000000001</ele>
        <time>2020-07-19T14:02:41Z</time>
      </trkpt>
      <trkpt lat="61.582189528271556" lon="-6.910695768892765">
        <ele>337.82999999999998</ele>
        <time>2020-07-19T14:02:50Z</time>
      </trkpt>
      <trkpt lat="61.582162538543344" lon="-6.910515055060387">
        <ele>338.56999999999999</ele>
        <time>2020-07-19T14:02:59Z</time>
      </trkpt>
      <trkpt lat="61.582119204103947" lon="-6.9103451538831">
        <ele>340.42000000000002</ele>
        <time>2020-07-19T14:03:09Z</time>
      </trkpt>
      <trkpt lat="61.582071678712964" lon="-6.910179359838367">
        <ele>341.08999999999997</ele>
        <time>2020-07-19T14:03:18Z</time>
      </trkpt>
      <trkpt lat="61.582024237141013" lon="-6.910018678754568">
        <ele>341.01999999999998</ele>
        <time>2020-07-19T14:03:26Z</time>
      </trkpt>
      <trkpt lat="61.581951733678579" lon="-6.909857746213675">
        <ele>341.79000000000002</ele>
        <time>2020-07-19T14:03:35Z</time>
      </trkpt>
      <trkpt lat="61.581890713423491" lon="-6.909703519195318">
        <ele>342.30000000000001</ele>
        <time>2020-07-19T14:03:42Z</time>
      </trkpt>
      <trkpt lat="61.581821143627167" lon="-6.909570498391986">
        <ele>342.70999999999998</ele>
        <time>2020-07-19T14:03:49Z</time>
      </trkpt>
      <trkpt lat="61.581773282960057" lon="-6.90940897911787">
        <ele>343.35000000000002</ele>
        <time>2020-07-19T14:03:57Z</time>
      </trkpt>
      <trkpt lat="61.58171477727592" lon="-6.909239077940583">
        <ele>343.63999999999999</ele>
        <time>2020-07-19T14:04:05Z</time>
      </trkpt>
      <trkpt lat="61.581668425351381" lon="-6.909066243097186">
        <ele>344.48000000000002</ele>
        <time>2020-07-19T14:04:13Z</time>
      </trkpt>
      <trkpt lat="61.581613020971417" lon="-6.9089100882411">
        <ele>345.42000000000002</ele>
        <time>2020-07-19T14:04:21Z</time>
      </trkpt>
      <trkpt lat="61.581539260223508" lon="-6.908759213984013">
        <ele>345.69</ele>
        <time>2020-07-19T14:04:29Z</time>
      </trkpt>
      <trkpt lat="61.581468181684613" lon="-6.908589145168662">
        <ele>346.36000000000001</ele>
        <time>2020-07-19T14:04:37Z</time>
      </trkpt>
      <trkpt lat="61.581410262733698" lon="-6.908438773825765">
        <ele>346.69999999999999</ele>
        <time>2020-07-19T14:04:45Z</time>
      </trkpt>
      <trkpt lat="61.581351589411497" lon="-6.908266106620431">
        <ele>347.60000000000002</ele>
        <time>2020-07-19T14:04:53Z</time>
      </trkpt>
      <trkpt lat="61.581270284950733" lon="-6.908125039190054">
        <ele>347.13</ele>
        <time>2020-07-19T14:05:01Z</time>
      </trkpt>
      <trkpt lat="61.581211863085628" lon="-6.907954383641481">
        <ele>346.93000000000001</ele>
        <time>2020-07-19T14:05:09Z</time>
      </trkpt>
      <trkpt lat="61.581141036003828" lon="-6.90782924182713">
        <ele>346.55000000000001</ele>
        <time>2020-07-19T14:05:20Z</time>
      </trkpt>
      <trkpt lat="61.581123182550073" lon="-6.907857656478882">
        <ele>346.14999999999998</ele>
        <time>2020-07-19T14:06:54Z</time>
      </trkpt>
      <trkpt lat="61.581137767061591" lon="-6.907859249040484">
        <ele>346.29000000000002</ele>
        <time>2020-07-19T14:07:46Z</time>
      </trkpt>
      <trkpt lat="61.581118488684297" lon="-6.907767383381724">
        <ele>346.50999999999999</ele>
        <time>2020-07-19T14:08:22Z</time>
      </trkpt>
      <trkpt lat="61.581084625795484" lon="-6.907686330378056">
        <ele>346.54000000000002</ele>
        <time>2020-07-19T14:09:17Z</time>
      </trkpt>
      <trkpt lat="61.58101849257946" lon="-6.907514669001102">
        <ele>346.5</ele>
        <time>2020-07-19T14:09:25Z</time>
      </trkpt>
      <trkpt lat="61.580956298857927" lon="-6.907322723418474">
        <ele>345.67000000000002</ele>
        <time>2020-07-19T14:09:32Z</time>
      </trkpt>
      <trkpt lat="61.580892261117697" lon="-6.907153073698282">
        <ele>345.88999999999999</ele>
        <time>2020-07-19T14:09:40Z</time>
      </trkpt>
      <trkpt lat="61.580838700756431" lon="-6.906990548595786">
        <ele>345.47000000000003</ele>
        <time>2020-07-19T14:10:40Z</time>
      </trkpt>
      <trkpt lat="61.580788660794497" lon="-6.906796339899302">
        <ele>344.86000000000001</ele>
        <time>2020-07-19T14:10:47Z</time>
      </trkpt>
      <trkpt lat="61.580733256414533" lon="-6.906616296619177">
        <ele>344.72000000000003</ele>
        <time>2020-07-19T14:10:54Z</time>
      </trkpt>
      <trkpt lat="61.580673241987824" lon="-6.906446311622858">
        <ele>344.64999999999998</ele>
        <time>2020-07-19T14:11:01Z</time>
      </trkpt>
      <trkpt lat="61.580619346350431" lon="-6.906282026320696">
        <ele>344.07999999999998</ele>
        <time>2020-07-19T14:11:07Z</time>
      </trkpt>
      <trkpt lat="61.580561846494675" lon="-6.906145485118032">
        <ele>344.25</ele>
        <time>2020-07-19T14:11:13Z</time>
      </trkpt>
      <trkpt lat="61.580493366345763" lon="-6.905992263928056">
        <ele>344.05000000000001</ele>
        <time>2020-07-19T14:11:19Z</time>
      </trkpt>
      <trkpt lat="61.580429244786501" lon="-6.905839629471302">
        <ele>344.17000000000002</ele>
        <time>2020-07-19T14:11:26Z</time>
      </trkpt>
      <trkpt lat="61.580376857891679" lon="-6.905685570091009">
        <ele>344.24000000000001</ele>
        <time>2020-07-19T14:11:33Z</time>
      </trkpt>
      <trkpt lat="61.580333355814219" lon="-6.905520278960466">
        <ele>343.22000000000003</ele>
        <time>2020-07-19T14:11:40Z</time>
      </trkpt>
      <trkpt lat="61.580298654735088" lon="-6.905350042507052">
        <ele>342.06</ele>
        <time>2020-07-19T14:11:47Z</time>
      </trkpt>
      <trkpt lat="61.580249033868313" lon="-6.905164215713739">
        <ele>340.92000000000002</ele>
        <time>2020-07-19T14:11:55Z</time>
      </trkpt>
      <trkpt lat="61.580175859853625" lon="-6.905053658410907">
        <ele>340.67000000000002</ele>
        <time>2020-07-19T14:12:03Z</time>
      </trkpt>
      <trkpt lat="61.580107379704714" lon="-6.90489649772644">
        <ele>339.79000000000002</ele>
        <time>2020-07-19T14:12:10Z</time>
      </trkpt>
      <trkpt lat="61.580046694725752" lon="-6.904741683974862">
        <ele>339.23000000000002</ele>
        <time>2020-07-19T14:12:18Z</time>
      </trkpt>
      <trkpt lat="61.579978717491031" lon="-6.904637245461345">
        <ele>339.36000000000001</ele>
        <time>2020-07-19T14:12:26Z</time>
      </trkpt>
      <trkpt lat="61.57992054708302" lon="-6.904493579640985">
        <ele>340.20999999999998</ele>
        <time>2020-07-19T14:12:34Z</time>
      </trkpt>
      <trkpt lat="61.579849049448967" lon="-6.904362486675382">
        <ele>341.10000000000002</ele>
        <time>2020-07-19T14:12:41Z</time>
      </trkpt>
      <trkpt lat="61.579771265387535" lon="-6.904223598539829">
        <ele>341.02999999999997</ele>
        <time>2020-07-19T14:12:48Z</time>
      </trkpt>
      <trkpt lat="61.579696834087372" lon="-6.904094433411956">
        <ele>341.50999999999999</ele>
        <time>2020-07-19T14:12:55Z</time>
      </trkpt>
      <trkpt lat="61.57962542027235" lon="-6.903930734843016">
        <ele>341.14999999999998</ele>
        <time>2020-07-19T14:13:02Z</time>
      </trkpt>
      <trkpt lat="61.579547971487045" lon="-6.903793187811971">
        <ele>341.35000000000002</ele>
        <time>2020-07-19T14:13:10Z</time>
      </trkpt>
      <trkpt lat="61.579479239881039" lon="-6.903659328818321">
        <ele>341.91000000000003</ele>
        <time>2020-07-19T14:13:17Z</time>
      </trkpt>
      <trkpt lat="61.579403635114431" lon="-6.903552375733852">
        <ele>342.44</ele>
        <time>2020-07-19T14:13:39Z</time>
      </trkpt>
      <trkpt lat="61.579329119995236" lon="-6.903435280546546">
        <ele>342.85000000000002</ele>
        <time>2020-07-19T14:13:45Z</time>
      </trkpt>
      <trkpt lat="61.57926281914115" lon="-6.903307037428021">
        <ele>343.20999999999998</ele>
        <time>2020-07-19T14:13:51Z</time>
      </trkpt>
      <trkpt lat="61.579190818592906" lon="-6.903203269466758">
        <ele>343.77999999999997</ele>
        <time>2020-07-19T14:13:57Z</time>
      </trkpt>
      <trkpt lat="61.579124517738819" lon="-6.903077121824026">
        <ele>345.51999999999998</ele>
        <time>2020-07-19T14:14:04Z</time>
      </trkpt>
      <trkpt lat="61.579072633758187" lon="-6.902918620035052">
        <ele>345.25</ele>
        <time>2020-07-19T14:14:11Z</time>
      </trkpt>
      <trkpt lat="61.579005746170878" lon="-6.902805548161268">
        <ele>346.42000000000002</ele>
        <time>2020-07-19T14:14:19Z</time>
      </trkpt>
      <trkpt lat="61.578931901603937" lon="-6.902651153504849">
        <ele>348.06</ele>
        <time>2020-07-19T14:14:28Z</time>
      </trkpt>
      <trkpt lat="61.578856967389584" lon="-6.902535315603018">
        <ele>348.64999999999998</ele>
        <time>2020-07-19T14:14:36Z</time>
      </trkpt>
      <trkpt lat="61.578798294067383" lon="-6.902390895411372">
        <ele>349.81999999999999</ele>
        <time>2020-07-19T14:14:44Z</time>
      </trkpt>
      <trkpt lat="61.578740291297436" lon="-6.90221143886447">
        <ele>350.56999999999999</ele>
        <time>2020-07-19T14:14:53Z</time>
      </trkpt>
      <trkpt lat="61.578664686530828" lon="-6.902083782479167">
        <ele>351.72000000000003</ele>
        <time>2020-07-19T14:15:01Z</time>
      </trkpt>
      <trkpt lat="61.578583465889096" lon="-6.901972806081176">
        <ele>352.55000000000001</ele>
        <time>2020-07-19T14:15:09Z</time>
      </trkpt>
      <trkpt lat="61.578519847244024" lon="-6.901834504678845">
        <ele>353.19999999999999</ele>
        <time>2020-07-19T14:15:17Z</time>
      </trkpt>
      <trkpt lat="61.578445751219988" lon="-6.901677679270506">
        <ele>353.5</ele>
        <time>2020-07-19T14:15:25Z</time>
      </trkpt>
      <trkpt lat="61.578378025442362" lon="-6.901536276564002">
        <ele>354.23000000000002</ele>
        <time>2020-07-19T14:15:33Z</time>
      </trkpt>
      <trkpt lat="61.578293787315488" lon="-6.901393365114927">
        <ele>354.77999999999997</ele>
        <time>2020-07-19T14:15:52Z</time>
      </trkpt>
      <trkpt lat="61.578230587765574" lon="-6.901247771456838">
        <ele>355.66000000000003</ele>
        <time>2020-07-19T14:16:00Z</time>
      </trkpt>
      <trkpt lat="61.578170154243708" lon="-6.901097064837813">
        <ele>356.77999999999997</ele>
        <time>2020-07-19T14:16:07Z</time>
      </trkpt>
      <trkpt lat="61.578102428466082" lon="-6.900933785364032">
        <ele>357.73000000000002</ele>
        <time>2020-07-19T14:16:14Z</time>
      </trkpt>
      <trkpt lat="61.578040821477771" lon="-6.900775283575058">
        <ele>358.72000000000003</ele>
        <time>2020-07-19T14:16:22Z</time>
      </trkpt>
      <trkpt lat="61.577969575300813" lon="-6.900634383782744">
        <ele>359.36000000000001</ele>
        <time>2020-07-19T14:16:29Z</time>
      </trkpt>
      <trkpt lat="61.577898664399981" lon="-6.900488035753369">
        <ele>360.10000000000002</ele>
        <time>2020-07-19T14:16:36Z</time>
      </trkpt>
      <trkpt lat="61.577818114310503" lon="-6.900395918637514">
        <ele>361.66000000000003</ele>
        <time>2020-07-19T14:16:44Z</time>
      </trkpt>
      <trkpt lat="61.577756172046065" lon="-6.900299610570073">
        <ele>361.87</ele>
        <time>2020-07-19T14:17:01Z</time>
      </trkpt>
      <trkpt lat="61.577721554785967" lon="-6.900108503177762">
        <ele>363.00999999999999</ele>
        <time>2020-07-19T14:17:08Z</time>
      </trkpt>
      <trkpt lat="61.577656511217356" lon="-6.899967351928353">
        <ele>363.06</ele>
        <time>2020-07-19T14:17:15Z</time>
      </trkpt>
      <trkpt lat="61.577599262818694" lon="-6.899798372760415">
        <ele>363.10000000000002</ele>
        <time>2020-07-19T14:17:23Z</time>
      </trkpt>
      <trkpt lat="61.577529441565275" lon="-6.899633333086968">
        <ele>363.20999999999998</ele>
        <time>2020-07-19T14:17:30Z</time>
      </trkpt>
      <trkpt lat="61.577462889254093" lon="-6.899477681145072">
        <ele>363.69</ele>
        <time>2020-07-19T14:17:36Z</time>
      </trkpt>
      <trkpt lat="61.577395498752594" lon="-6.89932563342154">
        <ele>364</ele>
        <time>2020-07-19T14:17:43Z</time>
      </trkpt>
      <trkpt lat="61.577326264232397" lon="-6.899187667295337">
        <ele>363.11000000000001</ele>
        <time>2020-07-19T14:17:51Z</time>
      </trkpt>
      <trkpt lat="61.577286031097174" lon="-6.899014497175813">
        <ele>363.56</ele>
        <time>2020-07-19T14:17:59Z</time>
      </trkpt>
      <trkpt lat="61.577204894274473" lon="-6.898893965408206">
        <ele>364.26999999999998</ele>
        <time>2020-07-19T14:18:08Z</time>
      </trkpt>
      <trkpt lat="61.577172707766294" lon="-6.898716185241938">
        <ele>364.05000000000001</ele>
        <time>2020-07-19T14:18:16Z</time>
      </trkpt>
      <trkpt lat="61.577150663360953" lon="-6.898535303771496">
        <ele>362.86000000000001</ele>
        <time>2020-07-19T14:18:29Z</time>
      </trkpt>
      <trkpt lat="61.577098360285163" lon="-6.898372862488031">
        <ele>363.94999999999999</ele>
        <time>2020-07-19T14:18:38Z</time>
      </trkpt>
      <trkpt lat="61.577063826844096" lon="-6.898170355707407">
        <ele>364.56</ele>
        <time>2020-07-19T14:18:46Z</time>
      </trkpt>
      <trkpt lat="61.577031305059791" lon="-6.897974470630288">
        <ele>364.20999999999998</ele>
        <time>2020-07-19T14:18:53Z</time>
      </trkpt>
      <trkpt lat="61.577024012804031" lon="-6.897757379338145">
        <ele>363.85000000000002</ele>
        <time>2020-07-19T14:19:01Z</time>
      </trkpt>
      <trkpt lat="61.576999789103866" lon="-6.897533079609275">
        <ele>363.33999999999997</ele>
        <time>2020-07-19T14:19:08Z</time>
      </trkpt>
      <trkpt lat="61.576970536261797" lon="-6.897337781265378">
        <ele>362.92000000000002</ele>
        <time>2020-07-19T14:19:14Z</time>
      </trkpt>
      <trkpt lat="61.57693843357265" lon="-6.897152289748192">
        <ele>362.19999999999999</ele>
        <time>2020-07-19T14:19:20Z</time>
      </trkpt>
      <trkpt lat="61.576927956193686" lon="-6.896981215104461">
        <ele>361.17000000000002</ele>
        <time>2020-07-19T14:19:42Z</time>
      </trkpt>
      <trkpt lat="61.576919658109546" lon="-6.896762447431684">
        <ele>360.60000000000002</ele>
        <time>2020-07-19T14:19:51Z</time>
      </trkpt>
      <trkpt lat="61.576924184337258" lon="-6.896570082753897">
        <ele>360.20999999999998</ele>
        <time>2020-07-19T14:19:58Z</time>
      </trkpt>
      <trkpt lat="61.576913706958294" lon="-6.896373694762588">
        <ele>361.63</ele>
        <time>2020-07-19T14:20:06Z</time>
      </trkpt>
      <trkpt lat="61.576843718066812" lon="-6.896276297047734">
        <ele>361.02999999999997</ele>
        <time>2020-07-19T14:21:59Z</time>
      </trkpt>
      <trkpt lat="61.576854530721903" lon="-6.896123830229044">
        <ele>361.36000000000001</ele>
        <time>2020-07-19T14:24:21Z</time>
      </trkpt>
      <trkpt lat="61.576813040301204" lon="-6.895951582118869">
        <ele>361.87</ele>
        <time>2020-07-19T14:24:27Z</time>
      </trkpt>
      <trkpt lat="61.576770041137934" lon="-6.895774975419045">
        <ele>362.25999999999999</ele>
        <time>2020-07-19T14:24:33Z</time>
      </trkpt>
      <trkpt lat="61.576747912913561" lon="-6.895595854148269">
        <ele>362.70999999999998</ele>
        <time>2020-07-19T14:24:40Z</time>
      </trkpt>
      <trkpt lat="61.576739028096199" lon="-6.895449087023735">
        <ele>363.62</ele>
        <time>2020-07-19T14:24:57Z</time>
      </trkpt>
      <trkpt lat="61.576718660071492" lon="-6.895258398726583">
        <ele>364.16000000000003</ele>
        <time>2020-07-19T14:25:04Z</time>
      </trkpt>
      <trkpt lat="61.576686054468155" lon="-6.895053293555975">
        <ele>364.16000000000003</ele>
        <time>2020-07-19T14:25:12Z</time>
      </trkpt>
      <trkpt lat="61.576651856303215" lon="-6.894850870594382">
        <ele>363.75</ele>
        <time>2020-07-19T14:25:19Z</time>
      </trkpt>
      <trkpt lat="61.57664087601006" lon="-6.894674180075526">
        <ele>363.20999999999998</ele>
        <time>2020-07-19T14:25:26Z</time>
      </trkpt>
      <trkpt lat="61.576606594026089" lon="-6.894494807347655">
        <ele>362.66000000000003</ele>
        <time>2020-07-19T14:25:34Z</time>
      </trkpt>
      <trkpt lat="61.576544651761651" lon="-6.894304538145661">
        <ele>363.5</ele>
        <time>2020-07-19T14:25:42Z</time>
      </trkpt>
      <trkpt lat="61.576497964560986" lon="-6.894125919789076">
        <ele>363.01999999999998</ele>
        <time>2020-07-19T14:25:48Z</time>
      </trkpt>
      <trkpt lat="61.576445242390037" lon="-6.893979152664542">
        <ele>362.68000000000001</ele>
        <time>2020-07-19T14:25:53Z</time>
      </trkpt>
      <trkpt lat="61.576383048668504" lon="-6.893836576491594">
        <ele>362.19</ele>
        <time>2020-07-19T14:26:00Z</time>
      </trkpt>
      <trkpt lat="61.576335690915585" lon="-6.893684696406126">
        <ele>362.19999999999999</ele>
        <time>2020-07-19T14:26:06Z</time>
      </trkpt>
      <trkpt lat="61.576307024806738" lon="-6.893532816320658">
        <ele>361.81</ele>
        <time>2020-07-19T14:26:14Z</time>
      </trkpt>
      <trkpt lat="61.576267881318927" lon="-6.89334824681282">
        <ele>361.02999999999997</ele>
        <time>2020-07-19T14:26:22Z</time>
      </trkpt>
      <trkpt lat="61.57622697763145" lon="-6.893160324543715">
        <ele>360.29000000000002</ele>
        <time>2020-07-19T14:26:30Z</time>
      </trkpt>
      <trkpt lat="61.576171321794391" lon="-6.89298908226192">
        <ele>360.20999999999998</ele>
        <time>2020-07-19T14:26:37Z</time>
      </trkpt>
      <trkpt lat="61.576111977919936" lon="-6.892857905477285">
        <ele>360.76999999999998</ele>
        <time>2020-07-19T14:26:45Z</time>
      </trkpt>
      <trkpt lat="61.576055148616433" lon="-6.892685992643237">
        <ele>361.26999999999998</ele>
        <time>2020-07-19T14:26:52Z</time>
      </trkpt>
      <trkpt lat="61.575989434495568" lon="-6.892542745918036">
        <ele>362.67000000000002</ele>
        <time>2020-07-19T14:27:03Z</time>
      </trkpt>
      <trkpt lat="61.575933108106256" lon="-6.892389860004187">
        <ele>361.93000000000001</ele>
        <time>2020-07-19T14:27:15Z</time>
      </trkpt>
      <trkpt lat="61.575906621292233" lon="-6.892190454527736">
        <ele>361.13</ele>
        <time>2020-07-19T14:27:24Z</time>
      </trkpt>
      <trkpt lat="61.575869154185057" lon="-6.891971938312054">
        <ele>360.25</ele>
        <time>2020-07-19T14:27:32Z</time>
      </trkpt>
      <trkpt lat="61.575843840837479" lon="-6.891770018264651">
        <ele>359.91000000000003</ele>
        <time>2020-07-19T14:27:39Z</time>
      </trkpt>
      <trkpt lat="61.575792375952005" lon="-6.891597853973508">
        <ele>359.93000000000001</ele>
        <time>2020-07-19T14:27:45Z</time>
      </trkpt>
      <trkpt lat="61.575754908844829" lon="-6.891398280858994">
        <ele>359.56999999999999</ele>
        <time>2020-07-19T14:27:52Z</time>
      </trkpt>
      <trkpt lat="61.575727919116616" lon="-6.891199462115765">
        <ele>359.51999999999998</ele>
        <time>2020-07-19T14:28:00Z</time>
      </trkpt>
      <trkpt lat="61.57570612616837" lon="-6.891009863466024">
        <ele>360.08999999999997</ele>
        <time>2020-07-19T14:28:07Z</time>
      </trkpt>
      <trkpt lat="61.575679890811443" lon="-6.89082789234817">
        <ele>360.25</ele>
        <time>2020-07-19T14:28:15Z</time>
      </trkpt>
      <trkpt lat="61.575612919405103" lon="-6.890668384730816">
        <ele>360.68000000000001</ele>
        <time>2020-07-19T14:28:22Z</time>
      </trkpt>
      <trkpt lat="61.57556195743382" lon="-6.890497477725148">
        <ele>361.69</ele>
        <time>2020-07-19T14:28:30Z</time>
      </trkpt>
      <trkpt lat="61.575515605509281" lon="-6.890325983986259">
        <ele>362.92000000000002</ele>
        <time>2020-07-19T14:28:39Z</time>
      </trkpt>
      <trkpt lat="61.575460033491254" lon="-6.89016723074019">
        <ele>364.07999999999998</ele>
        <time>2020-07-19T14:28:48Z</time>
      </trkpt>
      <trkpt lat="61.575441006571054" lon="-6.889987355098128">
        <ele>364.11000000000001</ele>
        <time>2020-07-19T14:28:56Z</time>
      </trkpt>
      <trkpt lat="61.575411586090922" lon="-6.889788620173931">
        <ele>364.22000000000003</ele>
        <time>2020-07-19T14:29:16Z</time>
      </trkpt>
      <trkpt lat="61.575403958559036" lon="-6.889566164463759">
        <ele>364.06999999999999</ele>
        <time>2020-07-19T14:29:24Z</time>
      </trkpt>
      <trkpt lat="61.575406221672893" lon="-6.889360304921866">
        <ele>363.76999999999998</ele>
        <time>2020-07-19T14:29:32Z</time>
      </trkpt>
      <trkpt lat="61.575387949123979" lon="-6.889144135639072">
        <ele>364.35000000000002</ele>
        <time>2020-07-19T14:29:40Z</time>
      </trkpt>
      <trkpt lat="61.575361043214798" lon="-6.888946490362287">
        <ele>364.55000000000001</ele>
        <time>2020-07-19T14:29:48Z</time>
      </trkpt>
      <trkpt lat="61.575355678796768" lon="-6.888743732124567">
        <ele>363.06</ele>
        <time>2020-07-19T14:29:57Z</time>
      </trkpt>
      <trkpt lat="61.57534746453166" lon="-6.888513145968318">
        <ele>361.88</ele>
        <time>2020-07-19T14:30:05Z</time>
      </trkpt>
      <trkpt lat="61.575312092900276" lon="-6.888340478762984">
        <ele>361.64999999999998</ele>
        <time>2020-07-19T14:30:11Z</time>
      </trkpt>
      <trkpt lat="61.575282588601112" lon="-6.888127913698554">
        <ele>361.57999999999998</ele>
        <time>2020-07-19T14:30:19Z</time>
      </trkpt>
      <trkpt lat="61.575253922492266" lon="-6.887940410524607">
        <ele>362.48000000000002</ele>
        <time>2020-07-19T14:30:28Z</time>
      </trkpt>
      <trkpt lat="61.575201703235507" lon="-6.88773044385016">
        <ele>363.30000000000001</ele>
        <time>2020-07-19T14:30:37Z</time>
      </trkpt>
      <trkpt lat="61.575148981064558" lon="-6.887556100264192">
        <ele>363.56999999999999</ele>
        <time>2020-07-19T14:30:45Z</time>
      </trkpt>
      <trkpt lat="61.575139174237847" lon="-6.887346636503935">
        <ele>363.04000000000002</ele>
        <time>2020-07-19T14:30:54Z</time>
      </trkpt>
      <trkpt lat="61.575125344097614" lon="-6.88714262098074">
        <ele>362.52999999999997</ele>
        <time>2020-07-19T14:31:02Z</time>
      </trkpt>
      <trkpt lat="61.575128529220819" lon="-6.886917483061552">
        <ele>362.11000000000001</ele>
        <time>2020-07-19T14:31:09Z</time>
      </trkpt>
      <trkpt lat="61.575117548927665" lon="-6.886698799207807">
        <ele>362.06999999999999</ele>
        <time>2020-07-19T14:31:16Z</time>
      </trkpt>
      <trkpt lat="61.575108664110303" lon="-6.886506183072925">
        <ele>361.75</ele>
        <time>2020-07-19T14:31:24Z</time>
      </trkpt>
      <trkpt lat="61.575055606663227" lon="-6.88633251003921">
        <ele>361.64999999999998</ele>
        <time>2020-07-19T14:31:30Z</time>
      </trkpt>
      <trkpt lat="61.57501420006156" lon="-6.886135954409838">
        <ele>361.5</ele>
        <time>2020-07-19T14:31:37Z</time>
      </trkpt>
      <trkpt lat="61.574996262788773" lon="-6.885929591953754">
        <ele>361.63999999999999</ele>
        <time>2020-07-19T14:31:44Z</time>
      </trkpt>
      <trkpt lat="61.575003555044532" lon="-6.885727252811194">
        <ele>361.61000000000001</ele>
        <time>2020-07-19T14:31:51Z</time>
      </trkpt>
      <trkpt lat="61.57500539906323" lon="-6.885508736595511">
        <ele>361.08999999999997</ele>
        <time>2020-07-19T14:31:59Z</time>
      </trkpt>
      <trkpt lat="61.574971787631512" lon="-6.885312767699361">
        <ele>360.32999999999998</ele>
        <time>2020-07-19T14:32:06Z</time>
      </trkpt>
      <trkpt lat="61.574941528961062" lon="-6.885149488225579">
        <ele>360.37</ele>
        <time>2020-07-19T14:32:14Z</time>
      </trkpt>
      <trkpt lat="61.574932057410479" lon="-6.884965505450964">
        <ele>360.86000000000001</ele>
        <time>2020-07-19T14:32:23Z</time>
      </trkpt>
      <trkpt lat="61.574925687164068" lon="-6.88476056791842">
        <ele>361.36000000000001</ele>
        <time>2020-07-19T14:32:32Z</time>
      </trkpt>
      <trkpt lat="61.574902385473251" lon="-6.884561749175191">
        <ele>360.57999999999998</ele>
        <time>2020-07-19T14:32:39Z</time>
      </trkpt>
      <trkpt lat="61.574879754334688" lon="-6.884369133040309">
        <ele>361.39999999999998</ele>
        <time>2020-07-19T14:32:47Z</time>
      </trkpt>
      <trkpt lat="61.574857039377093" lon="-6.88417911529541">
        <ele>360.35000000000002</ele>
        <time>2020-07-19T14:32:53Z</time>
      </trkpt>
      <trkpt lat="61.574826445430517" lon="-6.883983984589577">
        <ele>360.31</ele>
        <time>2020-07-19T14:33:00Z</time>
      </trkpt>
      <trkpt lat="61.57481043599546" lon="-6.883809138089418">
        <ele>360.47000000000003</ele>
        <time>2020-07-19T14:33:35Z</time>
      </trkpt>
      <trkpt lat="61.574792498722672" lon="-6.883638147264719">
        <ele>361.56</ele>
        <time>2020-07-19T14:33:47Z</time>
      </trkpt>
      <trkpt lat="61.57476014457643" lon="-6.883448632434011">
        <ele>361.42000000000002</ele>
        <time>2020-07-19T14:33:54Z</time>
      </trkpt>
      <trkpt lat="61.574726533144712" lon="-6.883268672972918">
        <ele>361.81999999999999</ele>
        <time>2020-07-19T14:34:01Z</time>
      </trkpt>
      <trkpt lat="61.574697699397802" lon="-6.883087372407317">
        <ele>362.02999999999997</ele>
        <time>2020-07-19T14:34:08Z</time>
      </trkpt>
      <trkpt lat="61.574661573395133" lon="-6.882887380197644">
        <ele>362.13</ele>
        <time>2020-07-19T14:34:16Z</time>
      </trkpt>
      <trkpt lat="61.574622597545385" lon="-6.882686130702496">
        <ele>362.11000000000001</ele>
        <time>2020-07-19T14:34:23Z</time>
      </trkpt>
      <trkpt lat="61.574580520391464" lon="-6.88250751234591">
        <ele>361.79000000000002</ele>
        <time>2020-07-19T14:34:29Z</time>
      </trkpt>
      <trkpt lat="61.574541041627526" lon="-6.882341969758272">
        <ele>361.67000000000002</ele>
        <time>2020-07-19T14:34:38Z</time>
      </trkpt>
      <trkpt lat="61.574504161253572" lon="-6.882255971431732">
        <ele>362.16000000000003</ele>
        <time>2020-07-19T14:36:52Z</time>
      </trkpt>
      <trkpt lat="61.574491923674941" lon="-6.882041059434414">
        <ele>361.99000000000001</ele>
        <time>2020-07-19T14:36:59Z</time>
      </trkpt>
      <trkpt lat="61.574474489316344" lon="-6.88183662481606">
        <ele>361.95999999999998</ele>
        <time>2020-07-19T14:37:06Z</time>
      </trkpt>
      <trkpt lat="61.574457138776779" lon="-6.881623975932598">
        <ele>361.99000000000001</ele>
        <time>2020-07-19T14:37:13Z</time>
      </trkpt>
      <trkpt lat="61.5744439791888" lon="-6.881425073370338">
        <ele>362.37</ele>
        <time>2020-07-19T14:37:20Z</time>
      </trkpt>
      <trkpt lat="61.574421850964427" lon="-6.88121167011559">
        <ele>362.72000000000003</ele>
        <time>2020-07-19T14:37:28Z</time>
      </trkpt>
      <trkpt lat="61.574377091601491" lon="-6.881028944626451">
        <ele>362.73000000000002</ele>
        <time>2020-07-19T14:37:34Z</time>
      </trkpt>
      <trkpt lat="61.574335768818855" lon="-6.880837669596076">
        <ele>362.58999999999997</ele>
        <time>2020-07-19T14:37:40Z</time>
      </trkpt>
      <trkpt lat="61.574300481006503" lon="-6.880641030147672">
        <ele>362.23000000000002</ele>
        <time>2020-07-19T14:37:46Z</time>
      </trkpt>
      <trkpt lat="61.57427541911602" lon="-6.880437852814794">
        <ele>361.99000000000001</ele>
        <time>2020-07-19T14:37:53Z</time>
      </trkpt>
      <trkpt lat="61.574258152395487" lon="-6.880241548642516">
        <ele>361.63</ele>
        <time>2020-07-19T14:38:01Z</time>
      </trkpt>
      <trkpt lat="61.574229737743735" lon="-6.880055973306298">
        <ele>361.37</ele>
        <time>2020-07-19T14:38:07Z</time>
      </trkpt>
      <trkpt lat="61.574194030836225" lon="-6.879913648590446">
        <ele>361.38999999999999</ele>
        <time>2020-07-19T14:38:26Z</time>
      </trkpt>
      <trkpt lat="61.574179194867611" lon="-6.879729833453894">
        <ele>360.07999999999998</ele>
        <time>2020-07-19T14:38:43Z</time>
      </trkpt>
      <trkpt lat="61.57412295229733" lon="-6.879547946155071">
        <ele>359.10000000000002</ele>
        <time>2020-07-19T14:38:50Z</time>
      </trkpt>
      <trkpt lat="61.574076181277633" lon="-6.879369327798486">
        <ele>358.49000000000001</ele>
        <time>2020-07-19T14:38:57Z</time>
      </trkpt>
      <trkpt lat="61.574041396379471" lon="-6.879182914271951">
        <ele>358.07999999999998</ele>
        <time>2020-07-19T14:39:04Z</time>
      </trkpt>
      <trkpt lat="61.573999151587486" lon="-6.879016701132059">
        <ele>357.20999999999998</ele>
        <time>2020-07-19T14:39:11Z</time>
      </trkpt>
      <trkpt lat="61.573954056948423" lon="-6.878863731399179">
        <ele>356.04000000000002</ele>
        <time>2020-07-19T14:39:19Z</time>
      </trkpt>
      <trkpt lat="61.573945172131062" lon="-6.878691148012877">
        <ele>355.91000000000003</ele>
        <time>2020-07-19T14:39:37Z</time>
      </trkpt>
      <trkpt lat="61.573877362534404" lon="-6.878527449443936">
        <ele>353.80000000000001</ele>
        <time>2020-07-19T14:39:45Z</time>
      </trkpt>
      <trkpt lat="61.573816677555442" lon="-6.878383615985513">
        <ele>352.80000000000001</ele>
        <time>2020-07-19T14:39:52Z</time>
      </trkpt>
      <trkpt lat="61.573752639815211" lon="-6.87822125852108">
        <ele>351.14999999999998</ele>
        <time>2020-07-19T14:39:59Z</time>
      </trkpt>
      <trkpt lat="61.573713412508368" lon="-6.878082789480686">
        <ele>349.31</ele>
        <time>2020-07-19T14:40:10Z</time>
      </trkpt>
      <trkpt lat="61.573642669245601" lon="-6.877951445057988">
        <ele>347.88999999999999</ele>
        <time>2020-07-19T14:40:19Z</time>
      </trkpt>
      <trkpt lat="61.573591707274318" lon="-6.877786070108414">
        <ele>346.49000000000001</ele>
        <time>2020-07-19T14:40:27Z</time>
      </trkpt>
      <trkpt lat="61.573551893234253" lon="-6.877606781199575">
        <ele>345.06</ele>
        <time>2020-07-19T14:40:35Z</time>
      </trkpt>
      <trkpt lat="61.573515180498362" lon="-6.877411231398583">
        <ele>344.14999999999998</ele>
        <time>2020-07-19T14:40:44Z</time>
      </trkpt>
      <trkpt lat="61.573457596823573" lon="-6.877278629690409">
        <ele>342.33999999999997</ele>
        <time>2020-07-19T14:40:55Z</time>
      </trkpt>
      <trkpt lat="61.57338316552341" lon="-6.877182237803936">
        <ele>340.23000000000002</ele>
        <time>2020-07-19T14:41:05Z</time>
      </trkpt>
      <trkpt lat="61.57330303452909" lon="-6.877089366316795">
        <ele>338.14999999999998</ele>
        <time>2020-07-19T14:41:14Z</time>
      </trkpt>
      <trkpt lat="61.573213431984186" lon="-6.877002026885748">
        <ele>335.69999999999999</ele>
        <time>2020-07-19T14:41:25Z</time>
      </trkpt>
      <trkpt lat="61.573122823610902" lon="-6.876916531473398">
        <ele>333.06</ele>
        <time>2020-07-19T14:41:36Z</time>
      </trkpt>
      <trkpt lat="61.573047051206231" lon="-6.876771105453372">
        <ele>330.73000000000002</ele>
        <time>2020-07-19T14:41:46Z</time>
      </trkpt>
      <trkpt lat="61.572976894676685" lon="-6.876610843464732">
        <ele>328.43000000000001</ele>
        <time>2020-07-19T14:41:54Z</time>
      </trkpt>
      <trkpt lat="61.572928531095386" lon="-6.876451252028346">
        <ele>326.56</ele>
        <time>2020-07-19T14:42:03Z</time>
      </trkpt>
      <trkpt lat="61.572874132543802" lon="-6.876296522095799">
        <ele>324.19</ele>
        <time>2020-07-19T14:42:13Z</time>
      </trkpt>
      <trkpt lat="61.572810597717762" lon="-6.876159142702818">
        <ele>321.63</ele>
        <time>2020-07-19T14:42:24Z</time>
      </trkpt>
      <trkpt lat="61.572719821706414" lon="-6.876074569299817">
        <ele>318.14999999999998</ele>
        <time>2020-07-19T14:42:37Z</time>
      </trkpt>
      <trkpt lat="61.572628961876035" lon="-6.876009609550238">
        <ele>315.81</ele>
        <time>2020-07-19T14:42:47Z</time>
      </trkpt>
      <trkpt lat="61.572567941620946" lon="-6.875845324248076">
        <ele>314.31999999999999</ele>
        <time>2020-07-19T14:42:58Z</time>
      </trkpt>
      <trkpt lat="61.57243232242763" lon="-6.875909026712179">
        <ele>307.17000000000002</ele>
        <time>2020-07-19T15:03:42Z</time>
      </trkpt>
      <trkpt lat="61.572363842278719" lon="-6.875951020047069">
        <ele>305.63999999999999</ele>
        <time>2020-07-19T15:04:05Z</time>
      </trkpt>
      <trkpt lat="61.572271138429642" lon="-6.875866614282131">
        <ele>301.95999999999998</ele>
        <time>2020-07-19T15:04:17Z</time>
      </trkpt>
      <trkpt lat="61.572197545319796" lon="-6.875778855755925">
        <ele>299.87</ele>
        <time>2020-07-19T15:04:28Z</time>
      </trkpt>
      <trkpt lat="61.572121689096093" lon="-6.87568380497396">
        <ele>297.14999999999998</ele>
        <time>2020-07-19T15:04:42Z</time>
      </trkpt>
      <trkpt lat="61.572023285552859" lon="-6.875629993155599">
        <ele>295.38999999999999</ele>
        <time>2020-07-19T15:04:54Z</time>
      </trkpt>
      <trkpt lat="61.571930833160877" lon="-6.875555980950594">
        <ele>292.98000000000002</ele>
        <time>2020-07-19T15:05:09Z</time>
      </trkpt>
      <trkpt lat="61.57183175906539" lon="-6.875529745593667">
        <ele>291.26999999999998</ele>
        <time>2020-07-19T15:05:19Z</time>
      </trkpt>
      <trkpt lat="61.571742491796613" lon="-6.87552941031754">
        <ele>288.66000000000003</ele>
        <time>2020-07-19T15:05:53Z</time>
      </trkpt>
      <trkpt lat="61.571767469868064" lon="-6.875415584072471">
        <ele>286.89999999999998</ele>
        <time>2020-07-19T15:06:26Z</time>
      </trkpt>
      <trkpt lat="61.571804014965892" lon="-6.875279294326901">
        <ele>284.06</ele>
        <time>2020-07-19T15:06:47Z</time>
      </trkpt>
      <trkpt lat="61.571801919490099" lon="-6.87510771676898">
        <ele>279.47000000000003</ele>
        <time>2020-07-19T15:07:07Z</time>
      </trkpt>
      <trkpt lat="61.571724973618984" lon="-6.875027921050787">
        <ele>276.29000000000002</ele>
        <time>2020-07-19T15:07:22Z</time>
      </trkpt>
      <trkpt lat="61.571670155972242" lon="-6.874953238293529">
        <ele>273.83999999999997</ele>
        <time>2020-07-19T15:07:46Z</time>
      </trkpt>
      <trkpt lat="61.57159480266273" lon="-6.874887607991695">
        <ele>269.56999999999999</ele>
        <time>2020-07-19T15:07:59Z</time>
      </trkpt>
      <trkpt lat="61.571507966145873" lon="-6.874772356823087">
        <ele>265.55000000000001</ele>
        <time>2020-07-19T15:08:15Z</time>
      </trkpt>
      <trkpt lat="61.57142037525773" lon="-6.874840836971998">
        <ele>262.79000000000002</ele>
        <time>2020-07-19T15:08:26Z</time>
      </trkpt>
      <trkpt lat="61.571378717198968" lon="-6.874713180586696">
        <ele>260.54000000000002</ele>
        <time>2020-07-19T15:08:41Z</time>
      </trkpt>
      <trkpt lat="61.571298250928521" lon="-6.874670265242457">
        <ele>257.72000000000003</ele>
        <time>2020-07-19T15:08:55Z</time>
      </trkpt>
      <trkpt lat="61.571298418566585" lon="-6.874502040445805">
        <ele>253.59999999999999</ele>
        <time>2020-07-19T15:09:08Z</time>
      </trkpt>
      <trkpt lat="61.571208396926522" lon="-6.874514948576689">
        <ele>250.93000000000001</ele>
        <time>2020-07-19T15:09:19Z</time>
      </trkpt>
      <trkpt lat="61.571124074980617" lon="-6.874460550025106">
        <ele>248.15000000000001</ele>
        <time>2020-07-19T15:09:39Z</time>
      </trkpt>
      <trkpt lat="61.571029862388968" lon="-6.874458370730281">
        <ele>247.41999999999999</ele>
        <time>2020-07-19T15:09:51Z</time>
      </trkpt>
      <trkpt lat="61.570926764979959" lon="-6.874448480084539">
        <ele>244.94</ele>
        <time>2020-07-19T15:10:06Z</time>
      </trkpt>
      <trkpt lat="61.570827187970281" lon="-6.874423753470182">
        <ele>243.56999999999999</ele>
        <time>2020-07-19T15:10:19Z</time>
      </trkpt>
      <trkpt lat="61.570763988420367" lon="-6.874319231137633">
        <ele>241</ele>
        <time>2020-07-19T15:10:35Z</time>
      </trkpt>
      <trkpt lat="61.570666674524546" lon="-6.87430439516902">
        <ele>238.96000000000001</ele>
        <time>2020-07-19T15:10:47Z</time>
      </trkpt>
      <trkpt lat="61.570577742531896" lon="-6.874228706583381">
        <ele>236.75999999999999</ele>
        <time>2020-07-19T15:10:59Z</time>
      </trkpt>
      <trkpt lat="61.570509262382984" lon="-6.874134410172701">
        <ele>233.55000000000001</ele>
        <time>2020-07-19T15:11:16Z</time>
      </trkpt>
      <trkpt lat="61.570436339825392" lon="-6.87405277043581">
        <ele>231.13</ele>
        <time>2020-07-19T15:11:32Z</time>
      </trkpt>
      <trkpt lat="61.570425275713205" lon="-6.873872978612781">
        <ele>227.56</ele>
        <time>2020-07-19T15:11:47Z</time>
      </trkpt>
      <trkpt lat="61.570344474166632" lon="-6.873749596998096">
        <ele>223.61000000000001</ele>
        <time>2020-07-19T15:12:03Z</time>
      </trkpt>
      <trkpt lat="61.570254033431411" lon="-6.873702071607113">
        <ele>221.22</ele>
        <time>2020-07-19T15:12:17Z</time>
      </trkpt>
      <trkpt lat="61.570205753669143" lon="-6.87359444797039">
        <ele>217.88</ele>
        <time>2020-07-19T15:12:35Z</time>
      </trkpt>
      <trkpt lat="61.570121180266142" lon="-6.873528817668557">
        <ele>214.69999999999999</ele>
        <time>2020-07-19T15:12:52Z</time>
      </trkpt>
      <trkpt lat="61.570031745359302" lon="-6.87343267723918">
        <ele>212.19</ele>
        <time>2020-07-19T15:13:03Z</time>
      </trkpt>
      <trkpt lat="61.56994960270822" lon="-6.873335698619485">
        <ele>209.53</ele>
        <time>2020-07-19T15:13:19Z</time>
      </trkpt>
      <trkpt lat="61.569888163357973" lon="-6.873220279812813">
        <ele>205.61000000000001</ele>
        <time>2020-07-19T15:13:36Z</time>
      </trkpt>
      <trkpt lat="61.569860251620412" lon="-6.873066388070583">
        <ele>201.66999999999999</ele>
        <time>2020-07-19T15:13:55Z</time>
      </trkpt>
      <trkpt lat="61.569785065948963" lon="-6.872990280389786">
        <ele>197.75</ele>
        <time>2020-07-19T15:14:15Z</time>
      </trkpt>
      <trkpt lat="61.569698648527265" lon="-6.872908053919673">
        <ele>195.78999999999999</ele>
        <time>2020-07-19T15:14:26Z</time>
      </trkpt>
      <trkpt lat="61.569617008790374" lon="-6.872828509658575">
        <ele>193.88</ele>
        <time>2020-07-19T15:14:37Z</time>
      </trkpt>
      <trkpt lat="61.569528412073851" lon="-6.872740667313337">
        <ele>190.03999999999999</ele>
        <time>2020-07-19T15:15:03Z</time>
      </trkpt>
      <trkpt lat="61.569448532536626" lon="-6.872653160244227">
        <ele>187.38</ele>
        <time>2020-07-19T15:15:16Z</time>
      </trkpt>
      <trkpt lat="61.569373682141304" lon="-6.872520307078958">
        <ele>185.53</ele>
        <time>2020-07-19T15:15:27Z</time>
      </trkpt>
      <trkpt lat="61.569294640794396" lon="-6.872373456135392">
        <ele>183.31</ele>
        <time>2020-07-19T15:15:37Z</time>
      </trkpt>
      <trkpt lat="61.569206295534968" lon="-6.87225996516645">
        <ele>181.63</ele>
        <time>2020-07-19T15:15:46Z</time>
      </trkpt>
      <trkpt lat="61.569116776809096" lon="-6.8722521699965">
        <ele>179.62</ele>
        <time>2020-07-19T15:15:58Z</time>
      </trkpt>
      <trkpt lat="61.569041926413774" lon="-6.872171871364117">
        <ele>177.21000000000001</ele>
        <time>2020-07-19T15:16:15Z</time>
      </trkpt>
      <trkpt lat="61.569007476791739" lon="-6.872043292969465">
        <ele>174.28999999999999</ele>
        <time>2020-07-19T15:16:54Z</time>
      </trkpt>
      <trkpt lat="61.568957269191742" lon="-6.871868865564466">
        <ele>171.31</ele>
        <time>2020-07-19T15:17:56Z</time>
      </trkpt>
      <trkpt lat="61.568918125703931" lon="-6.871711118146777">
        <ele>168.00999999999999</ele>
        <time>2020-07-19T15:18:09Z</time>
      </trkpt>
      <trkpt lat="61.568922568112612" lon="-6.87150944955647">
        <ele>165.09</ele>
        <time>2020-07-19T15:18:21Z</time>
      </trkpt>
      <trkpt lat="61.568880155682564" lon="-6.871349774301052">
        <ele>163.58000000000001</ele>
        <time>2020-07-19T15:18:31Z</time>
      </trkpt>
      <trkpt lat="61.568803042173386" lon="-6.871219351887703">
        <ele>161.27000000000001</ele>
        <time>2020-07-19T15:18:41Z</time>
      </trkpt>
      <trkpt lat="61.568737663328648" lon="-6.871080379933119">
        <ele>158.25</ele>
        <time>2020-07-19T15:18:52Z</time>
      </trkpt>
      <trkpt lat="61.568679073825479" lon="-6.870936378836632">
        <ele>155.69999999999999</ele>
        <time>2020-07-19T15:19:04Z</time>
      </trkpt>
      <trkpt lat="61.568606151267886" lon="-6.870809979736805">
        <ele>153.13</ele>
        <time>2020-07-19T15:19:15Z</time>
      </trkpt>
      <trkpt lat="61.568537000566721" lon="-6.870672767981887">
        <ele>150.74000000000001</ele>
        <time>2020-07-19T15:19:26Z</time>
      </trkpt>
      <trkpt lat="61.568469777703285" lon="-6.870537148788571">
        <ele>148.28</ele>
        <time>2020-07-19T15:19:39Z</time>
      </trkpt>
      <trkpt lat="61.568391406908631" lon="-6.870416617020965">
        <ele>145.86000000000001</ele>
        <time>2020-07-19T15:19:50Z</time>
      </trkpt>
      <trkpt lat="61.568316556513309" lon="-6.870290469378233">
        <ele>143.22999999999999</ele>
        <time>2020-07-19T15:20:01Z</time>
      </trkpt>
      <trkpt lat="61.568246399983764" lon="-6.870158454403281">
        <ele>140.63</ele>
        <time>2020-07-19T15:20:12Z</time>
      </trkpt>
      <trkpt lat="61.568165933713317" lon="-6.870094919577241">
        <ele>136.63</ele>
        <time>2020-07-19T15:20:25Z</time>
      </trkpt>
      <trkpt lat="61.568079181015491" lon="-6.870083101093769">
        <ele>134.66</ele>
        <time>2020-07-19T15:20:34Z</time>
      </trkpt>
      <trkpt lat="61.567989075556397" lon="-6.870123501867056">
        <ele>132.33000000000001</ele>
        <time>2020-07-19T15:20:50Z</time>
      </trkpt>
      <trkpt lat="61.567911123856902" lon="-6.870013196021318">
        <ele>127.94</ele>
        <time>2020-07-19T15:21:08Z</time>
      </trkpt>
      <trkpt lat="61.567830489948392" lon="-6.87008117325604">
        <ele>126.73999999999999</ele>
        <time>2020-07-19T15:21:27Z</time>
      </trkpt>
      <trkpt lat="61.567744323983788" lon="-6.87003624625504">
        <ele>123.90000000000001</ele>
        <time>2020-07-19T15:21:40Z</time>
      </trkpt>
      <trkpt lat="61.567656984552741" lon="-6.8700020480901">
        <ele>121.11</ele>
        <time>2020-07-19T15:21:57Z</time>
      </trkpt>
      <trkpt lat="61.567579703405499" lon="-6.869918145239353">
        <ele>119.18000000000001</ele>
        <time>2020-07-19T15:22:06Z</time>
      </trkpt>
      <trkpt lat="61.567499153316021" lon="-6.869820998981595">
        <ele>116.97</ele>
        <time>2020-07-19T15:22:18Z</time>
      </trkpt>
      <trkpt lat="61.567438635975122" lon="-6.869735838845372">
        <ele>113.68000000000001</ele>
        <time>2020-07-19T15:22:34Z</time>
      </trkpt>
      <trkpt lat="61.567355655133724" lon="-6.869670543819666">
        <ele>110.98999999999999</ele>
        <time>2020-07-19T15:22:47Z</time>
      </trkpt>
      <trkpt lat="61.567281307652593" lon="-6.869555460289121">
        <ele>107.7</ele>
        <time>2020-07-19T15:23:04Z</time>
      </trkpt>
      <trkpt lat="61.567201092839241" lon="-6.869463846087456">
        <ele>105.26000000000001</ele>
        <time>2020-07-19T15:23:14Z</time>
      </trkpt>
      <trkpt lat="61.567115010693669" lon="-6.869398802518845">
        <ele>103.09</ele>
        <time>2020-07-19T15:23:25Z</time>
      </trkpt>
      <trkpt lat="61.567031526938081" lon="-6.869286065921187">
        <ele>101.36</ele>
        <time>2020-07-19T15:23:39Z</time>
      </trkpt>
      <trkpt lat="61.566941253840923" lon="-6.869197301566601">
        <ele>99.909999999999997</ele>
        <time>2020-07-19T15:23:50Z</time>
      </trkpt>
      <trkpt lat="61.566875372081995" lon="-6.869242396205664">
        <ele>97.859999999999999</ele>
        <time>2020-07-19T15:24:04Z</time>
      </trkpt>
      <trkpt lat="61.566842431202531" lon="-6.869431743398309">
        <ele>97.090000000000003</ele>
        <time>2020-07-19T15:24:14Z</time>
      </trkpt>
      <trkpt lat="61.566841928288341" lon="-6.86957792378962">
        <ele>98.739999999999995</ele>
        <time>2020-07-19T15:26:04Z</time>
      </trkpt>
      <trkpt lat="61.566765904426575" lon="-6.869432413950563">
        <ele>96.200000000000003</ele>
        <time>2020-07-19T15:26:27Z</time>
      </trkpt>
      <trkpt lat="61.566663477569818" lon="-6.869380613788962">
        <ele>93.879999999999995</ele>
        <time>2020-07-19T15:26:38Z</time>
      </trkpt>
      <trkpt lat="61.566569851711392" lon="-6.869370806962252">
        <ele>91.75</ele>
        <time>2020-07-19T15:26:49Z</time>
      </trkpt>
      <trkpt lat="61.566475136205554" lon="-6.869325712323189">
        <ele>89.480000000000004</ele>
        <time>2020-07-19T15:26:59Z</time>
      </trkpt>
      <trkpt lat="61.566380672156811" lon="-6.869351696223021">
        <ele>87.680000000000007</ele>
        <time>2020-07-19T15:27:09Z</time>
      </trkpt>
      <trkpt lat="61.566284531727433" lon="-6.869408693164587">
        <ele>85.840000000000003</ele>
        <time>2020-07-19T15:27:20Z</time>
      </trkpt>
      <trkpt lat="61.566191744059324" lon="-6.869415482506156">
        <ele>84.459999999999994</ele>
        <time>2020-07-19T15:27:29Z</time>
      </trkpt>
      <trkpt lat="61.566088646650314" lon="-6.869411375373602">
        <ele>82.329999999999998</ele>
        <time>2020-07-19T15:27:40Z</time>
      </trkpt>
      <trkpt lat="61.565996697172523" lon="-6.869421098381281">
        <ele>81.290000000000006</ele>
        <time>2020-07-19T15:27:51Z</time>
      </trkpt>
      <trkpt lat="61.565909273922443" lon="-6.869477508589625">
        <ele>79.379999999999995</ele>
        <time>2020-07-19T15:28:00Z</time>
      </trkpt>
      <trkpt lat="61.565808020532131" lon="-6.869511874392629">
        <ele>77.469999999999999</ele>
        <time>2020-07-19T15:28:11Z</time>
      </trkpt>
      <trkpt lat="61.565707521513104" lon="-6.869523609057069">
        <ele>77.379999999999995</ele>
        <time>2020-07-19T15:28:18Z</time>
      </trkpt>
      <trkpt lat="61.565608531236649" lon="-6.869533080607653">
        <ele>76.810000000000002</ele>
        <time>2020-07-19T15:28:26Z</time>
      </trkpt>
      <trkpt lat="61.565509540960193" lon="-6.869511287659407">
        <ele>75.120000000000005</ele>
        <time>2020-07-19T15:28:35Z</time>
      </trkpt>
      <trkpt lat="61.565417256206274" lon="-6.869461666792631">
        <ele>72.829999999999998</ele>
        <time>2020-07-19T15:28:44Z</time>
      </trkpt>
      <trkpt lat="61.565324384719133" lon="-6.869363347068429">
        <ele>71.079999999999998</ele>
        <time>2020-07-19T15:28:54Z</time>
      </trkpt>
      <trkpt lat="61.565235955640674" lon="-6.869284892454743">
        <ele>69.019999999999996</ele>
        <time>2020-07-19T15:29:05Z</time>
      </trkpt>
      <trkpt lat="61.565128080546856" lon="-6.869268463924527">
        <ele>67.099999999999994</ele>
        <time>2020-07-19T15:29:15Z</time>
      </trkpt>
      <trkpt lat="61.565036550164223" lon="-6.869230410084128">
        <ele>65.5</ele>
        <time>2020-07-19T15:29:25Z</time>
      </trkpt>
      <trkpt lat="61.564943762496114" lon="-6.869212305173278">
        <ele>63.460000000000001</ele>
        <time>2020-07-19T15:29:38Z</time>
      </trkpt>
      <trkpt lat="61.564846700057387" lon="-6.869176849722862">
        <ele>60.740000000000002</ele>
        <time>2020-07-19T15:29:48Z</time>
      </trkpt>
      <trkpt lat="61.56475885771215" lon="-6.869166120886803">
        <ele>59.439999999999998</ele>
        <time>2020-07-19T15:29:57Z</time>
      </trkpt>
      <trkpt lat="61.564666656777263" lon="-6.869180286303163">
        <ele>57.530000000000001</ele>
        <time>2020-07-19T15:30:07Z</time>
      </trkpt>
      <trkpt lat="61.564574372023344" lon="-6.869169808924198">
        <ele>55.969999999999999</ele>
        <time>2020-07-19T15:30:16Z</time>
      </trkpt>
      <trkpt lat="61.564483093097806" lon="-6.86918799765408">
        <ele>53.649999999999999</ele>
        <time>2020-07-19T15:30:30Z</time>
      </trkpt>
      <trkpt lat="61.564419139176607" lon="-6.869045337662101">
        <ele>53.439999999999998</ele>
        <time>2020-07-19T15:30:53Z</time>
      </trkpt>
      <trkpt lat="61.564350239932537" lon="-6.868970822542906">
        <ele>51.920000000000002</ele>
        <time>2020-07-19T15:31:19Z</time>
      </trkpt>
      <trkpt lat="61.564280753955245" lon="-6.86883662827313">
        <ele>51.210000000000001</ele>
        <time>2020-07-19T15:31:30Z</time>
      </trkpt>
      <trkpt lat="61.564266001805663" lon="-6.868651974946261">
        <ele>50.469999999999999</ele>
        <time>2020-07-19T15:31:36Z</time>
      </trkpt>
      <trkpt lat="61.56424630433321" lon="-6.868431447073817">
        <ele>49.659999999999997</ele>
        <time>2020-07-19T15:31:43Z</time>
      </trkpt>
      <trkpt lat="61.564221829175949" lon="-6.868232544511557">
        <ele>49.090000000000003</ele>
        <time>2020-07-19T15:31:50Z</time>
      </trkpt>
      <trkpt lat="61.564204394817352" lon="-6.868022829294205">
        <ele>48.590000000000003</ele>
        <time>2020-07-19T15:31:57Z</time>
      </trkpt>
      <trkpt lat="61.564186792820692" lon="-6.867836080491543">
        <ele>48.030000000000001</ele>
        <time>2020-07-19T15:32:04Z</time>
      </trkpt>
      <trkpt lat="61.564177069813013" lon="-6.867633573710918">
        <ele>47.259999999999998</ele>
        <time>2020-07-19T15:32:11Z</time>
      </trkpt>
      <trkpt lat="61.564174136146903" lon="-6.867432240396738">
        <ele>46.829999999999998</ele>
        <time>2020-07-19T15:32:18Z</time>
      </trkpt>
      <trkpt lat="61.564176483079791" lon="-6.867222860455513">
        <ele>46.469999999999999</ele>
        <time>2020-07-19T15:32:25Z</time>
      </trkpt>
      <trkpt lat="61.564169777557254" lon="-6.867005852982402">
        <ele>45.82</ele>
        <time>2020-07-19T15:32:32Z</time>
      </trkpt>
      <trkpt lat="61.564169861376286" lon="-6.866799322888255">
        <ele>45.380000000000003</ele>
        <time>2020-07-19T15:32:38Z</time>
      </trkpt>
      <trkpt lat="61.564183104783297" lon="-6.866618609055877">
        <ele>44.780000000000001</ele>
        <time>2020-07-19T15:32:44Z</time>
      </trkpt>
      <trkpt lat="61.564196432009339" lon="-6.866423478350043">
        <ele>44.649999999999999</ele>
        <time>2020-07-19T15:32:51Z</time>
      </trkpt>
      <trkpt lat="61.564201712608337" lon="-6.866239663213491">
        <ele>44</ele>
        <time>2020-07-19T15:32:58Z</time>
      </trkpt>
      <trkpt lat="61.564183440059423" lon="-6.866043945774436">
        <ele>43.509999999999998</ele>
        <time>2020-07-19T15:33:06Z</time>
      </trkpt>
      <trkpt lat="61.564131388440728" lon="-6.865872116759419">
        <ele>43.270000000000003</ele>
        <time>2020-07-19T15:33:14Z</time>
      </trkpt>
    </trkseg>
  </trk>

</gpx>